{"dover-19901": {"city": "Dover", "rent": 1540, "zip": "19901"}, "dover-19902": {"city": "Dover", "rent": 1540, "zip": "19902"}, "dover-19903": {"city": "Dover", "rent": 1470, "zip": "19903"}, "dover-19904": {"city": "Dover", "rent": 1400, "zip": "19904"}, "dover-19934": {"city": "Dover", "rent": 1620, "zip": "19934"}, "dover-19936": {"city": "Dover", "rent": 1350, "zip": "19936"}, "dover-19938": {"city": "Dover", "rent": 1850, "zip": "19938"}, "dover-19943": {"city": "Dover", "rent": 1370, "zip": "19943"}, "dover-19946": {"city": "Dover", "rent": 1390, "zip": "19946"}, "dover-19950": {"city": "Dover", "rent": 1470, "zip": "19950"}, "dover-19952": {"city": "Dover", "rent": 1380, "zip": "19952"}, "dover-19953": {"city": "Dover", "rent": 1360, "zip": "19953"}, "dover-19954": {"city": "Dover", "rent": 1410, "zip": "19954"}, "dover-19955": {"city": "Dover", "rent": 1850, "zip": "19955"}, "dover-19961": {"city": "Dover", "rent": 1470, "zip": "19961"}, "dover-19962": {"city": "Dover", "rent": 1400, "zip": "19962"}, "dover-19963": {"city": "Dover", "rent": 1350, "zip": "19963"}, "dover-19964": {"city": "Dover", "rent": 1620, "zip": "19964"}, "dover-19977": {"city": "Dover", "rent": 1630, "zip": "19977"}, "dover-19979": {"city": "Dover", "rent": 1730, "zip": "19979"}, "dover-19980": {"city": "Dover", "rent": 1440, "zip": "19980"}, "sussex-county-19930": {"city": "Sussex County", "rent": 1630, "zip": "19930"}, "sussex-county-19931": {"city": "Sussex County", "rent": 1260, "zip": "19931"}, "sussex-county-19933": {"city": "Sussex County", "rent": 1260, "zip": "19933"}, "sussex-county-19939": {"city": "Sussex County", "rent": 1390, "zip": "19939"}, "sussex-county-19940": {"city": "Sussex County", "rent": 1260, "zip": "19940"}, "sussex-county-19941": {"city": "Sussex County", "rent": 1360, "zip": "19941"}, "sussex-county-19944": {"city": "Sussex County", "rent": 1540, "zip": "19944"}, "sussex-county-19945": {"city": "Sussex County", "rent": 1470, "zip": "19945"}, "sussex-county-19947": {"city": "Sussex County", "rent": 1390, "zip": "19947"}, "sussex-county-19950": {"city": "Sussex County", "rent": 1470, "zip": "19950"}, "sussex-county-19951": {"city": "Sussex County", "rent": 1530, "zip": "19951"}, "sussex-county-19952": {"city": "Sussex County", "rent": 1380, "zip": "19952"}, "sussex-county-19956": {"city": "Sussex County", "rent": 1260, "zip": "19956"}, "sussex-county-19958": {"city": "Sussex County", "rent": 1850, "zip": "19958"}, "sussex-county-19960": {"city": "Sussex County", "rent": 1480, "zip": "19960"}, "sussex-county-19963": {"city": "Sussex County", "rent": 1350, "zip": "19963"}, "sussex-county-19966": {"city": "Sussex County", "rent": 1510, "zip": "19966"}, "sussex-county-19967": {"city": "Sussex County", "rent": 2100, "zip": "19967"}, "sussex-county-19968": {"city": "Sussex County", "rent": 1550, "zip": "19968"}, "sussex-county-19969": {"city": "Sussex County", "rent": 1400, "zip": "19969"}, "sussex-county-19970": {"city": "Sussex County", "rent": 1640, "zip": "19970"}, "sussex-county-19971": {"city": "Sussex County", "rent": 1600, "zip": "19971"}, "sussex-county-19973": {"city": "Sussex County", "rent": 1260, "zip": "19973"}, "sussex-county-19975": {"city": "Sussex County", "rent": 1560, "zip": "19975"}, "sussex-county-21874": {"city": "Sussex County", "rent": 1570, "zip": "21874"}}