{"washington-arlington-alexandria-20001": {"city": "Washington-Arlington-Alexandria", "rent": 3140, "zip": "20001"}, "washington-arlington-alexandria-20002": {"city": "Washington-Arlington-Alexandria", "rent": 2480, "zip": "20002"}, "washington-arlington-alexandria-20003": {"city": "Washington-Arlington-Alexandria", "rent": 3370, "zip": "20003"}, "washington-arlington-alexandria-20004": {"city": "Washington-Arlington-Alexandria", "rent": 3220, "zip": "20004"}, "washington-arlington-alexandria-20005": {"city": "Washington-Arlington-Alexandria", "rent": 2910, "zip": "20005"}, "washington-arlington-alexandria-20006": {"city": "Washington-Arlington-Alexandria", "rent": 2210, "zip": "20006"}, "washington-arlington-alexandria-20007": {"city": "Washington-Arlington-Alexandria", "rent": 2460, "zip": "20007"}, "washington-arlington-alexandria-20008": {"city": "Washington-Arlington-Alexandria", "rent": 3010, "zip": "20008"}, "washington-arlington-alexandria-20009": {"city": "Washington-Arlington-Alexandria", "rent": 3370, "zip": "20009"}, "washington-arlington-alexandria-20010": {"city": "Washington-Arlington-Alexandria", "rent": 2370, "zip": "20010"}, "washington-arlington-alexandria-20011": {"city": "Washington-Arlington-Alexandria", "rent": 2030, "zip": "20011"}, "washington-arlington-alexandria-20012": {"city": "Washington-Arlington-Alexandria", "rent": 1770, "zip": "20012"}, "washington-arlington-alexandria-20013": {"city": "Washington-Arlington-Alexandria", "rent": 2200, "zip": "20013"}, "washington-arlington-alexandria-20015": {"city": "Washington-Arlington-Alexandria", "rent": 2210, "zip": "20015"}, "washington-arlington-alexandria-20016": {"city": "Washington-Arlington-Alexandria", "rent": 2540, "zip": "20016"}, "washington-arlington-alexandria-20017": {"city": "Washington-Arlington-Alexandria", "rent": 2110, "zip": "20017"}, "washington-arlington-alexandria-20018": {"city": "Washington-Arlington-Alexandria", "rent": 1490, "zip": "20018"}, "washington-arlington-alexandria-20019": {"city": "Washington-Arlington-Alexandria", "rent": 1610, "zip": "20019"}, "washington-arlington-alexandria-20020": {"city": "Washington-Arlington-Alexandria", "rent": 1630, "zip": "20020"}, "washington-arlington-alexandria-20024": {"city": "Washington-Arlington-Alexandria", "rent": 2620, "zip": "20024"}, "washington-arlington-alexandria-20026": {"city": "Washington-Arlington-Alexandria", "rent": 2200, "zip": "20026"}, "washington-arlington-alexandria-20027": {"city": "Washington-Arlington-Alexandria", "rent": 2200, "zip": "20027"}, "washington-arlington-alexandria-20029": {"city": "Washington-Arlington-Alexandria", "rent": 2200, "zip": "20029"}, "washington-arlington-alexandria-20030": {"city": "Washington-Arlington-Alexandria", "rent": 2200, "zip": "20030"}, "washington-arlington-alexandria-20032": {"city": "Washington-Arlington-Alexandria", "rent": 1620, "zip": "20032"}, "washington-arlington-alexandria-20033": {"city": "Washington-Arlington-Alexandria", "rent": 2200, "zip": "20033"}, "washington-arlington-alexandria-20035": {"city": "Washington-Arlington-Alexandria", "rent": 2200, "zip": "20035"}, "washington-arlington-alexandria-20036": {"city": "Washington-Arlington-Alexandria", "rent": 2600, "zip": "20036"}, "washington-arlington-alexandria-20037": {"city": "Washington-Arlington-Alexandria", "rent": 3220, "zip": "20037"}, "washington-arlington-alexandria-20038": {"city": "Washington-Arlington-Alexandria", "rent": 2200, "zip": "20038"}, "washington-arlington-alexandria-20039": {"city": "Washington-Arlington-Alexandria", "rent": 2200, "zip": "20039"}, "washington-arlington-alexandria-20040": {"city": "Washington-Arlington-Alexandria", "rent": 2200, "zip": "20040"}, "washington-arlington-alexandria-20041": {"city": "Washington-Arlington-Alexandria", "rent": 2490, "zip": "20041"}, "washington-arlington-alexandria-20043": {"city": "Washington-Arlington-Alexandria", "rent": 2200, "zip": "20043"}, "washington-arlington-alexandria-20044": {"city": "Washington-Arlington-Alexandria", "rent": 2200, "zip": "20044"}, "washington-arlington-alexandria-20045": {"city": "Washington-Arlington-Alexandria", "rent": 2200, "zip": "20045"}, "washington-arlington-alexandria-20052": {"city": "Washington-Arlington-Alexandria", "rent": 2860, "zip": "20052"}, "washington-arlington-alexandria-20056": {"city": "Washington-Arlington-Alexandria", "rent": 2200, "zip": "20056"}, "washington-arlington-alexandria-20057": {"city": "Washington-Arlington-Alexandria", "rent": 2460, "zip": "20057"}, "washington-arlington-alexandria-20059": {"city": "Washington-Arlington-Alexandria", "rent": 3140, "zip": "20059"}, "washington-arlington-alexandria-20064": {"city": "Washington-Arlington-Alexandria", "rent": 2100, "zip": "20064"}, "washington-arlington-alexandria-20066": {"city": "Washington-Arlington-Alexandria", "rent": 2200, "zip": "20066"}, "washington-arlington-alexandria-20071": {"city": "Washington-Arlington-Alexandria", "rent": 2200, "zip": "20071"}, "washington-arlington-alexandria-20076": {"city": "Washington-Arlington-Alexandria", "rent": 2200, "zip": "20076"}, "washington-arlington-alexandria-20090": {"city": "Washington-Arlington-Alexandria", "rent": 2200, "zip": "20090"}, "washington-arlington-alexandria-20091": {"city": "Washington-Arlington-Alexandria", "rent": 2200, "zip": "20091"}, "washington-arlington-alexandria-20101": {"city": "Washington-Arlington-Alexandria", "rent": 2530, "zip": "20101"}, "washington-arlington-alexandria-20103": {"city": "Washington-Arlington-Alexandria", "rent": 2530, "zip": "20103"}, "washington-arlington-alexandria-20105": {"city": "Washington-Arlington-Alexandria", "rent": 3080, "zip": "20105"}, "washington-arlington-alexandria-20106": {"city": "Washington-Arlington-Alexandria", "rent": 1670, "zip": "20106"}, "washington-arlington-alexandria-20108": {"city": "Washington-Arlington-Alexandria", "rent": 2050, "zip": "20108"}, "washington-arlington-alexandria-20109": {"city": "Washington-Arlington-Alexandria", "rent": 2200, "zip": "20109"}, "washington-arlington-alexandria-20110": {"city": "Washington-Arlington-Alexandria", "rent": 2080, "zip": "20110"}, "washington-arlington-alexandria-20111": {"city": "Washington-Arlington-Alexandria", "rent": 2220, "zip": "20111"}, "washington-arlington-alexandria-20112": {"city": "Washington-Arlington-Alexandria", "rent": 2640, "zip": "20112"}, "washington-arlington-alexandria-20113": {"city": "Washington-Arlington-Alexandria", "rent": 2400, "zip": "20113"}, "washington-arlington-alexandria-20115": {"city": "Washington-Arlington-Alexandria", "rent": 2000, "zip": "20115"}, "washington-arlington-alexandria-20117": {"city": "Washington-Arlington-Alexandria", "rent": 1590, "zip": "20117"}, "washington-arlington-alexandria-20119": {"city": "Washington-Arlington-Alexandria", "rent": 1900, "zip": "20119"}, "washington-arlington-alexandria-20120": {"city": "Washington-Arlington-Alexandria", "rent": 2440, "zip": "20120"}, "washington-arlington-alexandria-20121": {"city": "Washington-Arlington-Alexandria", "rent": 2450, "zip": "20121"}, "washington-arlington-alexandria-20122": {"city": "Washington-Arlington-Alexandria", "rent": 2490, "zip": "20122"}, "washington-arlington-alexandria-20124": {"city": "Washington-Arlington-Alexandria", "rent": 2490, "zip": "20124"}, "washington-arlington-alexandria-20129": {"city": "Washington-Arlington-Alexandria", "rent": 2530, "zip": "20129"}, "washington-arlington-alexandria-20130": {"city": "Washington-Arlington-Alexandria", "rent": 1890, "zip": "20130"}, "washington-arlington-alexandria-20132": {"city": "Washington-Arlington-Alexandria", "rent": 2320, "zip": "20132"}, "washington-arlington-alexandria-20135": {"city": "Washington-Arlington-Alexandria", "rent": 1510, "zip": "20135"}, "washington-arlington-alexandria-20136": {"city": "Washington-Arlington-Alexandria", "rent": 3160, "zip": "20136"}, "washington-arlington-alexandria-20137": {"city": "Washington-Arlington-Alexandria", "rent": 2670, "zip": "20137"}, "washington-arlington-alexandria-20139": {"city": "Washington-Arlington-Alexandria", "rent": 1750, "zip": "20139"}, "washington-arlington-alexandria-20141": {"city": "Washington-Arlington-Alexandria", "rent": 1480, "zip": "20141"}, "washington-arlington-alexandria-20143": {"city": "Washington-Arlington-Alexandria", "rent": 2910, "zip": "20143"}, "washington-arlington-alexandria-20144": {"city": "Washington-Arlington-Alexandria", "rent": 1760, "zip": "20144"}, "washington-arlington-alexandria-20146": {"city": "Washington-Arlington-Alexandria", "rent": 2530, "zip": "20146"}, "washington-arlington-alexandria-20147": {"city": "Washington-Arlington-Alexandria", "rent": 2520, "zip": "20147"}, "washington-arlington-alexandria-20148": {"city": "Washington-Arlington-Alexandria", "rent": 2900, "zip": "20148"}, "washington-arlington-alexandria-20151": {"city": "Washington-Arlington-Alexandria", "rent": 2420, "zip": "20151"}, "washington-arlington-alexandria-20152": {"city": "Washington-Arlington-Alexandria", "rent": 3080, "zip": "20152"}, "washington-arlington-alexandria-20153": {"city": "Washington-Arlington-Alexandria", "rent": 2490, "zip": "20153"}, "washington-arlington-alexandria-20155": {"city": "Washington-Arlington-Alexandria", "rent": 3000, "zip": "20155"}, "washington-arlington-alexandria-20156": {"city": "Washington-Arlington-Alexandria", "rent": 2230, "zip": "20156"}, "washington-arlington-alexandria-20158": {"city": "Washington-Arlington-Alexandria", "rent": 2300, "zip": "20158"}, "washington-arlington-alexandria-20159": {"city": "Washington-Arlington-Alexandria", "rent": 2530, "zip": "20159"}, "washington-arlington-alexandria-20160": {"city": "Washington-Arlington-Alexandria", "rent": 2530, "zip": "20160"}, "washington-arlington-alexandria-20164": {"city": "Washington-Arlington-Alexandria", "rent": 2430, "zip": "20164"}, "washington-arlington-alexandria-20165": {"city": "Washington-Arlington-Alexandria", "rent": 2620, "zip": "20165"}, "washington-arlington-alexandria-20166": {"city": "Washington-Arlington-Alexandria", "rent": 2520, "zip": "20166"}, "washington-arlington-alexandria-20167": {"city": "Washington-Arlington-Alexandria", "rent": 2530, "zip": "20167"}, "washington-arlington-alexandria-20168": {"city": "Washington-Arlington-Alexandria", "rent": 2230, "zip": "20168"}, "washington-arlington-alexandria-20169": {"city": "Washington-Arlington-Alexandria", "rent": 3110, "zip": "20169"}, "washington-arlington-alexandria-20170": {"city": "Washington-Arlington-Alexandria", "rent": 2460, "zip": "20170"}, "washington-arlington-alexandria-20171": {"city": "Washington-Arlington-Alexandria", "rent": 2660, "zip": "20171"}, "washington-arlington-alexandria-20172": {"city": "Washington-Arlington-Alexandria", "rent": 2490, "zip": "20172"}, "washington-arlington-alexandria-20175": {"city": "Washington-Arlington-Alexandria", "rent": 2260, "zip": "20175"}, "washington-arlington-alexandria-20176": {"city": "Washington-Arlington-Alexandria", "rent": 2280, "zip": "20176"}, "washington-arlington-alexandria-20177": {"city": "Washington-Arlington-Alexandria", "rent": 2530, "zip": "20177"}, "washington-arlington-alexandria-20178": {"city": "Washington-Arlington-Alexandria", "rent": 2530, "zip": "20178"}, "washington-arlington-alexandria-20180": {"city": "Washington-Arlington-Alexandria", "rent": 2320, "zip": "20180"}, "washington-arlington-alexandria-20181": {"city": "Washington-Arlington-Alexandria", "rent": 1670, "zip": "20181"}, "washington-arlington-alexandria-20182": {"city": "Washington-Arlington-Alexandria", "rent": 2230, "zip": "20182"}, "washington-arlington-alexandria-20184": {"city": "Washington-Arlington-Alexandria", "rent": 1700, "zip": "20184"}, "washington-arlington-alexandria-20186": {"city": "Washington-Arlington-Alexandria", "rent": 1740, "zip": "20186"}, "washington-arlington-alexandria-20187": {"city": "Washington-Arlington-Alexandria", "rent": 2340, "zip": "20187"}, "washington-arlington-alexandria-20188": {"city": "Washington-Arlington-Alexandria", "rent": 1750, "zip": "20188"}, "washington-arlington-alexandria-20189": {"city": "Washington-Arlington-Alexandria", "rent": 2530, "zip": "20189"}, "washington-arlington-alexandria-20190": {"city": "Washington-Arlington-Alexandria", "rent": 2510, "zip": "20190"}, "washington-arlington-alexandria-20191": {"city": "Washington-Arlington-Alexandria", "rent": 2310, "zip": "20191"}, "washington-arlington-alexandria-20194": {"city": "Washington-Arlington-Alexandria", "rent": 2600, "zip": "20194"}, "washington-arlington-alexandria-20195": {"city": "Washington-Arlington-Alexandria", "rent": 2490, "zip": "20195"}, "washington-arlington-alexandria-20197": {"city": "Washington-Arlington-Alexandria", "rent": 2300, "zip": "20197"}, "washington-arlington-alexandria-20198": {"city": "Washington-Arlington-Alexandria", "rent": 2110, "zip": "20198"}, "washington-arlington-alexandria-20202": {"city": "Washington-Arlington-Alexandria", "rent": 2200, "zip": "20202"}, "washington-arlington-alexandria-20204": {"city": "Washington-Arlington-Alexandria", "rent": 2200, "zip": "20204"}, "washington-arlington-alexandria-20219": {"city": "Washington-Arlington-Alexandria", "rent": 2200, "zip": "20219"}, "washington-arlington-alexandria-20220": {"city": "Washington-Arlington-Alexandria", "rent": 2200, "zip": "20220"}, "washington-arlington-alexandria-20229": {"city": "Washington-Arlington-Alexandria", "rent": 2200, "zip": "20229"}, "washington-arlington-alexandria-20230": {"city": "Washington-Arlington-Alexandria", "rent": 2200, "zip": "20230"}, "washington-arlington-alexandria-20233": {"city": "Washington-Arlington-Alexandria", "rent": 1990, "zip": "20233"}, "washington-arlington-alexandria-20239": {"city": "Washington-Arlington-Alexandria", "rent": 2200, "zip": "20239"}, "washington-arlington-alexandria-20240": {"city": "Washington-Arlington-Alexandria", "rent": 2200, "zip": "20240"}, "washington-arlington-alexandria-20245": {"city": "Washington-Arlington-Alexandria", "rent": 2200, "zip": "20245"}, "washington-arlington-alexandria-20250": {"city": "Washington-Arlington-Alexandria", "rent": 2200, "zip": "20250"}, "washington-arlington-alexandria-20260": {"city": "Washington-Arlington-Alexandria", "rent": 2200, "zip": "20260"}, "washington-arlington-alexandria-20268": {"city": "Washington-Arlington-Alexandria", "rent": 2200, "zip": "20268"}, "washington-arlington-alexandria-20301": {"city": "Washington-Arlington-Alexandria", "rent": 2590, "zip": "20301"}, "washington-arlington-alexandria-20317": {"city": "Washington-Arlington-Alexandria", "rent": 2200, "zip": "20317"}, "washington-arlington-alexandria-20318": {"city": "Washington-Arlington-Alexandria", "rent": 2200, "zip": "20318"}, "washington-arlington-alexandria-20319": {"city": "Washington-Arlington-Alexandria", "rent": 2620, "zip": "20319"}, "washington-arlington-alexandria-20330": {"city": "Washington-Arlington-Alexandria", "rent": 2590, "zip": "20330"}, "washington-arlington-alexandria-20372": {"city": "Washington-Arlington-Alexandria", "rent": 2200, "zip": "20372"}, "washington-arlington-alexandria-20373": {"city": "Washington-Arlington-Alexandria", "rent": 1940, "zip": "20373"}, "washington-arlington-alexandria-20374": {"city": "Washington-Arlington-Alexandria", "rent": 2200, "zip": "20374"}, "washington-arlington-alexandria-20376": {"city": "Washington-Arlington-Alexandria", "rent": 2200, "zip": "20376"}, "washington-arlington-alexandria-20388": {"city": "Washington-Arlington-Alexandria", "rent": 2200, "zip": "20388"}, "washington-arlington-alexandria-20390": {"city": "Washington-Arlington-Alexandria", "rent": 3370, "zip": "20390"}, "washington-arlington-alexandria-20391": {"city": "Washington-Arlington-Alexandria", "rent": 2200, "zip": "20391"}, "washington-arlington-alexandria-20398": {"city": "Washington-Arlington-Alexandria", "rent": 2200, "zip": "20398"}, "washington-arlington-alexandria-20408": {"city": "Washington-Arlington-Alexandria", "rent": 2200, "zip": "20408"}, "washington-arlington-alexandria-20415": {"city": "Washington-Arlington-Alexandria", "rent": 2200, "zip": "20415"}, "washington-arlington-alexandria-20418": {"city": "Washington-Arlington-Alexandria", "rent": 2200, "zip": "20418"}, "washington-arlington-alexandria-20422": {"city": "Washington-Arlington-Alexandria", "rent": 2590, "zip": "20422"}, "washington-arlington-alexandria-20424": {"city": "Washington-Arlington-Alexandria", "rent": 2200, "zip": "20424"}, "washington-arlington-alexandria-20427": {"city": "Washington-Arlington-Alexandria", "rent": 2200, "zip": "20427"}, "washington-arlington-alexandria-20431": {"city": "Washington-Arlington-Alexandria", "rent": 2200, "zip": "20431"}, "washington-arlington-alexandria-20460": {"city": "Washington-Arlington-Alexandria", "rent": 2200, "zip": "20460"}, "washington-arlington-alexandria-20472": {"city": "Washington-Arlington-Alexandria", "rent": 2200, "zip": "20472"}, "washington-arlington-alexandria-20500": {"city": "Washington-Arlington-Alexandria", "rent": 2200, "zip": "20500"}, "washington-arlington-alexandria-20503": {"city": "Washington-Arlington-Alexandria", "rent": 2200, "zip": "20503"}, "washington-arlington-alexandria-20510": {"city": "Washington-Arlington-Alexandria", "rent": 2200, "zip": "20510"}, "washington-arlington-alexandria-20515": {"city": "Washington-Arlington-Alexandria", "rent": 2200, "zip": "20515"}, "washington-arlington-alexandria-20520": {"city": "Washington-Arlington-Alexandria", "rent": 2200, "zip": "20520"}, "washington-arlington-alexandria-20522": {"city": "Washington-Arlington-Alexandria", "rent": 2200, "zip": "20522"}, "washington-arlington-alexandria-20528": {"city": "Washington-Arlington-Alexandria", "rent": 2200, "zip": "20528"}, "washington-arlington-alexandria-20529": {"city": "Washington-Arlington-Alexandria", "rent": 2200, "zip": "20529"}, "washington-arlington-alexandria-20530": {"city": "Washington-Arlington-Alexandria", "rent": 2200, "zip": "20530"}, "washington-arlington-alexandria-20535": {"city": "Washington-Arlington-Alexandria", "rent": 2200, "zip": "20535"}, "washington-arlington-alexandria-20536": {"city": "Washington-Arlington-Alexandria", "rent": 2200, "zip": "20536"}, "washington-arlington-alexandria-20540": {"city": "Washington-Arlington-Alexandria", "rent": 2200, "zip": "20540"}, "washington-arlington-alexandria-20541": {"city": "Washington-Arlington-Alexandria", "rent": 2200, "zip": "20541"}, "washington-arlington-alexandria-20542": {"city": "Washington-Arlington-Alexandria", "rent": 2200, "zip": "20542"}, "washington-arlington-alexandria-20544": {"city": "Washington-Arlington-Alexandria", "rent": 2200, "zip": "20544"}, "washington-arlington-alexandria-20549": {"city": "Washington-Arlington-Alexandria", "rent": 2200, "zip": "20549"}, "washington-arlington-alexandria-20551": {"city": "Washington-Arlington-Alexandria", "rent": 2200, "zip": "20551"}, "washington-arlington-alexandria-20557": {"city": "Washington-Arlington-Alexandria", "rent": 2200, "zip": "20557"}, "washington-arlington-alexandria-20559": {"city": "Washington-Arlington-Alexandria", "rent": 2200, "zip": "20559"}, "washington-arlington-alexandria-20560": {"city": "Washington-Arlington-Alexandria", "rent": 2200, "zip": "20560"}, "washington-arlington-alexandria-20565": {"city": "Washington-Arlington-Alexandria", "rent": 2200, "zip": "20565"}, "washington-arlington-alexandria-20566": {"city": "Washington-Arlington-Alexandria", "rent": 2200, "zip": "20566"}, "washington-arlington-alexandria-20579": {"city": "Washington-Arlington-Alexandria", "rent": 2200, "zip": "20579"}, "washington-arlington-alexandria-20588": {"city": "Washington-Arlington-Alexandria", "rent": 1990, "zip": "20588"}, "washington-arlington-alexandria-20591": {"city": "Washington-Arlington-Alexandria", "rent": 2200, "zip": "20591"}, "washington-arlington-alexandria-20593": {"city": "Washington-Arlington-Alexandria", "rent": 2200, "zip": "20593"}, "washington-arlington-alexandria-20598": {"city": "Washington-Arlington-Alexandria", "rent": 2450, "zip": "20598"}, "washington-arlington-alexandria-20601": {"city": "Washington-Arlington-Alexandria", "rent": 2330, "zip": "20601"}, "washington-arlington-alexandria-20602": {"city": "Washington-Arlington-Alexandria", "rent": 2090, "zip": "20602"}, "washington-arlington-alexandria-20603": {"city": "Washington-Arlington-Alexandria", "rent": 2300, "zip": "20603"}, "washington-arlington-alexandria-20604": {"city": "Washington-Arlington-Alexandria", "rent": 2190, "zip": "20604"}, "washington-arlington-alexandria-20607": {"city": "Washington-Arlington-Alexandria", "rent": 2400, "zip": "20607"}, "washington-arlington-alexandria-20608": {"city": "Washington-Arlington-Alexandria", "rent": 2420, "zip": "20608"}, "washington-arlington-alexandria-20611": {"city": "Washington-Arlington-Alexandria", "rent": 2190, "zip": "20611"}, "washington-arlington-alexandria-20612": {"city": "Washington-Arlington-Alexandria", "rent": 2680, "zip": "20612"}, "washington-arlington-alexandria-20613": {"city": "Washington-Arlington-Alexandria", "rent": 2470, "zip": "20613"}, "washington-arlington-alexandria-20616": {"city": "Washington-Arlington-Alexandria", "rent": 2520, "zip": "20616"}, "washington-arlington-alexandria-20617": {"city": "Washington-Arlington-Alexandria", "rent": 2700, "zip": "20617"}, "washington-arlington-alexandria-20622": {"city": "Washington-Arlington-Alexandria", "rent": 1790, "zip": "20622"}, "washington-arlington-alexandria-20623": {"city": "Washington-Arlington-Alexandria", "rent": 2400, "zip": "20623"}, "washington-arlington-alexandria-20625": {"city": "Washington-Arlington-Alexandria", "rent": 2130, "zip": "20625"}, "washington-arlington-alexandria-20632": {"city": "Washington-Arlington-Alexandria", "rent": 2160, "zip": "20632"}, "washington-arlington-alexandria-20637": {"city": "Washington-Arlington-Alexandria", "rent": 3190, "zip": "20637"}, "washington-arlington-alexandria-20640": {"city": "Washington-Arlington-Alexandria", "rent": 2070, "zip": "20640"}, "washington-arlington-alexandria-20645": {"city": "Washington-Arlington-Alexandria", "rent": 2390, "zip": "20645"}, "washington-arlington-alexandria-20646": {"city": "Washington-Arlington-Alexandria", "rent": 1860, "zip": "20646"}, "washington-arlington-alexandria-20658": {"city": "Washington-Arlington-Alexandria", "rent": 2070, "zip": "20658"}, "washington-arlington-alexandria-20659": {"city": "Washington-Arlington-Alexandria", "rent": 1890, "zip": "20659"}, "washington-arlington-alexandria-20661": {"city": "Washington-Arlington-Alexandria", "rent": 2190, "zip": "20661"}, "washington-arlington-alexandria-20662": {"city": "Washington-Arlington-Alexandria", "rent": 2020, "zip": "20662"}, "washington-arlington-alexandria-20664": {"city": "Washington-Arlington-Alexandria", "rent": 2390, "zip": "20664"}, "washington-arlington-alexandria-20675": {"city": "Washington-Arlington-Alexandria", "rent": 2110, "zip": "20675"}, "washington-arlington-alexandria-20677": {"city": "Washington-Arlington-Alexandria", "rent": 2190, "zip": "20677"}, "washington-arlington-alexandria-20693": {"city": "Washington-Arlington-Alexandria", "rent": 2190, "zip": "20693"}, "washington-arlington-alexandria-20695": {"city": "Washington-Arlington-Alexandria", "rent": 2330, "zip": "20695"}, "washington-arlington-alexandria-20703": {"city": "Washington-Arlington-Alexandria", "rent": 1990, "zip": "20703"}, "washington-arlington-alexandria-20704": {"city": "Washington-Arlington-Alexandria", "rent": 1990, "zip": "20704"}, "washington-arlington-alexandria-20705": {"city": "Washington-Arlington-Alexandria", "rent": 2020, "zip": "20705"}, "washington-arlington-alexandria-20706": {"city": "Washington-Arlington-Alexandria", "rent": 2060, "zip": "20706"}, "washington-arlington-alexandria-20707": {"city": "Washington-Arlington-Alexandria", "rent": 2260, "zip": "20707"}, "washington-arlington-alexandria-20708": {"city": "Washington-Arlington-Alexandria", "rent": 2150, "zip": "20708"}, "washington-arlington-alexandria-20709": {"city": "Washington-Arlington-Alexandria", "rent": 1990, "zip": "20709"}, "washington-arlington-alexandria-20710": {"city": "Washington-Arlington-Alexandria", "rent": 1860, "zip": "20710"}, "washington-arlington-alexandria-20712": {"city": "Washington-Arlington-Alexandria", "rent": 1640, "zip": "20712"}, "washington-arlington-alexandria-20715": {"city": "Washington-Arlington-Alexandria", "rent": 2770, "zip": "20715"}, "washington-arlington-alexandria-20716": {"city": "Washington-Arlington-Alexandria", "rent": 2360, "zip": "20716"}, "washington-arlington-alexandria-20717": {"city": "Washington-Arlington-Alexandria", "rent": 1990, "zip": "20717"}, "washington-arlington-alexandria-20718": {"city": "Washington-Arlington-Alexandria", "rent": 1990, "zip": "20718"}, "washington-arlington-alexandria-20720": {"city": "Washington-Arlington-Alexandria", "rent": 3270, "zip": "20720"}, "washington-arlington-alexandria-20721": {"city": "Washington-Arlington-Alexandria", "rent": 2870, "zip": "20721"}, "washington-arlington-alexandria-20722": {"city": "Washington-Arlington-Alexandria", "rent": 2070, "zip": "20722"}, "washington-arlington-alexandria-20725": {"city": "Washington-Arlington-Alexandria", "rent": 1990, "zip": "20725"}, "washington-arlington-alexandria-20726": {"city": "Washington-Arlington-Alexandria", "rent": 1990, "zip": "20726"}, "washington-arlington-alexandria-20731": {"city": "Washington-Arlington-Alexandria", "rent": 1990, "zip": "20731"}, "washington-arlington-alexandria-20735": {"city": "Washington-Arlington-Alexandria", "rent": 2500, "zip": "20735"}, "washington-arlington-alexandria-20737": {"city": "Washington-Arlington-Alexandria", "rent": 1810, "zip": "20737"}, "washington-arlington-alexandria-20738": {"city": "Washington-Arlington-Alexandria", "rent": 1990, "zip": "20738"}, "washington-arlington-alexandria-20740": {"city": "Washington-Arlington-Alexandria", "rent": 2400, "zip": "20740"}, "washington-arlington-alexandria-20741": {"city": "Washington-Arlington-Alexandria", "rent": 1990, "zip": "20741"}, "washington-arlington-alexandria-20742": {"city": "Washington-Arlington-Alexandria", "rent": 2400, "zip": "20742"}, "washington-arlington-alexandria-20743": {"city": "Washington-Arlington-Alexandria", "rent": 1840, "zip": "20743"}, "washington-arlington-alexandria-20744": {"city": "Washington-Arlington-Alexandria", "rent": 2010, "zip": "20744"}, "washington-arlington-alexandria-20745": {"city": "Washington-Arlington-Alexandria", "rent": 1760, "zip": "20745"}, "washington-arlington-alexandria-20746": {"city": "Washington-Arlington-Alexandria", "rent": 2070, "zip": "20746"}, "washington-arlington-alexandria-20747": {"city": "Washington-Arlington-Alexandria", "rent": 1930, "zip": "20747"}, "washington-arlington-alexandria-20748": {"city": "Washington-Arlington-Alexandria", "rent": 1870, "zip": "20748"}, "washington-arlington-alexandria-20749": {"city": "Washington-Arlington-Alexandria", "rent": 1990, "zip": "20749"}, "washington-arlington-alexandria-20750": {"city": "Washington-Arlington-Alexandria", "rent": 1990, "zip": "20750"}, "washington-arlington-alexandria-20752": {"city": "Washington-Arlington-Alexandria", "rent": 1990, "zip": "20752"}, "washington-arlington-alexandria-20753": {"city": "Washington-Arlington-Alexandria", "rent": 1990, "zip": "20753"}, "washington-arlington-alexandria-20757": {"city": "Washington-Arlington-Alexandria", "rent": 1990, "zip": "20757"}, "washington-arlington-alexandria-20762": {"city": "Washington-Arlington-Alexandria", "rent": 3070, "zip": "20762"}, "washington-arlington-alexandria-20768": {"city": "Washington-Arlington-Alexandria", "rent": 1990, "zip": "20768"}, "washington-arlington-alexandria-20769": {"city": "Washington-Arlington-Alexandria", "rent": 3180, "zip": "20769"}, "washington-arlington-alexandria-20770": {"city": "Washington-Arlington-Alexandria", "rent": 2200, "zip": "20770"}, "washington-arlington-alexandria-20771": {"city": "Washington-Arlington-Alexandria", "rent": 1990, "zip": "20771"}, "washington-arlington-alexandria-20772": {"city": "Washington-Arlington-Alexandria", "rent": 2300, "zip": "20772"}, "washington-arlington-alexandria-20773": {"city": "Washington-Arlington-Alexandria", "rent": 1990, "zip": "20773"}, "washington-arlington-alexandria-20774": {"city": "Washington-Arlington-Alexandria", "rent": 2450, "zip": "20774"}, "washington-arlington-alexandria-20775": {"city": "Washington-Arlington-Alexandria", "rent": 1990, "zip": "20775"}, "washington-arlington-alexandria-20777": {"city": "Washington-Arlington-Alexandria", "rent": 2720, "zip": "20777"}, "washington-arlington-alexandria-20781": {"city": "Washington-Arlington-Alexandria", "rent": 1920, "zip": "20781"}, "washington-arlington-alexandria-20782": {"city": "Washington-Arlington-Alexandria", "rent": 2140, "zip": "20782"}, "washington-arlington-alexandria-20783": {"city": "Washington-Arlington-Alexandria", "rent": 2060, "zip": "20783"}, "washington-arlington-alexandria-20784": {"city": "Washington-Arlington-Alexandria", "rent": 1990, "zip": "20784"}, "washington-arlington-alexandria-20785": {"city": "Washington-Arlington-Alexandria", "rent": 2010, "zip": "20785"}, "washington-arlington-alexandria-20787": {"city": "Washington-Arlington-Alexandria", "rent": 2280, "zip": "20787"}, "washington-arlington-alexandria-20790": {"city": "Washington-Arlington-Alexandria", "rent": 1990, "zip": "20790"}, "washington-arlington-alexandria-20791": {"city": "Washington-Arlington-Alexandria", "rent": 1990, "zip": "20791"}, "washington-arlington-alexandria-20792": {"city": "Washington-Arlington-Alexandria", "rent": 1990, "zip": "20792"}, "washington-arlington-alexandria-20799": {"city": "Washington-Arlington-Alexandria", "rent": 1990, "zip": "20799"}, "washington-arlington-alexandria-20812": {"city": "Washington-Arlington-Alexandria", "rent": 3080, "zip": "20812"}, "washington-arlington-alexandria-20814": {"city": "Washington-Arlington-Alexandria", "rent": 2720, "zip": "20814"}, "washington-arlington-alexandria-20815": {"city": "Washington-Arlington-Alexandria", "rent": 2680, "zip": "20815"}, "washington-arlington-alexandria-20816": {"city": "Washington-Arlington-Alexandria", "rent": 3010, "zip": "20816"}, "washington-arlington-alexandria-20817": {"city": "Washington-Arlington-Alexandria", "rent": 3370, "zip": "20817"}, "washington-arlington-alexandria-20818": {"city": "Washington-Arlington-Alexandria", "rent": 3370, "zip": "20818"}, "washington-arlington-alexandria-20824": {"city": "Washington-Arlington-Alexandria", "rent": 2280, "zip": "20824"}, "washington-arlington-alexandria-20825": {"city": "Washington-Arlington-Alexandria", "rent": 2280, "zip": "20825"}, "washington-arlington-alexandria-20827": {"city": "Washington-Arlington-Alexandria", "rent": 2280, "zip": "20827"}, "washington-arlington-alexandria-20830": {"city": "Washington-Arlington-Alexandria", "rent": 2280, "zip": "20830"}, "washington-arlington-alexandria-20832": {"city": "Washington-Arlington-Alexandria", "rent": 2710, "zip": "20832"}, "washington-arlington-alexandria-20833": {"city": "Washington-Arlington-Alexandria", "rent": 2530, "zip": "20833"}, "washington-arlington-alexandria-20837": {"city": "Washington-Arlington-Alexandria", "rent": 2270, "zip": "20837"}, "washington-arlington-alexandria-20838": {"city": "Washington-Arlington-Alexandria", "rent": 1920, "zip": "20838"}, "washington-arlington-alexandria-20839": {"city": "Washington-Arlington-Alexandria", "rent": 1830, "zip": "20839"}, "washington-arlington-alexandria-20841": {"city": "Washington-Arlington-Alexandria", "rent": 3100, "zip": "20841"}, "washington-arlington-alexandria-20842": {"city": "Washington-Arlington-Alexandria", "rent": 1690, "zip": "20842"}, "washington-arlington-alexandria-20847": {"city": "Washington-Arlington-Alexandria", "rent": 2280, "zip": "20847"}, "washington-arlington-alexandria-20848": {"city": "Washington-Arlington-Alexandria", "rent": 2280, "zip": "20848"}, "washington-arlington-alexandria-20849": {"city": "Washington-Arlington-Alexandria", "rent": 2280, "zip": "20849"}, "washington-arlington-alexandria-20850": {"city": "Washington-Arlington-Alexandria", "rent": 2740, "zip": "20850"}, "washington-arlington-alexandria-20851": {"city": "Washington-Arlington-Alexandria", "rent": 2200, "zip": "20851"}, "washington-arlington-alexandria-20852": {"city": "Washington-Arlington-Alexandria", "rent": 2840, "zip": "20852"}, "washington-arlington-alexandria-20853": {"city": "Washington-Arlington-Alexandria", "rent": 2270, "zip": "20853"}, "washington-arlington-alexandria-20854": {"city": "Washington-Arlington-Alexandria", "rent": 3370, "zip": "20854"}, "washington-arlington-alexandria-20855": {"city": "Washington-Arlington-Alexandria", "rent": 2700, "zip": "20855"}, "washington-arlington-alexandria-20857": {"city": "Washington-Arlington-Alexandria", "rent": 2280, "zip": "20857"}, "washington-arlington-alexandria-20859": {"city": "Washington-Arlington-Alexandria", "rent": 2280, "zip": "20859"}, "washington-arlington-alexandria-20860": {"city": "Washington-Arlington-Alexandria", "rent": 2240, "zip": "20860"}, "washington-arlington-alexandria-20861": {"city": "Washington-Arlington-Alexandria", "rent": 2130, "zip": "20861"}, "washington-arlington-alexandria-20862": {"city": "Washington-Arlington-Alexandria", "rent": 2480, "zip": "20862"}, "washington-arlington-alexandria-20866": {"city": "Washington-Arlington-Alexandria", "rent": 2460, "zip": "20866"}, "washington-arlington-alexandria-20868": {"city": "Washington-Arlington-Alexandria", "rent": 2270, "zip": "20868"}, "washington-arlington-alexandria-20871": {"city": "Washington-Arlington-Alexandria", "rent": 2610, "zip": "20871"}, "washington-arlington-alexandria-20872": {"city": "Washington-Arlington-Alexandria", "rent": 1940, "zip": "20872"}, "washington-arlington-alexandria-20874": {"city": "Washington-Arlington-Alexandria", "rent": 2220, "zip": "20874"}, "washington-arlington-alexandria-20875": {"city": "Washington-Arlington-Alexandria", "rent": 2280, "zip": "20875"}, "washington-arlington-alexandria-20876": {"city": "Washington-Arlington-Alexandria", "rent": 2390, "zip": "20876"}, "washington-arlington-alexandria-20877": {"city": "Washington-Arlington-Alexandria", "rent": 2200, "zip": "20877"}, "washington-arlington-alexandria-20878": {"city": "Washington-Arlington-Alexandria", "rent": 2410, "zip": "20878"}, "washington-arlington-alexandria-20879": {"city": "Washington-Arlington-Alexandria", "rent": 2160, "zip": "20879"}, "washington-arlington-alexandria-20880": {"city": "Washington-Arlington-Alexandria", "rent": 2330, "zip": "20880"}, "washington-arlington-alexandria-20882": {"city": "Washington-Arlington-Alexandria", "rent": 2220, "zip": "20882"}, "washington-arlington-alexandria-20883": {"city": "Washington-Arlington-Alexandria", "rent": 2280, "zip": "20883"}, "washington-arlington-alexandria-20884": {"city": "Washington-Arlington-Alexandria", "rent": 2280, "zip": "20884"}, "washington-arlington-alexandria-20885": {"city": "Washington-Arlington-Alexandria", "rent": 2280, "zip": "20885"}, "washington-arlington-alexandria-20886": {"city": "Washington-Arlington-Alexandria", "rent": 2080, "zip": "20886"}, "washington-arlington-alexandria-20889": {"city": "Washington-Arlington-Alexandria", "rent": 2710, "zip": "20889"}, "washington-arlington-alexandria-20891": {"city": "Washington-Arlington-Alexandria", "rent": 2280, "zip": "20891"}, "washington-arlington-alexandria-20892": {"city": "Washington-Arlington-Alexandria", "rent": 2280, "zip": "20892"}, "washington-arlington-alexandria-20894": {"city": "Washington-Arlington-Alexandria", "rent": 2280, "zip": "20894"}, "washington-arlington-alexandria-20895": {"city": "Washington-Arlington-Alexandria", "rent": 2350, "zip": "20895"}, "washington-arlington-alexandria-20896": {"city": "Washington-Arlington-Alexandria", "rent": 3080, "zip": "20896"}, "washington-arlington-alexandria-20898": {"city": "Washington-Arlington-Alexandria", "rent": 2280, "zip": "20898"}, "washington-arlington-alexandria-20899": {"city": "Washington-Arlington-Alexandria", "rent": 1130, "zip": "20899"}, "washington-arlington-alexandria-20901": {"city": "Washington-Arlington-Alexandria", "rent": 2020, "zip": "20901"}, "washington-arlington-alexandria-20902": {"city": "Washington-Arlington-Alexandria", "rent": 2390, "zip": "20902"}, "washington-arlington-alexandria-20903": {"city": "Washington-Arlington-Alexandria", "rent": 2140, "zip": "20903"}, "washington-arlington-alexandria-20904": {"city": "Washington-Arlington-Alexandria", "rent": 2160, "zip": "20904"}, "washington-arlington-alexandria-20905": {"city": "Washington-Arlington-Alexandria", "rent": 2200, "zip": "20905"}, "washington-arlington-alexandria-20906": {"city": "Washington-Arlington-Alexandria", "rent": 2190, "zip": "20906"}, "washington-arlington-alexandria-20907": {"city": "Washington-Arlington-Alexandria", "rent": 2280, "zip": "20907"}, "washington-arlington-alexandria-20910": {"city": "Washington-Arlington-Alexandria", "rent": 2580, "zip": "20910"}, "washington-arlington-alexandria-20911": {"city": "Washington-Arlington-Alexandria", "rent": 2280, "zip": "20911"}, "washington-arlington-alexandria-20912": {"city": "Washington-Arlington-Alexandria", "rent": 1900, "zip": "20912"}, "washington-arlington-alexandria-20913": {"city": "Washington-Arlington-Alexandria", "rent": 2280, "zip": "20913"}, "washington-arlington-alexandria-20914": {"city": "Washington-Arlington-Alexandria", "rent": 2280, "zip": "20914"}, "washington-arlington-alexandria-20915": {"city": "Washington-Arlington-Alexandria", "rent": 2280, "zip": "20915"}, "washington-arlington-alexandria-20916": {"city": "Washington-Arlington-Alexandria", "rent": 2280, "zip": "20916"}, "washington-arlington-alexandria-20918": {"city": "Washington-Arlington-Alexandria", "rent": 2280, "zip": "20918"}, "washington-arlington-alexandria-20993": {"city": "Washington-Arlington-Alexandria", "rent": 2280, "zip": "20993"}, "washington-arlington-alexandria-21701": {"city": "Washington-Arlington-Alexandria", "rent": 1860, "zip": "21701"}, "washington-arlington-alexandria-21702": {"city": "Washington-Arlington-Alexandria", "rent": 1780, "zip": "21702"}, "washington-arlington-alexandria-21703": {"city": "Washington-Arlington-Alexandria", "rent": 2100, "zip": "21703"}, "washington-arlington-alexandria-21704": {"city": "Washington-Arlington-Alexandria", "rent": 2870, "zip": "21704"}, "washington-arlington-alexandria-21705": {"city": "Washington-Arlington-Alexandria", "rent": 1860, "zip": "21705"}, "washington-arlington-alexandria-21710": {"city": "Washington-Arlington-Alexandria", "rent": 2040, "zip": "21710"}, "washington-arlington-alexandria-21713": {"city": "Washington-Arlington-Alexandria", "rent": 1500, "zip": "21713"}, "washington-arlington-alexandria-21714": {"city": "Washington-Arlington-Alexandria", "rent": 1790, "zip": "21714"}, "washington-arlington-alexandria-21716": {"city": "Washington-Arlington-Alexandria", "rent": 1250, "zip": "21716"}, "washington-arlington-alexandria-21717": {"city": "Washington-Arlington-Alexandria", "rent": 2470, "zip": "21717"}, "washington-arlington-alexandria-21718": {"city": "Washington-Arlington-Alexandria", "rent": 1260, "zip": "21718"}, "washington-arlington-alexandria-21719": {"city": "Washington-Arlington-Alexandria", "rent": 1320, "zip": "21719"}, "washington-arlington-alexandria-21727": {"city": "Washington-Arlington-Alexandria", "rent": 1190, "zip": "21727"}, "washington-arlington-alexandria-21754": {"city": "Washington-Arlington-Alexandria", "rent": 1970, "zip": "21754"}, "washington-arlington-alexandria-21755": {"city": "Washington-Arlington-Alexandria", "rent": 1340, "zip": "21755"}, "washington-arlington-alexandria-21757": {"city": "Washington-Arlington-Alexandria", "rent": 1480, "zip": "21757"}, "washington-arlington-alexandria-21758": {"city": "Washington-Arlington-Alexandria", "rent": 1920, "zip": "21758"}, "washington-arlington-alexandria-21762": {"city": "Washington-Arlington-Alexandria", "rent": 1590, "zip": "21762"}, "washington-arlington-alexandria-21769": {"city": "Washington-Arlington-Alexandria", "rent": 1770, "zip": "21769"}, "washington-arlington-alexandria-21770": {"city": "Washington-Arlington-Alexandria", "rent": 2040, "zip": "21770"}, "washington-arlington-alexandria-21771": {"city": "Washington-Arlington-Alexandria", "rent": 2220, "zip": "21771"}, "washington-arlington-alexandria-21773": {"city": "Washington-Arlington-Alexandria", "rent": 1890, "zip": "21773"}, "washington-arlington-alexandria-21774": {"city": "Washington-Arlington-Alexandria", "rent": 2790, "zip": "21774"}, "washington-arlington-alexandria-21776": {"city": "Washington-Arlington-Alexandria", "rent": 1540, "zip": "21776"}, "washington-arlington-alexandria-21777": {"city": "Washington-Arlington-Alexandria", "rent": 1910, "zip": "21777"}, "washington-arlington-alexandria-21778": {"city": "Washington-Arlington-Alexandria", "rent": 1310, "zip": "21778"}, "washington-arlington-alexandria-21780": {"city": "Washington-Arlington-Alexandria", "rent": 1340, "zip": "21780"}, "washington-arlington-alexandria-21783": {"city": "Washington-Arlington-Alexandria", "rent": 1300, "zip": "21783"}, "washington-arlington-alexandria-21787": {"city": "Washington-Arlington-Alexandria", "rent": 1170, "zip": "21787"}, "washington-arlington-alexandria-21788": {"city": "Washington-Arlington-Alexandria", "rent": 1270, "zip": "21788"}, "washington-arlington-alexandria-21790": {"city": "Washington-Arlington-Alexandria", "rent": 1950, "zip": "21790"}, "washington-arlington-alexandria-21791": {"city": "Washington-Arlington-Alexandria", "rent": 1490, "zip": "21791"}, "washington-arlington-alexandria-21793": {"city": "Washington-Arlington-Alexandria", "rent": 1860, "zip": "21793"}, "washington-arlington-alexandria-21797": {"city": "Washington-Arlington-Alexandria", "rent": 2150, "zip": "21797"}, "washington-arlington-alexandria-21798": {"city": "Washington-Arlington-Alexandria", "rent": 1260, "zip": "21798"}, "washington-arlington-alexandria-22003": {"city": "Washington-Arlington-Alexandria", "rent": 2250, "zip": "22003"}, "washington-arlington-alexandria-22009": {"city": "Washington-Arlington-Alexandria", "rent": 2490, "zip": "22009"}, "washington-arlington-alexandria-22015": {"city": "Washington-Arlington-Alexandria", "rent": 2820, "zip": "22015"}, "washington-arlington-alexandria-22025": {"city": "Washington-Arlington-Alexandria", "rent": 2650, "zip": "22025"}, "washington-arlington-alexandria-22026": {"city": "Washington-Arlington-Alexandria", "rent": 2000, "zip": "22026"}, "washington-arlington-alexandria-22027": {"city": "Washington-Arlington-Alexandria", "rent": 2850, "zip": "22027"}, "washington-arlington-alexandria-22030": {"city": "Washington-Arlington-Alexandria", "rent": 2640, "zip": "22030"}, "washington-arlington-alexandria-22031": {"city": "Washington-Arlington-Alexandria", "rent": 2720, "zip": "22031"}, "washington-arlington-alexandria-22032": {"city": "Washington-Arlington-Alexandria", "rent": 2590, "zip": "22032"}, "washington-arlington-alexandria-22033": {"city": "Washington-Arlington-Alexandria", "rent": 2710, "zip": "22033"}, "washington-arlington-alexandria-22035": {"city": "Washington-Arlington-Alexandria", "rent": 2490, "zip": "22035"}, "washington-arlington-alexandria-22038": {"city": "Washington-Arlington-Alexandria", "rent": 2310, "zip": "22038"}, "washington-arlington-alexandria-22039": {"city": "Washington-Arlington-Alexandria", "rent": 2600, "zip": "22039"}, "washington-arlington-alexandria-22040": {"city": "Washington-Arlington-Alexandria", "rent": 2530, "zip": "22040"}, "washington-arlington-alexandria-22041": {"city": "Washington-Arlington-Alexandria", "rent": 2190, "zip": "22041"}, "washington-arlington-alexandria-22042": {"city": "Washington-Arlington-Alexandria", "rent": 2440, "zip": "22042"}, "washington-arlington-alexandria-22043": {"city": "Washington-Arlington-Alexandria", "rent": 2450, "zip": "22043"}, "washington-arlington-alexandria-22044": {"city": "Washington-Arlington-Alexandria", "rent": 2080, "zip": "22044"}, "washington-arlington-alexandria-22046": {"city": "Washington-Arlington-Alexandria", "rent": 2570, "zip": "22046"}, "washington-arlington-alexandria-22060": {"city": "Washington-Arlington-Alexandria", "rent": 3370, "zip": "22060"}, "washington-arlington-alexandria-22066": {"city": "Washington-Arlington-Alexandria", "rent": 3370, "zip": "22066"}, "washington-arlington-alexandria-22067": {"city": "Washington-Arlington-Alexandria", "rent": 2490, "zip": "22067"}, "washington-arlington-alexandria-22079": {"city": "Washington-Arlington-Alexandria", "rent": 2740, "zip": "22079"}, "washington-arlington-alexandria-22081": {"city": "Washington-Arlington-Alexandria", "rent": 2490, "zip": "22081"}, "washington-arlington-alexandria-22101": {"city": "Washington-Arlington-Alexandria", "rent": 3130, "zip": "22101"}, "washington-arlington-alexandria-22102": {"city": "Washington-Arlington-Alexandria", "rent": 3040, "zip": "22102"}, "washington-arlington-alexandria-22103": {"city": "Washington-Arlington-Alexandria", "rent": 2490, "zip": "22103"}, "washington-arlington-alexandria-22106": {"city": "Washington-Arlington-Alexandria", "rent": 2490, "zip": "22106"}, "washington-arlington-alexandria-22116": {"city": "Washington-Arlington-Alexandria", "rent": 2490, "zip": "22116"}, "washington-arlington-alexandria-22121": {"city": "Washington-Arlington-Alexandria", "rent": 2490, "zip": "22121"}, "washington-arlington-alexandria-22122": {"city": "Washington-Arlington-Alexandria", "rent": 2490, "zip": "22122"}, "washington-arlington-alexandria-22124": {"city": "Washington-Arlington-Alexandria", "rent": 2660, "zip": "22124"}, "washington-arlington-alexandria-22125": {"city": "Washington-Arlington-Alexandria", "rent": 2220, "zip": "22125"}, "washington-arlington-alexandria-22134": {"city": "Washington-Arlington-Alexandria", "rent": 2440, "zip": "22134"}, "washington-arlington-alexandria-22150": {"city": "Washington-Arlington-Alexandria", "rent": 2510, "zip": "22150"}, "washington-arlington-alexandria-22151": {"city": "Washington-Arlington-Alexandria", "rent": 2880, "zip": "22151"}, "washington-arlington-alexandria-22152": {"city": "Washington-Arlington-Alexandria", "rent": 2890, "zip": "22152"}, "washington-arlington-alexandria-22153": {"city": "Washington-Arlington-Alexandria", "rent": 3060, "zip": "22153"}, "washington-arlington-alexandria-22160": {"city": "Washington-Arlington-Alexandria", "rent": 2490, "zip": "22160"}, "washington-arlington-alexandria-22172": {"city": "Washington-Arlington-Alexandria", "rent": 1680, "zip": "22172"}, "washington-arlington-alexandria-22180": {"city": "Washington-Arlington-Alexandria", "rent": 2620, "zip": "22180"}, "washington-arlington-alexandria-22181": {"city": "Washington-Arlington-Alexandria", "rent": 3010, "zip": "22181"}, "washington-arlington-alexandria-22182": {"city": "Washington-Arlington-Alexandria", "rent": 3040, "zip": "22182"}, "washington-arlington-alexandria-22183": {"city": "Washington-Arlington-Alexandria", "rent": 2490, "zip": "22183"}, "washington-arlington-alexandria-22191": {"city": "Washington-Arlington-Alexandria", "rent": 2280, "zip": "22191"}, "washington-arlington-alexandria-22192": {"city": "Washington-Arlington-Alexandria", "rent": 2290, "zip": "22192"}, "washington-arlington-alexandria-22193": {"city": "Washington-Arlington-Alexandria", "rent": 2080, "zip": "22193"}, "washington-arlington-alexandria-22194": {"city": "Washington-Arlington-Alexandria", "rent": 2230, "zip": "22194"}, "washington-arlington-alexandria-22195": {"city": "Washington-Arlington-Alexandria", "rent": 2230, "zip": "22195"}, "washington-arlington-alexandria-22199": {"city": "Washington-Arlington-Alexandria", "rent": 2490, "zip": "22199"}, "washington-arlington-alexandria-22201": {"city": "Washington-Arlington-Alexandria", "rent": 3370, "zip": "22201"}, "washington-arlington-alexandria-22202": {"city": "Washington-Arlington-Alexandria", "rent": 3370, "zip": "22202"}, "washington-arlington-alexandria-22203": {"city": "Washington-Arlington-Alexandria", "rent": 3040, "zip": "22203"}, "washington-arlington-alexandria-22204": {"city": "Washington-Arlington-Alexandria", "rent": 2210, "zip": "22204"}, "washington-arlington-alexandria-22205": {"city": "Washington-Arlington-Alexandria", "rent": 2130, "zip": "22205"}, "washington-arlington-alexandria-22206": {"city": "Washington-Arlington-Alexandria", "rent": 2920, "zip": "22206"}, "washington-arlington-alexandria-22207": {"city": "Washington-Arlington-Alexandria", "rent": 2650, "zip": "22207"}, "washington-arlington-alexandria-22209": {"city": "Washington-Arlington-Alexandria", "rent": 2750, "zip": "22209"}, "washington-arlington-alexandria-22210": {"city": "Washington-Arlington-Alexandria", "rent": 2590, "zip": "22210"}, "washington-arlington-alexandria-22211": {"city": "Washington-Arlington-Alexandria", "rent": 2780, "zip": "22211"}, "washington-arlington-alexandria-22213": {"city": "Washington-Arlington-Alexandria", "rent": 3130, "zip": "22213"}, "washington-arlington-alexandria-22214": {"city": "Washington-Arlington-Alexandria", "rent": 2590, "zip": "22214"}, "washington-arlington-alexandria-22215": {"city": "Washington-Arlington-Alexandria", "rent": 2590, "zip": "22215"}, "washington-arlington-alexandria-22216": {"city": "Washington-Arlington-Alexandria", "rent": 2590, "zip": "22216"}, "washington-arlington-alexandria-22219": {"city": "Washington-Arlington-Alexandria", "rent": 2590, "zip": "22219"}, "washington-arlington-alexandria-22301": {"city": "Washington-Arlington-Alexandria", "rent": 2680, "zip": "22301"}, "washington-arlington-alexandria-22302": {"city": "Washington-Arlington-Alexandria", "rent": 2310, "zip": "22302"}, "washington-arlington-alexandria-22303": {"city": "Washington-Arlington-Alexandria", "rent": 2470, "zip": "22303"}, "washington-arlington-alexandria-22304": {"city": "Washington-Arlington-Alexandria", "rent": 2560, "zip": "22304"}, "washington-arlington-alexandria-22305": {"city": "Washington-Arlington-Alexandria", "rent": 2170, "zip": "22305"}, "washington-arlington-alexandria-22306": {"city": "Washington-Arlington-Alexandria", "rent": 2030, "zip": "22306"}, "washington-arlington-alexandria-22307": {"city": "Washington-Arlington-Alexandria", "rent": 2260, "zip": "22307"}, "washington-arlington-alexandria-22308": {"city": "Washington-Arlington-Alexandria", "rent": 3130, "zip": "22308"}, "washington-arlington-alexandria-22309": {"city": "Washington-Arlington-Alexandria", "rent": 1990, "zip": "22309"}, "washington-arlington-alexandria-22310": {"city": "Washington-Arlington-Alexandria", "rent": 2670, "zip": "22310"}, "washington-arlington-alexandria-22311": {"city": "Washington-Arlington-Alexandria", "rent": 2160, "zip": "22311"}, "washington-arlington-alexandria-22312": {"city": "Washington-Arlington-Alexandria", "rent": 2290, "zip": "22312"}, "washington-arlington-alexandria-22313": {"city": "Washington-Arlington-Alexandria", "rent": 2300, "zip": "22313"}, "washington-arlington-alexandria-22314": {"city": "Washington-Arlington-Alexandria", "rent": 3230, "zip": "22314"}, "washington-arlington-alexandria-22315": {"city": "Washington-Arlington-Alexandria", "rent": 2720, "zip": "22315"}, "washington-arlington-alexandria-22320": {"city": "Washington-Arlington-Alexandria", "rent": 2300, "zip": "22320"}, "washington-arlington-alexandria-22332": {"city": "Washington-Arlington-Alexandria", "rent": 2300, "zip": "22332"}, "washington-arlington-alexandria-22350": {"city": "Washington-Arlington-Alexandria", "rent": 2300, "zip": "22350"}, "washington-arlington-alexandria-22401": {"city": "Washington-Arlington-Alexandria", "rent": 1750, "zip": "22401"}, "washington-arlington-alexandria-22402": {"city": "Washington-Arlington-Alexandria", "rent": 1740, "zip": "22402"}, "washington-arlington-alexandria-22403": {"city": "Washington-Arlington-Alexandria", "rent": 2120, "zip": "22403"}, "washington-arlington-alexandria-22404": {"city": "Washington-Arlington-Alexandria", "rent": 1740, "zip": "22404"}, "washington-arlington-alexandria-22405": {"city": "Washington-Arlington-Alexandria", "rent": 2010, "zip": "22405"}, "washington-arlington-alexandria-22406": {"city": "Washington-Arlington-Alexandria", "rent": 2030, "zip": "22406"}, "washington-arlington-alexandria-22407": {"city": "Washington-Arlington-Alexandria", "rent": 1970, "zip": "22407"}, "washington-arlington-alexandria-22408": {"city": "Washington-Arlington-Alexandria", "rent": 2040, "zip": "22408"}, "washington-arlington-alexandria-22412": {"city": "Washington-Arlington-Alexandria", "rent": 2120, "zip": "22412"}, "washington-arlington-alexandria-22430": {"city": "Washington-Arlington-Alexandria", "rent": 2120, "zip": "22430"}, "washington-arlington-alexandria-22463": {"city": "Washington-Arlington-Alexandria", "rent": 2120, "zip": "22463"}, "washington-arlington-alexandria-22471": {"city": "Washington-Arlington-Alexandria", "rent": 2120, "zip": "22471"}, "washington-arlington-alexandria-22508": {"city": "Washington-Arlington-Alexandria", "rent": 1690, "zip": "22508"}, "washington-arlington-alexandria-22534": {"city": "Washington-Arlington-Alexandria", "rent": 1560, "zip": "22534"}, "washington-arlington-alexandria-22545": {"city": "Washington-Arlington-Alexandria", "rent": 2120, "zip": "22545"}, "washington-arlington-alexandria-22546": {"city": "Washington-Arlington-Alexandria", "rent": 1560, "zip": "22546"}, "washington-arlington-alexandria-22551": {"city": "Washington-Arlington-Alexandria", "rent": 1510, "zip": "22551"}, "washington-arlington-alexandria-22553": {"city": "Washington-Arlington-Alexandria", "rent": 2070, "zip": "22553"}, "washington-arlington-alexandria-22554": {"city": "Washington-Arlington-Alexandria", "rent": 2210, "zip": "22554"}, "washington-arlington-alexandria-22555": {"city": "Washington-Arlington-Alexandria", "rent": 2120, "zip": "22555"}, "washington-arlington-alexandria-22556": {"city": "Washington-Arlington-Alexandria", "rent": 2030, "zip": "22556"}, "washington-arlington-alexandria-22565": {"city": "Washington-Arlington-Alexandria", "rent": 1960, "zip": "22565"}, "washington-arlington-alexandria-22567": {"city": "Washington-Arlington-Alexandria", "rent": 1370, "zip": "22567"}, "washington-arlington-alexandria-22580": {"city": "Washington-Arlington-Alexandria", "rent": 1270, "zip": "22580"}, "washington-arlington-alexandria-22611": {"city": "Washington-Arlington-Alexandria", "rent": 1520, "zip": "22611"}, "washington-arlington-alexandria-22620": {"city": "Washington-Arlington-Alexandria", "rent": 1550, "zip": "22620"}, "washington-arlington-alexandria-22630": {"city": "Washington-Arlington-Alexandria", "rent": 1300, "zip": "22630"}, "washington-arlington-alexandria-22639": {"city": "Washington-Arlington-Alexandria", "rent": 1730, "zip": "22639"}, "washington-arlington-alexandria-22642": {"city": "Washington-Arlington-Alexandria", "rent": 1770, "zip": "22642"}, "washington-arlington-alexandria-22643": {"city": "Washington-Arlington-Alexandria", "rent": 1750, "zip": "22643"}, "washington-arlington-alexandria-22646": {"city": "Washington-Arlington-Alexandria", "rent": 1510, "zip": "22646"}, "washington-arlington-alexandria-22663": {"city": "Washington-Arlington-Alexandria", "rent": 1510, "zip": "22663"}, "washington-arlington-alexandria-22712": {"city": "Washington-Arlington-Alexandria", "rent": 1520, "zip": "22712"}, "washington-arlington-alexandria-22720": {"city": "Washington-Arlington-Alexandria", "rent": 1690, "zip": "22720"}, "washington-arlington-alexandria-22728": {"city": "Washington-Arlington-Alexandria", "rent": 1270, "zip": "22728"}, "washington-arlington-alexandria-22734": {"city": "Washington-Arlington-Alexandria", "rent": 1600, "zip": "22734"}, "washington-arlington-alexandria-22742": {"city": "Washington-Arlington-Alexandria", "rent": 2040, "zip": "22742"}, "washington-arlington-alexandria-22960": {"city": "Washington-Arlington-Alexandria", "rent": 1170, "zip": "22960"}, "washington-arlington-alexandria-23015": {"city": "Washington-Arlington-Alexandria", "rent": 1380, "zip": "23015"}, "washington-arlington-alexandria-23024": {"city": "Washington-Arlington-Alexandria", "rent": 1240, "zip": "23024"}, "washington-arlington-alexandria-23117": {"city": "Washington-Arlington-Alexandria", "rent": 1160, "zip": "23117"}, "washington-arlington-alexandria-88888": {"city": "Washington-Arlington-Alexandria", "rent": 2200, "zip": "88888"}}