{"cape-coral-fort-myers-33901": {"city": "Cape Coral-Fort Myers", "rent": 1740, "zip": "33901"}, "cape-coral-fort-myers-33902": {"city": "Cape Coral-Fort Myers", "rent": 1960, "zip": "33902"}, "cape-coral-fort-myers-33903": {"city": "Cape Coral-Fort Myers", "rent": 1660, "zip": "33903"}, "cape-coral-fort-myers-33904": {"city": "Cape Coral-Fort Myers", "rent": 2020, "zip": "33904"}, "cape-coral-fort-myers-33905": {"city": "Cape Coral-Fort Myers", "rent": 1910, "zip": "33905"}, "cape-coral-fort-myers-33906": {"city": "Cape Coral-Fort Myers", "rent": 1960, "zip": "33906"}, "cape-coral-fort-myers-33907": {"city": "Cape Coral-Fort Myers", "rent": 2010, "zip": "33907"}, "cape-coral-fort-myers-33908": {"city": "Cape Coral-Fort Myers", "rent": 2260, "zip": "33908"}, "cape-coral-fort-myers-33909": {"city": "Cape Coral-Fort Myers", "rent": 2170, "zip": "33909"}, "cape-coral-fort-myers-33910": {"city": "Cape Coral-Fort Myers", "rent": 1960, "zip": "33910"}, "cape-coral-fort-myers-33912": {"city": "Cape Coral-Fort Myers", "rent": 2180, "zip": "33912"}, "cape-coral-fort-myers-33913": {"city": "Cape Coral-Fort Myers", "rent": 2360, "zip": "33913"}, "cape-coral-fort-myers-33914": {"city": "Cape Coral-Fort Myers", "rent": 2100, "zip": "33914"}, "cape-coral-fort-myers-33915": {"city": "Cape Coral-Fort Myers", "rent": 1960, "zip": "33915"}, "cape-coral-fort-myers-33916": {"city": "Cape Coral-Fort Myers", "rent": 1760, "zip": "33916"}, "cape-coral-fort-myers-33917": {"city": "Cape Coral-Fort Myers", "rent": 1660, "zip": "33917"}, "cape-coral-fort-myers-33918": {"city": "Cape Coral-Fort Myers", "rent": 1960, "zip": "33918"}, "cape-coral-fort-myers-33919": {"city": "Cape Coral-Fort Myers", "rent": 2010, "zip": "33919"}, "cape-coral-fort-myers-33920": {"city": "Cape Coral-Fort Myers", "rent": 1660, "zip": "33920"}, "cape-coral-fort-myers-33921": {"city": "Cape Coral-Fort Myers", "rent": 1660, "zip": "33921"}, "cape-coral-fort-myers-33922": {"city": "Cape Coral-Fort Myers", "rent": 1660, "zip": "33922"}, "cape-coral-fort-myers-33924": {"city": "Cape Coral-Fort Myers", "rent": 2300, "zip": "33924"}, "cape-coral-fort-myers-33928": {"city": "Cape Coral-Fort Myers", "rent": 2550, "zip": "33928"}, "cape-coral-fort-myers-33929": {"city": "Cape Coral-Fort Myers", "rent": 1960, "zip": "33929"}, "cape-coral-fort-myers-33931": {"city": "Cape Coral-Fort Myers", "rent": 1960, "zip": "33931"}, "cape-coral-fort-myers-33932": {"city": "Cape Coral-Fort Myers", "rent": 1960, "zip": "33932"}, "cape-coral-fort-myers-33936": {"city": "Cape Coral-Fort Myers", "rent": 1660, "zip": "33936"}, "cape-coral-fort-myers-33945": {"city": "Cape Coral-Fort Myers", "rent": 1960, "zip": "33945"}, "cape-coral-fort-myers-33955": {"city": "Cape Coral-Fort Myers", "rent": 1760, "zip": "33955"}, "cape-coral-fort-myers-33956": {"city": "Cape Coral-Fort Myers", "rent": 2940, "zip": "33956"}, "cape-coral-fort-myers-33957": {"city": "Cape Coral-Fort Myers", "rent": 2900, "zip": "33957"}, "cape-coral-fort-myers-33965": {"city": "Cape Coral-Fort Myers", "rent": 2050, "zip": "33965"}, "cape-coral-fort-myers-33966": {"city": "Cape Coral-Fort Myers", "rent": 2080, "zip": "33966"}, "cape-coral-fort-myers-33967": {"city": "Cape Coral-Fort Myers", "rent": 2130, "zip": "33967"}, "cape-coral-fort-myers-33970": {"city": "Cape Coral-Fort Myers", "rent": 1960, "zip": "33970"}, "cape-coral-fort-myers-33971": {"city": "Cape Coral-Fort Myers", "rent": 2090, "zip": "33971"}, "cape-coral-fort-myers-33972": {"city": "Cape Coral-Fort Myers", "rent": 1910, "zip": "33972"}, "cape-coral-fort-myers-33973": {"city": "Cape Coral-Fort Myers", "rent": 1780, "zip": "33973"}, "cape-coral-fort-myers-33974": {"city": "Cape Coral-Fort Myers", "rent": 2100, "zip": "33974"}, "cape-coral-fort-myers-33976": {"city": "Cape Coral-Fort Myers", "rent": 2130, "zip": "33976"}, "cape-coral-fort-myers-33990": {"city": "Cape Coral-Fort Myers", "rent": 2040, "zip": "33990"}, "cape-coral-fort-myers-33991": {"city": "Cape Coral-Fort Myers", "rent": 2430, "zip": "33991"}, "cape-coral-fort-myers-33993": {"city": "Cape Coral-Fort Myers", "rent": 2520, "zip": "33993"}, "cape-coral-fort-myers-33994": {"city": "Cape Coral-Fort Myers", "rent": 1960, "zip": "33994"}, "cape-coral-fort-myers-34110": {"city": "Cape Coral-Fort Myers", "rent": 2230, "zip": "34110"}, "cape-coral-fort-myers-34119": {"city": "Cape Coral-Fort Myers", "rent": 2120, "zip": "34119"}, "cape-coral-fort-myers-34133": {"city": "Cape Coral-Fort Myers", "rent": 1960, "zip": "34133"}, "cape-coral-fort-myers-34134": {"city": "Cape Coral-Fort Myers", "rent": 2150, "zip": "34134"}, "cape-coral-fort-myers-34135": {"city": "Cape Coral-Fort Myers", "rent": 2190, "zip": "34135"}, "cape-coral-fort-myers-34136": {"city": "Cape Coral-Fort Myers", "rent": 1960, "zip": "34136"}, "crestview-fort-walton-beach-destin-32433": {"city": "Crestview-Fort Walton Beach-Destin", "rent": 1420, "zip": "32433"}, "crestview-fort-walton-beach-destin-32531": {"city": "Crestview-Fort Walton Beach-Destin", "rent": 1450, "zip": "32531"}, "crestview-fort-walton-beach-destin-32536": {"city": "Crestview-Fort Walton Beach-Destin", "rent": 1670, "zip": "32536"}, "crestview-fort-walton-beach-destin-32539": {"city": "Crestview-Fort Walton Beach-Destin", "rent": 1580, "zip": "32539"}, "crestview-fort-walton-beach-destin-32540": {"city": "Crestview-Fort Walton Beach-Destin", "rent": 1790, "zip": "32540"}, "crestview-fort-walton-beach-destin-32541": {"city": "Crestview-Fort Walton Beach-Destin", "rent": 2380, "zip": "32541"}, "crestview-fort-walton-beach-destin-32542": {"city": "Crestview-Fort Walton Beach-Destin", "rent": 2420, "zip": "32542"}, "crestview-fort-walton-beach-destin-32544": {"city": "Crestview-Fort Walton Beach-Destin", "rent": 2370, "zip": "32544"}, "crestview-fort-walton-beach-destin-32547": {"city": "Crestview-Fort Walton Beach-Destin", "rent": 1690, "zip": "32547"}, "crestview-fort-walton-beach-destin-32548": {"city": "Crestview-Fort Walton Beach-Destin", "rent": 1780, "zip": "32548"}, "crestview-fort-walton-beach-destin-32549": {"city": "Crestview-Fort Walton Beach-Destin", "rent": 1790, "zip": "32549"}, "crestview-fort-walton-beach-destin-32564": {"city": "Crestview-Fort Walton Beach-Destin", "rent": 1550, "zip": "32564"}, "crestview-fort-walton-beach-destin-32567": {"city": "Crestview-Fort Walton Beach-Destin", "rent": 1420, "zip": "32567"}, "crestview-fort-walton-beach-destin-32569": {"city": "Crestview-Fort Walton Beach-Destin", "rent": 1710, "zip": "32569"}, "crestview-fort-walton-beach-destin-32578": {"city": "Crestview-Fort Walton Beach-Destin", "rent": 2120, "zip": "32578"}, "crestview-fort-walton-beach-destin-32579": {"city": "Crestview-Fort Walton Beach-Destin", "rent": 1970, "zip": "32579"}, "crestview-fort-walton-beach-destin-32580": {"city": "Crestview-Fort Walton Beach-Destin", "rent": 1630, "zip": "32580"}, "crestview-fort-walton-beach-destin-32588": {"city": "Crestview-Fort Walton Beach-Destin", "rent": 1790, "zip": "32588"}, "walton-county-32413": {"city": "Walton County", "rent": 1840, "zip": "32413"}, "walton-county-32422": {"city": "Walton County", "rent": 1360, "zip": "32422"}, "walton-county-32433": {"city": "Walton County", "rent": 1420, "zip": "32433"}, "walton-county-32435": {"city": "Walton County", "rent": 1090, "zip": "32435"}, "walton-county-32439": {"city": "Walton County", "rent": 1330, "zip": "32439"}, "walton-county-32455": {"city": "Walton County", "rent": 1090, "zip": "32455"}, "walton-county-32459": {"city": "Walton County", "rent": 1820, "zip": "32459"}, "walton-county-32461": {"city": "Walton County", "rent": 2050, "zip": "32461"}, "walton-county-32462": {"city": "Walton County", "rent": 1450, "zip": "32462"}, "walton-county-32464": {"city": "Walton County", "rent": 1090, "zip": "32464"}, "walton-county-32539": {"city": "Walton County", "rent": 1580, "zip": "32539"}, "walton-county-32550": {"city": "Walton County", "rent": 1970, "zip": "32550"}, "walton-county-32567": {"city": "Walton County", "rent": 1420, "zip": "32567"}, "walton-county-32578": {"city": "Walton County", "rent": 2120, "zip": "32578"}, "deltona-daytona-beach-ormond-beach-32102": {"city": "Deltona-Daytona Beach-Ormond Beach", "rent": 1520, "zip": "32102"}, "deltona-daytona-beach-ormond-beach-32105": {"city": "Deltona-Daytona Beach-Ormond Beach", "rent": 1700, "zip": "32105"}, "deltona-daytona-beach-ormond-beach-32112": {"city": "Deltona-Daytona Beach-Ormond Beach", "rent": 1550, "zip": "32112"}, "deltona-daytona-beach-ormond-beach-32114": {"city": "Deltona-Daytona Beach-Ormond Beach", "rent": 1670, "zip": "32114"}, "deltona-daytona-beach-ormond-beach-32115": {"city": "Deltona-Daytona Beach-Ormond Beach", "rent": 1700, "zip": "32115"}, "deltona-daytona-beach-ormond-beach-32117": {"city": "Deltona-Daytona Beach-Ormond Beach", "rent": 1730, "zip": "32117"}, "deltona-daytona-beach-ormond-beach-32118": {"city": "Deltona-Daytona Beach-Ormond Beach", "rent": 1600, "zip": "32118"}, "deltona-daytona-beach-ormond-beach-32119": {"city": "Deltona-Daytona Beach-Ormond Beach", "rent": 1760, "zip": "32119"}, "deltona-daytona-beach-ormond-beach-32120": {"city": "Deltona-Daytona Beach-Ormond Beach", "rent": 1700, "zip": "32120"}, "deltona-daytona-beach-ormond-beach-32121": {"city": "Deltona-Daytona Beach-Ormond Beach", "rent": 1700, "zip": "32121"}, "deltona-daytona-beach-ormond-beach-32122": {"city": "Deltona-Daytona Beach-Ormond Beach", "rent": 1700, "zip": "32122"}, "deltona-daytona-beach-ormond-beach-32124": {"city": "Deltona-Daytona Beach-Ormond Beach", "rent": 2360, "zip": "32124"}, "deltona-daytona-beach-ormond-beach-32125": {"city": "Deltona-Daytona Beach-Ormond Beach", "rent": 1700, "zip": "32125"}, "deltona-daytona-beach-ormond-beach-32126": {"city": "Deltona-Daytona Beach-Ormond Beach", "rent": 1700, "zip": "32126"}, "deltona-daytona-beach-ormond-beach-32127": {"city": "Deltona-Daytona Beach-Ormond Beach", "rent": 1720, "zip": "32127"}, "deltona-daytona-beach-ormond-beach-32128": {"city": "Deltona-Daytona Beach-Ormond Beach", "rent": 2050, "zip": "32128"}, "deltona-daytona-beach-ormond-beach-32129": {"city": "Deltona-Daytona Beach-Ormond Beach", "rent": 1850, "zip": "32129"}, "deltona-daytona-beach-ormond-beach-32130": {"city": "Deltona-Daytona Beach-Ormond Beach", "rent": 1720, "zip": "32130"}, "deltona-daytona-beach-ormond-beach-32132": {"city": "Deltona-Daytona Beach-Ormond Beach", "rent": 1550, "zip": "32132"}, "deltona-daytona-beach-ormond-beach-32136": {"city": "Deltona-Daytona Beach-Ormond Beach", "rent": 1560, "zip": "32136"}, "deltona-daytona-beach-ormond-beach-32141": {"city": "Deltona-Daytona Beach-Ormond Beach", "rent": 1760, "zip": "32141"}, "deltona-daytona-beach-ormond-beach-32168": {"city": "Deltona-Daytona Beach-Ormond Beach", "rent": 1980, "zip": "32168"}, "deltona-daytona-beach-ormond-beach-32169": {"city": "Deltona-Daytona Beach-Ormond Beach", "rent": 2180, "zip": "32169"}, "deltona-daytona-beach-ormond-beach-32170": {"city": "Deltona-Daytona Beach-Ormond Beach", "rent": 1700, "zip": "32170"}, "deltona-daytona-beach-ormond-beach-32173": {"city": "Deltona-Daytona Beach-Ormond Beach", "rent": 1700, "zip": "32173"}, "deltona-daytona-beach-ormond-beach-32174": {"city": "Deltona-Daytona Beach-Ormond Beach", "rent": 1610, "zip": "32174"}, "deltona-daytona-beach-ormond-beach-32175": {"city": "Deltona-Daytona Beach-Ormond Beach", "rent": 1700, "zip": "32175"}, "deltona-daytona-beach-ormond-beach-32176": {"city": "Deltona-Daytona Beach-Ormond Beach", "rent": 1790, "zip": "32176"}, "deltona-daytona-beach-ormond-beach-32180": {"city": "Deltona-Daytona Beach-Ormond Beach", "rent": 1550, "zip": "32180"}, "deltona-daytona-beach-ormond-beach-32190": {"city": "Deltona-Daytona Beach-Ormond Beach", "rent": 1550, "zip": "32190"}, "deltona-daytona-beach-ormond-beach-32713": {"city": "Deltona-Daytona Beach-Ormond Beach", "rent": 1930, "zip": "32713"}, "deltona-daytona-beach-ormond-beach-32720": {"city": "Deltona-Daytona Beach-Ormond Beach", "rent": 1520, "zip": "32720"}, "deltona-daytona-beach-ormond-beach-32721": {"city": "Deltona-Daytona Beach-Ormond Beach", "rent": 1700, "zip": "32721"}, "deltona-daytona-beach-ormond-beach-32723": {"city": "Deltona-Daytona Beach-Ormond Beach", "rent": 1700, "zip": "32723"}, "deltona-daytona-beach-ormond-beach-32724": {"city": "Deltona-Daytona Beach-Ormond Beach", "rent": 1560, "zip": "32724"}, "deltona-daytona-beach-ormond-beach-32725": {"city": "Deltona-Daytona Beach-Ormond Beach", "rent": 1860, "zip": "32725"}, "deltona-daytona-beach-ormond-beach-32728": {"city": "Deltona-Daytona Beach-Ormond Beach", "rent": 1700, "zip": "32728"}, "deltona-daytona-beach-ormond-beach-32738": {"city": "Deltona-Daytona Beach-Ormond Beach", "rent": 1870, "zip": "32738"}, "deltona-daytona-beach-ormond-beach-32739": {"city": "Deltona-Daytona Beach-Ormond Beach", "rent": 1700, "zip": "32739"}, "deltona-daytona-beach-ormond-beach-32744": {"city": "Deltona-Daytona Beach-Ormond Beach", "rent": 1550, "zip": "32744"}, "deltona-daytona-beach-ormond-beach-32753": {"city": "Deltona-Daytona Beach-Ormond Beach", "rent": 1700, "zip": "32753"}, "deltona-daytona-beach-ormond-beach-32754": {"city": "Deltona-Daytona Beach-Ormond Beach", "rent": 1380, "zip": "32754"}, "deltona-daytona-beach-ormond-beach-32759": {"city": "Deltona-Daytona Beach-Ormond Beach", "rent": 1560, "zip": "32759"}, "deltona-daytona-beach-ormond-beach-32763": {"city": "Deltona-Daytona Beach-Ormond Beach", "rent": 1770, "zip": "32763"}, "deltona-daytona-beach-ormond-beach-32764": {"city": "Deltona-Daytona Beach-Ormond Beach", "rent": 1810, "zip": "32764"}, "deltona-daytona-beach-ormond-beach-32774": {"city": "Deltona-Daytona Beach-Ormond Beach", "rent": 1700, "zip": "32774"}, "palm-coast-32080": {"city": "Palm Coast", "rent": 1900, "zip": "32080"}, "palm-coast-32086": {"city": "Palm Coast", "rent": 1800, "zip": "32086"}, "palm-coast-32110": {"city": "Palm Coast", "rent": 1530, "zip": "32110"}, "palm-coast-32135": {"city": "Palm Coast", "rent": 1810, "zip": "32135"}, "palm-coast-32136": {"city": "Palm Coast", "rent": 1560, "zip": "32136"}, "palm-coast-32137": {"city": "Palm Coast", "rent": 1920, "zip": "32137"}, "palm-coast-32143": {"city": "Palm Coast", "rent": 1810, "zip": "32143"}, "palm-coast-32145": {"city": "Palm Coast", "rent": 1280, "zip": "32145"}, "palm-coast-32164": {"city": "Palm Coast", "rent": 1840, "zip": "32164"}, "palm-coast-32174": {"city": "Palm Coast", "rent": 1610, "zip": "32174"}, "palm-coast-32180": {"city": "Palm Coast", "rent": 1550, "zip": "32180"}, "levy-county-32618": {"city": "Levy County", "rent": 1430, "zip": "32618"}, "levy-county-32621": {"city": "Levy County", "rent": 970, "zip": "32621"}, "levy-county-32625": {"city": "Levy County", "rent": 1080, "zip": "32625"}, "levy-county-32626": {"city": "Levy County", "rent": 1000, "zip": "32626"}, "levy-county-32639": {"city": "Levy County", "rent": 980, "zip": "32639"}, "levy-county-32644": {"city": "Levy County", "rent": 970, "zip": "32644"}, "levy-county-32668": {"city": "Levy County", "rent": 1200, "zip": "32668"}, "levy-county-32669": {"city": "Levy County", "rent": 1780, "zip": "32669"}, "levy-county-32683": {"city": "Levy County", "rent": 1000, "zip": "32683"}, "levy-county-32693": {"city": "Levy County", "rent": 1430, "zip": "32693"}, "levy-county-32696": {"city": "Levy County", "rent": 1430, "zip": "32696"}, "levy-county-34431": {"city": "Levy County", "rent": 1200, "zip": "34431"}, "levy-county-34449": {"city": "Levy County", "rent": 1080, "zip": "34449"}, "levy-county-34498": {"city": "Levy County", "rent": 1210, "zip": "34498"}, "gainesville-32008": {"city": "Gainesville", "rent": 1430, "zip": "32008"}, "gainesville-32044": {"city": "Gainesville", "rent": 1460, "zip": "32044"}, "gainesville-32601": {"city": "Gainesville", "rent": 1430, "zip": "32601"}, "gainesville-32603": {"city": "Gainesville", "rent": 1430, "zip": "32603"}, "gainesville-32604": {"city": "Gainesville", "rent": 1500, "zip": "32604"}, "gainesville-32605": {"city": "Gainesville", "rent": 1750, "zip": "32605"}, "gainesville-32606": {"city": "Gainesville", "rent": 1890, "zip": "32606"}, "gainesville-32607": {"city": "Gainesville", "rent": 1560, "zip": "32607"}, "gainesville-32608": {"city": "Gainesville", "rent": 1670, "zip": "32608"}, "gainesville-32609": {"city": "Gainesville", "rent": 1430, "zip": "32609"}, "gainesville-32610": {"city": "Gainesville", "rent": 1510, "zip": "32610"}, "gainesville-32611": {"city": "Gainesville", "rent": 1500, "zip": "32611"}, "gainesville-32612": {"city": "Gainesville", "rent": 1480, "zip": "32612"}, "gainesville-32614": {"city": "Gainesville", "rent": 1500, "zip": "32614"}, "gainesville-32615": {"city": "Gainesville", "rent": 1430, "zip": "32615"}, "gainesville-32616": {"city": "Gainesville", "rent": 1430, "zip": "32616"}, "gainesville-32618": {"city": "Gainesville", "rent": 1430, "zip": "32618"}, "gainesville-32619": {"city": "Gainesville", "rent": 1430, "zip": "32619"}, "gainesville-32622": {"city": "Gainesville", "rent": 1430, "zip": "32622"}, "gainesville-32627": {"city": "Gainesville", "rent": 1500, "zip": "32627"}, "gainesville-32631": {"city": "Gainesville", "rent": 1440, "zip": "32631"}, "gainesville-32633": {"city": "Gainesville", "rent": 1500, "zip": "32633"}, "gainesville-32635": {"city": "Gainesville", "rent": 1500, "zip": "32635"}, "gainesville-32640": {"city": "Gainesville", "rent": 1430, "zip": "32640"}, "gainesville-32641": {"city": "Gainesville", "rent": 1430, "zip": "32641"}, "gainesville-32643": {"city": "Gainesville", "rent": 1560, "zip": "32643"}, "gainesville-32653": {"city": "Gainesville", "rent": 1430, "zip": "32653"}, "gainesville-32655": {"city": "Gainesville", "rent": 1500, "zip": "32655"}, "gainesville-32658": {"city": "Gainesville", "rent": 1430, "zip": "32658"}, "gainesville-32666": {"city": "Gainesville", "rent": 1100, "zip": "32666"}, "gainesville-32667": {"city": "Gainesville", "rent": 1430, "zip": "32667"}, "gainesville-32669": {"city": "Gainesville", "rent": 1780, "zip": "32669"}, "gainesville-32693": {"city": "Gainesville", "rent": 1430, "zip": "32693"}, "gainesville-32694": {"city": "Gainesville", "rent": 1430, "zip": "32694"}, "gainesville-32696": {"city": "Gainesville", "rent": 1430, "zip": "32696"}, "homosassa-springs-34423": {"city": "Homosassa Springs", "rent": 1230, "zip": "34423"}, "homosassa-springs-34428": {"city": "Homosassa Springs", "rent": 1080, "zip": "34428"}, "homosassa-springs-34429": {"city": "Homosassa Springs", "rent": 1240, "zip": "34429"}, "homosassa-springs-34433": {"city": "Homosassa Springs", "rent": 1510, "zip": "34433"}, "homosassa-springs-34434": {"city": "Homosassa Springs", "rent": 1430, "zip": "34434"}, "homosassa-springs-34436": {"city": "Homosassa Springs", "rent": 1080, "zip": "34436"}, "homosassa-springs-34441": {"city": "Homosassa Springs", "rent": 1230, "zip": "34441"}, "homosassa-springs-34442": {"city": "Homosassa Springs", "rent": 1100, "zip": "34442"}, "homosassa-springs-34445": {"city": "Homosassa Springs", "rent": 1380, "zip": "34445"}, "homosassa-springs-34446": {"city": "Homosassa Springs", "rent": 1240, "zip": "34446"}, "homosassa-springs-34447": {"city": "Homosassa Springs", "rent": 1230, "zip": "34447"}, "homosassa-springs-34448": {"city": "Homosassa Springs", "rent": 1080, "zip": "34448"}, "homosassa-springs-34449": {"city": "Homosassa Springs", "rent": 1080, "zip": "34449"}, "homosassa-springs-34450": {"city": "Homosassa Springs", "rent": 1140, "zip": "34450"}, "homosassa-springs-34451": {"city": "Homosassa Springs", "rent": 1230, "zip": "34451"}, "homosassa-springs-34452": {"city": "Homosassa Springs", "rent": 1330, "zip": "34452"}, "homosassa-springs-34453": {"city": "Homosassa Springs", "rent": 1190, "zip": "34453"}, "homosassa-springs-34460": {"city": "Homosassa Springs", "rent": 1230, "zip": "34460"}, "homosassa-springs-34461": {"city": "Homosassa Springs", "rent": 1220, "zip": "34461"}, "homosassa-springs-34464": {"city": "Homosassa Springs", "rent": 1230, "zip": "34464"}, "homosassa-springs-34465": {"city": "Homosassa Springs", "rent": 1330, "zip": "34465"}, "homosassa-springs-34487": {"city": "Homosassa Springs", "rent": 1230, "zip": "34487"}, "homosassa-springs-34601": {"city": "Homosassa Springs", "rent": 1460, "zip": "34601"}, "jacksonville-32003": {"city": "Jacksonville", "rent": 2310, "zip": "32003"}, "jacksonville-32004": {"city": "Jacksonville", "rent": 2030, "zip": "32004"}, "jacksonville-32006": {"city": "Jacksonville", "rent": 1720, "zip": "32006"}, "jacksonville-32009": {"city": "Jacksonville", "rent": 1190, "zip": "32009"}, "jacksonville-32011": {"city": "Jacksonville", "rent": 1180, "zip": "32011"}, "jacksonville-32033": {"city": "Jacksonville", "rent": 2050, "zip": "32033"}, "jacksonville-32034": {"city": "Jacksonville", "rent": 1500, "zip": "32034"}, "jacksonville-32035": {"city": "Jacksonville", "rent": 1510, "zip": "32035"}, "jacksonville-32041": {"city": "Jacksonville", "rent": 1510, "zip": "32041"}, "jacksonville-32043": {"city": "Jacksonville", "rent": 1630, "zip": "32043"}, "jacksonville-32046": {"city": "Jacksonville", "rent": 1100, "zip": "32046"}, "jacksonville-32050": {"city": "Jacksonville", "rent": 1720, "zip": "32050"}, "jacksonville-32058": {"city": "Jacksonville", "rent": 1230, "zip": "32058"}, "jacksonville-32065": {"city": "Jacksonville", "rent": 1930, "zip": "32065"}, "jacksonville-32067": {"city": "Jacksonville", "rent": 1720, "zip": "32067"}, "jacksonville-32068": {"city": "Jacksonville", "rent": 1670, "zip": "32068"}, "jacksonville-32073": {"city": "Jacksonville", "rent": 1640, "zip": "32073"}, "jacksonville-32079": {"city": "Jacksonville", "rent": 2010, "zip": "32079"}, "jacksonville-32080": {"city": "Jacksonville", "rent": 1900, "zip": "32080"}, "jacksonville-32081": {"city": "Jacksonville", "rent": 2340, "zip": "32081"}, "jacksonville-32082": {"city": "Jacksonville", "rent": 2210, "zip": "32082"}, "jacksonville-32084": {"city": "Jacksonville", "rent": 1650, "zip": "32084"}, "jacksonville-32085": {"city": "Jacksonville", "rent": 2030, "zip": "32085"}, "jacksonville-32086": {"city": "Jacksonville", "rent": 1800, "zip": "32086"}, "jacksonville-32091": {"city": "Jacksonville", "rent": 1080, "zip": "32091"}, "jacksonville-32092": {"city": "Jacksonville", "rent": 2470, "zip": "32092"}, "jacksonville-32095": {"city": "Jacksonville", "rent": 1690, "zip": "32095"}, "jacksonville-32097": {"city": "Jacksonville", "rent": 2000, "zip": "32097"}, "jacksonville-32131": {"city": "Jacksonville", "rent": 1570, "zip": "32131"}, "jacksonville-32140": {"city": "Jacksonville", "rent": 1380, "zip": "32140"}, "jacksonville-32145": {"city": "Jacksonville", "rent": 1280, "zip": "32145"}, "jacksonville-32160": {"city": "Jacksonville", "rent": 1720, "zip": "32160"}, "jacksonville-32202": {"city": "Jacksonville", "rent": 1380, "zip": "32202"}, "jacksonville-32203": {"city": "Jacksonville", "rent": 1630, "zip": "32203"}, "jacksonville-32204": {"city": "Jacksonville", "rent": 1410, "zip": "32204"}, "jacksonville-32205": {"city": "Jacksonville", "rent": 1510, "zip": "32205"}, "jacksonville-32206": {"city": "Jacksonville", "rent": 1150, "zip": "32206"}, "jacksonville-32207": {"city": "Jacksonville", "rent": 1500, "zip": "32207"}, "jacksonville-32208": {"city": "Jacksonville", "rent": 1450, "zip": "32208"}, "jacksonville-32209": {"city": "Jacksonville", "rent": 1200, "zip": "32209"}, "jacksonville-32210": {"city": "Jacksonville", "rent": 1410, "zip": "32210"}, "jacksonville-32211": {"city": "Jacksonville", "rent": 1360, "zip": "32211"}, "jacksonville-32212": {"city": "Jacksonville", "rent": 2380, "zip": "32212"}, "jacksonville-32214": {"city": "Jacksonville", "rent": 1630, "zip": "32214"}, "jacksonville-32216": {"city": "Jacksonville", "rent": 1530, "zip": "32216"}, "jacksonville-32217": {"city": "Jacksonville", "rent": 1380, "zip": "32217"}, "jacksonville-32218": {"city": "Jacksonville", "rent": 1670, "zip": "32218"}, "jacksonville-32219": {"city": "Jacksonville", "rent": 1410, "zip": "32219"}, "jacksonville-32220": {"city": "Jacksonville", "rent": 1490, "zip": "32220"}, "jacksonville-32221": {"city": "Jacksonville", "rent": 1920, "zip": "32221"}, "jacksonville-32222": {"city": "Jacksonville", "rent": 2000, "zip": "32222"}, "jacksonville-32223": {"city": "Jacksonville", "rent": 1800, "zip": "32223"}, "jacksonville-32224": {"city": "Jacksonville", "rent": 1930, "zip": "32224"}, "jacksonville-32225": {"city": "Jacksonville", "rent": 1930, "zip": "32225"}, "jacksonville-32226": {"city": "Jacksonville", "rent": 2490, "zip": "32226"}, "jacksonville-32227": {"city": "Jacksonville", "rent": 2270, "zip": "32227"}, "jacksonville-32228": {"city": "Jacksonville", "rent": 2270, "zip": "32228"}, "jacksonville-32229": {"city": "Jacksonville", "rent": 1630, "zip": "32229"}, "jacksonville-32233": {"city": "Jacksonville", "rent": 1740, "zip": "32233"}, "jacksonville-32234": {"city": "Jacksonville", "rent": 1130, "zip": "32234"}, "jacksonville-32235": {"city": "Jacksonville", "rent": 1630, "zip": "32235"}, "jacksonville-32236": {"city": "Jacksonville", "rent": 1630, "zip": "32236"}, "jacksonville-32238": {"city": "Jacksonville", "rent": 1630, "zip": "32238"}, "jacksonville-32239": {"city": "Jacksonville", "rent": 1630, "zip": "32239"}, "jacksonville-32240": {"city": "Jacksonville", "rent": 1630, "zip": "32240"}, "jacksonville-32241": {"city": "Jacksonville", "rent": 1630, "zip": "32241"}, "jacksonville-32244": {"city": "Jacksonville", "rent": 1710, "zip": "32244"}, "jacksonville-32245": {"city": "Jacksonville", "rent": 1630, "zip": "32245"}, "jacksonville-32246": {"city": "Jacksonville", "rent": 2050, "zip": "32246"}, "jacksonville-32247": {"city": "Jacksonville", "rent": 1630, "zip": "32247"}, "jacksonville-32250": {"city": "Jacksonville", "rent": 2210, "zip": "32250"}, "jacksonville-32254": {"city": "Jacksonville", "rent": 1300, "zip": "32254"}, "jacksonville-32255": {"city": "Jacksonville", "rent": 1630, "zip": "32255"}, "jacksonville-32256": {"city": "Jacksonville", "rent": 2000, "zip": "32256"}, "jacksonville-32257": {"city": "Jacksonville", "rent": 1620, "zip": "32257"}, "jacksonville-32258": {"city": "Jacksonville", "rent": 2240, "zip": "32258"}, "jacksonville-32259": {"city": "Jacksonville", "rent": 2490, "zip": "32259"}, "jacksonville-32260": {"city": "Jacksonville", "rent": 2030, "zip": "32260"}, "jacksonville-32266": {"city": "Jacksonville", "rent": 1810, "zip": "32266"}, "jacksonville-32277": {"city": "Jacksonville", "rent": 1500, "zip": "32277"}, "jacksonville-32656": {"city": "Jacksonville", "rent": 1230, "zip": "32656"}, "jacksonville-32666": {"city": "Jacksonville", "rent": 1100, "zip": "32666"}, "baker-county-32040": {"city": "Baker County", "rent": 1130, "zip": "32040"}, "baker-county-32063": {"city": "Baker County", "rent": 1270, "zip": "32063"}, "baker-county-32072": {"city": "Baker County", "rent": 1070, "zip": "32072"}, "baker-county-32087": {"city": "Baker County", "rent": 1020, "zip": "32087"}, "baker-county-32234": {"city": "Baker County", "rent": 1130, "zip": "32234"}, "lakeland-winter-haven-33547": {"city": "Lakeland-Winter Haven", "rent": 2970, "zip": "33547"}, "lakeland-winter-haven-33801": {"city": "Lakeland-Winter Haven", "rent": 1440, "zip": "33801"}, "lakeland-winter-haven-33802": {"city": "Lakeland-Winter Haven", "rent": 1500, "zip": "33802"}, "lakeland-winter-haven-33803": {"city": "Lakeland-Winter Haven", "rent": 1720, "zip": "33803"}, "lakeland-winter-haven-33804": {"city": "Lakeland-Winter Haven", "rent": 1500, "zip": "33804"}, "lakeland-winter-haven-33805": {"city": "Lakeland-Winter Haven", "rent": 1460, "zip": "33805"}, "lakeland-winter-haven-33806": {"city": "Lakeland-Winter Haven", "rent": 1500, "zip": "33806"}, "lakeland-winter-haven-33807": {"city": "Lakeland-Winter Haven", "rent": 1500, "zip": "33807"}, "lakeland-winter-haven-33809": {"city": "Lakeland-Winter Haven", "rent": 1700, "zip": "33809"}, "lakeland-winter-haven-33810": {"city": "Lakeland-Winter Haven", "rent": 1680, "zip": "33810"}, "lakeland-winter-haven-33811": {"city": "Lakeland-Winter Haven", "rent": 1490, "zip": "33811"}, "lakeland-winter-haven-33812": {"city": "Lakeland-Winter Haven", "rent": 1840, "zip": "33812"}, "lakeland-winter-haven-33813": {"city": "Lakeland-Winter Haven", "rent": 1950, "zip": "33813"}, "lakeland-winter-haven-33815": {"city": "Lakeland-Winter Haven", "rent": 1250, "zip": "33815"}, "lakeland-winter-haven-33820": {"city": "Lakeland-Winter Haven", "rent": 1500, "zip": "33820"}, "lakeland-winter-haven-33823": {"city": "Lakeland-Winter Haven", "rent": 1220, "zip": "33823"}, "lakeland-winter-haven-33825": {"city": "Lakeland-Winter Haven", "rent": 1210, "zip": "33825"}, "lakeland-winter-haven-33827": {"city": "Lakeland-Winter Haven", "rent": 1850, "zip": "33827"}, "lakeland-winter-haven-33830": {"city": "Lakeland-Winter Haven", "rent": 1250, "zip": "33830"}, "lakeland-winter-haven-33831": {"city": "Lakeland-Winter Haven", "rent": 1500, "zip": "33831"}, "lakeland-winter-haven-33834": {"city": "Lakeland-Winter Haven", "rent": 1330, "zip": "33834"}, "lakeland-winter-haven-33835": {"city": "Lakeland-Winter Haven", "rent": 1390, "zip": "33835"}, "lakeland-winter-haven-33836": {"city": "Lakeland-Winter Haven", "rent": 1500, "zip": "33836"}, "lakeland-winter-haven-33837": {"city": "Lakeland-Winter Haven", "rent": 2050, "zip": "33837"}, "lakeland-winter-haven-33838": {"city": "Lakeland-Winter Haven", "rent": 1550, "zip": "33838"}, "lakeland-winter-haven-33839": {"city": "Lakeland-Winter Haven", "rent": 1560, "zip": "33839"}, "lakeland-winter-haven-33840": {"city": "Lakeland-Winter Haven", "rent": 1720, "zip": "33840"}, "lakeland-winter-haven-33841": {"city": "Lakeland-Winter Haven", "rent": 1210, "zip": "33841"}, "lakeland-winter-haven-33843": {"city": "Lakeland-Winter Haven", "rent": 1210, "zip": "33843"}, "lakeland-winter-haven-33844": {"city": "Lakeland-Winter Haven", "rent": 1400, "zip": "33844"}, "lakeland-winter-haven-33845": {"city": "Lakeland-Winter Haven", "rent": 1500, "zip": "33845"}, "lakeland-winter-haven-33846": {"city": "Lakeland-Winter Haven", "rent": 1500, "zip": "33846"}, "lakeland-winter-haven-33847": {"city": "Lakeland-Winter Haven", "rent": 1210, "zip": "33847"}, "lakeland-winter-haven-33849": {"city": "Lakeland-Winter Haven", "rent": 1550, "zip": "33849"}, "lakeland-winter-haven-33850": {"city": "Lakeland-Winter Haven", "rent": 1260, "zip": "33850"}, "lakeland-winter-haven-33851": {"city": "Lakeland-Winter Haven", "rent": 1450, "zip": "33851"}, "lakeland-winter-haven-33853": {"city": "Lakeland-Winter Haven", "rent": 1220, "zip": "33853"}, "lakeland-winter-haven-33854": {"city": "Lakeland-Winter Haven", "rent": 1210, "zip": "33854"}, "lakeland-winter-haven-33855": {"city": "Lakeland-Winter Haven", "rent": 1320, "zip": "33855"}, "lakeland-winter-haven-33856": {"city": "Lakeland-Winter Haven", "rent": 1210, "zip": "33856"}, "lakeland-winter-haven-33858": {"city": "Lakeland-Winter Haven", "rent": 2250, "zip": "33858"}, "lakeland-winter-haven-33859": {"city": "Lakeland-Winter Haven", "rent": 1360, "zip": "33859"}, "lakeland-winter-haven-33860": {"city": "Lakeland-Winter Haven", "rent": 1390, "zip": "33860"}, "lakeland-winter-haven-33863": {"city": "Lakeland-Winter Haven", "rent": 1500, "zip": "33863"}, "lakeland-winter-haven-33867": {"city": "Lakeland-Winter Haven", "rent": 1330, "zip": "33867"}, "lakeland-winter-haven-33868": {"city": "Lakeland-Winter Haven", "rent": 1280, "zip": "33868"}, "lakeland-winter-haven-33877": {"city": "Lakeland-Winter Haven", "rent": 1450, "zip": "33877"}, "lakeland-winter-haven-33880": {"city": "Lakeland-Winter Haven", "rent": 1340, "zip": "33880"}, "lakeland-winter-haven-33881": {"city": "Lakeland-Winter Haven", "rent": 1370, "zip": "33881"}, "lakeland-winter-haven-33882": {"city": "Lakeland-Winter Haven", "rent": 1500, "zip": "33882"}, "lakeland-winter-haven-33883": {"city": "Lakeland-Winter Haven", "rent": 1500, "zip": "33883"}, "lakeland-winter-haven-33884": {"city": "Lakeland-Winter Haven", "rent": 1750, "zip": "33884"}, "lakeland-winter-haven-33885": {"city": "Lakeland-Winter Haven", "rent": 1500, "zip": "33885"}, "lakeland-winter-haven-33896": {"city": "Lakeland-Winter Haven", "rent": 2280, "zip": "33896"}, "lakeland-winter-haven-33897": {"city": "Lakeland-Winter Haven", "rent": 2230, "zip": "33897"}, "lakeland-winter-haven-33898": {"city": "Lakeland-Winter Haven", "rent": 1330, "zip": "33898"}, "lakeland-winter-haven-34714": {"city": "Lakeland-Winter Haven", "rent": 2000, "zip": "34714"}, "lakeland-winter-haven-34759": {"city": "Lakeland-Winter Haven", "rent": 1910, "zip": "34759"}, "fort-lauderdale-33004": {"city": "Fort Lauderdale", "rent": 2130, "zip": "33004"}, "fort-lauderdale-33008": {"city": "Fort Lauderdale", "rent": 2330, "zip": "33008"}, "fort-lauderdale-33009": {"city": "Fort Lauderdale", "rent": 2390, "zip": "33009"}, "fort-lauderdale-33018": {"city": "Fort Lauderdale", "rent": 2710, "zip": "33018"}, "fort-lauderdale-33019": {"city": "Fort Lauderdale", "rent": 2500, "zip": "33019"}, "fort-lauderdale-33020": {"city": "Fort Lauderdale", "rent": 2380, "zip": "33020"}, "fort-lauderdale-33021": {"city": "Fort Lauderdale", "rent": 2710, "zip": "33021"}, "fort-lauderdale-33022": {"city": "Fort Lauderdale", "rent": 2330, "zip": "33022"}, "fort-lauderdale-33023": {"city": "Fort Lauderdale", "rent": 2230, "zip": "33023"}, "fort-lauderdale-33024": {"city": "Fort Lauderdale", "rent": 2290, "zip": "33024"}, "fort-lauderdale-33025": {"city": "Fort Lauderdale", "rent": 2540, "zip": "33025"}, "fort-lauderdale-33026": {"city": "Fort Lauderdale", "rent": 2620, "zip": "33026"}, "fort-lauderdale-33027": {"city": "Fort Lauderdale", "rent": 2300, "zip": "33027"}, "fort-lauderdale-33028": {"city": "Fort Lauderdale", "rent": 3210, "zip": "33028"}, "fort-lauderdale-33029": {"city": "Fort Lauderdale", "rent": 3230, "zip": "33029"}, "fort-lauderdale-33056": {"city": "Fort Lauderdale", "rent": 2330, "zip": "33056"}, "fort-lauderdale-33060": {"city": "Fort Lauderdale", "rent": 2030, "zip": "33060"}, "fort-lauderdale-33061": {"city": "Fort Lauderdale", "rent": 2330, "zip": "33061"}, "fort-lauderdale-33062": {"city": "Fort Lauderdale", "rent": 2810, "zip": "33062"}, "fort-lauderdale-33063": {"city": "Fort Lauderdale", "rent": 2350, "zip": "33063"}, "fort-lauderdale-33064": {"city": "Fort Lauderdale", "rent": 2460, "zip": "33064"}, "fort-lauderdale-33065": {"city": "Fort Lauderdale", "rent": 2460, "zip": "33065"}, "fort-lauderdale-33066": {"city": "Fort Lauderdale", "rent": 2240, "zip": "33066"}, "fort-lauderdale-33067": {"city": "Fort Lauderdale", "rent": 2680, "zip": "33067"}, "fort-lauderdale-33068": {"city": "Fort Lauderdale", "rent": 2490, "zip": "33068"}, "fort-lauderdale-33069": {"city": "Fort Lauderdale", "rent": 2380, "zip": "33069"}, "fort-lauderdale-33071": {"city": "Fort Lauderdale", "rent": 2660, "zip": "33071"}, "fort-lauderdale-33073": {"city": "Fort Lauderdale", "rent": 2860, "zip": "33073"}, "fort-lauderdale-33074": {"city": "Fort Lauderdale", "rent": 2330, "zip": "33074"}, "fort-lauderdale-33075": {"city": "Fort Lauderdale", "rent": 2330, "zip": "33075"}, "fort-lauderdale-33076": {"city": "Fort Lauderdale", "rent": 3500, "zip": "33076"}, "fort-lauderdale-33077": {"city": "Fort Lauderdale", "rent": 2330, "zip": "33077"}, "fort-lauderdale-33081": {"city": "Fort Lauderdale", "rent": 2330, "zip": "33081"}, "fort-lauderdale-33082": {"city": "Fort Lauderdale", "rent": 2330, "zip": "33082"}, "fort-lauderdale-33083": {"city": "Fort Lauderdale", "rent": 2330, "zip": "33083"}, "fort-lauderdale-33084": {"city": "Fort Lauderdale", "rent": 2330, "zip": "33084"}, "fort-lauderdale-33093": {"city": "Fort Lauderdale", "rent": 2330, "zip": "33093"}, "fort-lauderdale-33097": {"city": "Fort Lauderdale", "rent": 2330, "zip": "33097"}, "fort-lauderdale-33179": {"city": "Fort Lauderdale", "rent": 2670, "zip": "33179"}, "fort-lauderdale-33301": {"city": "Fort Lauderdale", "rent": 3100, "zip": "33301"}, "fort-lauderdale-33302": {"city": "Fort Lauderdale", "rent": 2330, "zip": "33302"}, "fort-lauderdale-33303": {"city": "Fort Lauderdale", "rent": 2330, "zip": "33303"}, "fort-lauderdale-33304": {"city": "Fort Lauderdale", "rent": 2580, "zip": "33304"}, "fort-lauderdale-33305": {"city": "Fort Lauderdale", "rent": 2340, "zip": "33305"}, "fort-lauderdale-33306": {"city": "Fort Lauderdale", "rent": 1800, "zip": "33306"}, "fort-lauderdale-33307": {"city": "Fort Lauderdale", "rent": 2330, "zip": "33307"}, "fort-lauderdale-33308": {"city": "Fort Lauderdale", "rent": 2840, "zip": "33308"}, "fort-lauderdale-33309": {"city": "Fort Lauderdale", "rent": 2330, "zip": "33309"}, "fort-lauderdale-33310": {"city": "Fort Lauderdale", "rent": 2330, "zip": "33310"}, "fort-lauderdale-33311": {"city": "Fort Lauderdale", "rent": 1830, "zip": "33311"}, "fort-lauderdale-33312": {"city": "Fort Lauderdale", "rent": 2140, "zip": "33312"}, "fort-lauderdale-33313": {"city": "Fort Lauderdale", "rent": 2300, "zip": "33313"}, "fort-lauderdale-33314": {"city": "Fort Lauderdale", "rent": 2620, "zip": "33314"}, "fort-lauderdale-33315": {"city": "Fort Lauderdale", "rent": 2290, "zip": "33315"}, "fort-lauderdale-33316": {"city": "Fort Lauderdale", "rent": 2530, "zip": "33316"}, "fort-lauderdale-33317": {"city": "Fort Lauderdale", "rent": 2510, "zip": "33317"}, "fort-lauderdale-33318": {"city": "Fort Lauderdale", "rent": 2330, "zip": "33318"}, "fort-lauderdale-33319": {"city": "Fort Lauderdale", "rent": 2330, "zip": "33319"}, "fort-lauderdale-33320": {"city": "Fort Lauderdale", "rent": 2330, "zip": "33320"}, "fort-lauderdale-33321": {"city": "Fort Lauderdale", "rent": 2740, "zip": "33321"}, "fort-lauderdale-33322": {"city": "Fort Lauderdale", "rent": 2730, "zip": "33322"}, "fort-lauderdale-33323": {"city": "Fort Lauderdale", "rent": 3270, "zip": "33323"}, "fort-lauderdale-33324": {"city": "Fort Lauderdale", "rent": 2950, "zip": "33324"}, "fort-lauderdale-33325": {"city": "Fort Lauderdale", "rent": 2680, "zip": "33325"}, "fort-lauderdale-33326": {"city": "Fort Lauderdale", "rent": 3090, "zip": "33326"}, "fort-lauderdale-33327": {"city": "Fort Lauderdale", "rent": 3500, "zip": "33327"}, "fort-lauderdale-33328": {"city": "Fort Lauderdale", "rent": 2750, "zip": "33328"}, "fort-lauderdale-33329": {"city": "Fort Lauderdale", "rent": 2330, "zip": "33329"}, "fort-lauderdale-33330": {"city": "Fort Lauderdale", "rent": 3500, "zip": "33330"}, "fort-lauderdale-33331": {"city": "Fort Lauderdale", "rent": 3500, "zip": "33331"}, "fort-lauderdale-33332": {"city": "Fort Lauderdale", "rent": 3500, "zip": "33332"}, "fort-lauderdale-33334": {"city": "Fort Lauderdale", "rent": 2340, "zip": "33334"}, "fort-lauderdale-33335": {"city": "Fort Lauderdale", "rent": 2330, "zip": "33335"}, "fort-lauderdale-33338": {"city": "Fort Lauderdale", "rent": 2330, "zip": "33338"}, "fort-lauderdale-33339": {"city": "Fort Lauderdale", "rent": 2330, "zip": "33339"}, "fort-lauderdale-33345": {"city": "Fort Lauderdale", "rent": 2330, "zip": "33345"}, "fort-lauderdale-33346": {"city": "Fort Lauderdale", "rent": 2330, "zip": "33346"}, "fort-lauderdale-33348": {"city": "Fort Lauderdale", "rent": 2330, "zip": "33348"}, "fort-lauderdale-33351": {"city": "Fort Lauderdale", "rent": 2480, "zip": "33351"}, "fort-lauderdale-33355": {"city": "Fort Lauderdale", "rent": 2330, "zip": "33355"}, "fort-lauderdale-33359": {"city": "Fort Lauderdale", "rent": 2330, "zip": "33359"}, "fort-lauderdale-33388": {"city": "Fort Lauderdale", "rent": 2330, "zip": "33388"}, "fort-lauderdale-33394": {"city": "Fort Lauderdale", "rent": 2330, "zip": "33394"}, "fort-lauderdale-33432": {"city": "Fort Lauderdale", "rent": 3050, "zip": "33432"}, "fort-lauderdale-33441": {"city": "Fort Lauderdale", "rent": 2060, "zip": "33441"}, "fort-lauderdale-33442": {"city": "Fort Lauderdale", "rent": 2570, "zip": "33442"}, "fort-lauderdale-33443": {"city": "Fort Lauderdale", "rent": 2330, "zip": "33443"}, "miami-miami-beach-kendall-33002": {"city": "Miami-Miami Beach-Kendall", "rent": 2440, "zip": "33002"}, "miami-miami-beach-kendall-33010": {"city": "Miami-Miami Beach-Kendall", "rent": 2230, "zip": "33010"}, "miami-miami-beach-kendall-33011": {"city": "Miami-Miami Beach-Kendall", "rent": 2440, "zip": "33011"}, "miami-miami-beach-kendall-33012": {"city": "Miami-Miami Beach-Kendall", "rent": 2450, "zip": "33012"}, "miami-miami-beach-kendall-33013": {"city": "Miami-Miami Beach-Kendall", "rent": 2100, "zip": "33013"}, "miami-miami-beach-kendall-33014": {"city": "Miami-Miami Beach-Kendall", "rent": 2690, "zip": "33014"}, "miami-miami-beach-kendall-33015": {"city": "Miami-Miami Beach-Kendall", "rent": 2840, "zip": "33015"}, "miami-miami-beach-kendall-33016": {"city": "Miami-Miami Beach-Kendall", "rent": 2610, "zip": "33016"}, "miami-miami-beach-kendall-33017": {"city": "Miami-Miami Beach-Kendall", "rent": 2440, "zip": "33017"}, "miami-miami-beach-kendall-33018": {"city": "Miami-Miami Beach-Kendall", "rent": 2710, "zip": "33018"}, "miami-miami-beach-kendall-33023": {"city": "Miami-Miami Beach-Kendall", "rent": 2230, "zip": "33023"}, "miami-miami-beach-kendall-33030": {"city": "Miami-Miami Beach-Kendall", "rent": 1940, "zip": "33030"}, "miami-miami-beach-kendall-33031": {"city": "Miami-Miami Beach-Kendall", "rent": 2340, "zip": "33031"}, "miami-miami-beach-kendall-33032": {"city": "Miami-Miami Beach-Kendall", "rent": 2290, "zip": "33032"}, "miami-miami-beach-kendall-33033": {"city": "Miami-Miami Beach-Kendall", "rent": 2210, "zip": "33033"}, "miami-miami-beach-kendall-33034": {"city": "Miami-Miami Beach-Kendall", "rent": 1920, "zip": "33034"}, "miami-miami-beach-kendall-33035": {"city": "Miami-Miami Beach-Kendall", "rent": 2660, "zip": "33035"}, "miami-miami-beach-kendall-33039": {"city": "Miami-Miami Beach-Kendall", "rent": 2440, "zip": "33039"}, "miami-miami-beach-kendall-33054": {"city": "Miami-Miami Beach-Kendall", "rent": 1930, "zip": "33054"}, "miami-miami-beach-kendall-33055": {"city": "Miami-Miami Beach-Kendall", "rent": 2310, "zip": "33055"}, "miami-miami-beach-kendall-33056": {"city": "Miami-Miami Beach-Kendall", "rent": 2330, "zip": "33056"}, "miami-miami-beach-kendall-33090": {"city": "Miami-Miami Beach-Kendall", "rent": 2440, "zip": "33090"}, "miami-miami-beach-kendall-33092": {"city": "Miami-Miami Beach-Kendall", "rent": 2440, "zip": "33092"}, "miami-miami-beach-kendall-33101": {"city": "Miami-Miami Beach-Kendall", "rent": 2440, "zip": "33101"}, "miami-miami-beach-kendall-33106": {"city": "Miami-Miami Beach-Kendall", "rent": 2440, "zip": "33106"}, "miami-miami-beach-kendall-33109": {"city": "Miami-Miami Beach-Kendall", "rent": 3580, "zip": "33109"}, "miami-miami-beach-kendall-33114": {"city": "Miami-Miami Beach-Kendall", "rent": 2440, "zip": "33114"}, "miami-miami-beach-kendall-33116": {"city": "Miami-Miami Beach-Kendall", "rent": 2440, "zip": "33116"}, "miami-miami-beach-kendall-33119": {"city": "Miami-Miami Beach-Kendall", "rent": 2440, "zip": "33119"}, "miami-miami-beach-kendall-33122": {"city": "Miami-Miami Beach-Kendall", "rent": 3420, "zip": "33122"}, "miami-miami-beach-kendall-33124": {"city": "Miami-Miami Beach-Kendall", "rent": 2440, "zip": "33124"}, "miami-miami-beach-kendall-33125": {"city": "Miami-Miami Beach-Kendall", "rent": 2420, "zip": "33125"}, "miami-miami-beach-kendall-33126": {"city": "Miami-Miami Beach-Kendall", "rent": 2650, "zip": "33126"}, "miami-miami-beach-kendall-33127": {"city": "Miami-Miami Beach-Kendall", "rent": 2140, "zip": "33127"}, "miami-miami-beach-kendall-33128": {"city": "Miami-Miami Beach-Kendall", "rent": 1910, "zip": "33128"}, "miami-miami-beach-kendall-33129": {"city": "Miami-Miami Beach-Kendall", "rent": 3150, "zip": "33129"}, "miami-miami-beach-kendall-33130": {"city": "Miami-Miami Beach-Kendall", "rent": 2710, "zip": "33130"}, "miami-miami-beach-kendall-33131": {"city": "Miami-Miami Beach-Kendall", "rent": 3650, "zip": "33131"}, "miami-miami-beach-kendall-33132": {"city": "Miami-Miami Beach-Kendall", "rent": 3540, "zip": "33132"}, "miami-miami-beach-kendall-33133": {"city": "Miami-Miami Beach-Kendall", "rent": 3040, "zip": "33133"}, "miami-miami-beach-kendall-33134": {"city": "Miami-Miami Beach-Kendall", "rent": 2890, "zip": "33134"}, "miami-miami-beach-kendall-33135": {"city": "Miami-Miami Beach-Kendall", "rent": 2240, "zip": "33135"}, "miami-miami-beach-kendall-33136": {"city": "Miami-Miami Beach-Kendall", "rent": 1890, "zip": "33136"}, "miami-miami-beach-kendall-33137": {"city": "Miami-Miami Beach-Kendall", "rent": 3490, "zip": "33137"}, "miami-miami-beach-kendall-33138": {"city": "Miami-Miami Beach-Kendall", "rent": 2160, "zip": "33138"}, "miami-miami-beach-kendall-33139": {"city": "Miami-Miami Beach-Kendall", "rent": 3610, "zip": "33139"}, "miami-miami-beach-kendall-33140": {"city": "Miami-Miami Beach-Kendall", "rent": 3080, "zip": "33140"}, "miami-miami-beach-kendall-33141": {"city": "Miami-Miami Beach-Kendall", "rent": 2910, "zip": "33141"}, "miami-miami-beach-kendall-33142": {"city": "Miami-Miami Beach-Kendall", "rent": 2090, "zip": "33142"}, "miami-miami-beach-kendall-33143": {"city": "Miami-Miami Beach-Kendall", "rent": 2910, "zip": "33143"}, "miami-miami-beach-kendall-33144": {"city": "Miami-Miami Beach-Kendall", "rent": 2390, "zip": "33144"}, "miami-miami-beach-kendall-33145": {"city": "Miami-Miami Beach-Kendall", "rent": 2950, "zip": "33145"}, "miami-miami-beach-kendall-33146": {"city": "Miami-Miami Beach-Kendall", "rent": 3650, "zip": "33146"}, "miami-miami-beach-kendall-33147": {"city": "Miami-Miami Beach-Kendall", "rent": 2150, "zip": "33147"}, "miami-miami-beach-kendall-33149": {"city": "Miami-Miami Beach-Kendall", "rent": 3450, "zip": "33149"}, "miami-miami-beach-kendall-33150": {"city": "Miami-Miami Beach-Kendall", "rent": 1960, "zip": "33150"}, "miami-miami-beach-kendall-33152": {"city": "Miami-Miami Beach-Kendall", "rent": 2440, "zip": "33152"}, "miami-miami-beach-kendall-33153": {"city": "Miami-Miami Beach-Kendall", "rent": 2440, "zip": "33153"}, "miami-miami-beach-kendall-33154": {"city": "Miami-Miami Beach-Kendall", "rent": 3070, "zip": "33154"}, "miami-miami-beach-kendall-33155": {"city": "Miami-Miami Beach-Kendall", "rent": 2740, "zip": "33155"}, "miami-miami-beach-kendall-33156": {"city": "Miami-Miami Beach-Kendall", "rent": 2810, "zip": "33156"}, "miami-miami-beach-kendall-33157": {"city": "Miami-Miami Beach-Kendall", "rent": 2280, "zip": "33157"}, "miami-miami-beach-kendall-33158": {"city": "Miami-Miami Beach-Kendall", "rent": 3650, "zip": "33158"}, "miami-miami-beach-kendall-33160": {"city": "Miami-Miami Beach-Kendall", "rent": 3260, "zip": "33160"}, "miami-miami-beach-kendall-33161": {"city": "Miami-Miami Beach-Kendall", "rent": 2420, "zip": "33161"}, "miami-miami-beach-kendall-33162": {"city": "Miami-Miami Beach-Kendall", "rent": 2110, "zip": "33162"}, "miami-miami-beach-kendall-33163": {"city": "Miami-Miami Beach-Kendall", "rent": 2440, "zip": "33163"}, "miami-miami-beach-kendall-33164": {"city": "Miami-Miami Beach-Kendall", "rent": 2440, "zip": "33164"}, "miami-miami-beach-kendall-33165": {"city": "Miami-Miami Beach-Kendall", "rent": 2560, "zip": "33165"}, "miami-miami-beach-kendall-33166": {"city": "Miami-Miami Beach-Kendall", "rent": 2450, "zip": "33166"}, "miami-miami-beach-kendall-33167": {"city": "Miami-Miami Beach-Kendall", "rent": 2080, "zip": "33167"}, "miami-miami-beach-kendall-33168": {"city": "Miami-Miami Beach-Kendall", "rent": 2170, "zip": "33168"}, "miami-miami-beach-kendall-33169": {"city": "Miami-Miami Beach-Kendall", "rent": 2170, "zip": "33169"}, "miami-miami-beach-kendall-33170": {"city": "Miami-Miami Beach-Kendall", "rent": 2270, "zip": "33170"}, "miami-miami-beach-kendall-33172": {"city": "Miami-Miami Beach-Kendall", "rent": 2920, "zip": "33172"}, "miami-miami-beach-kendall-33173": {"city": "Miami-Miami Beach-Kendall", "rent": 2770, "zip": "33173"}, "miami-miami-beach-kendall-33174": {"city": "Miami-Miami Beach-Kendall", "rent": 2550, "zip": "33174"}, "miami-miami-beach-kendall-33175": {"city": "Miami-Miami Beach-Kendall", "rent": 2720, "zip": "33175"}, "miami-miami-beach-kendall-33176": {"city": "Miami-Miami Beach-Kendall", "rent": 2610, "zip": "33176"}, "miami-miami-beach-kendall-33177": {"city": "Miami-Miami Beach-Kendall", "rent": 2900, "zip": "33177"}, "miami-miami-beach-kendall-33178": {"city": "Miami-Miami Beach-Kendall", "rent": 3650, "zip": "33178"}, "miami-miami-beach-kendall-33179": {"city": "Miami-Miami Beach-Kendall", "rent": 2670, "zip": "33179"}, "miami-miami-beach-kendall-33180": {"city": "Miami-Miami Beach-Kendall", "rent": 3650, "zip": "33180"}, "miami-miami-beach-kendall-33181": {"city": "Miami-Miami Beach-Kendall", "rent": 2250, "zip": "33181"}, "miami-miami-beach-kendall-33182": {"city": "Miami-Miami Beach-Kendall", "rent": 3330, "zip": "33182"}, "miami-miami-beach-kendall-33183": {"city": "Miami-Miami Beach-Kendall", "rent": 2630, "zip": "33183"}, "miami-miami-beach-kendall-33184": {"city": "Miami-Miami Beach-Kendall", "rent": 2800, "zip": "33184"}, "miami-miami-beach-kendall-33185": {"city": "Miami-Miami Beach-Kendall", "rent": 3650, "zip": "33185"}, "miami-miami-beach-kendall-33186": {"city": "Miami-Miami Beach-Kendall", "rent": 2910, "zip": "33186"}, "miami-miami-beach-kendall-33187": {"city": "Miami-Miami Beach-Kendall", "rent": 3070, "zip": "33187"}, "miami-miami-beach-kendall-33189": {"city": "Miami-Miami Beach-Kendall", "rent": 2250, "zip": "33189"}, "miami-miami-beach-kendall-33190": {"city": "Miami-Miami Beach-Kendall", "rent": 2410, "zip": "33190"}, "miami-miami-beach-kendall-33191": {"city": "Miami-Miami Beach-Kendall", "rent": 2440, "zip": "33191"}, "miami-miami-beach-kendall-33192": {"city": "Miami-Miami Beach-Kendall", "rent": 2440, "zip": "33192"}, "miami-miami-beach-kendall-33193": {"city": "Miami-Miami Beach-Kendall", "rent": 2620, "zip": "33193"}, "miami-miami-beach-kendall-33194": {"city": "Miami-Miami Beach-Kendall", "rent": 3650, "zip": "33194"}, "miami-miami-beach-kendall-33195": {"city": "Miami-Miami Beach-Kendall", "rent": 2440, "zip": "33195"}, "miami-miami-beach-kendall-33196": {"city": "Miami-Miami Beach-Kendall", "rent": 3000, "zip": "33196"}, "miami-miami-beach-kendall-33197": {"city": "Miami-Miami Beach-Kendall", "rent": 2440, "zip": "33197"}, "miami-miami-beach-kendall-33198": {"city": "Miami-Miami Beach-Kendall", "rent": 2440, "zip": "33198"}, "miami-miami-beach-kendall-33222": {"city": "Miami-Miami Beach-Kendall", "rent": 2440, "zip": "33222"}, "miami-miami-beach-kendall-33231": {"city": "Miami-Miami Beach-Kendall", "rent": 2440, "zip": "33231"}, "miami-miami-beach-kendall-33233": {"city": "Miami-Miami Beach-Kendall", "rent": 2440, "zip": "33233"}, "miami-miami-beach-kendall-33234": {"city": "Miami-Miami Beach-Kendall", "rent": 2440, "zip": "33234"}, "miami-miami-beach-kendall-33238": {"city": "Miami-Miami Beach-Kendall", "rent": 2440, "zip": "33238"}, "miami-miami-beach-kendall-33239": {"city": "Miami-Miami Beach-Kendall", "rent": 2440, "zip": "33239"}, "miami-miami-beach-kendall-33242": {"city": "Miami-Miami Beach-Kendall", "rent": 2440, "zip": "33242"}, "miami-miami-beach-kendall-33243": {"city": "Miami-Miami Beach-Kendall", "rent": 2440, "zip": "33243"}, "miami-miami-beach-kendall-33245": {"city": "Miami-Miami Beach-Kendall", "rent": 2440, "zip": "33245"}, "miami-miami-beach-kendall-33247": {"city": "Miami-Miami Beach-Kendall", "rent": 2440, "zip": "33247"}, "miami-miami-beach-kendall-33255": {"city": "Miami-Miami Beach-Kendall", "rent": 2440, "zip": "33255"}, "miami-miami-beach-kendall-33256": {"city": "Miami-Miami Beach-Kendall", "rent": 2440, "zip": "33256"}, "miami-miami-beach-kendall-33257": {"city": "Miami-Miami Beach-Kendall", "rent": 2440, "zip": "33257"}, "miami-miami-beach-kendall-33261": {"city": "Miami-Miami Beach-Kendall", "rent": 2440, "zip": "33261"}, "miami-miami-beach-kendall-33265": {"city": "Miami-Miami Beach-Kendall", "rent": 2440, "zip": "33265"}, "miami-miami-beach-kendall-33266": {"city": "Miami-Miami Beach-Kendall", "rent": 2440, "zip": "33266"}, "miami-miami-beach-kendall-33269": {"city": "Miami-Miami Beach-Kendall", "rent": 2440, "zip": "33269"}, "miami-miami-beach-kendall-33280": {"city": "Miami-Miami Beach-Kendall", "rent": 2440, "zip": "33280"}, "miami-miami-beach-kendall-33283": {"city": "Miami-Miami Beach-Kendall", "rent": 2440, "zip": "33283"}, "miami-miami-beach-kendall-33296": {"city": "Miami-Miami Beach-Kendall", "rent": 2440, "zip": "33296"}, "miami-miami-beach-kendall-34141": {"city": "Miami-Miami Beach-Kendall", "rent": 1970, "zip": "34141"}, "west-palm-beach-boca-raton-33401": {"city": "West Palm Beach-Boca Raton", "rent": 2270, "zip": "33401"}, "west-palm-beach-boca-raton-33402": {"city": "West Palm Beach-Boca Raton", "rent": 2250, "zip": "33402"}, "west-palm-beach-boca-raton-33403": {"city": "West Palm Beach-Boca Raton", "rent": 1820, "zip": "33403"}, "west-palm-beach-boca-raton-33404": {"city": "West Palm Beach-Boca Raton", "rent": 1810, "zip": "33404"}, "west-palm-beach-boca-raton-33405": {"city": "West Palm Beach-Boca Raton", "rent": 1810, "zip": "33405"}, "west-palm-beach-boca-raton-33406": {"city": "West Palm Beach-Boca Raton", "rent": 2060, "zip": "33406"}, "west-palm-beach-boca-raton-33407": {"city": "West Palm Beach-Boca Raton", "rent": 2170, "zip": "33407"}, "west-palm-beach-boca-raton-33408": {"city": "West Palm Beach-Boca Raton", "rent": 2290, "zip": "33408"}, "west-palm-beach-boca-raton-33409": {"city": "West Palm Beach-Boca Raton", "rent": 2280, "zip": "33409"}, "west-palm-beach-boca-raton-33410": {"city": "West Palm Beach-Boca Raton", "rent": 2600, "zip": "33410"}, "west-palm-beach-boca-raton-33411": {"city": "West Palm Beach-Boca Raton", "rent": 2360, "zip": "33411"}, "west-palm-beach-boca-raton-33412": {"city": "West Palm Beach-Boca Raton", "rent": 2480, "zip": "33412"}, "west-palm-beach-boca-raton-33413": {"city": "West Palm Beach-Boca Raton", "rent": 2530, "zip": "33413"}, "west-palm-beach-boca-raton-33414": {"city": "West Palm Beach-Boca Raton", "rent": 2860, "zip": "33414"}, "west-palm-beach-boca-raton-33415": {"city": "West Palm Beach-Boca Raton", "rent": 2130, "zip": "33415"}, "west-palm-beach-boca-raton-33416": {"city": "West Palm Beach-Boca Raton", "rent": 2250, "zip": "33416"}, "west-palm-beach-boca-raton-33417": {"city": "West Palm Beach-Boca Raton", "rent": 2310, "zip": "33417"}, "west-palm-beach-boca-raton-33418": {"city": "West Palm Beach-Boca Raton", "rent": 2870, "zip": "33418"}, "west-palm-beach-boca-raton-33419": {"city": "West Palm Beach-Boca Raton", "rent": 2250, "zip": "33419"}, "west-palm-beach-boca-raton-33420": {"city": "West Palm Beach-Boca Raton", "rent": 2250, "zip": "33420"}, "west-palm-beach-boca-raton-33421": {"city": "West Palm Beach-Boca Raton", "rent": 2250, "zip": "33421"}, "west-palm-beach-boca-raton-33422": {"city": "West Palm Beach-Boca Raton", "rent": 2250, "zip": "33422"}, "west-palm-beach-boca-raton-33424": {"city": "West Palm Beach-Boca Raton", "rent": 2250, "zip": "33424"}, "west-palm-beach-boca-raton-33425": {"city": "West Palm Beach-Boca Raton", "rent": 2250, "zip": "33425"}, "west-palm-beach-boca-raton-33426": {"city": "West Palm Beach-Boca Raton", "rent": 2440, "zip": "33426"}, "west-palm-beach-boca-raton-33427": {"city": "West Palm Beach-Boca Raton", "rent": 2250, "zip": "33427"}, "west-palm-beach-boca-raton-33428": {"city": "West Palm Beach-Boca Raton", "rent": 2820, "zip": "33428"}, "west-palm-beach-boca-raton-33429": {"city": "West Palm Beach-Boca Raton", "rent": 2250, "zip": "33429"}, "west-palm-beach-boca-raton-33430": {"city": "West Palm Beach-Boca Raton", "rent": 1050, "zip": "33430"}, "west-palm-beach-boca-raton-33431": {"city": "West Palm Beach-Boca Raton", "rent": 2870, "zip": "33431"}, "west-palm-beach-boca-raton-33432": {"city": "West Palm Beach-Boca Raton", "rent": 3050, "zip": "33432"}, "west-palm-beach-boca-raton-33433": {"city": "West Palm Beach-Boca Raton", "rent": 3050, "zip": "33433"}, "west-palm-beach-boca-raton-33434": {"city": "West Palm Beach-Boca Raton", "rent": 1910, "zip": "33434"}, "west-palm-beach-boca-raton-33435": {"city": "West Palm Beach-Boca Raton", "rent": 2470, "zip": "33435"}, "west-palm-beach-boca-raton-33436": {"city": "West Palm Beach-Boca Raton", "rent": 2690, "zip": "33436"}, "west-palm-beach-boca-raton-33437": {"city": "West Palm Beach-Boca Raton", "rent": 2420, "zip": "33437"}, "west-palm-beach-boca-raton-33438": {"city": "West Palm Beach-Boca Raton", "rent": 1600, "zip": "33438"}, "west-palm-beach-boca-raton-33440": {"city": "West Palm Beach-Boca Raton", "rent": 1200, "zip": "33440"}, "west-palm-beach-boca-raton-33441": {"city": "West Palm Beach-Boca Raton", "rent": 2060, "zip": "33441"}, "west-palm-beach-boca-raton-33444": {"city": "West Palm Beach-Boca Raton", "rent": 2130, "zip": "33444"}, "west-palm-beach-boca-raton-33445": {"city": "West Palm Beach-Boca Raton", "rent": 2440, "zip": "33445"}, "west-palm-beach-boca-raton-33446": {"city": "West Palm Beach-Boca Raton", "rent": 2070, "zip": "33446"}, "west-palm-beach-boca-raton-33448": {"city": "West Palm Beach-Boca Raton", "rent": 2250, "zip": "33448"}, "west-palm-beach-boca-raton-33449": {"city": "West Palm Beach-Boca Raton", "rent": 3380, "zip": "33449"}, "west-palm-beach-boca-raton-33454": {"city": "West Palm Beach-Boca Raton", "rent": 2250, "zip": "33454"}, "west-palm-beach-boca-raton-33458": {"city": "West Palm Beach-Boca Raton", "rent": 2630, "zip": "33458"}, "west-palm-beach-boca-raton-33460": {"city": "West Palm Beach-Boca Raton", "rent": 2070, "zip": "33460"}, "west-palm-beach-boca-raton-33461": {"city": "West Palm Beach-Boca Raton", "rent": 2160, "zip": "33461"}, "west-palm-beach-boca-raton-33462": {"city": "West Palm Beach-Boca Raton", "rent": 2040, "zip": "33462"}, "west-palm-beach-boca-raton-33463": {"city": "West Palm Beach-Boca Raton", "rent": 2180, "zip": "33463"}, "west-palm-beach-boca-raton-33465": {"city": "West Palm Beach-Boca Raton", "rent": 2250, "zip": "33465"}, "west-palm-beach-boca-raton-33466": {"city": "West Palm Beach-Boca Raton", "rent": 2250, "zip": "33466"}, "west-palm-beach-boca-raton-33467": {"city": "West Palm Beach-Boca Raton", "rent": 2270, "zip": "33467"}, "west-palm-beach-boca-raton-33468": {"city": "West Palm Beach-Boca Raton", "rent": 2250, "zip": "33468"}, "west-palm-beach-boca-raton-33469": {"city": "West Palm Beach-Boca Raton", "rent": 2370, "zip": "33469"}, "west-palm-beach-boca-raton-33470": {"city": "West Palm Beach-Boca Raton", "rent": 3280, "zip": "33470"}, "west-palm-beach-boca-raton-33472": {"city": "West Palm Beach-Boca Raton", "rent": 2920, "zip": "33472"}, "west-palm-beach-boca-raton-33473": {"city": "West Palm Beach-Boca Raton", "rent": 2960, "zip": "33473"}, "west-palm-beach-boca-raton-33474": {"city": "West Palm Beach-Boca Raton", "rent": 2250, "zip": "33474"}, "west-palm-beach-boca-raton-33476": {"city": "West Palm Beach-Boca Raton", "rent": 1150, "zip": "33476"}, "west-palm-beach-boca-raton-33477": {"city": "West Palm Beach-Boca Raton", "rent": 3050, "zip": "33477"}, "west-palm-beach-boca-raton-33478": {"city": "West Palm Beach-Boca Raton", "rent": 2400, "zip": "33478"}, "west-palm-beach-boca-raton-33480": {"city": "West Palm Beach-Boca Raton", "rent": 2410, "zip": "33480"}, "west-palm-beach-boca-raton-33481": {"city": "West Palm Beach-Boca Raton", "rent": 2250, "zip": "33481"}, "west-palm-beach-boca-raton-33482": {"city": "West Palm Beach-Boca Raton", "rent": 2250, "zip": "33482"}, "west-palm-beach-boca-raton-33483": {"city": "West Palm Beach-Boca Raton", "rent": 3040, "zip": "33483"}, "west-palm-beach-boca-raton-33484": {"city": "West Palm Beach-Boca Raton", "rent": 2140, "zip": "33484"}, "west-palm-beach-boca-raton-33486": {"city": "West Palm Beach-Boca Raton", "rent": 2850, "zip": "33486"}, "west-palm-beach-boca-raton-33487": {"city": "West Palm Beach-Boca Raton", "rent": 2870, "zip": "33487"}, "west-palm-beach-boca-raton-33488": {"city": "West Palm Beach-Boca Raton", "rent": 2250, "zip": "33488"}, "west-palm-beach-boca-raton-33493": {"city": "West Palm Beach-Boca Raton", "rent": 1420, "zip": "33493"}, "west-palm-beach-boca-raton-33496": {"city": "West Palm Beach-Boca Raton", "rent": 3210, "zip": "33496"}, "west-palm-beach-boca-raton-33497": {"city": "West Palm Beach-Boca Raton", "rent": 2250, "zip": "33497"}, "west-palm-beach-boca-raton-33498": {"city": "West Palm Beach-Boca Raton", "rent": 2960, "zip": "33498"}, "naples-marco-island-33928": {"city": "Naples-Marco Island", "rent": 2550, "zip": "33928"}, "naples-marco-island-34101": {"city": "Naples-Marco Island", "rent": 1990, "zip": "34101"}, "naples-marco-island-34102": {"city": "Naples-Marco Island", "rent": 1810, "zip": "34102"}, "naples-marco-island-34103": {"city": "Naples-Marco Island", "rent": 2210, "zip": "34103"}, "naples-marco-island-34104": {"city": "Naples-Marco Island", "rent": 1980, "zip": "34104"}, "naples-marco-island-34105": {"city": "Naples-Marco Island", "rent": 2320, "zip": "34105"}, "naples-marco-island-34106": {"city": "Naples-Marco Island", "rent": 1990, "zip": "34106"}, "naples-marco-island-34107": {"city": "Naples-Marco Island", "rent": 1990, "zip": "34107"}, "naples-marco-island-34108": {"city": "Naples-Marco Island", "rent": 2350, "zip": "34108"}, "naples-marco-island-34109": {"city": "Naples-Marco Island", "rent": 2100, "zip": "34109"}, "naples-marco-island-34110": {"city": "Naples-Marco Island", "rent": 2230, "zip": "34110"}, "naples-marco-island-34112": {"city": "Naples-Marco Island", "rent": 1730, "zip": "34112"}, "naples-marco-island-34113": {"city": "Naples-Marco Island", "rent": 2090, "zip": "34113"}, "naples-marco-island-34114": {"city": "Naples-Marco Island", "rent": 2230, "zip": "34114"}, "naples-marco-island-34116": {"city": "Naples-Marco Island", "rent": 1890, "zip": "34116"}, "naples-marco-island-34117": {"city": "Naples-Marco Island", "rent": 2000, "zip": "34117"}, "naples-marco-island-34119": {"city": "Naples-Marco Island", "rent": 2120, "zip": "34119"}, "naples-marco-island-34120": {"city": "Naples-Marco Island", "rent": 2460, "zip": "34120"}, "naples-marco-island-34134": {"city": "Naples-Marco Island", "rent": 2150, "zip": "34134"}, "naples-marco-island-34135": {"city": "Naples-Marco Island", "rent": 2190, "zip": "34135"}, "naples-marco-island-34137": {"city": "Naples-Marco Island", "rent": 1910, "zip": "34137"}, "naples-marco-island-34138": {"city": "Naples-Marco Island", "rent": 1990, "zip": "34138"}, "naples-marco-island-34139": {"city": "Naples-Marco Island", "rent": 1990, "zip": "34139"}, "naples-marco-island-34140": {"city": "Naples-Marco Island", "rent": 2330, "zip": "34140"}, "naples-marco-island-34141": {"city": "Naples-Marco Island", "rent": 1970, "zip": "34141"}, "naples-marco-island-34142": {"city": "Naples-Marco Island", "rent": 1680, "zip": "34142"}, "naples-marco-island-34145": {"city": "Naples-Marco Island", "rent": 2340, "zip": "34145"}, "naples-marco-island-34146": {"city": "Naples-Marco Island", "rent": 1990, "zip": "34146"}, "north-port-bradenton-sarasota-33598": {"city": "North Port-Bradenton-Sarasota", "rent": 1640, "zip": "33598"}, "north-port-bradenton-sarasota-34201": {"city": "North Port-Bradenton-Sarasota", "rent": 2410, "zip": "34201"}, "north-port-bradenton-sarasota-34202": {"city": "North Port-Bradenton-Sarasota", "rent": 2550, "zip": "34202"}, "north-port-bradenton-sarasota-34203": {"city": "North Port-Bradenton-Sarasota", "rent": 1680, "zip": "34203"}, "north-port-bradenton-sarasota-34204": {"city": "North Port-Bradenton-Sarasota", "rent": 1850, "zip": "34204"}, "north-port-bradenton-sarasota-34205": {"city": "North Port-Bradenton-Sarasota", "rent": 1570, "zip": "34205"}, "north-port-bradenton-sarasota-34206": {"city": "North Port-Bradenton-Sarasota", "rent": 1850, "zip": "34206"}, "north-port-bradenton-sarasota-34207": {"city": "North Port-Bradenton-Sarasota", "rent": 1670, "zip": "34207"}, "north-port-bradenton-sarasota-34208": {"city": "North Port-Bradenton-Sarasota", "rent": 1750, "zip": "34208"}, "north-port-bradenton-sarasota-34209": {"city": "North Port-Bradenton-Sarasota", "rent": 2100, "zip": "34209"}, "north-port-bradenton-sarasota-34210": {"city": "North Port-Bradenton-Sarasota", "rent": 1770, "zip": "34210"}, "north-port-bradenton-sarasota-34211": {"city": "North Port-Bradenton-Sarasota", "rent": 2440, "zip": "34211"}, "north-port-bradenton-sarasota-34212": {"city": "North Port-Bradenton-Sarasota", "rent": 2330, "zip": "34212"}, "north-port-bradenton-sarasota-34215": {"city": "North Port-Bradenton-Sarasota", "rent": 1920, "zip": "34215"}, "north-port-bradenton-sarasota-34216": {"city": "North Port-Bradenton-Sarasota", "rent": 2110, "zip": "34216"}, "north-port-bradenton-sarasota-34217": {"city": "North Port-Bradenton-Sarasota", "rent": 2110, "zip": "34217"}, "north-port-bradenton-sarasota-34219": {"city": "North Port-Bradenton-Sarasota", "rent": 2410, "zip": "34219"}, "north-port-bradenton-sarasota-34220": {"city": "North Port-Bradenton-Sarasota", "rent": 1850, "zip": "34220"}, "north-port-bradenton-sarasota-34221": {"city": "North Port-Bradenton-Sarasota", "rent": 1820, "zip": "34221"}, "north-port-bradenton-sarasota-34222": {"city": "North Port-Bradenton-Sarasota", "rent": 1700, "zip": "34222"}, "north-port-bradenton-sarasota-34223": {"city": "North Port-Bradenton-Sarasota", "rent": 1560, "zip": "34223"}, "north-port-bradenton-sarasota-34224": {"city": "North Port-Bradenton-Sarasota", "rent": 1370, "zip": "34224"}, "north-port-bradenton-sarasota-34228": {"city": "North Port-Bradenton-Sarasota", "rent": 2940, "zip": "34228"}, "north-port-bradenton-sarasota-34229": {"city": "North Port-Bradenton-Sarasota", "rent": 2290, "zip": "34229"}, "north-port-bradenton-sarasota-34230": {"city": "North Port-Bradenton-Sarasota", "rent": 2050, "zip": "34230"}, "north-port-bradenton-sarasota-34231": {"city": "North Port-Bradenton-Sarasota", "rent": 2050, "zip": "34231"}, "north-port-bradenton-sarasota-34232": {"city": "North Port-Bradenton-Sarasota", "rent": 2170, "zip": "34232"}, "north-port-bradenton-sarasota-34233": {"city": "North Port-Bradenton-Sarasota", "rent": 2200, "zip": "34233"}, "north-port-bradenton-sarasota-34234": {"city": "North Port-Bradenton-Sarasota", "rent": 1690, "zip": "34234"}, "north-port-bradenton-sarasota-34235": {"city": "North Port-Bradenton-Sarasota", "rent": 2100, "zip": "34235"}, "north-port-bradenton-sarasota-34236": {"city": "North Port-Bradenton-Sarasota", "rent": 2340, "zip": "34236"}, "north-port-bradenton-sarasota-34237": {"city": "North Port-Bradenton-Sarasota", "rent": 1850, "zip": "34237"}, "north-port-bradenton-sarasota-34238": {"city": "North Port-Bradenton-Sarasota", "rent": 2350, "zip": "34238"}, "north-port-bradenton-sarasota-34239": {"city": "North Port-Bradenton-Sarasota", "rent": 1970, "zip": "34239"}, "north-port-bradenton-sarasota-34240": {"city": "North Port-Bradenton-Sarasota", "rent": 2750, "zip": "34240"}, "north-port-bradenton-sarasota-34241": {"city": "North Port-Bradenton-Sarasota", "rent": 2350, "zip": "34241"}, "north-port-bradenton-sarasota-34242": {"city": "North Port-Bradenton-Sarasota", "rent": 2760, "zip": "34242"}, "north-port-bradenton-sarasota-34243": {"city": "North Port-Bradenton-Sarasota", "rent": 2400, "zip": "34243"}, "north-port-bradenton-sarasota-34249": {"city": "North Port-Bradenton-Sarasota", "rent": 2050, "zip": "34249"}, "north-port-bradenton-sarasota-34250": {"city": "North Port-Bradenton-Sarasota", "rent": 1820, "zip": "34250"}, "north-port-bradenton-sarasota-34251": {"city": "North Port-Bradenton-Sarasota", "rent": 2200, "zip": "34251"}, "north-port-bradenton-sarasota-34260": {"city": "North Port-Bradenton-Sarasota", "rent": 1850, "zip": "34260"}, "north-port-bradenton-sarasota-34264": {"city": "North Port-Bradenton-Sarasota", "rent": 1850, "zip": "34264"}, "north-port-bradenton-sarasota-34266": {"city": "North Port-Bradenton-Sarasota", "rent": 1490, "zip": "34266"}, "north-port-bradenton-sarasota-34270": {"city": "North Port-Bradenton-Sarasota", "rent": 1850, "zip": "34270"}, "north-port-bradenton-sarasota-34272": {"city": "North Port-Bradenton-Sarasota", "rent": 2050, "zip": "34272"}, "north-port-bradenton-sarasota-34274": {"city": "North Port-Bradenton-Sarasota", "rent": 2050, "zip": "34274"}, "north-port-bradenton-sarasota-34275": {"city": "North Port-Bradenton-Sarasota", "rent": 1940, "zip": "34275"}, "north-port-bradenton-sarasota-34276": {"city": "North Port-Bradenton-Sarasota", "rent": 2050, "zip": "34276"}, "north-port-bradenton-sarasota-34277": {"city": "North Port-Bradenton-Sarasota", "rent": 2050, "zip": "34277"}, "north-port-bradenton-sarasota-34280": {"city": "North Port-Bradenton-Sarasota", "rent": 1850, "zip": "34280"}, "north-port-bradenton-sarasota-34282": {"city": "North Port-Bradenton-Sarasota", "rent": 1850, "zip": "34282"}, "north-port-bradenton-sarasota-34284": {"city": "North Port-Bradenton-Sarasota", "rent": 2050, "zip": "34284"}, "north-port-bradenton-sarasota-34285": {"city": "North Port-Bradenton-Sarasota", "rent": 1750, "zip": "34285"}, "north-port-bradenton-sarasota-34286": {"city": "North Port-Bradenton-Sarasota", "rent": 2370, "zip": "34286"}, "north-port-bradenton-sarasota-34287": {"city": "North Port-Bradenton-Sarasota", "rent": 1630, "zip": "34287"}, "north-port-bradenton-sarasota-34288": {"city": "North Port-Bradenton-Sarasota", "rent": 2290, "zip": "34288"}, "north-port-bradenton-sarasota-34289": {"city": "North Port-Bradenton-Sarasota", "rent": 2060, "zip": "34289"}, "north-port-bradenton-sarasota-34290": {"city": "North Port-Bradenton-Sarasota", "rent": 2050, "zip": "34290"}, "north-port-bradenton-sarasota-34291": {"city": "North Port-Bradenton-Sarasota", "rent": 2150, "zip": "34291"}, "north-port-bradenton-sarasota-34292": {"city": "North Port-Bradenton-Sarasota", "rent": 2240, "zip": "34292"}, "north-port-bradenton-sarasota-34293": {"city": "North Port-Bradenton-Sarasota", "rent": 2170, "zip": "34293"}, "north-port-bradenton-sarasota-34295": {"city": "North Port-Bradenton-Sarasota", "rent": 2050, "zip": "34295"}, "ocala-32111": {"city": "Ocala", "rent": 1370, "zip": "32111"}, "ocala-32113": {"city": "Ocala", "rent": 1200, "zip": "32113"}, "ocala-32133": {"city": "Ocala", "rent": 1260, "zip": "32133"}, "ocala-32134": {"city": "Ocala", "rent": 1520, "zip": "32134"}, "ocala-32162": {"city": "Ocala", "rent": 1930, "zip": "32162"}, "ocala-32179": {"city": "Ocala", "rent": 1260, "zip": "32179"}, "ocala-32182": {"city": "Ocala", "rent": 1200, "zip": "32182"}, "ocala-32183": {"city": "Ocala", "rent": 1370, "zip": "32183"}, "ocala-32192": {"city": "Ocala", "rent": 1370, "zip": "32192"}, "ocala-32195": {"city": "Ocala", "rent": 1520, "zip": "32195"}, "ocala-32617": {"city": "Ocala", "rent": 1200, "zip": "32617"}, "ocala-32634": {"city": "Ocala", "rent": 1200, "zip": "32634"}, "ocala-32663": {"city": "Ocala", "rent": 1370, "zip": "32663"}, "ocala-32664": {"city": "Ocala", "rent": 1280, "zip": "32664"}, "ocala-32667": {"city": "Ocala", "rent": 1430, "zip": "32667"}, "ocala-32668": {"city": "Ocala", "rent": 1200, "zip": "32668"}, "ocala-32681": {"city": "Ocala", "rent": 1200, "zip": "32681"}, "ocala-32686": {"city": "Ocala", "rent": 1200, "zip": "32686"}, "ocala-32696": {"city": "Ocala", "rent": 1430, "zip": "32696"}, "ocala-32702": {"city": "Ocala", "rent": 1520, "zip": "32702"}, "ocala-32784": {"city": "Ocala", "rent": 1520, "zip": "32784"}, "ocala-34420": {"city": "Ocala", "rent": 1200, "zip": "34420"}, "ocala-34421": {"city": "Ocala", "rent": 1370, "zip": "34421"}, "ocala-34430": {"city": "Ocala", "rent": 1370, "zip": "34430"}, "ocala-34431": {"city": "Ocala", "rent": 1200, "zip": "34431"}, "ocala-34432": {"city": "Ocala", "rent": 1210, "zip": "34432"}, "ocala-34470": {"city": "Ocala", "rent": 1340, "zip": "34470"}, "ocala-34471": {"city": "Ocala", "rent": 1420, "zip": "34471"}, "ocala-34472": {"city": "Ocala", "rent": 1430, "zip": "34472"}, "ocala-34473": {"city": "Ocala", "rent": 1610, "zip": "34473"}, "ocala-34474": {"city": "Ocala", "rent": 1800, "zip": "34474"}, "ocala-34475": {"city": "Ocala", "rent": 1200, "zip": "34475"}, "ocala-34476": {"city": "Ocala", "rent": 1520, "zip": "34476"}, "ocala-34477": {"city": "Ocala", "rent": 1370, "zip": "34477"}, "ocala-34478": {"city": "Ocala", "rent": 1370, "zip": "34478"}, "ocala-34479": {"city": "Ocala", "rent": 1460, "zip": "34479"}, "ocala-34480": {"city": "Ocala", "rent": 1350, "zip": "34480"}, "ocala-34481": {"city": "Ocala", "rent": 1400, "zip": "34481"}, "ocala-34482": {"city": "Ocala", "rent": 1200, "zip": "34482"}, "ocala-34483": {"city": "Ocala", "rent": 1370, "zip": "34483"}, "ocala-34484": {"city": "Ocala", "rent": 1550, "zip": "34484"}, "ocala-34488": {"city": "Ocala", "rent": 1270, "zip": "34488"}, "ocala-34489": {"city": "Ocala", "rent": 1370, "zip": "34489"}, "ocala-34491": {"city": "Ocala", "rent": 1300, "zip": "34491"}, "ocala-34492": {"city": "Ocala", "rent": 1370, "zip": "34492"}, "orlando-kissimmee-sanford-32102": {"city": "Orlando-Kissimmee-Sanford", "rent": 1520, "zip": "32102"}, "orlando-kissimmee-sanford-32134": {"city": "Orlando-Kissimmee-Sanford", "rent": 1520, "zip": "32134"}, "orlando-kissimmee-sanford-32158": {"city": "Orlando-Kissimmee-Sanford", "rent": 1720, "zip": "32158"}, "orlando-kissimmee-sanford-32159": {"city": "Orlando-Kissimmee-Sanford", "rent": 1570, "zip": "32159"}, "orlando-kissimmee-sanford-32162": {"city": "Orlando-Kissimmee-Sanford", "rent": 1930, "zip": "32162"}, "orlando-kissimmee-sanford-32163": {"city": "Orlando-Kissimmee-Sanford", "rent": 2040, "zip": "32163"}, "orlando-kissimmee-sanford-32195": {"city": "Orlando-Kissimmee-Sanford", "rent": 1520, "zip": "32195"}, "orlando-kissimmee-sanford-32701": {"city": "Orlando-Kissimmee-Sanford", "rent": 1880, "zip": "32701"}, "orlando-kissimmee-sanford-32702": {"city": "Orlando-Kissimmee-Sanford", "rent": 1520, "zip": "32702"}, "orlando-kissimmee-sanford-32703": {"city": "Orlando-Kissimmee-Sanford", "rent": 1860, "zip": "32703"}, "orlando-kissimmee-sanford-32704": {"city": "Orlando-Kissimmee-Sanford", "rent": 2000, "zip": "32704"}, "orlando-kissimmee-sanford-32707": {"city": "Orlando-Kissimmee-Sanford", "rent": 1890, "zip": "32707"}, "orlando-kissimmee-sanford-32708": {"city": "Orlando-Kissimmee-Sanford", "rent": 2100, "zip": "32708"}, "orlando-kissimmee-sanford-32709": {"city": "Orlando-Kissimmee-Sanford", "rent": 1670, "zip": "32709"}, "orlando-kissimmee-sanford-32710": {"city": "Orlando-Kissimmee-Sanford", "rent": 2000, "zip": "32710"}, "orlando-kissimmee-sanford-32712": {"city": "Orlando-Kissimmee-Sanford", "rent": 2380, "zip": "32712"}, "orlando-kissimmee-sanford-32714": {"city": "Orlando-Kissimmee-Sanford", "rent": 2100, "zip": "32714"}, "orlando-kissimmee-sanford-32715": {"city": "Orlando-Kissimmee-Sanford", "rent": 2000, "zip": "32715"}, "orlando-kissimmee-sanford-32716": {"city": "Orlando-Kissimmee-Sanford", "rent": 2000, "zip": "32716"}, "orlando-kissimmee-sanford-32718": {"city": "Orlando-Kissimmee-Sanford", "rent": 2000, "zip": "32718"}, "orlando-kissimmee-sanford-32719": {"city": "Orlando-Kissimmee-Sanford", "rent": 2000, "zip": "32719"}, "orlando-kissimmee-sanford-32720": {"city": "Orlando-Kissimmee-Sanford", "rent": 1520, "zip": "32720"}, "orlando-kissimmee-sanford-32726": {"city": "Orlando-Kissimmee-Sanford", "rent": 1520, "zip": "32726"}, "orlando-kissimmee-sanford-32727": {"city": "Orlando-Kissimmee-Sanford", "rent": 1720, "zip": "32727"}, "orlando-kissimmee-sanford-32730": {"city": "Orlando-Kissimmee-Sanford", "rent": 1760, "zip": "32730"}, "orlando-kissimmee-sanford-32732": {"city": "Orlando-Kissimmee-Sanford", "rent": 2360, "zip": "32732"}, "orlando-kissimmee-sanford-32733": {"city": "Orlando-Kissimmee-Sanford", "rent": 2000, "zip": "32733"}, "orlando-kissimmee-sanford-32735": {"city": "Orlando-Kissimmee-Sanford", "rent": 1980, "zip": "32735"}, "orlando-kissimmee-sanford-32736": {"city": "Orlando-Kissimmee-Sanford", "rent": 1540, "zip": "32736"}, "orlando-kissimmee-sanford-32746": {"city": "Orlando-Kissimmee-Sanford", "rent": 2280, "zip": "32746"}, "orlando-kissimmee-sanford-32747": {"city": "Orlando-Kissimmee-Sanford", "rent": 2000, "zip": "32747"}, "orlando-kissimmee-sanford-32750": {"city": "Orlando-Kissimmee-Sanford", "rent": 1940, "zip": "32750"}, "orlando-kissimmee-sanford-32751": {"city": "Orlando-Kissimmee-Sanford", "rent": 2130, "zip": "32751"}, "orlando-kissimmee-sanford-32752": {"city": "Orlando-Kissimmee-Sanford", "rent": 2000, "zip": "32752"}, "orlando-kissimmee-sanford-32756": {"city": "Orlando-Kissimmee-Sanford", "rent": 1720, "zip": "32756"}, "orlando-kissimmee-sanford-32757": {"city": "Orlando-Kissimmee-Sanford", "rent": 1730, "zip": "32757"}, "orlando-kissimmee-sanford-32762": {"city": "Orlando-Kissimmee-Sanford", "rent": 2000, "zip": "32762"}, "orlando-kissimmee-sanford-32765": {"city": "Orlando-Kissimmee-Sanford", "rent": 2390, "zip": "32765"}, "orlando-kissimmee-sanford-32766": {"city": "Orlando-Kissimmee-Sanford", "rent": 2580, "zip": "32766"}, "orlando-kissimmee-sanford-32767": {"city": "Orlando-Kissimmee-Sanford", "rent": 1520, "zip": "32767"}, "orlando-kissimmee-sanford-32768": {"city": "Orlando-Kissimmee-Sanford", "rent": 2000, "zip": "32768"}, "orlando-kissimmee-sanford-32771": {"city": "Orlando-Kissimmee-Sanford", "rent": 1860, "zip": "32771"}, "orlando-kissimmee-sanford-32772": {"city": "Orlando-Kissimmee-Sanford", "rent": 2000, "zip": "32772"}, "orlando-kissimmee-sanford-32773": {"city": "Orlando-Kissimmee-Sanford", "rent": 1780, "zip": "32773"}, "orlando-kissimmee-sanford-32776": {"city": "Orlando-Kissimmee-Sanford", "rent": 1930, "zip": "32776"}, "orlando-kissimmee-sanford-32777": {"city": "Orlando-Kissimmee-Sanford", "rent": 2000, "zip": "32777"}, "orlando-kissimmee-sanford-32778": {"city": "Orlando-Kissimmee-Sanford", "rent": 1520, "zip": "32778"}, "orlando-kissimmee-sanford-32779": {"city": "Orlando-Kissimmee-Sanford", "rent": 2320, "zip": "32779"}, "orlando-kissimmee-sanford-32784": {"city": "Orlando-Kissimmee-Sanford", "rent": 1520, "zip": "32784"}, "orlando-kissimmee-sanford-32789": {"city": "Orlando-Kissimmee-Sanford", "rent": 2050, "zip": "32789"}, "orlando-kissimmee-sanford-32790": {"city": "Orlando-Kissimmee-Sanford", "rent": 2000, "zip": "32790"}, "orlando-kissimmee-sanford-32791": {"city": "Orlando-Kissimmee-Sanford", "rent": 2000, "zip": "32791"}, "orlando-kissimmee-sanford-32792": {"city": "Orlando-Kissimmee-Sanford", "rent": 2040, "zip": "32792"}, "orlando-kissimmee-sanford-32793": {"city": "Orlando-Kissimmee-Sanford", "rent": 2000, "zip": "32793"}, "orlando-kissimmee-sanford-32794": {"city": "Orlando-Kissimmee-Sanford", "rent": 2000, "zip": "32794"}, "orlando-kissimmee-sanford-32795": {"city": "Orlando-Kissimmee-Sanford", "rent": 2000, "zip": "32795"}, "orlando-kissimmee-sanford-32798": {"city": "Orlando-Kissimmee-Sanford", "rent": 1520, "zip": "32798"}, "orlando-kissimmee-sanford-32801": {"city": "Orlando-Kissimmee-Sanford", "rent": 2220, "zip": "32801"}, "orlando-kissimmee-sanford-32802": {"city": "Orlando-Kissimmee-Sanford", "rent": 2000, "zip": "32802"}, "orlando-kissimmee-sanford-32803": {"city": "Orlando-Kissimmee-Sanford", "rent": 2350, "zip": "32803"}, "orlando-kissimmee-sanford-32804": {"city": "Orlando-Kissimmee-Sanford", "rent": 2060, "zip": "32804"}, "orlando-kissimmee-sanford-32805": {"city": "Orlando-Kissimmee-Sanford", "rent": 1520, "zip": "32805"}, "orlando-kissimmee-sanford-32806": {"city": "Orlando-Kissimmee-Sanford", "rent": 1820, "zip": "32806"}, "orlando-kissimmee-sanford-32807": {"city": "Orlando-Kissimmee-Sanford", "rent": 1820, "zip": "32807"}, "orlando-kissimmee-sanford-32808": {"city": "Orlando-Kissimmee-Sanford", "rent": 1740, "zip": "32808"}, "orlando-kissimmee-sanford-32809": {"city": "Orlando-Kissimmee-Sanford", "rent": 1600, "zip": "32809"}, "orlando-kissimmee-sanford-32810": {"city": "Orlando-Kissimmee-Sanford", "rent": 1890, "zip": "32810"}, "orlando-kissimmee-sanford-32811": {"city": "Orlando-Kissimmee-Sanford", "rent": 1960, "zip": "32811"}, "orlando-kissimmee-sanford-32812": {"city": "Orlando-Kissimmee-Sanford", "rent": 1820, "zip": "32812"}, "orlando-kissimmee-sanford-32814": {"city": "Orlando-Kissimmee-Sanford", "rent": 2750, "zip": "32814"}, "orlando-kissimmee-sanford-32816": {"city": "Orlando-Kissimmee-Sanford", "rent": 1910, "zip": "32816"}, "orlando-kissimmee-sanford-32817": {"city": "Orlando-Kissimmee-Sanford", "rent": 2070, "zip": "32817"}, "orlando-kissimmee-sanford-32818": {"city": "Orlando-Kissimmee-Sanford", "rent": 1760, "zip": "32818"}, "orlando-kissimmee-sanford-32819": {"city": "Orlando-Kissimmee-Sanford", "rent": 2290, "zip": "32819"}, "orlando-kissimmee-sanford-32820": {"city": "Orlando-Kissimmee-Sanford", "rent": 2160, "zip": "32820"}, "orlando-kissimmee-sanford-32821": {"city": "Orlando-Kissimmee-Sanford", "rent": 2170, "zip": "32821"}, "orlando-kissimmee-sanford-32822": {"city": "Orlando-Kissimmee-Sanford", "rent": 2010, "zip": "32822"}, "orlando-kissimmee-sanford-32824": {"city": "Orlando-Kissimmee-Sanford", "rent": 2180, "zip": "32824"}, "orlando-kissimmee-sanford-32825": {"city": "Orlando-Kissimmee-Sanford", "rent": 2100, "zip": "32825"}, "orlando-kissimmee-sanford-32826": {"city": "Orlando-Kissimmee-Sanford", "rent": 1800, "zip": "32826"}, "orlando-kissimmee-sanford-32827": {"city": "Orlando-Kissimmee-Sanford", "rent": 2740, "zip": "32827"}, "orlando-kissimmee-sanford-32828": {"city": "Orlando-Kissimmee-Sanford", "rent": 2260, "zip": "32828"}, "orlando-kissimmee-sanford-32829": {"city": "Orlando-Kissimmee-Sanford", "rent": 2320, "zip": "32829"}, "orlando-kissimmee-sanford-32830": {"city": "Orlando-Kissimmee-Sanford", "rent": 2360, "zip": "32830"}, "orlando-kissimmee-sanford-32831": {"city": "Orlando-Kissimmee-Sanford", "rent": 2210, "zip": "32831"}, "orlando-kissimmee-sanford-32832": {"city": "Orlando-Kissimmee-Sanford", "rent": 2620, "zip": "32832"}, "orlando-kissimmee-sanford-32833": {"city": "Orlando-Kissimmee-Sanford", "rent": 1700, "zip": "32833"}, "orlando-kissimmee-sanford-32835": {"city": "Orlando-Kissimmee-Sanford", "rent": 2220, "zip": "32835"}, "orlando-kissimmee-sanford-32836": {"city": "Orlando-Kissimmee-Sanford", "rent": 2480, "zip": "32836"}, "orlando-kissimmee-sanford-32837": {"city": "Orlando-Kissimmee-Sanford", "rent": 2310, "zip": "32837"}, "orlando-kissimmee-sanford-32839": {"city": "Orlando-Kissimmee-Sanford", "rent": 1850, "zip": "32839"}, "orlando-kissimmee-sanford-32853": {"city": "Orlando-Kissimmee-Sanford", "rent": 2000, "zip": "32853"}, "orlando-kissimmee-sanford-32854": {"city": "Orlando-Kissimmee-Sanford", "rent": 2000, "zip": "32854"}, "orlando-kissimmee-sanford-32855": {"city": "Orlando-Kissimmee-Sanford", "rent": 2000, "zip": "32855"}, "orlando-kissimmee-sanford-32856": {"city": "Orlando-Kissimmee-Sanford", "rent": 2000, "zip": "32856"}, "orlando-kissimmee-sanford-32857": {"city": "Orlando-Kissimmee-Sanford", "rent": 2000, "zip": "32857"}, "orlando-kissimmee-sanford-32858": {"city": "Orlando-Kissimmee-Sanford", "rent": 2000, "zip": "32858"}, "orlando-kissimmee-sanford-32859": {"city": "Orlando-Kissimmee-Sanford", "rent": 2000, "zip": "32859"}, "orlando-kissimmee-sanford-32860": {"city": "Orlando-Kissimmee-Sanford", "rent": 2000, "zip": "32860"}, "orlando-kissimmee-sanford-32861": {"city": "Orlando-Kissimmee-Sanford", "rent": 2000, "zip": "32861"}, "orlando-kissimmee-sanford-32862": {"city": "Orlando-Kissimmee-Sanford", "rent": 2000, "zip": "32862"}, "orlando-kissimmee-sanford-32867": {"city": "Orlando-Kissimmee-Sanford", "rent": 2000, "zip": "32867"}, "orlando-kissimmee-sanford-32868": {"city": "Orlando-Kissimmee-Sanford", "rent": 2000, "zip": "32868"}, "orlando-kissimmee-sanford-32869": {"city": "Orlando-Kissimmee-Sanford", "rent": 2000, "zip": "32869"}, "orlando-kissimmee-sanford-32872": {"city": "Orlando-Kissimmee-Sanford", "rent": 2000, "zip": "32872"}, "orlando-kissimmee-sanford-32877": {"city": "Orlando-Kissimmee-Sanford", "rent": 2000, "zip": "32877"}, "orlando-kissimmee-sanford-32878": {"city": "Orlando-Kissimmee-Sanford", "rent": 2000, "zip": "32878"}, "orlando-kissimmee-sanford-33848": {"city": "Orlando-Kissimmee-Sanford", "rent": 1520, "zip": "33848"}, "orlando-kissimmee-sanford-33896": {"city": "Orlando-Kissimmee-Sanford", "rent": 2280, "zip": "33896"}, "orlando-kissimmee-sanford-33897": {"city": "Orlando-Kissimmee-Sanford", "rent": 2230, "zip": "33897"}, "orlando-kissimmee-sanford-33898": {"city": "Orlando-Kissimmee-Sanford", "rent": 1330, "zip": "33898"}, "orlando-kissimmee-sanford-34705": {"city": "Orlando-Kissimmee-Sanford", "rent": 1520, "zip": "34705"}, "orlando-kissimmee-sanford-34711": {"city": "Orlando-Kissimmee-Sanford", "rent": 2250, "zip": "34711"}, "orlando-kissimmee-sanford-34712": {"city": "Orlando-Kissimmee-Sanford", "rent": 1720, "zip": "34712"}, "orlando-kissimmee-sanford-34713": {"city": "Orlando-Kissimmee-Sanford", "rent": 1720, "zip": "34713"}, "orlando-kissimmee-sanford-34714": {"city": "Orlando-Kissimmee-Sanford", "rent": 2000, "zip": "34714"}, "orlando-kissimmee-sanford-34715": {"city": "Orlando-Kissimmee-Sanford", "rent": 2360, "zip": "34715"}, "orlando-kissimmee-sanford-34729": {"city": "Orlando-Kissimmee-Sanford", "rent": 2360, "zip": "34729"}, "orlando-kissimmee-sanford-34731": {"city": "Orlando-Kissimmee-Sanford", "rent": 1520, "zip": "34731"}, "orlando-kissimmee-sanford-34734": {"city": "Orlando-Kissimmee-Sanford", "rent": 2410, "zip": "34734"}, "orlando-kissimmee-sanford-34736": {"city": "Orlando-Kissimmee-Sanford", "rent": 2000, "zip": "34736"}, "orlando-kissimmee-sanford-34737": {"city": "Orlando-Kissimmee-Sanford", "rent": 2100, "zip": "34737"}, "orlando-kissimmee-sanford-34739": {"city": "Orlando-Kissimmee-Sanford", "rent": 1960, "zip": "34739"}, "orlando-kissimmee-sanford-34740": {"city": "Orlando-Kissimmee-Sanford", "rent": 2000, "zip": "34740"}, "orlando-kissimmee-sanford-34741": {"city": "Orlando-Kissimmee-Sanford", "rent": 1950, "zip": "34741"}, "orlando-kissimmee-sanford-34742": {"city": "Orlando-Kissimmee-Sanford", "rent": 1960, "zip": "34742"}, "orlando-kissimmee-sanford-34743": {"city": "Orlando-Kissimmee-Sanford", "rent": 2040, "zip": "34743"}, "orlando-kissimmee-sanford-34744": {"city": "Orlando-Kissimmee-Sanford", "rent": 1720, "zip": "34744"}, "orlando-kissimmee-sanford-34745": {"city": "Orlando-Kissimmee-Sanford", "rent": 1960, "zip": "34745"}, "orlando-kissimmee-sanford-34746": {"city": "Orlando-Kissimmee-Sanford", "rent": 2130, "zip": "34746"}, "orlando-kissimmee-sanford-34747": {"city": "Orlando-Kissimmee-Sanford", "rent": 2220, "zip": "34747"}, "orlando-kissimmee-sanford-34748": {"city": "Orlando-Kissimmee-Sanford", "rent": 1520, "zip": "34748"}, "orlando-kissimmee-sanford-34749": {"city": "Orlando-Kissimmee-Sanford", "rent": 1720, "zip": "34749"}, "orlando-kissimmee-sanford-34753": {"city": "Orlando-Kissimmee-Sanford", "rent": 1720, "zip": "34753"}, "orlando-kissimmee-sanford-34755": {"city": "Orlando-Kissimmee-Sanford", "rent": 1720, "zip": "34755"}, "orlando-kissimmee-sanford-34756": {"city": "Orlando-Kissimmee-Sanford", "rent": 1770, "zip": "34756"}, "orlando-kissimmee-sanford-34758": {"city": "Orlando-Kissimmee-Sanford", "rent": 2070, "zip": "34758"}, "orlando-kissimmee-sanford-34759": {"city": "Orlando-Kissimmee-Sanford", "rent": 1910, "zip": "34759"}, "orlando-kissimmee-sanford-34760": {"city": "Orlando-Kissimmee-Sanford", "rent": 2350, "zip": "34760"}, "orlando-kissimmee-sanford-34761": {"city": "Orlando-Kissimmee-Sanford", "rent": 2140, "zip": "34761"}, "orlando-kissimmee-sanford-34762": {"city": "Orlando-Kissimmee-Sanford", "rent": 1570, "zip": "34762"}, "orlando-kissimmee-sanford-34769": {"city": "Orlando-Kissimmee-Sanford", "rent": 1620, "zip": "34769"}, "orlando-kissimmee-sanford-34770": {"city": "Orlando-Kissimmee-Sanford", "rent": 1960, "zip": "34770"}, "orlando-kissimmee-sanford-34771": {"city": "Orlando-Kissimmee-Sanford", "rent": 2030, "zip": "34771"}, "orlando-kissimmee-sanford-34772": {"city": "Orlando-Kissimmee-Sanford", "rent": 2210, "zip": "34772"}, "orlando-kissimmee-sanford-34773": {"city": "Orlando-Kissimmee-Sanford", "rent": 2760, "zip": "34773"}, "orlando-kissimmee-sanford-34777": {"city": "Orlando-Kissimmee-Sanford", "rent": 2000, "zip": "34777"}, "orlando-kissimmee-sanford-34778": {"city": "Orlando-Kissimmee-Sanford", "rent": 2000, "zip": "34778"}, "orlando-kissimmee-sanford-34786": {"city": "Orlando-Kissimmee-Sanford", "rent": 2760, "zip": "34786"}, "orlando-kissimmee-sanford-34787": {"city": "Orlando-Kissimmee-Sanford", "rent": 2350, "zip": "34787"}, "orlando-kissimmee-sanford-34788": {"city": "Orlando-Kissimmee-Sanford", "rent": 1710, "zip": "34788"}, "orlando-kissimmee-sanford-34789": {"city": "Orlando-Kissimmee-Sanford", "rent": 1720, "zip": "34789"}, "orlando-kissimmee-sanford-34797": {"city": "Orlando-Kissimmee-Sanford", "rent": 2100, "zip": "34797"}, "orlando-kissimmee-sanford-34972": {"city": "Orlando-Kissimmee-Sanford", "rent": 1520, "zip": "34972"}, "palm-bay-melbourne-titusville-32754": {"city": "Palm Bay-Melbourne-Titusville", "rent": 1380, "zip": "32754"}, "palm-bay-melbourne-titusville-32775": {"city": "Palm Bay-Melbourne-Titusville", "rent": 1710, "zip": "32775"}, "palm-bay-melbourne-titusville-32780": {"city": "Palm Bay-Melbourne-Titusville", "rent": 1480, "zip": "32780"}, "palm-bay-melbourne-titusville-32781": {"city": "Palm Bay-Melbourne-Titusville", "rent": 1710, "zip": "32781"}, "palm-bay-melbourne-titusville-32783": {"city": "Palm Bay-Melbourne-Titusville", "rent": 1710, "zip": "32783"}, "palm-bay-melbourne-titusville-32796": {"city": "Palm Bay-Melbourne-Titusville", "rent": 1500, "zip": "32796"}, "palm-bay-melbourne-titusville-32899": {"city": "Palm Bay-Melbourne-Titusville", "rent": 1710, "zip": "32899"}, "palm-bay-melbourne-titusville-32901": {"city": "Palm Bay-Melbourne-Titusville", "rent": 1590, "zip": "32901"}, "palm-bay-melbourne-titusville-32902": {"city": "Palm Bay-Melbourne-Titusville", "rent": 1710, "zip": "32902"}, "palm-bay-melbourne-titusville-32903": {"city": "Palm Bay-Melbourne-Titusville", "rent": 2060, "zip": "32903"}, "palm-bay-melbourne-titusville-32904": {"city": "Palm Bay-Melbourne-Titusville", "rent": 2080, "zip": "32904"}, "palm-bay-melbourne-titusville-32905": {"city": "Palm Bay-Melbourne-Titusville", "rent": 1630, "zip": "32905"}, "palm-bay-melbourne-titusville-32906": {"city": "Palm Bay-Melbourne-Titusville", "rent": 1710, "zip": "32906"}, "palm-bay-melbourne-titusville-32907": {"city": "Palm Bay-Melbourne-Titusville", "rent": 1930, "zip": "32907"}, "palm-bay-melbourne-titusville-32908": {"city": "Palm Bay-Melbourne-Titusville", "rent": 2020, "zip": "32908"}, "palm-bay-melbourne-titusville-32909": {"city": "Palm Bay-Melbourne-Titusville", "rent": 1740, "zip": "32909"}, "palm-bay-melbourne-titusville-32910": {"city": "Palm Bay-Melbourne-Titusville", "rent": 1710, "zip": "32910"}, "palm-bay-melbourne-titusville-32911": {"city": "Palm Bay-Melbourne-Titusville", "rent": 1710, "zip": "32911"}, "palm-bay-melbourne-titusville-32912": {"city": "Palm Bay-Melbourne-Titusville", "rent": 1710, "zip": "32912"}, "palm-bay-melbourne-titusville-32920": {"city": "Palm Bay-Melbourne-Titusville", "rent": 1340, "zip": "32920"}, "palm-bay-melbourne-titusville-32922": {"city": "Palm Bay-Melbourne-Titusville", "rent": 1290, "zip": "32922"}, "palm-bay-melbourne-titusville-32923": {"city": "Palm Bay-Melbourne-Titusville", "rent": 1710, "zip": "32923"}, "palm-bay-melbourne-titusville-32924": {"city": "Palm Bay-Melbourne-Titusville", "rent": 1710, "zip": "32924"}, "palm-bay-melbourne-titusville-32925": {"city": "Palm Bay-Melbourne-Titusville", "rent": 2350, "zip": "32925"}, "palm-bay-melbourne-titusville-32926": {"city": "Palm Bay-Melbourne-Titusville", "rent": 1520, "zip": "32926"}, "palm-bay-melbourne-titusville-32927": {"city": "Palm Bay-Melbourne-Titusville", "rent": 1570, "zip": "32927"}, "palm-bay-melbourne-titusville-32931": {"city": "Palm Bay-Melbourne-Titusville", "rent": 1860, "zip": "32931"}, "palm-bay-melbourne-titusville-32932": {"city": "Palm Bay-Melbourne-Titusville", "rent": 1710, "zip": "32932"}, "palm-bay-melbourne-titusville-32934": {"city": "Palm Bay-Melbourne-Titusville", "rent": 2120, "zip": "32934"}, "palm-bay-melbourne-titusville-32935": {"city": "Palm Bay-Melbourne-Titusville", "rent": 1770, "zip": "32935"}, "palm-bay-melbourne-titusville-32936": {"city": "Palm Bay-Melbourne-Titusville", "rent": 1710, "zip": "32936"}, "palm-bay-melbourne-titusville-32937": {"city": "Palm Bay-Melbourne-Titusville", "rent": 2070, "zip": "32937"}, "palm-bay-melbourne-titusville-32940": {"city": "Palm Bay-Melbourne-Titusville", "rent": 2310, "zip": "32940"}, "palm-bay-melbourne-titusville-32941": {"city": "Palm Bay-Melbourne-Titusville", "rent": 1710, "zip": "32941"}, "palm-bay-melbourne-titusville-32948": {"city": "Palm Bay-Melbourne-Titusville", "rent": 1270, "zip": "32948"}, "palm-bay-melbourne-titusville-32949": {"city": "Palm Bay-Melbourne-Titusville", "rent": 1860, "zip": "32949"}, "palm-bay-melbourne-titusville-32950": {"city": "Palm Bay-Melbourne-Titusville", "rent": 2100, "zip": "32950"}, "palm-bay-melbourne-titusville-32951": {"city": "Palm Bay-Melbourne-Titusville", "rent": 2030, "zip": "32951"}, "palm-bay-melbourne-titusville-32952": {"city": "Palm Bay-Melbourne-Titusville", "rent": 1630, "zip": "32952"}, "palm-bay-melbourne-titusville-32953": {"city": "Palm Bay-Melbourne-Titusville", "rent": 1520, "zip": "32953"}, "palm-bay-melbourne-titusville-32954": {"city": "Palm Bay-Melbourne-Titusville", "rent": 1710, "zip": "32954"}, "palm-bay-melbourne-titusville-32955": {"city": "Palm Bay-Melbourne-Titusville", "rent": 1920, "zip": "32955"}, "palm-bay-melbourne-titusville-32956": {"city": "Palm Bay-Melbourne-Titusville", "rent": 1710, "zip": "32956"}, "palm-bay-melbourne-titusville-32959": {"city": "Palm Bay-Melbourne-Titusville", "rent": 1570, "zip": "32959"}, "palm-bay-melbourne-titusville-32976": {"city": "Palm Bay-Melbourne-Titusville", "rent": 1570, "zip": "32976"}, "panama-city-32401": {"city": "Panama City", "rent": 1450, "zip": "32401"}, "panama-city-32402": {"city": "Panama City", "rent": 1680, "zip": "32402"}, "panama-city-32403": {"city": "Panama City", "rent": 2290, "zip": "32403"}, "panama-city-32404": {"city": "Panama City", "rent": 1600, "zip": "32404"}, "panama-city-32405": {"city": "Panama City", "rent": 1700, "zip": "32405"}, "panama-city-32406": {"city": "Panama City", "rent": 1680, "zip": "32406"}, "panama-city-32407": {"city": "Panama City", "rent": 2240, "zip": "32407"}, "panama-city-32408": {"city": "Panama City", "rent": 1640, "zip": "32408"}, "panama-city-32409": {"city": "Panama City", "rent": 1450, "zip": "32409"}, "panama-city-32410": {"city": "Panama City", "rent": 2070, "zip": "32410"}, "panama-city-32411": {"city": "Panama City", "rent": 1680, "zip": "32411"}, "panama-city-32413": {"city": "Panama City", "rent": 1840, "zip": "32413"}, "panama-city-32417": {"city": "Panama City", "rent": 1680, "zip": "32417"}, "panama-city-32428": {"city": "Panama City", "rent": 1450, "zip": "32428"}, "panama-city-32437": {"city": "Panama City", "rent": 1450, "zip": "32437"}, "panama-city-32438": {"city": "Panama City", "rent": 1450, "zip": "32438"}, "panama-city-32444": {"city": "Panama City", "rent": 1830, "zip": "32444"}, "panama-city-32456": {"city": "Panama City", "rent": 1910, "zip": "32456"}, "panama-city-32462": {"city": "Panama City", "rent": 1450, "zip": "32462"}, "panama-city-32465": {"city": "Panama City", "rent": 1450, "zip": "32465"}, "panama-city-32466": {"city": "Panama City", "rent": 1450, "zip": "32466"}, "washington-county-32420": {"city": "Washington County", "rent": 970, "zip": "32420"}, "washington-county-32425": {"city": "Washington County", "rent": 1090, "zip": "32425"}, "washington-county-32427": {"city": "Washington County", "rent": 1040, "zip": "32427"}, "washington-county-32428": {"city": "Washington County", "rent": 1450, "zip": "32428"}, "washington-county-32431": {"city": "Washington County", "rent": 1160, "zip": "32431"}, "washington-county-32437": {"city": "Washington County", "rent": 1450, "zip": "32437"}, "washington-county-32438": {"city": "Washington County", "rent": 1450, "zip": "32438"}, "washington-county-32462": {"city": "Washington County", "rent": 1450, "zip": "32462"}, "washington-county-32463": {"city": "Washington County", "rent": 970, "zip": "32463"}, "washington-county-32466": {"city": "Washington County", "rent": 1450, "zip": "32466"}, "pensacola-ferry-pass-brent-32501": {"city": "Pensacola-Ferry Pass-Brent", "rent": 1450, "zip": "32501"}, "pensacola-ferry-pass-brent-32502": {"city": "Pensacola-Ferry Pass-Brent", "rent": 1450, "zip": "32502"}, "pensacola-ferry-pass-brent-32503": {"city": "Pensacola-Ferry Pass-Brent", "rent": 1530, "zip": "32503"}, "pensacola-ferry-pass-brent-32504": {"city": "Pensacola-Ferry Pass-Brent", "rent": 1460, "zip": "32504"}, "pensacola-ferry-pass-brent-32505": {"city": "Pensacola-Ferry Pass-Brent", "rent": 1450, "zip": "32505"}, "pensacola-ferry-pass-brent-32506": {"city": "Pensacola-Ferry Pass-Brent", "rent": 1510, "zip": "32506"}, "pensacola-ferry-pass-brent-32507": {"city": "Pensacola-Ferry Pass-Brent", "rent": 1670, "zip": "32507"}, "pensacola-ferry-pass-brent-32508": {"city": "Pensacola-Ferry Pass-Brent", "rent": 2000, "zip": "32508"}, "pensacola-ferry-pass-brent-32509": {"city": "Pensacola-Ferry Pass-Brent", "rent": 1520, "zip": "32509"}, "pensacola-ferry-pass-brent-32511": {"city": "Pensacola-Ferry Pass-Brent", "rent": 1580, "zip": "32511"}, "pensacola-ferry-pass-brent-32512": {"city": "Pensacola-Ferry Pass-Brent", "rent": 1450, "zip": "32512"}, "pensacola-ferry-pass-brent-32513": {"city": "Pensacola-Ferry Pass-Brent", "rent": 1450, "zip": "32513"}, "pensacola-ferry-pass-brent-32514": {"city": "Pensacola-Ferry Pass-Brent", "rent": 1660, "zip": "32514"}, "pensacola-ferry-pass-brent-32516": {"city": "Pensacola-Ferry Pass-Brent", "rent": 1450, "zip": "32516"}, "pensacola-ferry-pass-brent-32522": {"city": "Pensacola-Ferry Pass-Brent", "rent": 1450, "zip": "32522"}, "pensacola-ferry-pass-brent-32523": {"city": "Pensacola-Ferry Pass-Brent", "rent": 1450, "zip": "32523"}, "pensacola-ferry-pass-brent-32524": {"city": "Pensacola-Ferry Pass-Brent", "rent": 1450, "zip": "32524"}, "pensacola-ferry-pass-brent-32526": {"city": "Pensacola-Ferry Pass-Brent", "rent": 1520, "zip": "32526"}, "pensacola-ferry-pass-brent-32530": {"city": "Pensacola-Ferry Pass-Brent", "rent": 1490, "zip": "32530"}, "pensacola-ferry-pass-brent-32531": {"city": "Pensacola-Ferry Pass-Brent", "rent": 1450, "zip": "32531"}, "pensacola-ferry-pass-brent-32533": {"city": "Pensacola-Ferry Pass-Brent", "rent": 1450, "zip": "32533"}, "pensacola-ferry-pass-brent-32534": {"city": "Pensacola-Ferry Pass-Brent", "rent": 1510, "zip": "32534"}, "pensacola-ferry-pass-brent-32535": {"city": "Pensacola-Ferry Pass-Brent", "rent": 1450, "zip": "32535"}, "pensacola-ferry-pass-brent-32560": {"city": "Pensacola-Ferry Pass-Brent", "rent": 1450, "zip": "32560"}, "pensacola-ferry-pass-brent-32561": {"city": "Pensacola-Ferry Pass-Brent", "rent": 1970, "zip": "32561"}, "pensacola-ferry-pass-brent-32562": {"city": "Pensacola-Ferry Pass-Brent", "rent": 1680, "zip": "32562"}, "pensacola-ferry-pass-brent-32563": {"city": "Pensacola-Ferry Pass-Brent", "rent": 1910, "zip": "32563"}, "pensacola-ferry-pass-brent-32564": {"city": "Pensacola-Ferry Pass-Brent", "rent": 1550, "zip": "32564"}, "pensacola-ferry-pass-brent-32565": {"city": "Pensacola-Ferry Pass-Brent", "rent": 1450, "zip": "32565"}, "pensacola-ferry-pass-brent-32566": {"city": "Pensacola-Ferry Pass-Brent", "rent": 2040, "zip": "32566"}, "pensacola-ferry-pass-brent-32568": {"city": "Pensacola-Ferry Pass-Brent", "rent": 1450, "zip": "32568"}, "pensacola-ferry-pass-brent-32569": {"city": "Pensacola-Ferry Pass-Brent", "rent": 1710, "zip": "32569"}, "pensacola-ferry-pass-brent-32570": {"city": "Pensacola-Ferry Pass-Brent", "rent": 1510, "zip": "32570"}, "pensacola-ferry-pass-brent-32571": {"city": "Pensacola-Ferry Pass-Brent", "rent": 1450, "zip": "32571"}, "pensacola-ferry-pass-brent-32572": {"city": "Pensacola-Ferry Pass-Brent", "rent": 1680, "zip": "32572"}, "pensacola-ferry-pass-brent-32577": {"city": "Pensacola-Ferry Pass-Brent", "rent": 1450, "zip": "32577"}, "pensacola-ferry-pass-brent-32583": {"city": "Pensacola-Ferry Pass-Brent", "rent": 1490, "zip": "32583"}, "pensacola-ferry-pass-brent-32591": {"city": "Pensacola-Ferry Pass-Brent", "rent": 1450, "zip": "32591"}, "port-st.-lucie-33438": {"city": "Port St. Lucie", "rent": 1600, "zip": "33438"}, "port-st.-lucie-33455": {"city": "Port St. Lucie", "rent": 1480, "zip": "33455"}, "port-st.-lucie-33458": {"city": "Port St. Lucie", "rent": 2630, "zip": "33458"}, "port-st.-lucie-33469": {"city": "Port St. Lucie", "rent": 2370, "zip": "33469"}, "port-st.-lucie-33475": {"city": "Port St. Lucie", "rent": 1750, "zip": "33475"}, "port-st.-lucie-33478": {"city": "Port St. Lucie", "rent": 2400, "zip": "33478"}, "port-st.-lucie-34945": {"city": "Port St. Lucie", "rent": 1730, "zip": "34945"}, "port-st.-lucie-34946": {"city": "Port St. Lucie", "rent": 1470, "zip": "34946"}, "port-st.-lucie-34947": {"city": "Port St. Lucie", "rent": 1470, "zip": "34947"}, "port-st.-lucie-34948": {"city": "Port St. Lucie", "rent": 1760, "zip": "34948"}, "port-st.-lucie-34949": {"city": "Port St. Lucie", "rent": 1760, "zip": "34949"}, "port-st.-lucie-34950": {"city": "Port St. Lucie", "rent": 1470, "zip": "34950"}, "port-st.-lucie-34951": {"city": "Port St. Lucie", "rent": 1470, "zip": "34951"}, "port-st.-lucie-34952": {"city": "Port St. Lucie", "rent": 1880, "zip": "34952"}, "port-st.-lucie-34953": {"city": "Port St. Lucie", "rent": 2270, "zip": "34953"}, "port-st.-lucie-34954": {"city": "Port St. Lucie", "rent": 1760, "zip": "34954"}, "port-st.-lucie-34956": {"city": "Port St. Lucie", "rent": 1470, "zip": "34956"}, "port-st.-lucie-34957": {"city": "Port St. Lucie", "rent": 1790, "zip": "34957"}, "port-st.-lucie-34958": {"city": "Port St. Lucie", "rent": 1750, "zip": "34958"}, "port-st.-lucie-34972": {"city": "Port St. Lucie", "rent": 1520, "zip": "34972"}, "port-st.-lucie-34974": {"city": "Port St. Lucie", "rent": 1470, "zip": "34974"}, "port-st.-lucie-34979": {"city": "Port St. Lucie", "rent": 1760, "zip": "34979"}, "port-st.-lucie-34981": {"city": "Port St. Lucie", "rent": 1660, "zip": "34981"}, "port-st.-lucie-34982": {"city": "Port St. Lucie", "rent": 1480, "zip": "34982"}, "port-st.-lucie-34983": {"city": "Port St. Lucie", "rent": 2080, "zip": "34983"}, "port-st.-lucie-34984": {"city": "Port St. Lucie", "rent": 2280, "zip": "34984"}, "port-st.-lucie-34985": {"city": "Port St. Lucie", "rent": 1760, "zip": "34985"}, "port-st.-lucie-34986": {"city": "Port St. Lucie", "rent": 1990, "zip": "34986"}, "port-st.-lucie-34987": {"city": "Port St. Lucie", "rent": 2500, "zip": "34987"}, "port-st.-lucie-34988": {"city": "Port St. Lucie", "rent": 1760, "zip": "34988"}, "port-st.-lucie-34990": {"city": "Port St. Lucie", "rent": 2200, "zip": "34990"}, "port-st.-lucie-34991": {"city": "Port St. Lucie", "rent": 1750, "zip": "34991"}, "port-st.-lucie-34992": {"city": "Port St. Lucie", "rent": 1750, "zip": "34992"}, "port-st.-lucie-34994": {"city": "Port St. Lucie", "rent": 1790, "zip": "34994"}, "port-st.-lucie-34995": {"city": "Port St. Lucie", "rent": 1750, "zip": "34995"}, "port-st.-lucie-34996": {"city": "Port St. Lucie", "rent": 1620, "zip": "34996"}, "port-st.-lucie-34997": {"city": "Port St. Lucie", "rent": 1750, "zip": "34997"}, "punta-gorda-33917": {"city": "Punta Gorda", "rent": 1660, "zip": "33917"}, "punta-gorda-33921": {"city": "Punta Gorda", "rent": 1660, "zip": "33921"}, "punta-gorda-33938": {"city": "Punta Gorda", "rent": 1470, "zip": "33938"}, "punta-gorda-33946": {"city": "Punta Gorda", "rent": 1540, "zip": "33946"}, "punta-gorda-33947": {"city": "Punta Gorda", "rent": 1550, "zip": "33947"}, "punta-gorda-33948": {"city": "Punta Gorda", "rent": 1540, "zip": "33948"}, "punta-gorda-33949": {"city": "Punta Gorda", "rent": 1470, "zip": "33949"}, "punta-gorda-33950": {"city": "Punta Gorda", "rent": 1500, "zip": "33950"}, "punta-gorda-33951": {"city": "Punta Gorda", "rent": 1470, "zip": "33951"}, "punta-gorda-33952": {"city": "Punta Gorda", "rent": 1380, "zip": "33952"}, "punta-gorda-33953": {"city": "Punta Gorda", "rent": 1990, "zip": "33953"}, "punta-gorda-33954": {"city": "Punta Gorda", "rent": 1940, "zip": "33954"}, "punta-gorda-33955": {"city": "Punta Gorda", "rent": 1760, "zip": "33955"}, "punta-gorda-33980": {"city": "Punta Gorda", "rent": 1320, "zip": "33980"}, "punta-gorda-33981": {"city": "Punta Gorda", "rent": 1660, "zip": "33981"}, "punta-gorda-33982": {"city": "Punta Gorda", "rent": 1320, "zip": "33982"}, "punta-gorda-33983": {"city": "Punta Gorda", "rent": 1510, "zip": "33983"}, "punta-gorda-34223": {"city": "Punta Gorda", "rent": 1560, "zip": "34223"}, "punta-gorda-34224": {"city": "Punta Gorda", "rent": 1370, "zip": "34224"}, "punta-gorda-34269": {"city": "Punta Gorda", "rent": 1420, "zip": "34269"}, "sebastian-vero-beach-west-vero-corridor-32948": {"city": "Sebastian-Vero Beach-West Vero Corridor", "rent": 1270, "zip": "32948"}, "sebastian-vero-beach-west-vero-corridor-32957": {"city": "Sebastian-Vero Beach-West Vero Corridor", "rent": 1600, "zip": "32957"}, "sebastian-vero-beach-west-vero-corridor-32958": {"city": "Sebastian-Vero Beach-West Vero Corridor", "rent": 1740, "zip": "32958"}, "sebastian-vero-beach-west-vero-corridor-32960": {"city": "Sebastian-Vero Beach-West Vero Corridor", "rent": 1490, "zip": "32960"}, "sebastian-vero-beach-west-vero-corridor-32961": {"city": "Sebastian-Vero Beach-West Vero Corridor", "rent": 1600, "zip": "32961"}, "sebastian-vero-beach-west-vero-corridor-32962": {"city": "Sebastian-Vero Beach-West Vero Corridor", "rent": 1520, "zip": "32962"}, "sebastian-vero-beach-west-vero-corridor-32963": {"city": "Sebastian-Vero Beach-West Vero Corridor", "rent": 2410, "zip": "32963"}, "sebastian-vero-beach-west-vero-corridor-32964": {"city": "Sebastian-Vero Beach-West Vero Corridor", "rent": 1600, "zip": "32964"}, "sebastian-vero-beach-west-vero-corridor-32965": {"city": "Sebastian-Vero Beach-West Vero Corridor", "rent": 1600, "zip": "32965"}, "sebastian-vero-beach-west-vero-corridor-32966": {"city": "Sebastian-Vero Beach-West Vero Corridor", "rent": 1730, "zip": "32966"}, "sebastian-vero-beach-west-vero-corridor-32967": {"city": "Sebastian-Vero Beach-West Vero Corridor", "rent": 1650, "zip": "32967"}, "sebastian-vero-beach-west-vero-corridor-32968": {"city": "Sebastian-Vero Beach-West Vero Corridor", "rent": 2310, "zip": "32968"}, "sebastian-vero-beach-west-vero-corridor-32969": {"city": "Sebastian-Vero Beach-West Vero Corridor", "rent": 1600, "zip": "32969"}, "sebastian-vero-beach-west-vero-corridor-32970": {"city": "Sebastian-Vero Beach-West Vero Corridor", "rent": 1710, "zip": "32970"}, "sebastian-vero-beach-west-vero-corridor-32971": {"city": "Sebastian-Vero Beach-West Vero Corridor", "rent": 1600, "zip": "32971"}, "sebastian-vero-beach-west-vero-corridor-32978": {"city": "Sebastian-Vero Beach-West Vero Corridor", "rent": 1600, "zip": "32978"}, "sebastian-vero-beach-west-vero-corridor-34951": {"city": "Sebastian-Vero Beach-West Vero Corridor", "rent": 1470, "zip": "34951"}, "sebring-33825": {"city": "Sebring", "rent": 1210, "zip": "33825"}, "sebring-33826": {"city": "Sebring", "rent": 1270, "zip": "33826"}, "sebring-33843": {"city": "Sebring", "rent": 1210, "zip": "33843"}, "sebring-33852": {"city": "Sebring", "rent": 1410, "zip": "33852"}, "sebring-33857": {"city": "Sebring", "rent": 1350, "zip": "33857"}, "sebring-33862": {"city": "Sebring", "rent": 1270, "zip": "33862"}, "sebring-33870": {"city": "Sebring", "rent": 1250, "zip": "33870"}, "sebring-33871": {"city": "Sebring", "rent": 1270, "zip": "33871"}, "sebring-33872": {"city": "Sebring", "rent": 1460, "zip": "33872"}, "sebring-33875": {"city": "Sebring", "rent": 1340, "zip": "33875"}, "sebring-33876": {"city": "Sebring", "rent": 1240, "zip": "33876"}, "sebring-33960": {"city": "Sebring", "rent": 1350, "zip": "33960"}, "sebring-34266": {"city": "Sebring", "rent": 1490, "zip": "34266"}, "sebring-34974": {"city": "Sebring", "rent": 1470, "zip": "34974"}, "tallahassee-32301": {"city": "Tallahassee", "rent": 1430, "zip": "32301"}, "tallahassee-32302": {"city": "Tallahassee", "rent": 1380, "zip": "32302"}, "tallahassee-32303": {"city": "Tallahassee", "rent": 1460, "zip": "32303"}, "tallahassee-32304": {"city": "Tallahassee", "rent": 1360, "zip": "32304"}, "tallahassee-32305": {"city": "Tallahassee", "rent": 1190, "zip": "32305"}, "tallahassee-32306": {"city": "Tallahassee", "rent": 1370, "zip": "32306"}, "tallahassee-32307": {"city": "Tallahassee", "rent": 1330, "zip": "32307"}, "tallahassee-32308": {"city": "Tallahassee", "rent": 1440, "zip": "32308"}, "tallahassee-32309": {"city": "Tallahassee", "rent": 1500, "zip": "32309"}, "tallahassee-32310": {"city": "Tallahassee", "rent": 1190, "zip": "32310"}, "tallahassee-32311": {"city": "Tallahassee", "rent": 1670, "zip": "32311"}, "tallahassee-32312": {"city": "Tallahassee", "rent": 1700, "zip": "32312"}, "tallahassee-32313": {"city": "Tallahassee", "rent": 1380, "zip": "32313"}, "tallahassee-32314": {"city": "Tallahassee", "rent": 1380, "zip": "32314"}, "tallahassee-32315": {"city": "Tallahassee", "rent": 1380, "zip": "32315"}, "tallahassee-32316": {"city": "Tallahassee", "rent": 1380, "zip": "32316"}, "tallahassee-32317": {"city": "Tallahassee", "rent": 1630, "zip": "32317"}, "tallahassee-32318": {"city": "Tallahassee", "rent": 1380, "zip": "32318"}, "tallahassee-32324": {"city": "Tallahassee", "rent": 1190, "zip": "32324"}, "tallahassee-32327": {"city": "Tallahassee", "rent": 1190, "zip": "32327"}, "tallahassee-32330": {"city": "Tallahassee", "rent": 1190, "zip": "32330"}, "tallahassee-32331": {"city": "Tallahassee", "rent": 1190, "zip": "32331"}, "tallahassee-32332": {"city": "Tallahassee", "rent": 1190, "zip": "32332"}, "tallahassee-32333": {"city": "Tallahassee", "rent": 1190, "zip": "32333"}, "tallahassee-32336": {"city": "Tallahassee", "rent": 1210, "zip": "32336"}, "tallahassee-32337": {"city": "Tallahassee", "rent": 1190, "zip": "32337"}, "tallahassee-32343": {"city": "Tallahassee", "rent": 1210, "zip": "32343"}, "tallahassee-32344": {"city": "Tallahassee", "rent": 1190, "zip": "32344"}, "tallahassee-32345": {"city": "Tallahassee", "rent": 1190, "zip": "32345"}, "tallahassee-32351": {"city": "Tallahassee", "rent": 1190, "zip": "32351"}, "tallahassee-32352": {"city": "Tallahassee", "rent": 1250, "zip": "32352"}, "tallahassee-32361": {"city": "Tallahassee", "rent": 1190, "zip": "32361"}, "tallahassee-32362": {"city": "Tallahassee", "rent": 1380, "zip": "32362"}, "tallahassee-32399": {"city": "Tallahassee", "rent": 1380, "zip": "32399"}, "wakulla-county-32326": {"city": "Wakulla County", "rent": 1200, "zip": "32326"}, "wakulla-county-32327": {"city": "Wakulla County", "rent": 1190, "zip": "32327"}, "wakulla-county-32346": {"city": "Wakulla County", "rent": 1510, "zip": "32346"}, "wakulla-county-32355": {"city": "Wakulla County", "rent": 1120, "zip": "32355"}, "wakulla-county-32358": {"city": "Wakulla County", "rent": 1110, "zip": "32358"}, "tampa-st.-petersburg-clearwater-33503": {"city": "Tampa-St. Petersburg-Clearwater", "rent": 2160, "zip": "33503"}, "tampa-st.-petersburg-clearwater-33508": {"city": "Tampa-St. Petersburg-Clearwater", "rent": 2030, "zip": "33508"}, "tampa-st.-petersburg-clearwater-33509": {"city": "Tampa-St. Petersburg-Clearwater", "rent": 2030, "zip": "33509"}, "tampa-st.-petersburg-clearwater-33510": {"city": "Tampa-St. Petersburg-Clearwater", "rent": 1860, "zip": "33510"}, "tampa-st.-petersburg-clearwater-33511": {"city": "Tampa-St. Petersburg-Clearwater", "rent": 2360, "zip": "33511"}, "tampa-st.-petersburg-clearwater-33523": {"city": "Tampa-St. Petersburg-Clearwater", "rent": 1350, "zip": "33523"}, "tampa-st.-petersburg-clearwater-33524": {"city": "Tampa-St. Petersburg-Clearwater", "rent": 1840, "zip": "33524"}, "tampa-st.-petersburg-clearwater-33525": {"city": "Tampa-St. Petersburg-Clearwater", "rent": 1370, "zip": "33525"}, "tampa-st.-petersburg-clearwater-33526": {"city": "Tampa-St. Petersburg-Clearwater", "rent": 1840, "zip": "33526"}, "tampa-st.-petersburg-clearwater-33527": {"city": "Tampa-St. Petersburg-Clearwater", "rent": 1260, "zip": "33527"}, "tampa-st.-petersburg-clearwater-33530": {"city": "Tampa-St. Petersburg-Clearwater", "rent": 1830, "zip": "33530"}, "tampa-st.-petersburg-clearwater-33534": {"city": "Tampa-St. Petersburg-Clearwater", "rent": 1810, "zip": "33534"}, "tampa-st.-petersburg-clearwater-33537": {"city": "Tampa-St. Petersburg-Clearwater", "rent": 1840, "zip": "33537"}, "tampa-st.-petersburg-clearwater-33539": {"city": "Tampa-St. Petersburg-Clearwater", "rent": 1840, "zip": "33539"}, "tampa-st.-petersburg-clearwater-33540": {"city": "Tampa-St. Petersburg-Clearwater", "rent": 1320, "zip": "33540"}, "tampa-st.-petersburg-clearwater-33541": {"city": "Tampa-St. Petersburg-Clearwater", "rent": 1720, "zip": "33541"}, "tampa-st.-petersburg-clearwater-33542": {"city": "Tampa-St. Petersburg-Clearwater", "rent": 1470, "zip": "33542"}, "tampa-st.-petersburg-clearwater-33543": {"city": "Tampa-St. Petersburg-Clearwater", "rent": 2730, "zip": "33543"}, "tampa-st.-petersburg-clearwater-33544": {"city": "Tampa-St. Petersburg-Clearwater", "rent": 2640, "zip": "33544"}, "tampa-st.-petersburg-clearwater-33545": {"city": "Tampa-St. Petersburg-Clearwater", "rent": 2780, "zip": "33545"}, "tampa-st.-petersburg-clearwater-33547": {"city": "Tampa-St. Petersburg-Clearwater", "rent": 2970, "zip": "33547"}, "tampa-st.-petersburg-clearwater-33548": {"city": "Tampa-St. Petersburg-Clearwater", "rent": 2520, "zip": "33548"}, "tampa-st.-petersburg-clearwater-33549": {"city": "Tampa-St. Petersburg-Clearwater", "rent": 2100, "zip": "33549"}, "tampa-st.-petersburg-clearwater-33550": {"city": "Tampa-St. Petersburg-Clearwater", "rent": 2030, "zip": "33550"}, "tampa-st.-petersburg-clearwater-33556": {"city": "Tampa-St. Petersburg-Clearwater", "rent": 2230, "zip": "33556"}, "tampa-st.-petersburg-clearwater-33558": {"city": "Tampa-St. Petersburg-Clearwater", "rent": 1890, "zip": "33558"}, "tampa-st.-petersburg-clearwater-33559": {"city": "Tampa-St. Petersburg-Clearwater", "rent": 1980, "zip": "33559"}, "tampa-st.-petersburg-clearwater-33563": {"city": "Tampa-St. Petersburg-Clearwater", "rent": 1660, "zip": "33563"}, "tampa-st.-petersburg-clearwater-33564": {"city": "Tampa-St. Petersburg-Clearwater", "rent": 2030, "zip": "33564"}, "tampa-st.-petersburg-clearwater-33565": {"city": "Tampa-St. Petersburg-Clearwater", "rent": 1550, "zip": "33565"}, "tampa-st.-petersburg-clearwater-33566": {"city": "Tampa-St. Petersburg-Clearwater", "rent": 1800, "zip": "33566"}, "tampa-st.-petersburg-clearwater-33567": {"city": "Tampa-St. Petersburg-Clearwater", "rent": 1750, "zip": "33567"}, "tampa-st.-petersburg-clearwater-33568": {"city": "Tampa-St. Petersburg-Clearwater", "rent": 2030, "zip": "33568"}, "tampa-st.-petersburg-clearwater-33569": {"city": "Tampa-St. Petersburg-Clearwater", "rent": 2670, "zip": "33569"}, "tampa-st.-petersburg-clearwater-33570": {"city": "Tampa-St. Petersburg-Clearwater", "rent": 1640, "zip": "33570"}, "tampa-st.-petersburg-clearwater-33571": {"city": "Tampa-St. Petersburg-Clearwater", "rent": 2030, "zip": "33571"}, "tampa-st.-petersburg-clearwater-33572": {"city": "Tampa-St. Petersburg-Clearwater", "rent": 2740, "zip": "33572"}, "tampa-st.-petersburg-clearwater-33573": {"city": "Tampa-St. Petersburg-Clearwater", "rent": 2230, "zip": "33573"}, "tampa-st.-petersburg-clearwater-33574": {"city": "Tampa-St. Petersburg-Clearwater", "rent": 1440, "zip": "33574"}, "tampa-st.-petersburg-clearwater-33575": {"city": "Tampa-St. Petersburg-Clearwater", "rent": 2030, "zip": "33575"}, "tampa-st.-petersburg-clearwater-33576": {"city": "Tampa-St. Petersburg-Clearwater", "rent": 1420, "zip": "33576"}, "tampa-st.-petersburg-clearwater-33578": {"city": "Tampa-St. Petersburg-Clearwater", "rent": 2290, "zip": "33578"}, "tampa-st.-petersburg-clearwater-33579": {"city": "Tampa-St. Petersburg-Clearwater", "rent": 2900, "zip": "33579"}, "tampa-st.-petersburg-clearwater-33583": {"city": "Tampa-St. Petersburg-Clearwater", "rent": 2030, "zip": "33583"}, "tampa-st.-petersburg-clearwater-33584": {"city": "Tampa-St. Petersburg-Clearwater", "rent": 1860, "zip": "33584"}, "tampa-st.-petersburg-clearwater-33586": {"city": "Tampa-St. Petersburg-Clearwater", "rent": 2030, "zip": "33586"}, "tampa-st.-petersburg-clearwater-33587": {"city": "Tampa-St. Petersburg-Clearwater", "rent": 2030, "zip": "33587"}, "tampa-st.-petersburg-clearwater-33592": {"city": "Tampa-St. Petersburg-Clearwater", "rent": 1450, "zip": "33592"}, "tampa-st.-petersburg-clearwater-33593": {"city": "Tampa-St. Petersburg-Clearwater", "rent": 1840, "zip": "33593"}, "tampa-st.-petersburg-clearwater-33594": {"city": "Tampa-St. Petersburg-Clearwater", "rent": 2330, "zip": "33594"}, "tampa-st.-petersburg-clearwater-33595": {"city": "Tampa-St. Petersburg-Clearwater", "rent": 2030, "zip": "33595"}, "tampa-st.-petersburg-clearwater-33596": {"city": "Tampa-St. Petersburg-Clearwater", "rent": 2970, "zip": "33596"}, "tampa-st.-petersburg-clearwater-33597": {"city": "Tampa-St. Petersburg-Clearwater", "rent": 1080, "zip": "33597"}, "tampa-st.-petersburg-clearwater-33598": {"city": "Tampa-St. Petersburg-Clearwater", "rent": 1640, "zip": "33598"}, "tampa-st.-petersburg-clearwater-33601": {"city": "Tampa-St. Petersburg-Clearwater", "rent": 2030, "zip": "33601"}, "tampa-st.-petersburg-clearwater-33602": {"city": "Tampa-St. Petersburg-Clearwater", "rent": 2970, "zip": "33602"}, "tampa-st.-petersburg-clearwater-33603": {"city": "Tampa-St. Petersburg-Clearwater", "rent": 1830, "zip": "33603"}, "tampa-st.-petersburg-clearwater-33604": {"city": "Tampa-St. Petersburg-Clearwater", "rent": 1910, "zip": "33604"}, "tampa-st.-petersburg-clearwater-33605": {"city": "Tampa-St. Petersburg-Clearwater", "rent": 1640, "zip": "33605"}, "tampa-st.-petersburg-clearwater-33606": {"city": "Tampa-St. Petersburg-Clearwater", "rent": 2770, "zip": "33606"}, "tampa-st.-petersburg-clearwater-33607": {"city": "Tampa-St. Petersburg-Clearwater", "rent": 2430, "zip": "33607"}, "tampa-st.-petersburg-clearwater-33609": {"city": "Tampa-St. Petersburg-Clearwater", "rent": 2400, "zip": "33609"}, "tampa-st.-petersburg-clearwater-33610": {"city": "Tampa-St. Petersburg-Clearwater", "rent": 1730, "zip": "33610"}, "tampa-st.-petersburg-clearwater-33611": {"city": "Tampa-St. Petersburg-Clearwater", "rent": 2490, "zip": "33611"}, "tampa-st.-petersburg-clearwater-33612": {"city": "Tampa-St. Petersburg-Clearwater", "rent": 1750, "zip": "33612"}, "tampa-st.-petersburg-clearwater-33613": {"city": "Tampa-St. Petersburg-Clearwater", "rent": 1790, "zip": "33613"}, "tampa-st.-petersburg-clearwater-33614": {"city": "Tampa-St. Petersburg-Clearwater", "rent": 2060, "zip": "33614"}, "tampa-st.-petersburg-clearwater-33615": {"city": "Tampa-St. Petersburg-Clearwater", "rent": 2290, "zip": "33615"}, "tampa-st.-petersburg-clearwater-33616": {"city": "Tampa-St. Petersburg-Clearwater", "rent": 2300, "zip": "33616"}, "tampa-st.-petersburg-clearwater-33617": {"city": "Tampa-St. Petersburg-Clearwater", "rent": 2010, "zip": "33617"}, "tampa-st.-petersburg-clearwater-33618": {"city": "Tampa-St. Petersburg-Clearwater", "rent": 1850, "zip": "33618"}, "tampa-st.-petersburg-clearwater-33619": {"city": "Tampa-St. Petersburg-Clearwater", "rent": 2230, "zip": "33619"}, "tampa-st.-petersburg-clearwater-33620": {"city": "Tampa-St. Petersburg-Clearwater", "rent": 1880, "zip": "33620"}, "tampa-st.-petersburg-clearwater-33621": {"city": "Tampa-St. Petersburg-Clearwater", "rent": 2970, "zip": "33621"}, "tampa-st.-petersburg-clearwater-33622": {"city": "Tampa-St. Petersburg-Clearwater", "rent": 2030, "zip": "33622"}, "tampa-st.-petersburg-clearwater-33623": {"city": "Tampa-St. Petersburg-Clearwater", "rent": 2030, "zip": "33623"}, "tampa-st.-petersburg-clearwater-33624": {"city": "Tampa-St. Petersburg-Clearwater", "rent": 2210, "zip": "33624"}, "tampa-st.-petersburg-clearwater-33625": {"city": "Tampa-St. Petersburg-Clearwater", "rent": 2420, "zip": "33625"}, "tampa-st.-petersburg-clearwater-33626": {"city": "Tampa-St. Petersburg-Clearwater", "rent": 2750, "zip": "33626"}, "tampa-st.-petersburg-clearwater-33629": {"city": "Tampa-St. Petersburg-Clearwater", "rent": 2320, "zip": "33629"}, "tampa-st.-petersburg-clearwater-33630": {"city": "Tampa-St. Petersburg-Clearwater", "rent": 2030, "zip": "33630"}, "tampa-st.-petersburg-clearwater-33634": {"city": "Tampa-St. Petersburg-Clearwater", "rent": 2290, "zip": "33634"}, "tampa-st.-petersburg-clearwater-33635": {"city": "Tampa-St. Petersburg-Clearwater", "rent": 2340, "zip": "33635"}, "tampa-st.-petersburg-clearwater-33637": {"city": "Tampa-St. Petersburg-Clearwater", "rent": 1970, "zip": "33637"}, "tampa-st.-petersburg-clearwater-33646": {"city": "Tampa-St. Petersburg-Clearwater", "rent": 2030, "zip": "33646"}, "tampa-st.-petersburg-clearwater-33647": {"city": "Tampa-St. Petersburg-Clearwater", "rent": 2510, "zip": "33647"}, "tampa-st.-petersburg-clearwater-33672": {"city": "Tampa-St. Petersburg-Clearwater", "rent": 2030, "zip": "33672"}, "tampa-st.-petersburg-clearwater-33673": {"city": "Tampa-St. Petersburg-Clearwater", "rent": 2030, "zip": "33673"}, "tampa-st.-petersburg-clearwater-33674": {"city": "Tampa-St. Petersburg-Clearwater", "rent": 2030, "zip": "33674"}, "tampa-st.-petersburg-clearwater-33675": {"city": "Tampa-St. Petersburg-Clearwater", "rent": 2030, "zip": "33675"}, "tampa-st.-petersburg-clearwater-33677": {"city": "Tampa-St. Petersburg-Clearwater", "rent": 2030, "zip": "33677"}, "tampa-st.-petersburg-clearwater-33679": {"city": "Tampa-St. Petersburg-Clearwater", "rent": 2030, "zip": "33679"}, "tampa-st.-petersburg-clearwater-33680": {"city": "Tampa-St. Petersburg-Clearwater", "rent": 2030, "zip": "33680"}, "tampa-st.-petersburg-clearwater-33681": {"city": "Tampa-St. Petersburg-Clearwater", "rent": 2030, "zip": "33681"}, "tampa-st.-petersburg-clearwater-33682": {"city": "Tampa-St. Petersburg-Clearwater", "rent": 2030, "zip": "33682"}, "tampa-st.-petersburg-clearwater-33684": {"city": "Tampa-St. Petersburg-Clearwater", "rent": 2030, "zip": "33684"}, "tampa-st.-petersburg-clearwater-33685": {"city": "Tampa-St. Petersburg-Clearwater", "rent": 2030, "zip": "33685"}, "tampa-st.-petersburg-clearwater-33687": {"city": "Tampa-St. Petersburg-Clearwater", "rent": 2030, "zip": "33687"}, "tampa-st.-petersburg-clearwater-33688": {"city": "Tampa-St. Petersburg-Clearwater", "rent": 2030, "zip": "33688"}, "tampa-st.-petersburg-clearwater-33689": {"city": "Tampa-St. Petersburg-Clearwater", "rent": 2030, "zip": "33689"}, "tampa-st.-petersburg-clearwater-33694": {"city": "Tampa-St. Petersburg-Clearwater", "rent": 2030, "zip": "33694"}, "tampa-st.-petersburg-clearwater-33701": {"city": "Tampa-St. Petersburg-Clearwater", "rent": 2160, "zip": "33701"}, "tampa-st.-petersburg-clearwater-33702": {"city": "Tampa-St. Petersburg-Clearwater", "rent": 2000, "zip": "33702"}, "tampa-st.-petersburg-clearwater-33703": {"city": "Tampa-St. Petersburg-Clearwater", "rent": 2130, "zip": "33703"}, "tampa-st.-petersburg-clearwater-33704": {"city": "Tampa-St. Petersburg-Clearwater", "rent": 1850, "zip": "33704"}, "tampa-st.-petersburg-clearwater-33705": {"city": "Tampa-St. Petersburg-Clearwater", "rent": 2020, "zip": "33705"}, "tampa-st.-petersburg-clearwater-33706": {"city": "Tampa-St. Petersburg-Clearwater", "rent": 2120, "zip": "33706"}, "tampa-st.-petersburg-clearwater-33707": {"city": "Tampa-St. Petersburg-Clearwater", "rent": 1890, "zip": "33707"}, "tampa-st.-petersburg-clearwater-33708": {"city": "Tampa-St. Petersburg-Clearwater", "rent": 2510, "zip": "33708"}, "tampa-st.-petersburg-clearwater-33709": {"city": "Tampa-St. Petersburg-Clearwater", "rent": 1800, "zip": "33709"}, "tampa-st.-petersburg-clearwater-33710": {"city": "Tampa-St. Petersburg-Clearwater", "rent": 2070, "zip": "33710"}, "tampa-st.-petersburg-clearwater-33711": {"city": "Tampa-St. Petersburg-Clearwater", "rent": 2270, "zip": "33711"}, "tampa-st.-petersburg-clearwater-33712": {"city": "Tampa-St. Petersburg-Clearwater", "rent": 1920, "zip": "33712"}, "tampa-st.-petersburg-clearwater-33713": {"city": "Tampa-St. Petersburg-Clearwater", "rent": 1860, "zip": "33713"}, "tampa-st.-petersburg-clearwater-33714": {"city": "Tampa-St. Petersburg-Clearwater", "rent": 1730, "zip": "33714"}, "tampa-st.-petersburg-clearwater-33715": {"city": "Tampa-St. Petersburg-Clearwater", "rent": 2970, "zip": "33715"}, "tampa-st.-petersburg-clearwater-33716": {"city": "Tampa-St. Petersburg-Clearwater", "rent": 2700, "zip": "33716"}, "tampa-st.-petersburg-clearwater-33730": {"city": "Tampa-St. Petersburg-Clearwater", "rent": 1990, "zip": "33730"}, "tampa-st.-petersburg-clearwater-33731": {"city": "Tampa-St. Petersburg-Clearwater", "rent": 1990, "zip": "33731"}, "tampa-st.-petersburg-clearwater-33732": {"city": "Tampa-St. Petersburg-Clearwater", "rent": 1990, "zip": "33732"}, "tampa-st.-petersburg-clearwater-33733": {"city": "Tampa-St. Petersburg-Clearwater", "rent": 1990, "zip": "33733"}, "tampa-st.-petersburg-clearwater-33734": {"city": "Tampa-St. Petersburg-Clearwater", "rent": 1990, "zip": "33734"}, "tampa-st.-petersburg-clearwater-33736": {"city": "Tampa-St. Petersburg-Clearwater", "rent": 1990, "zip": "33736"}, "tampa-st.-petersburg-clearwater-33738": {"city": "Tampa-St. Petersburg-Clearwater", "rent": 1990, "zip": "33738"}, "tampa-st.-petersburg-clearwater-33741": {"city": "Tampa-St. Petersburg-Clearwater", "rent": 1990, "zip": "33741"}, "tampa-st.-petersburg-clearwater-33742": {"city": "Tampa-St. Petersburg-Clearwater", "rent": 1990, "zip": "33742"}, "tampa-st.-petersburg-clearwater-33743": {"city": "Tampa-St. Petersburg-Clearwater", "rent": 1990, "zip": "33743"}, "tampa-st.-petersburg-clearwater-33744": {"city": "Tampa-St. Petersburg-Clearwater", "rent": 2510, "zip": "33744"}, "tampa-st.-petersburg-clearwater-33747": {"city": "Tampa-St. Petersburg-Clearwater", "rent": 1990, "zip": "33747"}, "tampa-st.-petersburg-clearwater-33755": {"city": "Tampa-St. Petersburg-Clearwater", "rent": 1720, "zip": "33755"}, "tampa-st.-petersburg-clearwater-33756": {"city": "Tampa-St. Petersburg-Clearwater", "rent": 1770, "zip": "33756"}, "tampa-st.-petersburg-clearwater-33757": {"city": "Tampa-St. Petersburg-Clearwater", "rent": 1990, "zip": "33757"}, "tampa-st.-petersburg-clearwater-33758": {"city": "Tampa-St. Petersburg-Clearwater", "rent": 1990, "zip": "33758"}, "tampa-st.-petersburg-clearwater-33759": {"city": "Tampa-St. Petersburg-Clearwater", "rent": 2330, "zip": "33759"}, "tampa-st.-petersburg-clearwater-33760": {"city": "Tampa-St. Petersburg-Clearwater", "rent": 2020, "zip": "33760"}, "tampa-st.-petersburg-clearwater-33761": {"city": "Tampa-St. Petersburg-Clearwater", "rent": 2220, "zip": "33761"}, "tampa-st.-petersburg-clearwater-33762": {"city": "Tampa-St. Petersburg-Clearwater", "rent": 2300, "zip": "33762"}, "tampa-st.-petersburg-clearwater-33763": {"city": "Tampa-St. Petersburg-Clearwater", "rent": 1860, "zip": "33763"}, "tampa-st.-petersburg-clearwater-33764": {"city": "Tampa-St. Petersburg-Clearwater", "rent": 2120, "zip": "33764"}, "tampa-st.-petersburg-clearwater-33765": {"city": "Tampa-St. Petersburg-Clearwater", "rent": 2060, "zip": "33765"}, "tampa-st.-petersburg-clearwater-33766": {"city": "Tampa-St. Petersburg-Clearwater", "rent": 1990, "zip": "33766"}, "tampa-st.-petersburg-clearwater-33767": {"city": "Tampa-St. Petersburg-Clearwater", "rent": 2640, "zip": "33767"}, "tampa-st.-petersburg-clearwater-33770": {"city": "Tampa-St. Petersburg-Clearwater", "rent": 1850, "zip": "33770"}, "tampa-st.-petersburg-clearwater-33771": {"city": "Tampa-St. Petersburg-Clearwater", "rent": 1850, "zip": "33771"}, "tampa-st.-petersburg-clearwater-33772": {"city": "Tampa-St. Petersburg-Clearwater", "rent": 1950, "zip": "33772"}, "tampa-st.-petersburg-clearwater-33773": {"city": "Tampa-St. Petersburg-Clearwater", "rent": 2040, "zip": "33773"}, "tampa-st.-petersburg-clearwater-33774": {"city": "Tampa-St. Petersburg-Clearwater", "rent": 1900, "zip": "33774"}, "tampa-st.-petersburg-clearwater-33775": {"city": "Tampa-St. Petersburg-Clearwater", "rent": 1990, "zip": "33775"}, "tampa-st.-petersburg-clearwater-33776": {"city": "Tampa-St. Petersburg-Clearwater", "rent": 2910, "zip": "33776"}, "tampa-st.-petersburg-clearwater-33777": {"city": "Tampa-St. Petersburg-Clearwater", "rent": 2370, "zip": "33777"}, "tampa-st.-petersburg-clearwater-33778": {"city": "Tampa-St. Petersburg-Clearwater", "rent": 2090, "zip": "33778"}, "tampa-st.-petersburg-clearwater-33779": {"city": "Tampa-St. Petersburg-Clearwater", "rent": 1990, "zip": "33779"}, "tampa-st.-petersburg-clearwater-33780": {"city": "Tampa-St. Petersburg-Clearwater", "rent": 1990, "zip": "33780"}, "tampa-st.-petersburg-clearwater-33781": {"city": "Tampa-St. Petersburg-Clearwater", "rent": 1660, "zip": "33781"}, "tampa-st.-petersburg-clearwater-33782": {"city": "Tampa-St. Petersburg-Clearwater", "rent": 2280, "zip": "33782"}, "tampa-st.-petersburg-clearwater-33784": {"city": "Tampa-St. Petersburg-Clearwater", "rent": 1990, "zip": "33784"}, "tampa-st.-petersburg-clearwater-33785": {"city": "Tampa-St. Petersburg-Clearwater", "rent": 2210, "zip": "33785"}, "tampa-st.-petersburg-clearwater-33786": {"city": "Tampa-St. Petersburg-Clearwater", "rent": 2970, "zip": "33786"}, "tampa-st.-petersburg-clearwater-33809": {"city": "Tampa-St. Petersburg-Clearwater", "rent": 1700, "zip": "33809"}, "tampa-st.-petersburg-clearwater-33810": {"city": "Tampa-St. Petersburg-Clearwater", "rent": 1680, "zip": "33810"}, "tampa-st.-petersburg-clearwater-33849": {"city": "Tampa-St. Petersburg-Clearwater", "rent": 1550, "zip": "33849"}, "tampa-st.-petersburg-clearwater-33860": {"city": "Tampa-St. Petersburg-Clearwater", "rent": 1390, "zip": "33860"}, "tampa-st.-petersburg-clearwater-34446": {"city": "Tampa-St. Petersburg-Clearwater", "rent": 1240, "zip": "34446"}, "tampa-st.-petersburg-clearwater-34601": {"city": "Tampa-St. Petersburg-Clearwater", "rent": 1460, "zip": "34601"}, "tampa-st.-petersburg-clearwater-34602": {"city": "Tampa-St. Petersburg-Clearwater", "rent": 1640, "zip": "34602"}, "tampa-st.-petersburg-clearwater-34603": {"city": "Tampa-St. Petersburg-Clearwater", "rent": 1650, "zip": "34603"}, "tampa-st.-petersburg-clearwater-34604": {"city": "Tampa-St. Petersburg-Clearwater", "rent": 1580, "zip": "34604"}, "tampa-st.-petersburg-clearwater-34605": {"city": "Tampa-St. Petersburg-Clearwater", "rent": 1650, "zip": "34605"}, "tampa-st.-petersburg-clearwater-34606": {"city": "Tampa-St. Petersburg-Clearwater", "rent": 1610, "zip": "34606"}, "tampa-st.-petersburg-clearwater-34607": {"city": "Tampa-St. Petersburg-Clearwater", "rent": 1710, "zip": "34607"}, "tampa-st.-petersburg-clearwater-34608": {"city": "Tampa-St. Petersburg-Clearwater", "rent": 1680, "zip": "34608"}, "tampa-st.-petersburg-clearwater-34609": {"city": "Tampa-St. Petersburg-Clearwater", "rent": 2020, "zip": "34609"}, "tampa-st.-petersburg-clearwater-34610": {"city": "Tampa-St. Petersburg-Clearwater", "rent": 1690, "zip": "34610"}, "tampa-st.-petersburg-clearwater-34611": {"city": "Tampa-St. Petersburg-Clearwater", "rent": 1650, "zip": "34611"}, "tampa-st.-petersburg-clearwater-34613": {"city": "Tampa-St. Petersburg-Clearwater", "rent": 1610, "zip": "34613"}, "tampa-st.-petersburg-clearwater-34614": {"city": "Tampa-St. Petersburg-Clearwater", "rent": 1490, "zip": "34614"}, "tampa-st.-petersburg-clearwater-34636": {"city": "Tampa-St. Petersburg-Clearwater", "rent": 1650, "zip": "34636"}, "tampa-st.-petersburg-clearwater-34637": {"city": "Tampa-St. Petersburg-Clearwater", "rent": 2360, "zip": "34637"}, "tampa-st.-petersburg-clearwater-34638": {"city": "Tampa-St. Petersburg-Clearwater", "rent": 2960, "zip": "34638"}, "tampa-st.-petersburg-clearwater-34639": {"city": "Tampa-St. Petersburg-Clearwater", "rent": 2490, "zip": "34639"}, "tampa-st.-petersburg-clearwater-34652": {"city": "Tampa-St. Petersburg-Clearwater", "rent": 1660, "zip": "34652"}, "tampa-st.-petersburg-clearwater-34653": {"city": "Tampa-St. Petersburg-Clearwater", "rent": 1670, "zip": "34653"}, "tampa-st.-petersburg-clearwater-34654": {"city": "Tampa-St. Petersburg-Clearwater", "rent": 2000, "zip": "34654"}, "tampa-st.-petersburg-clearwater-34655": {"city": "Tampa-St. Petersburg-Clearwater", "rent": 2220, "zip": "34655"}, "tampa-st.-petersburg-clearwater-34656": {"city": "Tampa-St. Petersburg-Clearwater", "rent": 1840, "zip": "34656"}, "tampa-st.-petersburg-clearwater-34660": {"city": "Tampa-St. Petersburg-Clearwater", "rent": 1990, "zip": "34660"}, "tampa-st.-petersburg-clearwater-34661": {"city": "Tampa-St. Petersburg-Clearwater", "rent": 1390, "zip": "34661"}, "tampa-st.-petersburg-clearwater-34667": {"city": "Tampa-St. Petersburg-Clearwater", "rent": 1650, "zip": "34667"}, "tampa-st.-petersburg-clearwater-34668": {"city": "Tampa-St. Petersburg-Clearwater", "rent": 1810, "zip": "34668"}, "tampa-st.-petersburg-clearwater-34669": {"city": "Tampa-St. Petersburg-Clearwater", "rent": 1770, "zip": "34669"}, "tampa-st.-petersburg-clearwater-34673": {"city": "Tampa-St. Petersburg-Clearwater", "rent": 1840, "zip": "34673"}, "tampa-st.-petersburg-clearwater-34674": {"city": "Tampa-St. Petersburg-Clearwater", "rent": 1840, "zip": "34674"}, "tampa-st.-petersburg-clearwater-34677": {"city": "Tampa-St. Petersburg-Clearwater", "rent": 1950, "zip": "34677"}, "tampa-st.-petersburg-clearwater-34679": {"city": "Tampa-St. Petersburg-Clearwater", "rent": 1660, "zip": "34679"}, "tampa-st.-petersburg-clearwater-34680": {"city": "Tampa-St. Petersburg-Clearwater", "rent": 1840, "zip": "34680"}, "tampa-st.-petersburg-clearwater-34681": {"city": "Tampa-St. Petersburg-Clearwater", "rent": 2130, "zip": "34681"}, "tampa-st.-petersburg-clearwater-34682": {"city": "Tampa-St. Petersburg-Clearwater", "rent": 1990, "zip": "34682"}, "tampa-st.-petersburg-clearwater-34683": {"city": "Tampa-St. Petersburg-Clearwater", "rent": 2130, "zip": "34683"}, "tampa-st.-petersburg-clearwater-34684": {"city": "Tampa-St. Petersburg-Clearwater", "rent": 2160, "zip": "34684"}, "tampa-st.-petersburg-clearwater-34685": {"city": "Tampa-St. Petersburg-Clearwater", "rent": 2390, "zip": "34685"}, "tampa-st.-petersburg-clearwater-34688": {"city": "Tampa-St. Petersburg-Clearwater", "rent": 1910, "zip": "34688"}, "tampa-st.-petersburg-clearwater-34689": {"city": "Tampa-St. Petersburg-Clearwater", "rent": 1660, "zip": "34689"}, "tampa-st.-petersburg-clearwater-34690": {"city": "Tampa-St. Petersburg-Clearwater", "rent": 1680, "zip": "34690"}, "tampa-st.-petersburg-clearwater-34691": {"city": "Tampa-St. Petersburg-Clearwater", "rent": 1820, "zip": "34691"}, "tampa-st.-petersburg-clearwater-34692": {"city": "Tampa-St. Petersburg-Clearwater", "rent": 1840, "zip": "34692"}, "tampa-st.-petersburg-clearwater-34695": {"city": "Tampa-St. Petersburg-Clearwater", "rent": 2250, "zip": "34695"}, "tampa-st.-petersburg-clearwater-34697": {"city": "Tampa-St. Petersburg-Clearwater", "rent": 1990, "zip": "34697"}, "tampa-st.-petersburg-clearwater-34698": {"city": "Tampa-St. Petersburg-Clearwater", "rent": 1970, "zip": "34698"}, "wildwood-the-villages-32159": {"city": "Wildwood-The Villages", "rent": 1570, "zip": "32159"}, "wildwood-the-villages-32162": {"city": "Wildwood-The Villages", "rent": 1930, "zip": "32162"}, "wildwood-the-villages-32163": {"city": "Wildwood-The Villages", "rent": 2040, "zip": "32163"}, "wildwood-the-villages-33513": {"city": "Wildwood-The Villages", "rent": 1240, "zip": "33513"}, "wildwood-the-villages-33514": {"city": "Wildwood-The Villages", "rent": 1240, "zip": "33514"}, "wildwood-the-villages-33521": {"city": "Wildwood-The Villages", "rent": 1240, "zip": "33521"}, "wildwood-the-villages-33538": {"city": "Wildwood-The Villages", "rent": 1240, "zip": "33538"}, "wildwood-the-villages-33585": {"city": "Wildwood-The Villages", "rent": 1240, "zip": "33585"}, "wildwood-the-villages-33597": {"city": "Wildwood-The Villages", "rent": 1080, "zip": "33597"}, "wildwood-the-villages-34484": {"city": "Wildwood-The Villages", "rent": 1550, "zip": "34484"}, "wildwood-the-villages-34491": {"city": "Wildwood-The Villages", "rent": 1300, "zip": "34491"}, "wildwood-the-villages-34731": {"city": "Wildwood-The Villages", "rent": 1520, "zip": "34731"}, "wildwood-the-villages-34762": {"city": "Wildwood-The Villages", "rent": 1570, "zip": "34762"}, "wildwood-the-villages-34785": {"city": "Wildwood-The Villages", "rent": 1280, "zip": "34785"}, "bradford-county-32026": {"city": "Bradford County", "rent": 1240, "zip": "32026"}, "bradford-county-32042": {"city": "Bradford County", "rent": 1120, "zip": "32042"}, "bradford-county-32044": {"city": "Bradford County", "rent": 1460, "zip": "32044"}, "bradford-county-32054": {"city": "Bradford County", "rent": 1060, "zip": "32054"}, "bradford-county-32058": {"city": "Bradford County", "rent": 1230, "zip": "32058"}, "bradford-county-32083": {"city": "Bradford County", "rent": 1350, "zip": "32083"}, "bradford-county-32091": {"city": "Bradford County", "rent": 1080, "zip": "32091"}, "bradford-county-32609": {"city": "Bradford County", "rent": 1430, "zip": "32609"}, "bradford-county-32622": {"city": "Bradford County", "rent": 1430, "zip": "32622"}, "bradford-county-32656": {"city": "Bradford County", "rent": 1230, "zip": "32656"}, "bradford-county-32666": {"city": "Bradford County", "rent": 1100, "zip": "32666"}, "calhoun-county-32420": {"city": "Calhoun County", "rent": 970, "zip": "32420"}, "calhoun-county-32421": {"city": "Calhoun County", "rent": 1050, "zip": "32421"}, "calhoun-county-32424": {"city": "Calhoun County", "rent": 970, "zip": "32424"}, "calhoun-county-32430": {"city": "Calhoun County", "rent": 1160, "zip": "32430"}, "calhoun-county-32438": {"city": "Calhoun County", "rent": 1450, "zip": "32438"}, "calhoun-county-32442": {"city": "Calhoun County", "rent": 980, "zip": "32442"}, "calhoun-county-32448": {"city": "Calhoun County", "rent": 1060, "zip": "32448"}, "calhoun-county-32449": {"city": "Calhoun County", "rent": 1030, "zip": "32449"}, "calhoun-county-32465": {"city": "Calhoun County", "rent": 1450, "zip": "32465"}, "calhoun-county-32466": {"city": "Calhoun County", "rent": 1450, "zip": "32466"}, "columbia-county-32024": {"city": "Columbia County", "rent": 1500, "zip": "32024"}, "columbia-county-32025": {"city": "Columbia County", "rent": 1360, "zip": "32025"}, "columbia-county-32038": {"city": "Columbia County", "rent": 1270, "zip": "32038"}, "columbia-county-32055": {"city": "Columbia County", "rent": 1240, "zip": "32055"}, "columbia-county-32056": {"city": "Columbia County", "rent": 1320, "zip": "32056"}, "columbia-county-32061": {"city": "Columbia County", "rent": 1240, "zip": "32061"}, "columbia-county-32094": {"city": "Columbia County", "rent": 1120, "zip": "32094"}, "columbia-county-32096": {"city": "Columbia County", "rent": 970, "zip": "32096"}, "columbia-county-32643": {"city": "Columbia County", "rent": 1560, "zip": "32643"}, "desoto-county-33865": {"city": "DeSoto County", "rent": 1390, "zip": "33865"}, "desoto-county-34266": {"city": "DeSoto County", "rent": 1490, "zip": "34266"}, "desoto-county-34267": {"city": "DeSoto County", "rent": 1420, "zip": "34267"}, "desoto-county-34268": {"city": "DeSoto County", "rent": 1350, "zip": "34268"}, "desoto-county-34269": {"city": "DeSoto County", "rent": 1420, "zip": "34269"}, "dixie-county-32008": {"city": "Dixie County", "rent": 1430, "zip": "32008"}, "dixie-county-32359": {"city": "Dixie County", "rent": 1100, "zip": "32359"}, "dixie-county-32628": {"city": "Dixie County", "rent": 1150, "zip": "32628"}, "dixie-county-32648": {"city": "Dixie County", "rent": 1170, "zip": "32648"}, "dixie-county-32680": {"city": "Dixie County", "rent": 1180, "zip": "32680"}, "dixie-county-32692": {"city": "Dixie County", "rent": 1180, "zip": "32692"}, "franklin-county-32320": {"city": "Franklin County", "rent": 1400, "zip": "32320"}, "franklin-county-32321": {"city": "Franklin County", "rent": 1090, "zip": "32321"}, "franklin-county-32322": {"city": "Franklin County", "rent": 1240, "zip": "32322"}, "franklin-county-32323": {"city": "Franklin County", "rent": 1240, "zip": "32323"}, "franklin-county-32328": {"city": "Franklin County", "rent": 1030, "zip": "32328"}, "franklin-county-32346": {"city": "Franklin County", "rent": 1510, "zip": "32346"}, "franklin-county-32358": {"city": "Franklin County", "rent": 1110, "zip": "32358"}, "glades-county-33471": {"city": "Glades County", "rent": 1160, "zip": "33471"}, "glades-county-33935": {"city": "Glades County", "rent": 1350, "zip": "33935"}, "glades-county-33944": {"city": "Glades County", "rent": 1240, "zip": "33944"}, "glades-county-33960": {"city": "Glades County", "rent": 1350, "zip": "33960"}, "glades-county-34974": {"city": "Glades County", "rent": 1470, "zip": "34974"}, "gulf-county-32456": {"city": "Gulf County", "rent": 1910, "zip": "32456"}, "gulf-county-32465": {"city": "Gulf County", "rent": 1450, "zip": "32465"}, "hamilton-county-32052": {"city": "Hamilton County", "rent": 1000, "zip": "32052"}, "hamilton-county-32053": {"city": "Hamilton County", "rent": 1010, "zip": "32053"}, "hamilton-county-32096": {"city": "Hamilton County", "rent": 970, "zip": "32096"}, "hardee-county-33834": {"city": "Hardee County", "rent": 1330, "zip": "33834"}, "hardee-county-33841": {"city": "Hardee County", "rent": 1210, "zip": "33841"}, "hardee-county-33865": {"city": "Hardee County", "rent": 1390, "zip": "33865"}, "hardee-county-33873": {"city": "Hardee County", "rent": 1250, "zip": "33873"}, "hardee-county-33890": {"city": "Hardee County", "rent": 1230, "zip": "33890"}, "hendry-county-33440": {"city": "Hendry County", "rent": 1200, "zip": "33440"}, "hendry-county-33471": {"city": "Hendry County", "rent": 1160, "zip": "33471"}, "hendry-county-33930": {"city": "Hendry County", "rent": 1340, "zip": "33930"}, "hendry-county-33935": {"city": "Hendry County", "rent": 1350, "zip": "33935"}, "hendry-county-33936": {"city": "Hendry County", "rent": 1660, "zip": "33936"}, "hendry-county-33975": {"city": "Hendry County", "rent": 1270, "zip": "33975"}, "hendry-county-34142": {"city": "Hendry County", "rent": 1680, "zip": "34142"}, "holmes-county-32425": {"city": "Holmes County", "rent": 1090, "zip": "32425"}, "holmes-county-32433": {"city": "Holmes County", "rent": 1420, "zip": "32433"}, "holmes-county-32435": {"city": "Holmes County", "rent": 1090, "zip": "32435"}, "holmes-county-32440": {"city": "Holmes County", "rent": 1050, "zip": "32440"}, "holmes-county-32455": {"city": "Holmes County", "rent": 1090, "zip": "32455"}, "holmes-county-32464": {"city": "Holmes County", "rent": 1090, "zip": "32464"}, "jackson-county-32420": {"city": "Jackson County", "rent": 970, "zip": "32420"}, "jackson-county-32423": {"city": "Jackson County", "rent": 1260, "zip": "32423"}, "jackson-county-32426": {"city": "Jackson County", "rent": 1070, "zip": "32426"}, "jackson-county-32428": {"city": "Jackson County", "rent": 1450, "zip": "32428"}, "jackson-county-32431": {"city": "Jackson County", "rent": 1160, "zip": "32431"}, "jackson-county-32432": {"city": "Jackson County", "rent": 1070, "zip": "32432"}, "jackson-county-32438": {"city": "Jackson County", "rent": 1450, "zip": "32438"}, "jackson-county-32440": {"city": "Jackson County", "rent": 1050, "zip": "32440"}, "jackson-county-32442": {"city": "Jackson County", "rent": 980, "zip": "32442"}, "jackson-county-32443": {"city": "Jackson County", "rent": 1080, "zip": "32443"}, "jackson-county-32445": {"city": "Jackson County", "rent": 970, "zip": "32445"}, "jackson-county-32446": {"city": "Jackson County", "rent": 1150, "zip": "32446"}, "jackson-county-32447": {"city": "Jackson County", "rent": 1070, "zip": "32447"}, "jackson-county-32448": {"city": "Jackson County", "rent": 1060, "zip": "32448"}, "jackson-county-32460": {"city": "Jackson County", "rent": 1070, "zip": "32460"}, "lafayette-county-32008": {"city": "Lafayette County", "rent": 1430, "zip": "32008"}, "lafayette-county-32013": {"city": "Lafayette County", "rent": 1310, "zip": "32013"}, "lafayette-county-32066": {"city": "Lafayette County", "rent": 1310, "zip": "32066"}, "liberty-county-32321": {"city": "Liberty County", "rent": 1090, "zip": "32321"}, "liberty-county-32328": {"city": "Liberty County", "rent": 1030, "zip": "32328"}, "liberty-county-32334": {"city": "Liberty County", "rent": 1020, "zip": "32334"}, "liberty-county-32351": {"city": "Liberty County", "rent": 1190, "zip": "32351"}, "liberty-county-32360": {"city": "Liberty County", "rent": 1020, "zip": "32360"}, "madison-county-32059": {"city": "Madison County", "rent": 1070, "zip": "32059"}, "madison-county-32066": {"city": "Madison County", "rent": 1310, "zip": "32066"}, "madison-county-32331": {"city": "Madison County", "rent": 1190, "zip": "32331"}, "madison-county-32336": {"city": "Madison County", "rent": 1210, "zip": "32336"}, "madison-county-32340": {"city": "Madison County", "rent": 1090, "zip": "32340"}, "madison-county-32350": {"city": "Madison County", "rent": 1070, "zip": "32350"}, "monroe-county-33001": {"city": "Monroe County", "rent": 2390, "zip": "33001"}, "monroe-county-33034": {"city": "Monroe County", "rent": 1920, "zip": "33034"}, "monroe-county-33036": {"city": "Monroe County", "rent": 2430, "zip": "33036"}, "monroe-county-33037": {"city": "Monroe County", "rent": 2450, "zip": "33037"}, "monroe-county-33040": {"city": "Monroe County", "rent": 2800, "zip": "33040"}, "monroe-county-33041": {"city": "Monroe County", "rent": 2500, "zip": "33041"}, "monroe-county-33042": {"city": "Monroe County", "rent": 2910, "zip": "33042"}, "monroe-county-33043": {"city": "Monroe County", "rent": 2510, "zip": "33043"}, "monroe-county-33045": {"city": "Monroe County", "rent": 2500, "zip": "33045"}, "monroe-county-33050": {"city": "Monroe County", "rent": 2050, "zip": "33050"}, "monroe-county-33051": {"city": "Monroe County", "rent": 2230, "zip": "33051"}, "monroe-county-33052": {"city": "Monroe County", "rent": 2500, "zip": "33052"}, "monroe-county-33070": {"city": "Monroe County", "rent": 2330, "zip": "33070"}, "monroe-county-34141": {"city": "Monroe County", "rent": 1970, "zip": "34141"}, "okeechobee-county-34972": {"city": "Okeechobee County", "rent": 1520, "zip": "34972"}, "okeechobee-county-34973": {"city": "Okeechobee County", "rent": 1350, "zip": "34973"}, "okeechobee-county-34974": {"city": "Okeechobee County", "rent": 1470, "zip": "34974"}, "putnam-county-32007": {"city": "Putnam County", "rent": 1160, "zip": "32007"}, "putnam-county-32043": {"city": "Putnam County", "rent": 1630, "zip": "32043"}, "putnam-county-32112": {"city": "Putnam County", "rent": 1550, "zip": "32112"}, "putnam-county-32131": {"city": "Putnam County", "rent": 1570, "zip": "32131"}, "putnam-county-32134": {"city": "Putnam County", "rent": 1520, "zip": "32134"}, "putnam-county-32139": {"city": "Putnam County", "rent": 1040, "zip": "32139"}, "putnam-county-32140": {"city": "Putnam County", "rent": 1380, "zip": "32140"}, "putnam-county-32145": {"city": "Putnam County", "rent": 1280, "zip": "32145"}, "putnam-county-32147": {"city": "Putnam County", "rent": 1130, "zip": "32147"}, "putnam-county-32148": {"city": "Putnam County", "rent": 970, "zip": "32148"}, "putnam-county-32157": {"city": "Putnam County", "rent": 1280, "zip": "32157"}, "putnam-county-32177": {"city": "Putnam County", "rent": 1200, "zip": "32177"}, "putnam-county-32178": {"city": "Putnam County", "rent": 1160, "zip": "32178"}, "putnam-county-32181": {"city": "Putnam County", "rent": 1080, "zip": "32181"}, "putnam-county-32187": {"city": "Putnam County", "rent": 1140, "zip": "32187"}, "putnam-county-32189": {"city": "Putnam County", "rent": 1000, "zip": "32189"}, "putnam-county-32193": {"city": "Putnam County", "rent": 1220, "zip": "32193"}, "putnam-county-32640": {"city": "Putnam County", "rent": 1430, "zip": "32640"}, "putnam-county-32656": {"city": "Putnam County", "rent": 1230, "zip": "32656"}, "putnam-county-32666": {"city": "Putnam County", "rent": 1100, "zip": "32666"}, "suwannee-county-32008": {"city": "Suwannee County", "rent": 1430, "zip": "32008"}, "suwannee-county-32024": {"city": "Suwannee County", "rent": 1500, "zip": "32024"}, "suwannee-county-32038": {"city": "Suwannee County", "rent": 1270, "zip": "32038"}, "suwannee-county-32055": {"city": "Suwannee County", "rent": 1240, "zip": "32055"}, "suwannee-county-32060": {"city": "Suwannee County", "rent": 1040, "zip": "32060"}, "suwannee-county-32062": {"city": "Suwannee County", "rent": 1100, "zip": "32062"}, "suwannee-county-32064": {"city": "Suwannee County", "rent": 1160, "zip": "32064"}, "suwannee-county-32071": {"city": "Suwannee County", "rent": 1240, "zip": "32071"}, "suwannee-county-32094": {"city": "Suwannee County", "rent": 1120, "zip": "32094"}, "suwannee-county-32096": {"city": "Suwannee County", "rent": 970, "zip": "32096"}, "taylor-county-32331": {"city": "Taylor County", "rent": 1190, "zip": "32331"}, "taylor-county-32336": {"city": "Taylor County", "rent": 1210, "zip": "32336"}, "taylor-county-32347": {"city": "Taylor County", "rent": 970, "zip": "32347"}, "taylor-county-32348": {"city": "Taylor County", "rent": 1090, "zip": "32348"}, "taylor-county-32356": {"city": "Taylor County", "rent": 1090, "zip": "32356"}, "taylor-county-32357": {"city": "Taylor County", "rent": 1020, "zip": "32357"}, "taylor-county-32359": {"city": "Taylor County", "rent": 1100, "zip": "32359"}, "union-county-32026": {"city": "Union County", "rent": 1240, "zip": "32026"}, "union-county-32054": {"city": "Union County", "rent": 1060, "zip": "32054"}, "union-county-32058": {"city": "Union County", "rent": 1230, "zip": "32058"}, "union-county-32083": {"city": "Union County", "rent": 1350, "zip": "32083"}, "union-county-32697": {"city": "Union County", "rent": 1480, "zip": "32697"}}