{"albany-31701": {"city": "Albany", "rent": 1100, "zip": "31701"}, "albany-31702": {"city": "Albany", "rent": 1110, "zip": "31702"}, "albany-31703": {"city": "Albany", "rent": 1110, "zip": "31703"}, "albany-31704": {"city": "Albany", "rent": 1020, "zip": "31704"}, "albany-31705": {"city": "Albany", "rent": 1020, "zip": "31705"}, "albany-31706": {"city": "Albany", "rent": 1110, "zip": "31706"}, "albany-31707": {"city": "Albany", "rent": 1340, "zip": "31707"}, "albany-31708": {"city": "Albany", "rent": 1110, "zip": "31708"}, "albany-31712": {"city": "Albany", "rent": 1000, "zip": "31712"}, "albany-31714": {"city": "Albany", "rent": 980, "zip": "31714"}, "albany-31721": {"city": "Albany", "rent": 1370, "zip": "31721"}, "albany-31743": {"city": "Albany", "rent": 1150, "zip": "31743"}, "albany-31744": {"city": "Albany", "rent": 1020, "zip": "31744"}, "albany-31763": {"city": "Albany", "rent": 1370, "zip": "31763"}, "albany-31764": {"city": "Albany", "rent": 1130, "zip": "31764"}, "albany-31768": {"city": "Albany", "rent": 980, "zip": "31768"}, "albany-31771": {"city": "Albany", "rent": 980, "zip": "31771"}, "albany-31772": {"city": "Albany", "rent": 1240, "zip": "31772"}, "albany-31775": {"city": "Albany", "rent": 980, "zip": "31775"}, "albany-31781": {"city": "Albany", "rent": 1240, "zip": "31781"}, "albany-31782": {"city": "Albany", "rent": 1110, "zip": "31782"}, "albany-31787": {"city": "Albany", "rent": 1160, "zip": "31787"}, "albany-31789": {"city": "Albany", "rent": 1290, "zip": "31789"}, "albany-31791": {"city": "Albany", "rent": 1020, "zip": "31791"}, "albany-31795": {"city": "Albany", "rent": 1070, "zip": "31795"}, "albany-31796": {"city": "Albany", "rent": 1020, "zip": "31796"}, "albany-31824": {"city": "Albany", "rent": 1000, "zip": "31824"}, "albany-39826": {"city": "Albany", "rent": 980, "zip": "39826"}, "albany-39842": {"city": "Albany", "rent": 980, "zip": "39842"}, "albany-39862": {"city": "Albany", "rent": 1020, "zip": "39862"}, "albany-39877": {"city": "Albany", "rent": 1050, "zip": "39877"}, "albany-39885": {"city": "Albany", "rent": 1000, "zip": "39885"}, "albany-39886": {"city": "Albany", "rent": 1160, "zip": "39886"}, "athens-clarke-county-30530": {"city": "Athens-Clarke County", "rent": 1140, "zip": "30530"}, "athens-clarke-county-30565": {"city": "Athens-Clarke County", "rent": 1170, "zip": "30565"}, "athens-clarke-county-30601": {"city": "Athens-Clarke County", "rent": 1430, "zip": "30601"}, "athens-clarke-county-30602": {"city": "Athens-Clarke County", "rent": 1290, "zip": "30602"}, "athens-clarke-county-30603": {"city": "Athens-Clarke County", "rent": 1350, "zip": "30603"}, "athens-clarke-county-30604": {"city": "Athens-Clarke County", "rent": 1350, "zip": "30604"}, "athens-clarke-county-30605": {"city": "Athens-Clarke County", "rent": 1280, "zip": "30605"}, "athens-clarke-county-30606": {"city": "Athens-Clarke County", "rent": 1450, "zip": "30606"}, "athens-clarke-county-30607": {"city": "Athens-Clarke County", "rent": 1160, "zip": "30607"}, "athens-clarke-county-30608": {"city": "Athens-Clarke County", "rent": 1350, "zip": "30608"}, "athens-clarke-county-30609": {"city": "Athens-Clarke County", "rent": 1280, "zip": "30609"}, "athens-clarke-county-30619": {"city": "Athens-Clarke County", "rent": 1190, "zip": "30619"}, "athens-clarke-county-30621": {"city": "Athens-Clarke County", "rent": 1370, "zip": "30621"}, "athens-clarke-county-30622": {"city": "Athens-Clarke County", "rent": 1960, "zip": "30622"}, "athens-clarke-county-30624": {"city": "Athens-Clarke County", "rent": 1110, "zip": "30624"}, "athens-clarke-county-30627": {"city": "Athens-Clarke County", "rent": 1110, "zip": "30627"}, "athens-clarke-county-30628": {"city": "Athens-Clarke County", "rent": 1110, "zip": "30628"}, "athens-clarke-county-30629": {"city": "Athens-Clarke County", "rent": 1110, "zip": "30629"}, "athens-clarke-county-30630": {"city": "Athens-Clarke County", "rent": 1110, "zip": "30630"}, "athens-clarke-county-30633": {"city": "Athens-Clarke County", "rent": 1110, "zip": "30633"}, "athens-clarke-county-30638": {"city": "Athens-Clarke County", "rent": 1650, "zip": "30638"}, "athens-clarke-county-30645": {"city": "Athens-Clarke County", "rent": 1650, "zip": "30645"}, "athens-clarke-county-30646": {"city": "Athens-Clarke County", "rent": 1160, "zip": "30646"}, "athens-clarke-county-30647": {"city": "Athens-Clarke County", "rent": 1130, "zip": "30647"}, "athens-clarke-county-30648": {"city": "Athens-Clarke County", "rent": 1110, "zip": "30648"}, "athens-clarke-county-30660": {"city": "Athens-Clarke County", "rent": 1110, "zip": "30660"}, "athens-clarke-county-30662": {"city": "Athens-Clarke County", "rent": 1110, "zip": "30662"}, "athens-clarke-county-30666": {"city": "Athens-Clarke County", "rent": 1410, "zip": "30666"}, "athens-clarke-county-30667": {"city": "Athens-Clarke County", "rent": 1110, "zip": "30667"}, "athens-clarke-county-30669": {"city": "Athens-Clarke County", "rent": 1110, "zip": "30669"}, "athens-clarke-county-30677": {"city": "Athens-Clarke County", "rent": 1730, "zip": "30677"}, "athens-clarke-county-30680": {"city": "Athens-Clarke County", "rent": 1440, "zip": "30680"}, "athens-clarke-county-30683": {"city": "Athens-Clarke County", "rent": 1140, "zip": "30683"}, "atlanta-sandy-springs-roswell-30002": {"city": "Atlanta-Sandy Springs-Roswell", "rent": 1270, "zip": "30002"}, "atlanta-sandy-springs-roswell-30003": {"city": "Atlanta-Sandy Springs-Roswell", "rent": 1970, "zip": "30003"}, "atlanta-sandy-springs-roswell-30004": {"city": "Atlanta-Sandy Springs-Roswell", "rent": 2110, "zip": "30004"}, "atlanta-sandy-springs-roswell-30005": {"city": "Atlanta-Sandy Springs-Roswell", "rent": 2270, "zip": "30005"}, "atlanta-sandy-springs-roswell-30006": {"city": "Atlanta-Sandy Springs-Roswell", "rent": 1900, "zip": "30006"}, "atlanta-sandy-springs-roswell-30007": {"city": "Atlanta-Sandy Springs-Roswell", "rent": 1900, "zip": "30007"}, "atlanta-sandy-springs-roswell-30008": {"city": "Atlanta-Sandy Springs-Roswell", "rent": 1660, "zip": "30008"}, "atlanta-sandy-springs-roswell-30009": {"city": "Atlanta-Sandy Springs-Roswell", "rent": 2360, "zip": "30009"}, "atlanta-sandy-springs-roswell-30010": {"city": "Atlanta-Sandy Springs-Roswell", "rent": 1970, "zip": "30010"}, "atlanta-sandy-springs-roswell-30011": {"city": "Atlanta-Sandy Springs-Roswell", "rent": 2060, "zip": "30011"}, "atlanta-sandy-springs-roswell-30012": {"city": "Atlanta-Sandy Springs-Roswell", "rent": 1390, "zip": "30012"}, "atlanta-sandy-springs-roswell-30013": {"city": "Atlanta-Sandy Springs-Roswell", "rent": 1670, "zip": "30013"}, "atlanta-sandy-springs-roswell-30014": {"city": "Atlanta-Sandy Springs-Roswell", "rent": 1430, "zip": "30014"}, "atlanta-sandy-springs-roswell-30015": {"city": "Atlanta-Sandy Springs-Roswell", "rent": 1570, "zip": "30015"}, "atlanta-sandy-springs-roswell-30016": {"city": "Atlanta-Sandy Springs-Roswell", "rent": 1850, "zip": "30016"}, "atlanta-sandy-springs-roswell-30017": {"city": "Atlanta-Sandy Springs-Roswell", "rent": 2230, "zip": "30017"}, "atlanta-sandy-springs-roswell-30018": {"city": "Atlanta-Sandy Springs-Roswell", "rent": 1430, "zip": "30018"}, "atlanta-sandy-springs-roswell-30019": {"city": "Atlanta-Sandy Springs-Roswell", "rent": 2360, "zip": "30019"}, "atlanta-sandy-springs-roswell-30021": {"city": "Atlanta-Sandy Springs-Roswell", "rent": 1580, "zip": "30021"}, "atlanta-sandy-springs-roswell-30022": {"city": "Atlanta-Sandy Springs-Roswell", "rent": 2300, "zip": "30022"}, "atlanta-sandy-springs-roswell-30023": {"city": "Atlanta-Sandy Springs-Roswell", "rent": 1920, "zip": "30023"}, "atlanta-sandy-springs-roswell-30024": {"city": "Atlanta-Sandy Springs-Roswell", "rent": 2280, "zip": "30024"}, "atlanta-sandy-springs-roswell-30025": {"city": "Atlanta-Sandy Springs-Roswell", "rent": 1320, "zip": "30025"}, "atlanta-sandy-springs-roswell-30028": {"city": "Atlanta-Sandy Springs-Roswell", "rent": 2340, "zip": "30028"}, "atlanta-sandy-springs-roswell-30030": {"city": "Atlanta-Sandy Springs-Roswell", "rent": 2330, "zip": "30030"}, "atlanta-sandy-springs-roswell-30031": {"city": "Atlanta-Sandy Springs-Roswell", "rent": 1830, "zip": "30031"}, "atlanta-sandy-springs-roswell-30032": {"city": "Atlanta-Sandy Springs-Roswell", "rent": 1550, "zip": "30032"}, "atlanta-sandy-springs-roswell-30033": {"city": "Atlanta-Sandy Springs-Roswell", "rent": 1930, "zip": "30033"}, "atlanta-sandy-springs-roswell-30034": {"city": "Atlanta-Sandy Springs-Roswell", "rent": 1590, "zip": "30034"}, "atlanta-sandy-springs-roswell-30035": {"city": "Atlanta-Sandy Springs-Roswell", "rent": 1730, "zip": "30035"}, "atlanta-sandy-springs-roswell-30036": {"city": "Atlanta-Sandy Springs-Roswell", "rent": 1830, "zip": "30036"}, "atlanta-sandy-springs-roswell-30037": {"city": "Atlanta-Sandy Springs-Roswell", "rent": 1830, "zip": "30037"}, "atlanta-sandy-springs-roswell-30038": {"city": "Atlanta-Sandy Springs-Roswell", "rent": 1750, "zip": "30038"}, "atlanta-sandy-springs-roswell-30039": {"city": "Atlanta-Sandy Springs-Roswell", "rent": 2120, "zip": "30039"}, "atlanta-sandy-springs-roswell-30040": {"city": "Atlanta-Sandy Springs-Roswell", "rent": 2160, "zip": "30040"}, "atlanta-sandy-springs-roswell-30041": {"city": "Atlanta-Sandy Springs-Roswell", "rent": 2150, "zip": "30041"}, "atlanta-sandy-springs-roswell-30042": {"city": "Atlanta-Sandy Springs-Roswell", "rent": 1970, "zip": "30042"}, "atlanta-sandy-springs-roswell-30043": {"city": "Atlanta-Sandy Springs-Roswell", "rent": 2040, "zip": "30043"}, "atlanta-sandy-springs-roswell-30044": {"city": "Atlanta-Sandy Springs-Roswell", "rent": 2110, "zip": "30044"}, "atlanta-sandy-springs-roswell-30045": {"city": "Atlanta-Sandy Springs-Roswell", "rent": 2640, "zip": "30045"}, "atlanta-sandy-springs-roswell-30046": {"city": "Atlanta-Sandy Springs-Roswell", "rent": 1690, "zip": "30046"}, "atlanta-sandy-springs-roswell-30047": {"city": "Atlanta-Sandy Springs-Roswell", "rent": 1960, "zip": "30047"}, "atlanta-sandy-springs-roswell-30048": {"city": "Atlanta-Sandy Springs-Roswell", "rent": 1970, "zip": "30048"}, "atlanta-sandy-springs-roswell-30049": {"city": "Atlanta-Sandy Springs-Roswell", "rent": 1970, "zip": "30049"}, "atlanta-sandy-springs-roswell-30052": {"city": "Atlanta-Sandy Springs-Roswell", "rent": 1980, "zip": "30052"}, "atlanta-sandy-springs-roswell-30054": {"city": "Atlanta-Sandy Springs-Roswell", "rent": 1460, "zip": "30054"}, "atlanta-sandy-springs-roswell-30055": {"city": "Atlanta-Sandy Springs-Roswell", "rent": 1750, "zip": "30055"}, "atlanta-sandy-springs-roswell-30056": {"city": "Atlanta-Sandy Springs-Roswell", "rent": 1210, "zip": "30056"}, "atlanta-sandy-springs-roswell-30058": {"city": "Atlanta-Sandy Springs-Roswell", "rent": 1720, "zip": "30058"}, "atlanta-sandy-springs-roswell-30060": {"city": "Atlanta-Sandy Springs-Roswell", "rent": 1660, "zip": "30060"}, "atlanta-sandy-springs-roswell-30061": {"city": "Atlanta-Sandy Springs-Roswell", "rent": 1900, "zip": "30061"}, "atlanta-sandy-springs-roswell-30062": {"city": "Atlanta-Sandy Springs-Roswell", "rent": 2050, "zip": "30062"}, "atlanta-sandy-springs-roswell-30064": {"city": "Atlanta-Sandy Springs-Roswell", "rent": 1850, "zip": "30064"}, "atlanta-sandy-springs-roswell-30065": {"city": "Atlanta-Sandy Springs-Roswell", "rent": 1900, "zip": "30065"}, "atlanta-sandy-springs-roswell-30066": {"city": "Atlanta-Sandy Springs-Roswell", "rent": 2080, "zip": "30066"}, "atlanta-sandy-springs-roswell-30067": {"city": "Atlanta-Sandy Springs-Roswell", "rent": 2070, "zip": "30067"}, "atlanta-sandy-springs-roswell-30068": {"city": "Atlanta-Sandy Springs-Roswell", "rent": 1950, "zip": "30068"}, "atlanta-sandy-springs-roswell-30070": {"city": "Atlanta-Sandy Springs-Roswell", "rent": 1430, "zip": "30070"}, "atlanta-sandy-springs-roswell-30071": {"city": "Atlanta-Sandy Springs-Roswell", "rent": 1820, "zip": "30071"}, "atlanta-sandy-springs-roswell-30072": {"city": "Atlanta-Sandy Springs-Roswell", "rent": 1520, "zip": "30072"}, "atlanta-sandy-springs-roswell-30074": {"city": "Atlanta-Sandy Springs-Roswell", "rent": 1830, "zip": "30074"}, "atlanta-sandy-springs-roswell-30075": {"city": "Atlanta-Sandy Springs-Roswell", "rent": 2150, "zip": "30075"}, "atlanta-sandy-springs-roswell-30076": {"city": "Atlanta-Sandy Springs-Roswell", "rent": 1920, "zip": "30076"}, "atlanta-sandy-springs-roswell-30077": {"city": "Atlanta-Sandy Springs-Roswell", "rent": 1920, "zip": "30077"}, "atlanta-sandy-springs-roswell-30078": {"city": "Atlanta-Sandy Springs-Roswell", "rent": 1970, "zip": "30078"}, "atlanta-sandy-springs-roswell-30079": {"city": "Atlanta-Sandy Springs-Roswell", "rent": 1370, "zip": "30079"}, "atlanta-sandy-springs-roswell-30080": {"city": "Atlanta-Sandy Springs-Roswell", "rent": 2070, "zip": "30080"}, "atlanta-sandy-springs-roswell-30081": {"city": "Atlanta-Sandy Springs-Roswell", "rent": 1900, "zip": "30081"}, "atlanta-sandy-springs-roswell-30082": {"city": "Atlanta-Sandy Springs-Roswell", "rent": 2020, "zip": "30082"}, "atlanta-sandy-springs-roswell-30083": {"city": "Atlanta-Sandy Springs-Roswell", "rent": 1700, "zip": "30083"}, "atlanta-sandy-springs-roswell-30084": {"city": "Atlanta-Sandy Springs-Roswell", "rent": 1870, "zip": "30084"}, "atlanta-sandy-springs-roswell-30085": {"city": "Atlanta-Sandy Springs-Roswell", "rent": 1830, "zip": "30085"}, "atlanta-sandy-springs-roswell-30086": {"city": "Atlanta-Sandy Springs-Roswell", "rent": 1830, "zip": "30086"}, "atlanta-sandy-springs-roswell-30087": {"city": "Atlanta-Sandy Springs-Roswell", "rent": 2020, "zip": "30087"}, "atlanta-sandy-springs-roswell-30088": {"city": "Atlanta-Sandy Springs-Roswell", "rent": 1670, "zip": "30088"}, "atlanta-sandy-springs-roswell-30090": {"city": "Atlanta-Sandy Springs-Roswell", "rent": 1900, "zip": "30090"}, "atlanta-sandy-springs-roswell-30091": {"city": "Atlanta-Sandy Springs-Roswell", "rent": 1970, "zip": "30091"}, "atlanta-sandy-springs-roswell-30092": {"city": "Atlanta-Sandy Springs-Roswell", "rent": 2080, "zip": "30092"}, "atlanta-sandy-springs-roswell-30093": {"city": "Atlanta-Sandy Springs-Roswell", "rent": 1950, "zip": "30093"}, "atlanta-sandy-springs-roswell-30094": {"city": "Atlanta-Sandy Springs-Roswell", "rent": 1840, "zip": "30094"}, "atlanta-sandy-springs-roswell-30095": {"city": "Atlanta-Sandy Springs-Roswell", "rent": 1970, "zip": "30095"}, "atlanta-sandy-springs-roswell-30096": {"city": "Atlanta-Sandy Springs-Roswell", "rent": 2210, "zip": "30096"}, "atlanta-sandy-springs-roswell-30097": {"city": "Atlanta-Sandy Springs-Roswell", "rent": 2170, "zip": "30097"}, "atlanta-sandy-springs-roswell-30101": {"city": "Atlanta-Sandy Springs-Roswell", "rent": 1980, "zip": "30101"}, "atlanta-sandy-springs-roswell-30102": {"city": "Atlanta-Sandy Springs-Roswell", "rent": 1680, "zip": "30102"}, "atlanta-sandy-springs-roswell-30103": {"city": "Atlanta-Sandy Springs-Roswell", "rent": 1290, "zip": "30103"}, "atlanta-sandy-springs-roswell-30104": {"city": "Atlanta-Sandy Springs-Roswell", "rent": 1080, "zip": "30104"}, "atlanta-sandy-springs-roswell-30106": {"city": "Atlanta-Sandy Springs-Roswell", "rent": 1660, "zip": "30106"}, "atlanta-sandy-springs-roswell-30107": {"city": "Atlanta-Sandy Springs-Roswell", "rent": 1320, "zip": "30107"}, "atlanta-sandy-springs-roswell-30108": {"city": "Atlanta-Sandy Springs-Roswell", "rent": 970, "zip": "30108"}, "atlanta-sandy-springs-roswell-30109": {"city": "Atlanta-Sandy Springs-Roswell", "rent": 1340, "zip": "30109"}, "atlanta-sandy-springs-roswell-30110": {"city": "Atlanta-Sandy Springs-Roswell", "rent": 1090, "zip": "30110"}, "atlanta-sandy-springs-roswell-30111": {"city": "Atlanta-Sandy Springs-Roswell", "rent": 1900, "zip": "30111"}, "atlanta-sandy-springs-roswell-30112": {"city": "Atlanta-Sandy Springs-Roswell", "rent": 1340, "zip": "30112"}, "atlanta-sandy-springs-roswell-30114": {"city": "Atlanta-Sandy Springs-Roswell", "rent": 1900, "zip": "30114"}, "atlanta-sandy-springs-roswell-30115": {"city": "Atlanta-Sandy Springs-Roswell", "rent": 1950, "zip": "30115"}, "atlanta-sandy-springs-roswell-30116": {"city": "Atlanta-Sandy Springs-Roswell", "rent": 1340, "zip": "30116"}, "atlanta-sandy-springs-roswell-30117": {"city": "Atlanta-Sandy Springs-Roswell", "rent": 1290, "zip": "30117"}, "atlanta-sandy-springs-roswell-30118": {"city": "Atlanta-Sandy Springs-Roswell", "rent": 1290, "zip": "30118"}, "atlanta-sandy-springs-roswell-30119": {"city": "Atlanta-Sandy Springs-Roswell", "rent": 1340, "zip": "30119"}, "atlanta-sandy-springs-roswell-30120": {"city": "Atlanta-Sandy Springs-Roswell", "rent": 1370, "zip": "30120"}, "atlanta-sandy-springs-roswell-30121": {"city": "Atlanta-Sandy Springs-Roswell", "rent": 1410, "zip": "30121"}, "atlanta-sandy-springs-roswell-30122": {"city": "Atlanta-Sandy Springs-Roswell", "rent": 1700, "zip": "30122"}, "atlanta-sandy-springs-roswell-30123": {"city": "Atlanta-Sandy Springs-Roswell", "rent": 1370, "zip": "30123"}, "atlanta-sandy-springs-roswell-30126": {"city": "Atlanta-Sandy Springs-Roswell", "rent": 1720, "zip": "30126"}, "atlanta-sandy-springs-roswell-30127": {"city": "Atlanta-Sandy Springs-Roswell", "rent": 2110, "zip": "30127"}, "atlanta-sandy-springs-roswell-30132": {"city": "Atlanta-Sandy Springs-Roswell", "rent": 1660, "zip": "30132"}, "atlanta-sandy-springs-roswell-30133": {"city": "Atlanta-Sandy Springs-Roswell", "rent": 1660, "zip": "30133"}, "atlanta-sandy-springs-roswell-30134": {"city": "Atlanta-Sandy Springs-Roswell", "rent": 1480, "zip": "30134"}, "atlanta-sandy-springs-roswell-30135": {"city": "Atlanta-Sandy Springs-Roswell", "rent": 1790, "zip": "30135"}, "atlanta-sandy-springs-roswell-30137": {"city": "Atlanta-Sandy Springs-Roswell", "rent": 1440, "zip": "30137"}, "atlanta-sandy-springs-roswell-30139": {"city": "Atlanta-Sandy Springs-Roswell", "rent": 1220, "zip": "30139"}, "atlanta-sandy-springs-roswell-30141": {"city": "Atlanta-Sandy Springs-Roswell", "rent": 1940, "zip": "30141"}, "atlanta-sandy-springs-roswell-30142": {"city": "Atlanta-Sandy Springs-Roswell", "rent": 1970, "zip": "30142"}, "atlanta-sandy-springs-roswell-30143": {"city": "Atlanta-Sandy Springs-Roswell", "rent": 1270, "zip": "30143"}, "atlanta-sandy-springs-roswell-30144": {"city": "Atlanta-Sandy Springs-Roswell", "rent": 2220, "zip": "30144"}, "atlanta-sandy-springs-roswell-30145": {"city": "Atlanta-Sandy Springs-Roswell", "rent": 1140, "zip": "30145"}, "atlanta-sandy-springs-roswell-30146": {"city": "Atlanta-Sandy Springs-Roswell", "rent": 1970, "zip": "30146"}, "atlanta-sandy-springs-roswell-30148": {"city": "Atlanta-Sandy Springs-Roswell", "rent": 1520, "zip": "30148"}, "atlanta-sandy-springs-roswell-30150": {"city": "Atlanta-Sandy Springs-Roswell", "rent": 1340, "zip": "30150"}, "atlanta-sandy-springs-roswell-30151": {"city": "Atlanta-Sandy Springs-Roswell", "rent": 1970, "zip": "30151"}, "atlanta-sandy-springs-roswell-30152": {"city": "Atlanta-Sandy Springs-Roswell", "rent": 2010, "zip": "30152"}, "atlanta-sandy-springs-roswell-30153": {"city": "Atlanta-Sandy Springs-Roswell", "rent": 1190, "zip": "30153"}, "atlanta-sandy-springs-roswell-30154": {"city": "Atlanta-Sandy Springs-Roswell", "rent": 1660, "zip": "30154"}, "atlanta-sandy-springs-roswell-30156": {"city": "Atlanta-Sandy Springs-Roswell", "rent": 1900, "zip": "30156"}, "atlanta-sandy-springs-roswell-30157": {"city": "Atlanta-Sandy Springs-Roswell", "rent": 1780, "zip": "30157"}, "atlanta-sandy-springs-roswell-30160": {"city": "Atlanta-Sandy Springs-Roswell", "rent": 1900, "zip": "30160"}, "atlanta-sandy-springs-roswell-30161": {"city": "Atlanta-Sandy Springs-Roswell", "rent": 1210, "zip": "30161"}, "atlanta-sandy-springs-roswell-30168": {"city": "Atlanta-Sandy Springs-Roswell", "rent": 1580, "zip": "30168"}, "atlanta-sandy-springs-roswell-30169": {"city": "Atlanta-Sandy Springs-Roswell", "rent": 1970, "zip": "30169"}, "atlanta-sandy-springs-roswell-30170": {"city": "Atlanta-Sandy Springs-Roswell", "rent": 1170, "zip": "30170"}, "atlanta-sandy-springs-roswell-30171": {"city": "Atlanta-Sandy Springs-Roswell", "rent": 1640, "zip": "30171"}, "atlanta-sandy-springs-roswell-30175": {"city": "Atlanta-Sandy Springs-Roswell", "rent": 1210, "zip": "30175"}, "atlanta-sandy-springs-roswell-30177": {"city": "Atlanta-Sandy Springs-Roswell", "rent": 970, "zip": "30177"}, "atlanta-sandy-springs-roswell-30178": {"city": "Atlanta-Sandy Springs-Roswell", "rent": 1260, "zip": "30178"}, "atlanta-sandy-springs-roswell-30179": {"city": "Atlanta-Sandy Springs-Roswell", "rent": 1340, "zip": "30179"}, "atlanta-sandy-springs-roswell-30180": {"city": "Atlanta-Sandy Springs-Roswell", "rent": 1680, "zip": "30180"}, "atlanta-sandy-springs-roswell-30182": {"city": "Atlanta-Sandy Springs-Roswell", "rent": 1030, "zip": "30182"}, "atlanta-sandy-springs-roswell-30183": {"city": "Atlanta-Sandy Springs-Roswell", "rent": 1570, "zip": "30183"}, "atlanta-sandy-springs-roswell-30184": {"city": "Atlanta-Sandy Springs-Roswell", "rent": 1160, "zip": "30184"}, "atlanta-sandy-springs-roswell-30185": {"city": "Atlanta-Sandy Springs-Roswell", "rent": 1040, "zip": "30185"}, "atlanta-sandy-springs-roswell-30187": {"city": "Atlanta-Sandy Springs-Roswell", "rent": 1170, "zip": "30187"}, "atlanta-sandy-springs-roswell-30188": {"city": "Atlanta-Sandy Springs-Roswell", "rent": 2060, "zip": "30188"}, "atlanta-sandy-springs-roswell-30189": {"city": "Atlanta-Sandy Springs-Roswell", "rent": 2060, "zip": "30189"}, "atlanta-sandy-springs-roswell-30205": {"city": "Atlanta-Sandy Springs-Roswell", "rent": 1550, "zip": "30205"}, "atlanta-sandy-springs-roswell-30206": {"city": "Atlanta-Sandy Springs-Roswell", "rent": 1210, "zip": "30206"}, "atlanta-sandy-springs-roswell-30212": {"city": "Atlanta-Sandy Springs-Roswell", "rent": 1270, "zip": "30212"}, "atlanta-sandy-springs-roswell-30213": {"city": "Atlanta-Sandy Springs-Roswell", "rent": 2040, "zip": "30213"}, "atlanta-sandy-springs-roswell-30214": {"city": "Atlanta-Sandy Springs-Roswell", "rent": 1870, "zip": "30214"}, "atlanta-sandy-springs-roswell-30215": {"city": "Atlanta-Sandy Springs-Roswell", "rent": 2060, "zip": "30215"}, "atlanta-sandy-springs-roswell-30217": {"city": "Atlanta-Sandy Springs-Roswell", "rent": 1030, "zip": "30217"}, "atlanta-sandy-springs-roswell-30220": {"city": "Atlanta-Sandy Springs-Roswell", "rent": 1500, "zip": "30220"}, "atlanta-sandy-springs-roswell-30223": {"city": "Atlanta-Sandy Springs-Roswell", "rent": 1230, "zip": "30223"}, "atlanta-sandy-springs-roswell-30224": {"city": "Atlanta-Sandy Springs-Roswell", "rent": 1360, "zip": "30224"}, "atlanta-sandy-springs-roswell-30228": {"city": "Atlanta-Sandy Springs-Roswell", "rent": 1820, "zip": "30228"}, "atlanta-sandy-springs-roswell-30229": {"city": "Atlanta-Sandy Springs-Roswell", "rent": 1510, "zip": "30229"}, "atlanta-sandy-springs-roswell-30230": {"city": "Atlanta-Sandy Springs-Roswell", "rent": 1170, "zip": "30230"}, "atlanta-sandy-springs-roswell-30233": {"city": "Atlanta-Sandy Springs-Roswell", "rent": 1120, "zip": "30233"}, "atlanta-sandy-springs-roswell-30234": {"city": "Atlanta-Sandy Springs-Roswell", "rent": 1350, "zip": "30234"}, "atlanta-sandy-springs-roswell-30236": {"city": "Atlanta-Sandy Springs-Roswell", "rent": 1470, "zip": "30236"}, "atlanta-sandy-springs-roswell-30237": {"city": "Atlanta-Sandy Springs-Roswell", "rent": 1510, "zip": "30237"}, "atlanta-sandy-springs-roswell-30238": {"city": "Atlanta-Sandy Springs-Roswell", "rent": 1690, "zip": "30238"}, "atlanta-sandy-springs-roswell-30240": {"city": "Atlanta-Sandy Springs-Roswell", "rent": 1140, "zip": "30240"}, "atlanta-sandy-springs-roswell-30248": {"city": "Atlanta-Sandy Springs-Roswell", "rent": 1690, "zip": "30248"}, "atlanta-sandy-springs-roswell-30250": {"city": "Atlanta-Sandy Springs-Roswell", "rent": 1820, "zip": "30250"}, "atlanta-sandy-springs-roswell-30252": {"city": "Atlanta-Sandy Springs-Roswell", "rent": 2080, "zip": "30252"}, "atlanta-sandy-springs-roswell-30253": {"city": "Atlanta-Sandy Springs-Roswell", "rent": 1810, "zip": "30253"}, "atlanta-sandy-springs-roswell-30256": {"city": "Atlanta-Sandy Springs-Roswell", "rent": 1030, "zip": "30256"}, "atlanta-sandy-springs-roswell-30257": {"city": "Atlanta-Sandy Springs-Roswell", "rent": 1000, "zip": "30257"}, "atlanta-sandy-springs-roswell-30258": {"city": "Atlanta-Sandy Springs-Roswell", "rent": 1460, "zip": "30258"}, "atlanta-sandy-springs-roswell-30259": {"city": "Atlanta-Sandy Springs-Roswell", "rent": 1450, "zip": "30259"}, "atlanta-sandy-springs-roswell-30260": {"city": "Atlanta-Sandy Springs-Roswell", "rent": 1580, "zip": "30260"}, "atlanta-sandy-springs-roswell-30263": {"city": "Atlanta-Sandy Springs-Roswell", "rent": 1570, "zip": "30263"}, "atlanta-sandy-springs-roswell-30264": {"city": "Atlanta-Sandy Springs-Roswell", "rent": 1660, "zip": "30264"}, "atlanta-sandy-springs-roswell-30265": {"city": "Atlanta-Sandy Springs-Roswell", "rent": 1980, "zip": "30265"}, "atlanta-sandy-springs-roswell-30266": {"city": "Atlanta-Sandy Springs-Roswell", "rent": 1270, "zip": "30266"}, "atlanta-sandy-springs-roswell-30268": {"city": "Atlanta-Sandy Springs-Roswell", "rent": 1410, "zip": "30268"}, "atlanta-sandy-springs-roswell-30269": {"city": "Atlanta-Sandy Springs-Roswell", "rent": 2280, "zip": "30269"}, "atlanta-sandy-springs-roswell-30271": {"city": "Atlanta-Sandy Springs-Roswell", "rent": 1660, "zip": "30271"}, "atlanta-sandy-springs-roswell-30272": {"city": "Atlanta-Sandy Springs-Roswell", "rent": 1920, "zip": "30272"}, "atlanta-sandy-springs-roswell-30273": {"city": "Atlanta-Sandy Springs-Roswell", "rent": 1580, "zip": "30273"}, "atlanta-sandy-springs-roswell-30274": {"city": "Atlanta-Sandy Springs-Roswell", "rent": 1470, "zip": "30274"}, "atlanta-sandy-springs-roswell-30275": {"city": "Atlanta-Sandy Springs-Roswell", "rent": 1570, "zip": "30275"}, "atlanta-sandy-springs-roswell-30276": {"city": "Atlanta-Sandy Springs-Roswell", "rent": 1510, "zip": "30276"}, "atlanta-sandy-springs-roswell-30277": {"city": "Atlanta-Sandy Springs-Roswell", "rent": 1570, "zip": "30277"}, "atlanta-sandy-springs-roswell-30281": {"city": "Atlanta-Sandy Springs-Roswell", "rent": 1740, "zip": "30281"}, "atlanta-sandy-springs-roswell-30284": {"city": "Atlanta-Sandy Springs-Roswell", "rent": 1510, "zip": "30284"}, "atlanta-sandy-springs-roswell-30285": {"city": "Atlanta-Sandy Springs-Roswell", "rent": 970, "zip": "30285"}, "atlanta-sandy-springs-roswell-30287": {"city": "Atlanta-Sandy Springs-Roswell", "rent": 1510, "zip": "30287"}, "atlanta-sandy-springs-roswell-30288": {"city": "Atlanta-Sandy Springs-Roswell", "rent": 1300, "zip": "30288"}, "atlanta-sandy-springs-roswell-30289": {"city": "Atlanta-Sandy Springs-Roswell", "rent": 1530, "zip": "30289"}, "atlanta-sandy-springs-roswell-30290": {"city": "Atlanta-Sandy Springs-Roswell", "rent": 1310, "zip": "30290"}, "atlanta-sandy-springs-roswell-30291": {"city": "Atlanta-Sandy Springs-Roswell", "rent": 1490, "zip": "30291"}, "atlanta-sandy-springs-roswell-30292": {"city": "Atlanta-Sandy Springs-Roswell", "rent": 1110, "zip": "30292"}, "atlanta-sandy-springs-roswell-30294": {"city": "Atlanta-Sandy Springs-Roswell", "rent": 1890, "zip": "30294"}, "atlanta-sandy-springs-roswell-30295": {"city": "Atlanta-Sandy Springs-Roswell", "rent": 1160, "zip": "30295"}, "atlanta-sandy-springs-roswell-30296": {"city": "Atlanta-Sandy Springs-Roswell", "rent": 1770, "zip": "30296"}, "atlanta-sandy-springs-roswell-30297": {"city": "Atlanta-Sandy Springs-Roswell", "rent": 1320, "zip": "30297"}, "atlanta-sandy-springs-roswell-30298": {"city": "Atlanta-Sandy Springs-Roswell", "rent": 1510, "zip": "30298"}, "atlanta-sandy-springs-roswell-30301": {"city": "Atlanta-Sandy Springs-Roswell", "rent": 1920, "zip": "30301"}, "atlanta-sandy-springs-roswell-30302": {"city": "Atlanta-Sandy Springs-Roswell", "rent": 1920, "zip": "30302"}, "atlanta-sandy-springs-roswell-30303": {"city": "Atlanta-Sandy Springs-Roswell", "rent": 2020, "zip": "30303"}, "atlanta-sandy-springs-roswell-30304": {"city": "Atlanta-Sandy Springs-Roswell", "rent": 1920, "zip": "30304"}, "atlanta-sandy-springs-roswell-30305": {"city": "Atlanta-Sandy Springs-Roswell", "rent": 2430, "zip": "30305"}, "atlanta-sandy-springs-roswell-30306": {"city": "Atlanta-Sandy Springs-Roswell", "rent": 2360, "zip": "30306"}, "atlanta-sandy-springs-roswell-30307": {"city": "Atlanta-Sandy Springs-Roswell", "rent": 2330, "zip": "30307"}, "atlanta-sandy-springs-roswell-30308": {"city": "Atlanta-Sandy Springs-Roswell", "rent": 2470, "zip": "30308"}, "atlanta-sandy-springs-roswell-30309": {"city": "Atlanta-Sandy Springs-Roswell", "rent": 2730, "zip": "30309"}, "atlanta-sandy-springs-roswell-30310": {"city": "Atlanta-Sandy Springs-Roswell", "rent": 1440, "zip": "30310"}, "atlanta-sandy-springs-roswell-30311": {"city": "Atlanta-Sandy Springs-Roswell", "rent": 1370, "zip": "30311"}, "atlanta-sandy-springs-roswell-30312": {"city": "Atlanta-Sandy Springs-Roswell", "rent": 2150, "zip": "30312"}, "atlanta-sandy-springs-roswell-30313": {"city": "Atlanta-Sandy Springs-Roswell", "rent": 1890, "zip": "30313"}, "atlanta-sandy-springs-roswell-30314": {"city": "Atlanta-Sandy Springs-Roswell", "rent": 1280, "zip": "30314"}, "atlanta-sandy-springs-roswell-30315": {"city": "Atlanta-Sandy Springs-Roswell", "rent": 1220, "zip": "30315"}, "atlanta-sandy-springs-roswell-30316": {"city": "Atlanta-Sandy Springs-Roswell", "rent": 1880, "zip": "30316"}, "atlanta-sandy-springs-roswell-30317": {"city": "Atlanta-Sandy Springs-Roswell", "rent": 1930, "zip": "30317"}, "atlanta-sandy-springs-roswell-30318": {"city": "Atlanta-Sandy Springs-Roswell", "rent": 2050, "zip": "30318"}, "atlanta-sandy-springs-roswell-30319": {"city": "Atlanta-Sandy Springs-Roswell", "rent": 2620, "zip": "30319"}, "atlanta-sandy-springs-roswell-30320": {"city": "Atlanta-Sandy Springs-Roswell", "rent": 1510, "zip": "30320"}, "atlanta-sandy-springs-roswell-30321": {"city": "Atlanta-Sandy Springs-Roswell", "rent": 1920, "zip": "30321"}, "atlanta-sandy-springs-roswell-30322": {"city": "Atlanta-Sandy Springs-Roswell", "rent": 2330, "zip": "30322"}, "atlanta-sandy-springs-roswell-30324": {"city": "Atlanta-Sandy Springs-Roswell", "rent": 2650, "zip": "30324"}, "atlanta-sandy-springs-roswell-30325": {"city": "Atlanta-Sandy Springs-Roswell", "rent": 1920, "zip": "30325"}, "atlanta-sandy-springs-roswell-30326": {"city": "Atlanta-Sandy Springs-Roswell", "rent": 2450, "zip": "30326"}, "atlanta-sandy-springs-roswell-30327": {"city": "Atlanta-Sandy Springs-Roswell", "rent": 2340, "zip": "30327"}, "atlanta-sandy-springs-roswell-30328": {"city": "Atlanta-Sandy Springs-Roswell", "rent": 2560, "zip": "30328"}, "atlanta-sandy-springs-roswell-30329": {"city": "Atlanta-Sandy Springs-Roswell", "rent": 2350, "zip": "30329"}, "atlanta-sandy-springs-roswell-30331": {"city": "Atlanta-Sandy Springs-Roswell", "rent": 1600, "zip": "30331"}, "atlanta-sandy-springs-roswell-30332": {"city": "Atlanta-Sandy Springs-Roswell", "rent": 2010, "zip": "30332"}, "atlanta-sandy-springs-roswell-30333": {"city": "Atlanta-Sandy Springs-Roswell", "rent": 1830, "zip": "30333"}, "atlanta-sandy-springs-roswell-30334": {"city": "Atlanta-Sandy Springs-Roswell", "rent": 1920, "zip": "30334"}, "atlanta-sandy-springs-roswell-30336": {"city": "Atlanta-Sandy Springs-Roswell", "rent": 1630, "zip": "30336"}, "atlanta-sandy-springs-roswell-30337": {"city": "Atlanta-Sandy Springs-Roswell", "rent": 1340, "zip": "30337"}, "atlanta-sandy-springs-roswell-30338": {"city": "Atlanta-Sandy Springs-Roswell", "rent": 2480, "zip": "30338"}, "atlanta-sandy-springs-roswell-30339": {"city": "Atlanta-Sandy Springs-Roswell", "rent": 2460, "zip": "30339"}, "atlanta-sandy-springs-roswell-30340": {"city": "Atlanta-Sandy Springs-Roswell", "rent": 1760, "zip": "30340"}, "atlanta-sandy-springs-roswell-30341": {"city": "Atlanta-Sandy Springs-Roswell", "rent": 2310, "zip": "30341"}, "atlanta-sandy-springs-roswell-30342": {"city": "Atlanta-Sandy Springs-Roswell", "rent": 2130, "zip": "30342"}, "atlanta-sandy-springs-roswell-30343": {"city": "Atlanta-Sandy Springs-Roswell", "rent": 1920, "zip": "30343"}, "atlanta-sandy-springs-roswell-30344": {"city": "Atlanta-Sandy Springs-Roswell", "rent": 1680, "zip": "30344"}, "atlanta-sandy-springs-roswell-30345": {"city": "Atlanta-Sandy Springs-Roswell", "rent": 2050, "zip": "30345"}, "atlanta-sandy-springs-roswell-30346": {"city": "Atlanta-Sandy Springs-Roswell", "rent": 2270, "zip": "30346"}, "atlanta-sandy-springs-roswell-30349": {"city": "Atlanta-Sandy Springs-Roswell", "rent": 1600, "zip": "30349"}, "atlanta-sandy-springs-roswell-30350": {"city": "Atlanta-Sandy Springs-Roswell", "rent": 2250, "zip": "30350"}, "atlanta-sandy-springs-roswell-30354": {"city": "Atlanta-Sandy Springs-Roswell", "rent": 1470, "zip": "30354"}, "atlanta-sandy-springs-roswell-30355": {"city": "Atlanta-Sandy Springs-Roswell", "rent": 1920, "zip": "30355"}, "atlanta-sandy-springs-roswell-30356": {"city": "Atlanta-Sandy Springs-Roswell", "rent": 1830, "zip": "30356"}, "atlanta-sandy-springs-roswell-30357": {"city": "Atlanta-Sandy Springs-Roswell", "rent": 1920, "zip": "30357"}, "atlanta-sandy-springs-roswell-30358": {"city": "Atlanta-Sandy Springs-Roswell", "rent": 1920, "zip": "30358"}, "atlanta-sandy-springs-roswell-30359": {"city": "Atlanta-Sandy Springs-Roswell", "rent": 1830, "zip": "30359"}, "atlanta-sandy-springs-roswell-30360": {"city": "Atlanta-Sandy Springs-Roswell", "rent": 1870, "zip": "30360"}, "atlanta-sandy-springs-roswell-30361": {"city": "Atlanta-Sandy Springs-Roswell", "rent": 1920, "zip": "30361"}, "atlanta-sandy-springs-roswell-30362": {"city": "Atlanta-Sandy Springs-Roswell", "rent": 1830, "zip": "30362"}, "atlanta-sandy-springs-roswell-30363": {"city": "Atlanta-Sandy Springs-Roswell", "rent": 2380, "zip": "30363"}, "atlanta-sandy-springs-roswell-30364": {"city": "Atlanta-Sandy Springs-Roswell", "rent": 1920, "zip": "30364"}, "atlanta-sandy-springs-roswell-30366": {"city": "Atlanta-Sandy Springs-Roswell", "rent": 1830, "zip": "30366"}, "atlanta-sandy-springs-roswell-30368": {"city": "Atlanta-Sandy Springs-Roswell", "rent": 1920, "zip": "30368"}, "atlanta-sandy-springs-roswell-30377": {"city": "Atlanta-Sandy Springs-Roswell", "rent": 1920, "zip": "30377"}, "atlanta-sandy-springs-roswell-30380": {"city": "Atlanta-Sandy Springs-Roswell", "rent": 1920, "zip": "30380"}, "atlanta-sandy-springs-roswell-30385": {"city": "Atlanta-Sandy Springs-Roswell", "rent": 1920, "zip": "30385"}, "atlanta-sandy-springs-roswell-30388": {"city": "Atlanta-Sandy Springs-Roswell", "rent": 1920, "zip": "30388"}, "atlanta-sandy-springs-roswell-30396": {"city": "Atlanta-Sandy Springs-Roswell", "rent": 1920, "zip": "30396"}, "atlanta-sandy-springs-roswell-30398": {"city": "Atlanta-Sandy Springs-Roswell", "rent": 1920, "zip": "30398"}, "atlanta-sandy-springs-roswell-30506": {"city": "Atlanta-Sandy Springs-Roswell", "rent": 1530, "zip": "30506"}, "atlanta-sandy-springs-roswell-30515": {"city": "Atlanta-Sandy Springs-Roswell", "rent": 1970, "zip": "30515"}, "atlanta-sandy-springs-roswell-30517": {"city": "Atlanta-Sandy Springs-Roswell", "rent": 1850, "zip": "30517"}, "atlanta-sandy-springs-roswell-30518": {"city": "Atlanta-Sandy Springs-Roswell", "rent": 1860, "zip": "30518"}, "atlanta-sandy-springs-roswell-30519": {"city": "Atlanta-Sandy Springs-Roswell", "rent": 2230, "zip": "30519"}, "atlanta-sandy-springs-roswell-30533": {"city": "Atlanta-Sandy Springs-Roswell", "rent": 1250, "zip": "30533"}, "atlanta-sandy-springs-roswell-30534": {"city": "Atlanta-Sandy Springs-Roswell", "rent": 1700, "zip": "30534"}, "atlanta-sandy-springs-roswell-30536": {"city": "Atlanta-Sandy Springs-Roswell", "rent": 1140, "zip": "30536"}, "atlanta-sandy-springs-roswell-30540": {"city": "Atlanta-Sandy Springs-Roswell", "rent": 970, "zip": "30540"}, "atlanta-sandy-springs-roswell-30548": {"city": "Atlanta-Sandy Springs-Roswell", "rent": 1400, "zip": "30548"}, "atlanta-sandy-springs-roswell-30620": {"city": "Atlanta-Sandy Springs-Roswell", "rent": 1880, "zip": "30620"}, "atlanta-sandy-springs-roswell-30622": {"city": "Atlanta-Sandy Springs-Roswell", "rent": 1960, "zip": "30622"}, "atlanta-sandy-springs-roswell-30641": {"city": "Atlanta-Sandy Springs-Roswell", "rent": 1280, "zip": "30641"}, "atlanta-sandy-springs-roswell-30650": {"city": "Atlanta-Sandy Springs-Roswell", "rent": 1450, "zip": "30650"}, "atlanta-sandy-springs-roswell-30655": {"city": "Atlanta-Sandy Springs-Roswell", "rent": 1330, "zip": "30655"}, "atlanta-sandy-springs-roswell-30656": {"city": "Atlanta-Sandy Springs-Roswell", "rent": 1500, "zip": "30656"}, "atlanta-sandy-springs-roswell-30663": {"city": "Atlanta-Sandy Springs-Roswell", "rent": 1460, "zip": "30663"}, "atlanta-sandy-springs-roswell-30666": {"city": "Atlanta-Sandy Springs-Roswell", "rent": 1410, "zip": "30666"}, "atlanta-sandy-springs-roswell-30680": {"city": "Atlanta-Sandy Springs-Roswell", "rent": 1440, "zip": "30680"}, "atlanta-sandy-springs-roswell-30734": {"city": "Atlanta-Sandy Springs-Roswell", "rent": 1530, "zip": "30734"}, "atlanta-sandy-springs-roswell-31024": {"city": "Atlanta-Sandy Springs-Roswell", "rent": 1140, "zip": "31024"}, "atlanta-sandy-springs-roswell-31038": {"city": "Atlanta-Sandy Springs-Roswell", "rent": 1230, "zip": "31038"}, "atlanta-sandy-springs-roswell-31064": {"city": "Atlanta-Sandy Springs-Roswell", "rent": 1270, "zip": "31064"}, "atlanta-sandy-springs-roswell-31085": {"city": "Atlanta-Sandy Springs-Roswell", "rent": 1250, "zip": "31085"}, "atlanta-sandy-springs-roswell-31106": {"city": "Atlanta-Sandy Springs-Roswell", "rent": 1920, "zip": "31106"}, "atlanta-sandy-springs-roswell-31107": {"city": "Atlanta-Sandy Springs-Roswell", "rent": 1830, "zip": "31107"}, "atlanta-sandy-springs-roswell-31119": {"city": "Atlanta-Sandy Springs-Roswell", "rent": 1830, "zip": "31119"}, "atlanta-sandy-springs-roswell-31126": {"city": "Atlanta-Sandy Springs-Roswell", "rent": 1920, "zip": "31126"}, "atlanta-sandy-springs-roswell-31131": {"city": "Atlanta-Sandy Springs-Roswell", "rent": 1920, "zip": "31131"}, "atlanta-sandy-springs-roswell-31139": {"city": "Atlanta-Sandy Springs-Roswell", "rent": 1900, "zip": "31139"}, "atlanta-sandy-springs-roswell-31141": {"city": "Atlanta-Sandy Springs-Roswell", "rent": 1830, "zip": "31141"}, "atlanta-sandy-springs-roswell-31145": {"city": "Atlanta-Sandy Springs-Roswell", "rent": 1830, "zip": "31145"}, "atlanta-sandy-springs-roswell-31146": {"city": "Atlanta-Sandy Springs-Roswell", "rent": 1830, "zip": "31146"}, "atlanta-sandy-springs-roswell-31150": {"city": "Atlanta-Sandy Springs-Roswell", "rent": 1920, "zip": "31150"}, "atlanta-sandy-springs-roswell-31156": {"city": "Atlanta-Sandy Springs-Roswell", "rent": 1920, "zip": "31156"}, "atlanta-sandy-springs-roswell-39901": {"city": "Atlanta-Sandy Springs-Roswell", "rent": 1830, "zip": "39901"}, "butts-county-30216": {"city": "Butts County", "rent": 1050, "zip": "30216"}, "butts-county-30223": {"city": "Butts County", "rent": 1230, "zip": "30223"}, "butts-county-30224": {"city": "Butts County", "rent": 1360, "zip": "30224"}, "butts-county-30233": {"city": "Butts County", "rent": 1120, "zip": "30233"}, "butts-county-30234": {"city": "Butts County", "rent": 1350, "zip": "30234"}, "butts-county-30248": {"city": "Butts County", "rent": 1690, "zip": "30248"}, "butts-county-31029": {"city": "Butts County", "rent": 1200, "zip": "31029"}, "haralson-county-30110": {"city": "Haralson County", "rent": 1090, "zip": "30110"}, "haralson-county-30113": {"city": "Haralson County", "rent": 1170, "zip": "30113"}, "haralson-county-30125": {"city": "Haralson County", "rent": 1080, "zip": "30125"}, "haralson-county-30140": {"city": "Haralson County", "rent": 1110, "zip": "30140"}, "haralson-county-30153": {"city": "Haralson County", "rent": 1190, "zip": "30153"}, "haralson-county-30176": {"city": "Haralson County", "rent": 1130, "zip": "30176"}, "haralson-county-30179": {"city": "Haralson County", "rent": 1340, "zip": "30179"}, "haralson-county-30182": {"city": "Haralson County", "rent": 1030, "zip": "30182"}, "lumpkin-county-30512": {"city": "Lumpkin County", "rent": 990, "zip": "30512"}, "lumpkin-county-30528": {"city": "Lumpkin County", "rent": 1360, "zip": "30528"}, "lumpkin-county-30533": {"city": "Lumpkin County", "rent": 1250, "zip": "30533"}, "lumpkin-county-30534": {"city": "Lumpkin County", "rent": 1700, "zip": "30534"}, "lumpkin-county-30564": {"city": "Lumpkin County", "rent": 1360, "zip": "30564"}, "lumpkin-county-30597": {"city": "Lumpkin County", "rent": 1250, "zip": "30597"}, "meriwether-county-30218": {"city": "Meriwether County", "rent": 1470, "zip": "30218"}, "meriwether-county-30220": {"city": "Meriwether County", "rent": 1500, "zip": "30220"}, "meriwether-county-30222": {"city": "Meriwether County", "rent": 970, "zip": "30222"}, "meriwether-county-30230": {"city": "Meriwether County", "rent": 1170, "zip": "30230"}, "meriwether-county-30241": {"city": "Meriwether County", "rent": 1240, "zip": "30241"}, "meriwether-county-30251": {"city": "Meriwether County", "rent": 1030, "zip": "30251"}, "meriwether-county-30276": {"city": "Meriwether County", "rent": 1510, "zip": "30276"}, "meriwether-county-30293": {"city": "Meriwether County", "rent": 970, "zip": "30293"}, "meriwether-county-31816": {"city": "Meriwether County", "rent": 1120, "zip": "31816"}, "meriwether-county-31822": {"city": "Meriwether County", "rent": 1030, "zip": "31822"}, "meriwether-county-31830": {"city": "Meriwether County", "rent": 1000, "zip": "31830"}, "morgan-county-30025": {"city": "Morgan County", "rent": 1320, "zip": "30025"}, "morgan-county-30055": {"city": "Morgan County", "rent": 1750, "zip": "30055"}, "morgan-county-30056": {"city": "Morgan County", "rent": 1210, "zip": "30056"}, "morgan-county-30621": {"city": "Morgan County", "rent": 1370, "zip": "30621"}, "morgan-county-30623": {"city": "Morgan County", "rent": 1400, "zip": "30623"}, "morgan-county-30625": {"city": "Morgan County", "rent": 1230, "zip": "30625"}, "morgan-county-30641": {"city": "Morgan County", "rent": 1280, "zip": "30641"}, "morgan-county-30642": {"city": "Morgan County", "rent": 1230, "zip": "30642"}, "morgan-county-30650": {"city": "Morgan County", "rent": 1450, "zip": "30650"}, "morgan-county-30663": {"city": "Morgan County", "rent": 1460, "zip": "30663"}, "augusta-richmond-county-29006": {"city": "Augusta-Richmond County", "rent": 1020, "zip": "29006"}, "augusta-richmond-county-29105": {"city": "Augusta-Richmond County", "rent": 1110, "zip": "29105"}, "augusta-richmond-county-29129": {"city": "Augusta-Richmond County", "rent": 1020, "zip": "29129"}, "augusta-richmond-county-29137": {"city": "Augusta-Richmond County", "rent": 970, "zip": "29137"}, "augusta-richmond-county-29138": {"city": "Augusta-Richmond County", "rent": 1020, "zip": "29138"}, "augusta-richmond-county-29146": {"city": "Augusta-Richmond County", "rent": 970, "zip": "29146"}, "augusta-richmond-county-29164": {"city": "Augusta-Richmond County", "rent": 1080, "zip": "29164"}, "augusta-richmond-county-29801": {"city": "Augusta-Richmond County", "rent": 1280, "zip": "29801"}, "augusta-richmond-county-29802": {"city": "Augusta-Richmond County", "rent": 1200, "zip": "29802"}, "augusta-richmond-county-29803": {"city": "Augusta-Richmond County", "rent": 1310, "zip": "29803"}, "augusta-richmond-county-29804": {"city": "Augusta-Richmond County", "rent": 1200, "zip": "29804"}, "augusta-richmond-county-29805": {"city": "Augusta-Richmond County", "rent": 1010, "zip": "29805"}, "augusta-richmond-county-29809": {"city": "Augusta-Richmond County", "rent": 970, "zip": "29809"}, "augusta-richmond-county-29816": {"city": "Augusta-Richmond County", "rent": 1140, "zip": "29816"}, "augusta-richmond-county-29821": {"city": "Augusta-Richmond County", "rent": 1130, "zip": "29821"}, "augusta-richmond-county-29822": {"city": "Augusta-Richmond County", "rent": 1200, "zip": "29822"}, "augusta-richmond-county-29824": {"city": "Augusta-Richmond County", "rent": 1020, "zip": "29824"}, "augusta-richmond-county-29828": {"city": "Augusta-Richmond County", "rent": 1240, "zip": "29828"}, "augusta-richmond-county-29829": {"city": "Augusta-Richmond County", "rent": 1260, "zip": "29829"}, "augusta-richmond-county-29831": {"city": "Augusta-Richmond County", "rent": 1180, "zip": "29831"}, "augusta-richmond-county-29832": {"city": "Augusta-Richmond County", "rent": 1020, "zip": "29832"}, "augusta-richmond-county-29834": {"city": "Augusta-Richmond County", "rent": 1100, "zip": "29834"}, "augusta-richmond-county-29835": {"city": "Augusta-Richmond County", "rent": 970, "zip": "29835"}, "augusta-richmond-county-29838": {"city": "Augusta-Richmond County", "rent": 1080, "zip": "29838"}, "augusta-richmond-county-29839": {"city": "Augusta-Richmond County", "rent": 1200, "zip": "29839"}, "augusta-richmond-county-29841": {"city": "Augusta-Richmond County", "rent": 1180, "zip": "29841"}, "augusta-richmond-county-29842": {"city": "Augusta-Richmond County", "rent": 1010, "zip": "29842"}, "augusta-richmond-county-29845": {"city": "Augusta-Richmond County", "rent": 1070, "zip": "29845"}, "augusta-richmond-county-29847": {"city": "Augusta-Richmond County", "rent": 1060, "zip": "29847"}, "augusta-richmond-county-29851": {"city": "Augusta-Richmond County", "rent": 1250, "zip": "29851"}, "augusta-richmond-county-29853": {"city": "Augusta-Richmond County", "rent": 970, "zip": "29853"}, "augusta-richmond-county-29856": {"city": "Augusta-Richmond County", "rent": 970, "zip": "29856"}, "augusta-richmond-county-29860": {"city": "Augusta-Richmond County", "rent": 1290, "zip": "29860"}, "augusta-richmond-county-29861": {"city": "Augusta-Richmond County", "rent": 1200, "zip": "29861"}, "augusta-richmond-county-30426": {"city": "Augusta-Richmond County", "rent": 990, "zip": "30426"}, "augusta-richmond-county-30434": {"city": "Augusta-Richmond County", "rent": 970, "zip": "30434"}, "augusta-richmond-county-30441": {"city": "Augusta-Richmond County", "rent": 980, "zip": "30441"}, "augusta-richmond-county-30442": {"city": "Augusta-Richmond County", "rent": 970, "zip": "30442"}, "augusta-richmond-county-30456": {"city": "Augusta-Richmond County", "rent": 970, "zip": "30456"}, "augusta-richmond-county-30802": {"city": "Augusta-Richmond County", "rent": 1240, "zip": "30802"}, "augusta-richmond-county-30805": {"city": "Augusta-Richmond County", "rent": 990, "zip": "30805"}, "augusta-richmond-county-30808": {"city": "Augusta-Richmond County", "rent": 1020, "zip": "30808"}, "augusta-richmond-county-30809": {"city": "Augusta-Richmond County", "rent": 1890, "zip": "30809"}, "augusta-richmond-county-30812": {"city": "Augusta-Richmond County", "rent": 1210, "zip": "30812"}, "augusta-richmond-county-30813": {"city": "Augusta-Richmond County", "rent": 1680, "zip": "30813"}, "augusta-richmond-county-30814": {"city": "Augusta-Richmond County", "rent": 970, "zip": "30814"}, "augusta-richmond-county-30815": {"city": "Augusta-Richmond County", "rent": 1370, "zip": "30815"}, "augusta-richmond-county-30816": {"city": "Augusta-Richmond County", "rent": 970, "zip": "30816"}, "augusta-richmond-county-30821": {"city": "Augusta-Richmond County", "rent": 980, "zip": "30821"}, "augusta-richmond-county-30824": {"city": "Augusta-Richmond County", "rent": 1010, "zip": "30824"}, "augusta-richmond-county-30828": {"city": "Augusta-Richmond County", "rent": 980, "zip": "30828"}, "augusta-richmond-county-30830": {"city": "Augusta-Richmond County", "rent": 1070, "zip": "30830"}, "augusta-richmond-county-30901": {"city": "Augusta-Richmond County", "rent": 1100, "zip": "30901"}, "augusta-richmond-county-30903": {"city": "Augusta-Richmond County", "rent": 1350, "zip": "30903"}, "augusta-richmond-county-30904": {"city": "Augusta-Richmond County", "rent": 1200, "zip": "30904"}, "augusta-richmond-county-30905": {"city": "Augusta-Richmond County", "rent": 1890, "zip": "30905"}, "augusta-richmond-county-30906": {"city": "Augusta-Richmond County", "rent": 1210, "zip": "30906"}, "augusta-richmond-county-30907": {"city": "Augusta-Richmond County", "rent": 1420, "zip": "30907"}, "augusta-richmond-county-30909": {"city": "Augusta-Richmond County", "rent": 1480, "zip": "30909"}, "augusta-richmond-county-30912": {"city": "Augusta-Richmond County", "rent": 1270, "zip": "30912"}, "augusta-richmond-county-30914": {"city": "Augusta-Richmond County", "rent": 1270, "zip": "30914"}, "augusta-richmond-county-30916": {"city": "Augusta-Richmond County", "rent": 1270, "zip": "30916"}, "augusta-richmond-county-30917": {"city": "Augusta-Richmond County", "rent": 1570, "zip": "30917"}, "augusta-richmond-county-30919": {"city": "Augusta-Richmond County", "rent": 1270, "zip": "30919"}, "lincoln-county-30668": {"city": "Lincoln County", "rent": 1030, "zip": "30668"}, "lincoln-county-30817": {"city": "Lincoln County", "rent": 1000, "zip": "30817"}, "brunswick-st.-simons-31305": {"city": "Brunswick-St. Simons", "rent": 1140, "zip": "31305"}, "brunswick-st.-simons-31323": {"city": "Brunswick-St. Simons", "rent": 1290, "zip": "31323"}, "brunswick-st.-simons-31327": {"city": "Brunswick-St. Simons", "rent": 1140, "zip": "31327"}, "brunswick-st.-simons-31331": {"city": "Brunswick-St. Simons", "rent": 1170, "zip": "31331"}, "brunswick-st.-simons-31503": {"city": "Brunswick-St. Simons", "rent": 1140, "zip": "31503"}, "brunswick-st.-simons-31520": {"city": "Brunswick-St. Simons", "rent": 1200, "zip": "31520"}, "brunswick-st.-simons-31521": {"city": "Brunswick-St. Simons", "rent": 1370, "zip": "31521"}, "brunswick-st.-simons-31522": {"city": "Brunswick-St. Simons", "rent": 1940, "zip": "31522"}, "brunswick-st.-simons-31523": {"city": "Brunswick-St. Simons", "rent": 1450, "zip": "31523"}, "brunswick-st.-simons-31524": {"city": "Brunswick-St. Simons", "rent": 1370, "zip": "31524"}, "brunswick-st.-simons-31525": {"city": "Brunswick-St. Simons", "rent": 1460, "zip": "31525"}, "brunswick-st.-simons-31527": {"city": "Brunswick-St. Simons", "rent": 1850, "zip": "31527"}, "brunswick-st.-simons-31537": {"city": "Brunswick-St. Simons", "rent": 1140, "zip": "31537"}, "brunswick-st.-simons-31542": {"city": "Brunswick-St. Simons", "rent": 1140, "zip": "31542"}, "brunswick-st.-simons-31543": {"city": "Brunswick-St. Simons", "rent": 1140, "zip": "31543"}, "brunswick-st.-simons-31553": {"city": "Brunswick-St. Simons", "rent": 1140, "zip": "31553"}, "brunswick-st.-simons-31557": {"city": "Brunswick-St. Simons", "rent": 1140, "zip": "31557"}, "brunswick-st.-simons-31561": {"city": "Brunswick-St. Simons", "rent": 1940, "zip": "31561"}, "brunswick-st.-simons-31565": {"city": "Brunswick-St. Simons", "rent": 1140, "zip": "31565"}, "brunswick-st.-simons-31566": {"city": "Brunswick-St. Simons", "rent": 1140, "zip": "31566"}, "stewart-county-31805": {"city": "Stewart County", "rent": 1000, "zip": "31805"}, "stewart-county-31814": {"city": "Stewart County", "rent": 970, "zip": "31814"}, "stewart-county-31815": {"city": "Stewart County", "rent": 970, "zip": "31815"}, "stewart-county-31821": {"city": "Stewart County", "rent": 970, "zip": "31821"}, "stewart-county-31825": {"city": "Stewart County", "rent": 1070, "zip": "31825"}, "stewart-county-39854": {"city": "Stewart County", "rent": 1000, "zip": "39854"}, "stewart-county-39867": {"city": "Stewart County", "rent": 1000, "zip": "39867"}, "talbot-county-31006": {"city": "Talbot County", "rent": 970, "zip": "31006"}, "talbot-county-31801": {"city": "Talbot County", "rent": 1000, "zip": "31801"}, "talbot-county-31810": {"city": "Talbot County", "rent": 970, "zip": "31810"}, "talbot-county-31812": {"city": "Talbot County", "rent": 970, "zip": "31812"}, "talbot-county-31816": {"city": "Talbot County", "rent": 1120, "zip": "31816"}, "talbot-county-31826": {"city": "Talbot County", "rent": 1060, "zip": "31826"}, "talbot-county-31827": {"city": "Talbot County", "rent": 970, "zip": "31827"}, "talbot-county-31831": {"city": "Talbot County", "rent": 1000, "zip": "31831"}, "talbot-county-31836": {"city": "Talbot County", "rent": 1020, "zip": "31836"}, "columbus-31058": {"city": "Columbus", "rent": 1000, "zip": "31058"}, "columbus-31801": {"city": "Columbus", "rent": 1000, "zip": "31801"}, "columbus-31803": {"city": "Columbus", "rent": 1000, "zip": "31803"}, "columbus-31804": {"city": "Columbus", "rent": 1070, "zip": "31804"}, "columbus-31805": {"city": "Columbus", "rent": 1000, "zip": "31805"}, "columbus-31807": {"city": "Columbus", "rent": 1170, "zip": "31807"}, "columbus-31808": {"city": "Columbus", "rent": 1560, "zip": "31808"}, "columbus-31811": {"city": "Columbus", "rent": 1160, "zip": "31811"}, "columbus-31820": {"city": "Columbus", "rent": 1630, "zip": "31820"}, "columbus-31822": {"city": "Columbus", "rent": 1030, "zip": "31822"}, "columbus-31823": {"city": "Columbus", "rent": 1150, "zip": "31823"}, "columbus-31824": {"city": "Columbus", "rent": 1000, "zip": "31824"}, "columbus-31826": {"city": "Columbus", "rent": 1060, "zip": "31826"}, "columbus-31829": {"city": "Columbus", "rent": 1190, "zip": "31829"}, "columbus-31830": {"city": "Columbus", "rent": 1000, "zip": "31830"}, "columbus-31831": {"city": "Columbus", "rent": 1000, "zip": "31831"}, "columbus-31833": {"city": "Columbus", "rent": 1030, "zip": "31833"}, "columbus-31901": {"city": "Columbus", "rent": 1000, "zip": "31901"}, "columbus-31902": {"city": "Columbus", "rent": 1120, "zip": "31902"}, "columbus-31903": {"city": "Columbus", "rent": 1000, "zip": "31903"}, "columbus-31904": {"city": "Columbus", "rent": 1170, "zip": "31904"}, "columbus-31905": {"city": "Columbus", "rent": 1630, "zip": "31905"}, "columbus-31906": {"city": "Columbus", "rent": 1000, "zip": "31906"}, "columbus-31907": {"city": "Columbus", "rent": 1270, "zip": "31907"}, "columbus-31908": {"city": "Columbus", "rent": 1120, "zip": "31908"}, "columbus-31909": {"city": "Columbus", "rent": 1500, "zip": "31909"}, "columbus-31914": {"city": "Columbus", "rent": 1120, "zip": "31914"}, "columbus-31917": {"city": "Columbus", "rent": 1120, "zip": "31917"}, "columbus-31995": {"city": "Columbus", "rent": 1330, "zip": "31995"}, "columbus-31998": {"city": "Columbus", "rent": 1120, "zip": "31998"}, "columbus-31999": {"city": "Columbus", "rent": 1120, "zip": "31999"}, "columbus-36027": {"city": "Columbus", "rent": 1000, "zip": "36027"}, "columbus-36053": {"city": "Columbus", "rent": 1000, "zip": "36053"}, "columbus-36804": {"city": "Columbus", "rent": 1060, "zip": "36804"}, "columbus-36851": {"city": "Columbus", "rent": 1000, "zip": "36851"}, "columbus-36856": {"city": "Columbus", "rent": 1260, "zip": "36856"}, "columbus-36858": {"city": "Columbus", "rent": 1000, "zip": "36858"}, "columbus-36860": {"city": "Columbus", "rent": 1000, "zip": "36860"}, "columbus-36867": {"city": "Columbus", "rent": 1060, "zip": "36867"}, "columbus-36868": {"city": "Columbus", "rent": 1000, "zip": "36868"}, "columbus-36869": {"city": "Columbus", "rent": 1000, "zip": "36869"}, "columbus-36870": {"city": "Columbus", "rent": 1150, "zip": "36870"}, "columbus-36871": {"city": "Columbus", "rent": 1000, "zip": "36871"}, "columbus-36874": {"city": "Columbus", "rent": 1170, "zip": "36874"}, "columbus-36875": {"city": "Columbus", "rent": 1000, "zip": "36875"}, "columbus-36877": {"city": "Columbus", "rent": 1260, "zip": "36877"}, "dalton-30710": {"city": "Dalton", "rent": 1210, "zip": "30710"}, "dalton-30719": {"city": "Dalton", "rent": 1120, "zip": "30719"}, "dalton-30720": {"city": "Dalton", "rent": 1190, "zip": "30720"}, "dalton-30721": {"city": "Dalton", "rent": 1100, "zip": "30721"}, "dalton-30722": {"city": "Dalton", "rent": 1120, "zip": "30722"}, "dalton-30735": {"city": "Dalton", "rent": 1240, "zip": "30735"}, "dalton-30736": {"city": "Dalton", "rent": 1250, "zip": "30736"}, "dalton-30740": {"city": "Dalton", "rent": 1070, "zip": "30740"}, "dalton-30755": {"city": "Dalton", "rent": 1060, "zip": "30755"}, "dalton-30756": {"city": "Dalton", "rent": 1210, "zip": "30756"}, "murray-county-30540": {"city": "Murray County", "rent": 970, "zip": "30540"}, "murray-county-30705": {"city": "Murray County", "rent": 1000, "zip": "30705"}, "murray-county-30708": {"city": "Murray County", "rent": 980, "zip": "30708"}, "murray-county-30711": {"city": "Murray County", "rent": 970, "zip": "30711"}, "murray-county-30721": {"city": "Murray County", "rent": 1100, "zip": "30721"}, "murray-county-30724": {"city": "Murray County", "rent": 1000, "zip": "30724"}, "murray-county-30735": {"city": "Murray County", "rent": 1240, "zip": "30735"}, "murray-county-30751": {"city": "Murray County", "rent": 970, "zip": "30751"}, "gainesville-30501": {"city": "Gainesville", "rent": 1540, "zip": "30501"}, "gainesville-30502": {"city": "Gainesville", "rent": 1510, "zip": "30502"}, "gainesville-30503": {"city": "Gainesville", "rent": 1510, "zip": "30503"}, "gainesville-30504": {"city": "Gainesville", "rent": 1540, "zip": "30504"}, "gainesville-30506": {"city": "Gainesville", "rent": 1530, "zip": "30506"}, "gainesville-30507": {"city": "Gainesville", "rent": 1360, "zip": "30507"}, "gainesville-30510": {"city": "Gainesville", "rent": 1360, "zip": "30510"}, "gainesville-30517": {"city": "Gainesville", "rent": 1850, "zip": "30517"}, "gainesville-30518": {"city": "Gainesville", "rent": 1860, "zip": "30518"}, "gainesville-30519": {"city": "Gainesville", "rent": 2230, "zip": "30519"}, "gainesville-30527": {"city": "Gainesville", "rent": 1360, "zip": "30527"}, "gainesville-30528": {"city": "Gainesville", "rent": 1360, "zip": "30528"}, "gainesville-30531": {"city": "Gainesville", "rent": 1360, "zip": "30531"}, "gainesville-30533": {"city": "Gainesville", "rent": 1250, "zip": "30533"}, "gainesville-30542": {"city": "Gainesville", "rent": 1840, "zip": "30542"}, "gainesville-30543": {"city": "Gainesville", "rent": 1460, "zip": "30543"}, "gainesville-30548": {"city": "Gainesville", "rent": 1400, "zip": "30548"}, "gainesville-30554": {"city": "Gainesville", "rent": 1360, "zip": "30554"}, "gainesville-30564": {"city": "Gainesville", "rent": 1360, "zip": "30564"}, "gainesville-30566": {"city": "Gainesville", "rent": 1550, "zip": "30566"}, "gainesville-30567": {"city": "Gainesville", "rent": 1360, "zip": "30567"}, "gainesville-30575": {"city": "Gainesville", "rent": 1360, "zip": "30575"}, "hinesville-31301": {"city": "Hinesville", "rent": 1290, "zip": "31301"}, "hinesville-31309": {"city": "Hinesville", "rent": 1620, "zip": "31309"}, "hinesville-31310": {"city": "Hinesville", "rent": 1410, "zip": "31310"}, "hinesville-31313": {"city": "Hinesville", "rent": 1410, "zip": "31313"}, "hinesville-31314": {"city": "Hinesville", "rent": 1540, "zip": "31314"}, "hinesville-31315": {"city": "Hinesville", "rent": 1740, "zip": "31315"}, "hinesville-31316": {"city": "Hinesville", "rent": 1320, "zip": "31316"}, "hinesville-31320": {"city": "Hinesville", "rent": 1370, "zip": "31320"}, "hinesville-31323": {"city": "Hinesville", "rent": 1290, "zip": "31323"}, "hinesville-31324": {"city": "Hinesville", "rent": 2180, "zip": "31324"}, "hinesville-31333": {"city": "Hinesville", "rent": 1290, "zip": "31333"}, "long-county-30427": {"city": "Long County", "rent": 1010, "zip": "30427"}, "long-county-31301": {"city": "Long County", "rent": 1290, "zip": "31301"}, "long-county-31313": {"city": "Long County", "rent": 1410, "zip": "31313"}, "long-county-31316": {"city": "Long County", "rent": 1320, "zip": "31316"}, "macon-bibb-county-31008": {"city": "Macon-Bibb County", "rent": 1390, "zip": "31008"}, "macon-bibb-county-31014": {"city": "Macon-Bibb County", "rent": 1130, "zip": "31014"}, "macon-bibb-county-31016": {"city": "Macon-Bibb County", "rent": 1130, "zip": "31016"}, "macon-bibb-county-31017": {"city": "Macon-Bibb County", "rent": 1130, "zip": "31017"}, "macon-bibb-county-31020": {"city": "Macon-Bibb County", "rent": 1160, "zip": "31020"}, "macon-bibb-county-31030": {"city": "Macon-Bibb County", "rent": 1180, "zip": "31030"}, "macon-bibb-county-31031": {"city": "Macon-Bibb County", "rent": 1130, "zip": "31031"}, "macon-bibb-county-31032": {"city": "Macon-Bibb County", "rent": 1180, "zip": "31032"}, "macon-bibb-county-31033": {"city": "Macon-Bibb County", "rent": 1240, "zip": "31033"}, "macon-bibb-county-31038": {"city": "Macon-Bibb County", "rent": 1230, "zip": "31038"}, "macon-bibb-county-31044": {"city": "Macon-Bibb County", "rent": 1130, "zip": "31044"}, "macon-bibb-county-31046": {"city": "Macon-Bibb County", "rent": 1270, "zip": "31046"}, "macon-bibb-county-31050": {"city": "Macon-Bibb County", "rent": 1130, "zip": "31050"}, "macon-bibb-county-31052": {"city": "Macon-Bibb County", "rent": 1200, "zip": "31052"}, "macon-bibb-county-31061": {"city": "Macon-Bibb County", "rent": 1130, "zip": "31061"}, "macon-bibb-county-31066": {"city": "Macon-Bibb County", "rent": 1190, "zip": "31066"}, "macon-bibb-county-31078": {"city": "Macon-Bibb County", "rent": 1130, "zip": "31078"}, "macon-bibb-county-31201": {"city": "Macon-Bibb County", "rent": 1270, "zip": "31201"}, "macon-bibb-county-31202": {"city": "Macon-Bibb County", "rent": 1330, "zip": "31202"}, "macon-bibb-county-31203": {"city": "Macon-Bibb County", "rent": 1330, "zip": "31203"}, "macon-bibb-county-31204": {"city": "Macon-Bibb County", "rent": 1200, "zip": "31204"}, "macon-bibb-county-31205": {"city": "Macon-Bibb County", "rent": 1330, "zip": "31205"}, "macon-bibb-county-31206": {"city": "Macon-Bibb County", "rent": 1210, "zip": "31206"}, "macon-bibb-county-31207": {"city": "Macon-Bibb County", "rent": 1260, "zip": "31207"}, "macon-bibb-county-31208": {"city": "Macon-Bibb County", "rent": 1330, "zip": "31208"}, "macon-bibb-county-31209": {"city": "Macon-Bibb County", "rent": 1330, "zip": "31209"}, "macon-bibb-county-31210": {"city": "Macon-Bibb County", "rent": 1690, "zip": "31210"}, "macon-bibb-county-31211": {"city": "Macon-Bibb County", "rent": 1170, "zip": "31211"}, "macon-bibb-county-31213": {"city": "Macon-Bibb County", "rent": 1330, "zip": "31213"}, "macon-bibb-county-31216": {"city": "Macon-Bibb County", "rent": 1430, "zip": "31216"}, "macon-bibb-county-31217": {"city": "Macon-Bibb County", "rent": 1150, "zip": "31217"}, "macon-bibb-county-31220": {"city": "Macon-Bibb County", "rent": 1650, "zip": "31220"}, "macon-bibb-county-31221": {"city": "Macon-Bibb County", "rent": 1330, "zip": "31221"}, "monroe-county-30204": {"city": "Monroe County", "rent": 990, "zip": "30204"}, "monroe-county-30233": {"city": "Monroe County", "rent": 1120, "zip": "30233"}, "monroe-county-31004": {"city": "Monroe County", "rent": 1170, "zip": "31004"}, "monroe-county-31016": {"city": "Monroe County", "rent": 1130, "zip": "31016"}, "monroe-county-31029": {"city": "Monroe County", "rent": 1200, "zip": "31029"}, "monroe-county-31046": {"city": "Monroe County", "rent": 1270, "zip": "31046"}, "monroe-county-31066": {"city": "Monroe County", "rent": 1190, "zip": "31066"}, "monroe-county-31097": {"city": "Monroe County", "rent": 990, "zip": "31097"}, "monroe-county-31210": {"city": "Monroe County", "rent": 1690, "zip": "31210"}, "monroe-county-31220": {"city": "Monroe County", "rent": 1650, "zip": "31220"}, "rome-30103": {"city": "Rome", "rent": 1290, "zip": "30103"}, "rome-30104": {"city": "Rome", "rent": 1080, "zip": "30104"}, "rome-30105": {"city": "Rome", "rent": 1080, "zip": "30105"}, "rome-30124": {"city": "Rome", "rent": 1270, "zip": "30124"}, "rome-30125": {"city": "Rome", "rent": 1080, "zip": "30125"}, "rome-30129": {"city": "Rome", "rent": 1190, "zip": "30129"}, "rome-30145": {"city": "Rome", "rent": 1140, "zip": "30145"}, "rome-30147": {"city": "Rome", "rent": 1160, "zip": "30147"}, "rome-30149": {"city": "Rome", "rent": 1220, "zip": "30149"}, "rome-30161": {"city": "Rome", "rent": 1210, "zip": "30161"}, "rome-30162": {"city": "Rome", "rent": 1190, "zip": "30162"}, "rome-30164": {"city": "Rome", "rent": 1190, "zip": "30164"}, "rome-30165": {"city": "Rome", "rent": 1220, "zip": "30165"}, "rome-30172": {"city": "Rome", "rent": 1190, "zip": "30172"}, "rome-30173": {"city": "Rome", "rent": 1300, "zip": "30173"}, "rome-30701": {"city": "Rome", "rent": 1080, "zip": "30701"}, "rome-30733": {"city": "Rome", "rent": 1080, "zip": "30733"}, "rome-30747": {"city": "Rome", "rent": 970, "zip": "30747"}, "savannah-30446": {"city": "Savannah", "rent": 1430, "zip": "30446"}, "savannah-31302": {"city": "Savannah", "rent": 1430, "zip": "31302"}, "savannah-31303": {"city": "Savannah", "rent": 1430, "zip": "31303"}, "savannah-31307": {"city": "Savannah", "rent": 1500, "zip": "31307"}, "savannah-31308": {"city": "Savannah", "rent": 1430, "zip": "31308"}, "savannah-31312": {"city": "Savannah", "rent": 1720, "zip": "31312"}, "savannah-31318": {"city": "Savannah", "rent": 1430, "zip": "31318"}, "savannah-31321": {"city": "Savannah", "rent": 1430, "zip": "31321"}, "savannah-31322": {"city": "Savannah", "rent": 1970, "zip": "31322"}, "savannah-31324": {"city": "Savannah", "rent": 2180, "zip": "31324"}, "savannah-31326": {"city": "Savannah", "rent": 1470, "zip": "31326"}, "savannah-31328": {"city": "Savannah", "rent": 1580, "zip": "31328"}, "savannah-31329": {"city": "Savannah", "rent": 1460, "zip": "31329"}, "savannah-31401": {"city": "Savannah", "rent": 1990, "zip": "31401"}, "savannah-31402": {"city": "Savannah", "rent": 1700, "zip": "31402"}, "savannah-31403": {"city": "Savannah", "rent": 1700, "zip": "31403"}, "savannah-31404": {"city": "Savannah", "rent": 1600, "zip": "31404"}, "savannah-31405": {"city": "Savannah", "rent": 1650, "zip": "31405"}, "savannah-31406": {"city": "Savannah", "rent": 1670, "zip": "31406"}, "savannah-31407": {"city": "Savannah", "rent": 2020, "zip": "31407"}, "savannah-31408": {"city": "Savannah", "rent": 1430, "zip": "31408"}, "savannah-31409": {"city": "Savannah", "rent": 1680, "zip": "31409"}, "savannah-31410": {"city": "Savannah", "rent": 2060, "zip": "31410"}, "savannah-31411": {"city": "Savannah", "rent": 2150, "zip": "31411"}, "savannah-31412": {"city": "Savannah", "rent": 1700, "zip": "31412"}, "savannah-31414": {"city": "Savannah", "rent": 1700, "zip": "31414"}, "savannah-31415": {"city": "Savannah", "rent": 1430, "zip": "31415"}, "savannah-31416": {"city": "Savannah", "rent": 1700, "zip": "31416"}, "savannah-31418": {"city": "Savannah", "rent": 1700, "zip": "31418"}, "savannah-31419": {"city": "Savannah", "rent": 1800, "zip": "31419"}, "savannah-31420": {"city": "Savannah", "rent": 1700, "zip": "31420"}, "savannah-31421": {"city": "Savannah", "rent": 1990, "zip": "31421"}, "valdosta-31601": {"city": "Valdosta", "rent": 1130, "zip": "31601"}, "valdosta-31602": {"city": "Valdosta", "rent": 1310, "zip": "31602"}, "valdosta-31603": {"city": "Valdosta", "rent": 1220, "zip": "31603"}, "valdosta-31604": {"city": "Valdosta", "rent": 1220, "zip": "31604"}, "valdosta-31605": {"city": "Valdosta", "rent": 1480, "zip": "31605"}, "valdosta-31606": {"city": "Valdosta", "rent": 1150, "zip": "31606"}, "valdosta-31625": {"city": "Valdosta", "rent": 1110, "zip": "31625"}, "valdosta-31626": {"city": "Valdosta", "rent": 1080, "zip": "31626"}, "valdosta-31629": {"city": "Valdosta", "rent": 1040, "zip": "31629"}, "valdosta-31630": {"city": "Valdosta", "rent": 1090, "zip": "31630"}, "valdosta-31631": {"city": "Valdosta", "rent": 1040, "zip": "31631"}, "valdosta-31632": {"city": "Valdosta", "rent": 1380, "zip": "31632"}, "valdosta-31635": {"city": "Valdosta", "rent": 1050, "zip": "31635"}, "valdosta-31636": {"city": "Valdosta", "rent": 1100, "zip": "31636"}, "valdosta-31638": {"city": "Valdosta", "rent": 1040, "zip": "31638"}, "valdosta-31639": {"city": "Valdosta", "rent": 1040, "zip": "31639"}, "valdosta-31641": {"city": "Valdosta", "rent": 1180, "zip": "31641"}, "valdosta-31643": {"city": "Valdosta", "rent": 1050, "zip": "31643"}, "valdosta-31645": {"city": "Valdosta", "rent": 1160, "zip": "31645"}, "valdosta-31648": {"city": "Valdosta", "rent": 1290, "zip": "31648"}, "valdosta-31649": {"city": "Valdosta", "rent": 1280, "zip": "31649"}, "valdosta-31698": {"city": "Valdosta", "rent": 1240, "zip": "31698"}, "valdosta-31699": {"city": "Valdosta", "rent": 1480, "zip": "31699"}, "valdosta-31720": {"city": "Valdosta", "rent": 1040, "zip": "31720"}, "valdosta-31778": {"city": "Valdosta", "rent": 1040, "zip": "31778"}, "valdosta-31788": {"city": "Valdosta", "rent": 1040, "zip": "31788"}, "warner-robins-31005": {"city": "Warner Robins", "rent": 1590, "zip": "31005"}, "warner-robins-31008": {"city": "Warner Robins", "rent": 1390, "zip": "31008"}, "warner-robins-31013": {"city": "Warner Robins", "rent": 1360, "zip": "31013"}, "warner-robins-31025": {"city": "Warner Robins", "rent": 1180, "zip": "31025"}, "warner-robins-31028": {"city": "Warner Robins", "rent": 1390, "zip": "31028"}, "warner-robins-31030": {"city": "Warner Robins", "rent": 1180, "zip": "31030"}, "warner-robins-31036": {"city": "Warner Robins", "rent": 1180, "zip": "31036"}, "warner-robins-31047": {"city": "Warner Robins", "rent": 1760, "zip": "31047"}, "warner-robins-31069": {"city": "Warner Robins", "rent": 1180, "zip": "31069"}, "warner-robins-31088": {"city": "Warner Robins", "rent": 1450, "zip": "31088"}, "warner-robins-31091": {"city": "Warner Robins", "rent": 1180, "zip": "31091"}, "warner-robins-31093": {"city": "Warner Robins", "rent": 1180, "zip": "31093"}, "warner-robins-31095": {"city": "Warner Robins", "rent": 1360, "zip": "31095"}, "warner-robins-31098": {"city": "Warner Robins", "rent": 1710, "zip": "31098"}, "peach-county-31008": {"city": "Peach County", "rent": 1390, "zip": "31008"}, "peach-county-31030": {"city": "Peach County", "rent": 1180, "zip": "31030"}, "peach-county-31069": {"city": "Peach County", "rent": 1180, "zip": "31069"}, "peach-county-31076": {"city": "Peach County", "rent": 980, "zip": "31076"}, "appling-county-31513": {"city": "Appling County", "rent": 970, "zip": "31513"}, "appling-county-31518": {"city": "Appling County", "rent": 970, "zip": "31518"}, "appling-county-31539": {"city": "Appling County", "rent": 970, "zip": "31539"}, "appling-county-31555": {"city": "Appling County", "rent": 1360, "zip": "31555"}, "appling-county-31557": {"city": "Appling County", "rent": 1140, "zip": "31557"}, "appling-county-31560": {"city": "Appling County", "rent": 970, "zip": "31560"}, "appling-county-31563": {"city": "Appling County", "rent": 1180, "zip": "31563"}, "atkinson-county-31552": {"city": "Atkinson County", "rent": 1030, "zip": "31552"}, "atkinson-county-31624": {"city": "Atkinson County", "rent": 1050, "zip": "31624"}, "atkinson-county-31635": {"city": "Atkinson County", "rent": 1050, "zip": "31635"}, "atkinson-county-31642": {"city": "Atkinson County", "rent": 1060, "zip": "31642"}, "atkinson-county-31650": {"city": "Atkinson County", "rent": 970, "zip": "31650"}, "bacon-county-31510": {"city": "Bacon County", "rent": 980, "zip": "31510"}, "bacon-county-31518": {"city": "Bacon County", "rent": 970, "zip": "31518"}, "bacon-county-31539": {"city": "Bacon County", "rent": 970, "zip": "31539"}, "bacon-county-31551": {"city": "Bacon County", "rent": 1040, "zip": "31551"}, "bacon-county-31554": {"city": "Bacon County", "rent": 1010, "zip": "31554"}, "baker-county-31721": {"city": "Baker County", "rent": 1370, "zip": "31721"}, "baker-county-39813": {"city": "Baker County", "rent": 970, "zip": "39813"}, "baker-county-39837": {"city": "Baker County", "rent": 970, "zip": "39837"}, "baker-county-39841": {"city": "Baker County", "rent": 970, "zip": "39841"}, "baker-county-39862": {"city": "Baker County", "rent": 1020, "zip": "39862"}, "baker-county-39870": {"city": "Baker County", "rent": 970, "zip": "39870"}, "baldwin-county-31031": {"city": "Baldwin County", "rent": 1130, "zip": "31031"}, "baldwin-county-31033": {"city": "Baldwin County", "rent": 1240, "zip": "31033"}, "baldwin-county-31034": {"city": "Baldwin County", "rent": 1080, "zip": "31034"}, "baldwin-county-31059": {"city": "Baldwin County", "rent": 1070, "zip": "31059"}, "baldwin-county-31061": {"city": "Baldwin County", "rent": 1130, "zip": "31061"}, "baldwin-county-31062": {"city": "Baldwin County", "rent": 1080, "zip": "31062"}, "baldwin-county-31082": {"city": "Baldwin County", "rent": 990, "zip": "31082"}, "baldwin-county-31087": {"city": "Baldwin County", "rent": 970, "zip": "31087"}, "banks-county-30510": {"city": "Banks County", "rent": 1360, "zip": "30510"}, "banks-county-30511": {"city": "Banks County", "rent": 1150, "zip": "30511"}, "banks-county-30521": {"city": "Banks County", "rent": 1070, "zip": "30521"}, "banks-county-30529": {"city": "Banks County", "rent": 1170, "zip": "30529"}, "banks-county-30530": {"city": "Banks County", "rent": 1140, "zip": "30530"}, "banks-county-30543": {"city": "Banks County", "rent": 1460, "zip": "30543"}, "banks-county-30547": {"city": "Banks County", "rent": 1190, "zip": "30547"}, "banks-county-30554": {"city": "Banks County", "rent": 1360, "zip": "30554"}, "banks-county-30558": {"city": "Banks County", "rent": 1030, "zip": "30558"}, "banks-county-30577": {"city": "Banks County", "rent": 1000, "zip": "30577"}, "banks-county-30633": {"city": "Banks County", "rent": 1110, "zip": "30633"}, "ben-hill-county-31079": {"city": "Ben Hill County", "rent": 970, "zip": "31079"}, "ben-hill-county-31519": {"city": "Ben Hill County", "rent": 970, "zip": "31519"}, "ben-hill-county-31750": {"city": "Ben Hill County", "rent": 1000, "zip": "31750"}, "ben-hill-county-31783": {"city": "Ben Hill County", "rent": 970, "zip": "31783"}, "ben-hill-county-31798": {"city": "Ben Hill County", "rent": 990, "zip": "31798"}, "berrien-county-31622": {"city": "Berrien County", "rent": 980, "zip": "31622"}, "berrien-county-31635": {"city": "Berrien County", "rent": 1050, "zip": "31635"}, "berrien-county-31637": {"city": "Berrien County", "rent": 970, "zip": "31637"}, "berrien-county-31639": {"city": "Berrien County", "rent": 1040, "zip": "31639"}, "berrien-county-31645": {"city": "Berrien County", "rent": 1160, "zip": "31645"}, "berrien-county-31749": {"city": "Berrien County", "rent": 1030, "zip": "31749"}, "berrien-county-31774": {"city": "Berrien County", "rent": 1060, "zip": "31774"}, "berrien-county-31794": {"city": "Berrien County", "rent": 990, "zip": "31794"}, "bleckley-county-31012": {"city": "Bleckley County", "rent": 1000, "zip": "31012"}, "bleckley-county-31014": {"city": "Bleckley County", "rent": 1130, "zip": "31014"}, "bleckley-county-31017": {"city": "Bleckley County", "rent": 1130, "zip": "31017"}, "bleckley-county-31022": {"city": "Bleckley County", "rent": 1000, "zip": "31022"}, "bleckley-county-31036": {"city": "Bleckley County", "rent": 1180, "zip": "31036"}, "bleckley-county-31065": {"city": "Bleckley County", "rent": 1180, "zip": "31065"}, "bulloch-county-30415": {"city": "Bulloch County", "rent": 1140, "zip": "30415"}, "bulloch-county-30417": {"city": "Bulloch County", "rent": 1020, "zip": "30417"}, "bulloch-county-30425": {"city": "Bulloch County", "rent": 1020, "zip": "30425"}, "bulloch-county-30439": {"city": "Bulloch County", "rent": 1020, "zip": "30439"}, "bulloch-county-30450": {"city": "Bulloch County", "rent": 1270, "zip": "30450"}, "bulloch-county-30452": {"city": "Bulloch County", "rent": 1190, "zip": "30452"}, "bulloch-county-30458": {"city": "Bulloch County", "rent": 1200, "zip": "30458"}, "bulloch-county-30459": {"city": "Bulloch County", "rent": 1180, "zip": "30459"}, "bulloch-county-30460": {"city": "Bulloch County", "rent": 1180, "zip": "30460"}, "bulloch-county-30461": {"city": "Bulloch County", "rent": 1280, "zip": "30461"}, "bulloch-county-30471": {"city": "Bulloch County", "rent": 1020, "zip": "30471"}, "bulloch-county-31308": {"city": "Bulloch County", "rent": 1430, "zip": "31308"}, "bulloch-county-31321": {"city": "Bulloch County", "rent": 1430, "zip": "31321"}, "calhoun-county-39813": {"city": "Calhoun County", "rent": 970, "zip": "39813"}, "calhoun-county-39840": {"city": "Calhoun County", "rent": 1010, "zip": "39840"}, "calhoun-county-39842": {"city": "Calhoun County", "rent": 980, "zip": "39842"}, "calhoun-county-39846": {"city": "Calhoun County", "rent": 1020, "zip": "39846"}, "calhoun-county-39862": {"city": "Calhoun County", "rent": 1020, "zip": "39862"}, "calhoun-county-39866": {"city": "Calhoun County", "rent": 970, "zip": "39866"}, "calhoun-county-39886": {"city": "Calhoun County", "rent": 1160, "zip": "39886"}, "camden-county-31537": {"city": "Camden County", "rent": 1140, "zip": "31537"}, "camden-county-31547": {"city": "Camden County", "rent": 1300, "zip": "31547"}, "camden-county-31548": {"city": "Camden County", "rent": 1160, "zip": "31548"}, "camden-county-31558": {"city": "Camden County", "rent": 1300, "zip": "31558"}, "camden-county-31565": {"city": "Camden County", "rent": 1140, "zip": "31565"}, "camden-county-31566": {"city": "Camden County", "rent": 1140, "zip": "31566"}, "camden-county-31568": {"city": "Camden County", "rent": 1030, "zip": "31568"}, "camden-county-31569": {"city": "Camden County", "rent": 980, "zip": "31569"}, "candler-county-30420": {"city": "Candler County", "rent": 1070, "zip": "30420"}, "candler-county-30439": {"city": "Candler County", "rent": 1020, "zip": "30439"}, "candler-county-30451": {"city": "Candler County", "rent": 970, "zip": "30451"}, "candler-county-30452": {"city": "Candler County", "rent": 1190, "zip": "30452"}, "candler-county-30471": {"city": "Candler County", "rent": 1020, "zip": "30471"}, "charlton-county-31537": {"city": "Charlton County", "rent": 1140, "zip": "31537"}, "charlton-county-31553": {"city": "Charlton County", "rent": 1140, "zip": "31553"}, "charlton-county-31562": {"city": "Charlton County", "rent": 1090, "zip": "31562"}, "charlton-county-31631": {"city": "Charlton County", "rent": 1040, "zip": "31631"}, "chattooga-county-30105": {"city": "Chattooga County", "rent": 1080, "zip": "30105"}, "chattooga-county-30165": {"city": "Chattooga County", "rent": 1220, "zip": "30165"}, "chattooga-county-30730": {"city": "Chattooga County", "rent": 1170, "zip": "30730"}, "chattooga-county-30731": {"city": "Chattooga County", "rent": 1010, "zip": "30731"}, "chattooga-county-30747": {"city": "Chattooga County", "rent": 970, "zip": "30747"}, "chattooga-county-30753": {"city": "Chattooga County", "rent": 970, "zip": "30753"}, "clay-county-39823": {"city": "Clay County", "rent": 1000, "zip": "39823"}, "clay-county-39824": {"city": "Clay County", "rent": 1000, "zip": "39824"}, "clay-county-39836": {"city": "Clay County", "rent": 1010, "zip": "39836"}, "clay-county-39846": {"city": "Clay County", "rent": 1020, "zip": "39846"}, "clay-county-39851": {"city": "Clay County", "rent": 970, "zip": "39851"}, "clay-county-39854": {"city": "Clay County", "rent": 1000, "zip": "39854"}, "clay-county-39867": {"city": "Clay County", "rent": 1000, "zip": "39867"}, "clinch-county-31623": {"city": "Clinch County", "rent": 1010, "zip": "31623"}, "clinch-county-31630": {"city": "Clinch County", "rent": 1090, "zip": "31630"}, "clinch-county-31631": {"city": "Clinch County", "rent": 1040, "zip": "31631"}, "clinch-county-31634": {"city": "Clinch County", "rent": 1010, "zip": "31634"}, "clinch-county-31635": {"city": "Clinch County", "rent": 1050, "zip": "31635"}, "clinch-county-31642": {"city": "Clinch County", "rent": 1060, "zip": "31642"}, "clinch-county-31649": {"city": "Clinch County", "rent": 1280, "zip": "31649"}, "coffee-county-31512": {"city": "Coffee County", "rent": 970, "zip": "31512"}, "coffee-county-31519": {"city": "Coffee County", "rent": 970, "zip": "31519"}, "coffee-county-31532": {"city": "Coffee County", "rent": 970, "zip": "31532"}, "coffee-county-31533": {"city": "Coffee County", "rent": 970, "zip": "31533"}, "coffee-county-31534": {"city": "Coffee County", "rent": 970, "zip": "31534"}, "coffee-county-31535": {"city": "Coffee County", "rent": 1050, "zip": "31535"}, "coffee-county-31552": {"city": "Coffee County", "rent": 1030, "zip": "31552"}, "coffee-county-31554": {"city": "Coffee County", "rent": 1010, "zip": "31554"}, "coffee-county-31567": {"city": "Coffee County", "rent": 990, "zip": "31567"}, "coffee-county-31624": {"city": "Coffee County", "rent": 1050, "zip": "31624"}, "coffee-county-31642": {"city": "Coffee County", "rent": 1060, "zip": "31642"}, "coffee-county-31650": {"city": "Coffee County", "rent": 970, "zip": "31650"}, "coffee-county-31774": {"city": "Coffee County", "rent": 1060, "zip": "31774"}, "coffee-county-31798": {"city": "Coffee County", "rent": 990, "zip": "31798"}, "colquitt-county-31637": {"city": "Colquitt County", "rent": 970, "zip": "31637"}, "colquitt-county-31722": {"city": "Colquitt County", "rent": 970, "zip": "31722"}, "colquitt-county-31730": {"city": "Colquitt County", "rent": 1000, "zip": "31730"}, "colquitt-county-31738": {"city": "Colquitt County", "rent": 1040, "zip": "31738"}, "colquitt-county-31744": {"city": "Colquitt County", "rent": 1020, "zip": "31744"}, "colquitt-county-31747": {"city": "Colquitt County", "rent": 980, "zip": "31747"}, "colquitt-county-31753": {"city": "Colquitt County", "rent": 970, "zip": "31753"}, "colquitt-county-31756": {"city": "Colquitt County", "rent": 970, "zip": "31756"}, "colquitt-county-31765": {"city": "Colquitt County", "rent": 1040, "zip": "31765"}, "colquitt-county-31768": {"city": "Colquitt County", "rent": 980, "zip": "31768"}, "colquitt-county-31771": {"city": "Colquitt County", "rent": 980, "zip": "31771"}, "colquitt-county-31773": {"city": "Colquitt County", "rent": 1040, "zip": "31773"}, "colquitt-county-31775": {"city": "Colquitt County", "rent": 980, "zip": "31775"}, "colquitt-county-31776": {"city": "Colquitt County", "rent": 970, "zip": "31776"}, "colquitt-county-31778": {"city": "Colquitt County", "rent": 1040, "zip": "31778"}, "colquitt-county-31784": {"city": "Colquitt County", "rent": 970, "zip": "31784"}, "colquitt-county-31788": {"city": "Colquitt County", "rent": 1040, "zip": "31788"}, "cook-county-31620": {"city": "Cook County", "rent": 970, "zip": "31620"}, "cook-county-31627": {"city": "Cook County", "rent": 1290, "zip": "31627"}, "cook-county-31632": {"city": "Cook County", "rent": 1380, "zip": "31632"}, "cook-county-31637": {"city": "Cook County", "rent": 970, "zip": "31637"}, "cook-county-31647": {"city": "Cook County", "rent": 1010, "zip": "31647"}, "crisp-county-31010": {"city": "Crisp County", "rent": 970, "zip": "31010"}, "crisp-county-31015": {"city": "Crisp County", "rent": 970, "zip": "31015"}, "crisp-county-31072": {"city": "Crisp County", "rent": 970, "zip": "31072"}, "crisp-county-31092": {"city": "Crisp County", "rent": 1030, "zip": "31092"}, "crisp-county-31712": {"city": "Crisp County", "rent": 1000, "zip": "31712"}, "crisp-county-31796": {"city": "Crisp County", "rent": 1020, "zip": "31796"}, "decatur-county-31730": {"city": "Decatur County", "rent": 1000, "zip": "31730"}, "decatur-county-39815": {"city": "Decatur County", "rent": 1070, "zip": "39815"}, "decatur-county-39817": {"city": "Decatur County", "rent": 970, "zip": "39817"}, "decatur-county-39818": {"city": "Decatur County", "rent": 970, "zip": "39818"}, "decatur-county-39819": {"city": "Decatur County", "rent": 970, "zip": "39819"}, "decatur-county-39825": {"city": "Decatur County", "rent": 1210, "zip": "39825"}, "decatur-county-39834": {"city": "Decatur County", "rent": 970, "zip": "39834"}, "decatur-county-39837": {"city": "Decatur County", "rent": 970, "zip": "39837"}, "decatur-county-39897": {"city": "Decatur County", "rent": 970, "zip": "39897"}, "dodge-county-31011": {"city": "Dodge County", "rent": 970, "zip": "31011"}, "dodge-county-31012": {"city": "Dodge County", "rent": 1000, "zip": "31012"}, "dodge-county-31014": {"city": "Dodge County", "rent": 1130, "zip": "31014"}, "dodge-county-31022": {"city": "Dodge County", "rent": 1000, "zip": "31022"}, "dodge-county-31023": {"city": "Dodge County", "rent": 990, "zip": "31023"}, "dodge-county-31036": {"city": "Dodge County", "rent": 1180, "zip": "31036"}, "dodge-county-31037": {"city": "Dodge County", "rent": 1320, "zip": "31037"}, "dodge-county-31060": {"city": "Dodge County", "rent": 1010, "zip": "31060"}, "dodge-county-31077": {"city": "Dodge County", "rent": 1010, "zip": "31077"}, "dooly-county-31007": {"city": "Dooly County", "rent": 970, "zip": "31007"}, "dooly-county-31015": {"city": "Dooly County", "rent": 970, "zip": "31015"}, "dooly-county-31036": {"city": "Dooly County", "rent": 1180, "zip": "31036"}, "dooly-county-31051": {"city": "Dooly County", "rent": 970, "zip": "31051"}, "dooly-county-31063": {"city": "Dooly County", "rent": 1060, "zip": "31063"}, "dooly-county-31070": {"city": "Dooly County", "rent": 970, "zip": "31070"}, "dooly-county-31071": {"city": "Dooly County", "rent": 970, "zip": "31071"}, "dooly-county-31072": {"city": "Dooly County", "rent": 970, "zip": "31072"}, "dooly-county-31091": {"city": "Dooly County", "rent": 1180, "zip": "31091"}, "dooly-county-31092": {"city": "Dooly County", "rent": 1030, "zip": "31092"}, "early-county-39813": {"city": "Early County", "rent": 970, "zip": "39813"}, "early-county-39823": {"city": "Early County", "rent": 1000, "zip": "39823"}, "early-county-39824": {"city": "Early County", "rent": 1000, "zip": "39824"}, "early-county-39832": {"city": "Early County", "rent": 970, "zip": "39832"}, "early-county-39837": {"city": "Early County", "rent": 970, "zip": "39837"}, "early-county-39841": {"city": "Early County", "rent": 970, "zip": "39841"}, "early-county-39845": {"city": "Early County", "rent": 990, "zip": "39845"}, "early-county-39861": {"city": "Early County", "rent": 970, "zip": "39861"}, "elbert-county-30624": {"city": "Elbert County", "rent": 1110, "zip": "30624"}, "elbert-county-30634": {"city": "Elbert County", "rent": 1050, "zip": "30634"}, "elbert-county-30635": {"city": "Elbert County", "rent": 1090, "zip": "30635"}, "elbert-county-30662": {"city": "Elbert County", "rent": 1110, "zip": "30662"}, "emanuel-county-30401": {"city": "Emanuel County", "rent": 1000, "zip": "30401"}, "emanuel-county-30425": {"city": "Emanuel County", "rent": 1020, "zip": "30425"}, "emanuel-county-30436": {"city": "Emanuel County", "rent": 970, "zip": "30436"}, "emanuel-county-30439": {"city": "Emanuel County", "rent": 1020, "zip": "30439"}, "emanuel-county-30441": {"city": "Emanuel County", "rent": 980, "zip": "30441"}, "emanuel-county-30442": {"city": "Emanuel County", "rent": 970, "zip": "30442"}, "emanuel-county-30448": {"city": "Emanuel County", "rent": 1000, "zip": "30448"}, "emanuel-county-30450": {"city": "Emanuel County", "rent": 1270, "zip": "30450"}, "emanuel-county-30457": {"city": "Emanuel County", "rent": 970, "zip": "30457"}, "emanuel-county-30464": {"city": "Emanuel County", "rent": 970, "zip": "30464"}, "emanuel-county-30471": {"city": "Emanuel County", "rent": 1020, "zip": "30471"}, "emanuel-county-30474": {"city": "Emanuel County", "rent": 1030, "zip": "30474"}, "emanuel-county-30477": {"city": "Emanuel County", "rent": 970, "zip": "30477"}, "emanuel-county-31002": {"city": "Emanuel County", "rent": 970, "zip": "31002"}, "emanuel-county-31049": {"city": "Emanuel County", "rent": 990, "zip": "31049"}, "evans-county-30414": {"city": "Evans County", "rent": 970, "zip": "30414"}, "evans-county-30417": {"city": "Evans County", "rent": 1020, "zip": "30417"}, "evans-county-30420": {"city": "Evans County", "rent": 1070, "zip": "30420"}, "evans-county-30421": {"city": "Evans County", "rent": 970, "zip": "30421"}, "evans-county-30423": {"city": "Evans County", "rent": 970, "zip": "30423"}, "evans-county-30427": {"city": "Evans County", "rent": 1010, "zip": "30427"}, "evans-county-30429": {"city": "Evans County", "rent": 1400, "zip": "30429"}, "evans-county-30452": {"city": "Evans County", "rent": 1190, "zip": "30452"}, "evans-county-30453": {"city": "Evans County", "rent": 990, "zip": "30453"}, "fannin-county-30512": {"city": "Fannin County", "rent": 990, "zip": "30512"}, "fannin-county-30513": {"city": "Fannin County", "rent": 970, "zip": "30513"}, "fannin-county-30522": {"city": "Fannin County", "rent": 1010, "zip": "30522"}, "fannin-county-30541": {"city": "Fannin County", "rent": 970, "zip": "30541"}, "fannin-county-30555": {"city": "Fannin County", "rent": 970, "zip": "30555"}, "fannin-county-30559": {"city": "Fannin County", "rent": 1010, "zip": "30559"}, "fannin-county-30560": {"city": "Fannin County", "rent": 1400, "zip": "30560"}, "fannin-county-30572": {"city": "Fannin County", "rent": 1110, "zip": "30572"}, "franklin-county-30516": {"city": "Franklin County", "rent": 1060, "zip": "30516"}, "franklin-county-30520": {"city": "Franklin County", "rent": 1040, "zip": "30520"}, "franklin-county-30521": {"city": "Franklin County", "rent": 1070, "zip": "30521"}, "franklin-county-30530": {"city": "Franklin County", "rent": 1140, "zip": "30530"}, "franklin-county-30538": {"city": "Franklin County", "rent": 970, "zip": "30538"}, "franklin-county-30553": {"city": "Franklin County", "rent": 970, "zip": "30553"}, "franklin-county-30557": {"city": "Franklin County", "rent": 1100, "zip": "30557"}, "franklin-county-30577": {"city": "Franklin County", "rent": 1000, "zip": "30577"}, "franklin-county-30633": {"city": "Franklin County", "rent": 1110, "zip": "30633"}, "franklin-county-30639": {"city": "Franklin County", "rent": 1000, "zip": "30639"}, "franklin-county-30662": {"city": "Franklin County", "rent": 1110, "zip": "30662"}, "gilmer-county-30143": {"city": "Gilmer County", "rent": 1270, "zip": "30143"}, "gilmer-county-30175": {"city": "Gilmer County", "rent": 1210, "zip": "30175"}, "gilmer-county-30513": {"city": "Gilmer County", "rent": 970, "zip": "30513"}, "gilmer-county-30522": {"city": "Gilmer County", "rent": 1010, "zip": "30522"}, "gilmer-county-30534": {"city": "Gilmer County", "rent": 1700, "zip": "30534"}, "gilmer-county-30536": {"city": "Gilmer County", "rent": 1140, "zip": "30536"}, "gilmer-county-30539": {"city": "Gilmer County", "rent": 1050, "zip": "30539"}, "gilmer-county-30540": {"city": "Gilmer County", "rent": 970, "zip": "30540"}, "gilmer-county-30705": {"city": "Gilmer County", "rent": 1000, "zip": "30705"}, "gilmer-county-30734": {"city": "Gilmer County", "rent": 1530, "zip": "30734"}, "glascock-county-30803": {"city": "Glascock County", "rent": 1050, "zip": "30803"}, "glascock-county-30810": {"city": "Glascock County", "rent": 970, "zip": "30810"}, "glascock-county-30820": {"city": "Glascock County", "rent": 970, "zip": "30820"}, "glascock-county-30823": {"city": "Glascock County", "rent": 970, "zip": "30823"}, "glascock-county-30828": {"city": "Glascock County", "rent": 980, "zip": "30828"}, "gordon-county-30103": {"city": "Gordon County", "rent": 1290, "zip": "30103"}, "gordon-county-30139": {"city": "Gordon County", "rent": 1220, "zip": "30139"}, "gordon-county-30171": {"city": "Gordon County", "rent": 1640, "zip": "30171"}, "gordon-county-30175": {"city": "Gordon County", "rent": 1210, "zip": "30175"}, "gordon-county-30701": {"city": "Gordon County", "rent": 1080, "zip": "30701"}, "gordon-county-30703": {"city": "Gordon County", "rent": 1010, "zip": "30703"}, "gordon-county-30705": {"city": "Gordon County", "rent": 1000, "zip": "30705"}, "gordon-county-30721": {"city": "Gordon County", "rent": 1100, "zip": "30721"}, "gordon-county-30732": {"city": "Gordon County", "rent": 1010, "zip": "30732"}, "gordon-county-30733": {"city": "Gordon County", "rent": 1080, "zip": "30733"}, "gordon-county-30734": {"city": "Gordon County", "rent": 1530, "zip": "30734"}, "gordon-county-30735": {"city": "Gordon County", "rent": 1240, "zip": "30735"}, "gordon-county-30746": {"city": "Gordon County", "rent": 1090, "zip": "30746"}, "grady-county-31730": {"city": "Grady County", "rent": 1000, "zip": "31730"}, "grady-county-31773": {"city": "Grady County", "rent": 1040, "zip": "31773"}, "grady-county-31779": {"city": "Grady County", "rent": 1040, "zip": "31779"}, "grady-county-31792": {"city": "Grady County", "rent": 1180, "zip": "31792"}, "grady-county-39827": {"city": "Grady County", "rent": 1070, "zip": "39827"}, "grady-county-39828": {"city": "Grady County", "rent": 1040, "zip": "39828"}, "grady-county-39834": {"city": "Grady County", "rent": 970, "zip": "39834"}, "grady-county-39897": {"city": "Grady County", "rent": 970, "zip": "39897"}, "greene-county-30631": {"city": "Greene County", "rent": 970, "zip": "30631"}, "greene-county-30642": {"city": "Greene County", "rent": 1230, "zip": "30642"}, "greene-county-30650": {"city": "Greene County", "rent": 1450, "zip": "30650"}, "greene-county-30665": {"city": "Greene County", "rent": 980, "zip": "30665"}, "greene-county-30669": {"city": "Greene County", "rent": 1110, "zip": "30669"}, "greene-county-30677": {"city": "Greene County", "rent": 1730, "zip": "30677"}, "greene-county-30678": {"city": "Greene County", "rent": 980, "zip": "30678"}, "habersham-county-30510": {"city": "Habersham County", "rent": 1360, "zip": "30510"}, "habersham-county-30511": {"city": "Habersham County", "rent": 1150, "zip": "30511"}, "habersham-county-30523": {"city": "Habersham County", "rent": 980, "zip": "30523"}, "habersham-county-30531": {"city": "Habersham County", "rent": 1360, "zip": "30531"}, "habersham-county-30535": {"city": "Habersham County", "rent": 1090, "zip": "30535"}, "habersham-county-30563": {"city": "Habersham County", "rent": 970, "zip": "30563"}, "habersham-county-30571": {"city": "Habersham County", "rent": 1170, "zip": "30571"}, "habersham-county-30577": {"city": "Habersham County", "rent": 1000, "zip": "30577"}, "habersham-county-30580": {"city": "Habersham County", "rent": 1020, "zip": "30580"}, "hancock-county-30678": {"city": "Hancock County", "rent": 980, "zip": "30678"}, "hancock-county-30820": {"city": "Hancock County", "rent": 970, "zip": "30820"}, "hancock-county-31045": {"city": "Hancock County", "rent": 970, "zip": "31045"}, "hancock-county-31061": {"city": "Hancock County", "rent": 1130, "zip": "31061"}, "hancock-county-31082": {"city": "Hancock County", "rent": 990, "zip": "31082"}, "hancock-county-31087": {"city": "Hancock County", "rent": 970, "zip": "31087"}, "hart-county-30516": {"city": "Hart County", "rent": 1060, "zip": "30516"}, "hart-county-30520": {"city": "Hart County", "rent": 1040, "zip": "30520"}, "hart-county-30553": {"city": "Hart County", "rent": 970, "zip": "30553"}, "hart-county-30624": {"city": "Hart County", "rent": 1110, "zip": "30624"}, "hart-county-30634": {"city": "Hart County", "rent": 1050, "zip": "30634"}, "hart-county-30635": {"city": "Hart County", "rent": 1090, "zip": "30635"}, "hart-county-30643": {"city": "Hart County", "rent": 1020, "zip": "30643"}, "hart-county-30662": {"city": "Hart County", "rent": 1110, "zip": "30662"}, "irwin-county-31512": {"city": "Irwin County", "rent": 970, "zip": "31512"}, "irwin-county-31733": {"city": "Irwin County", "rent": 1130, "zip": "31733"}, "irwin-county-31749": {"city": "Irwin County", "rent": 1030, "zip": "31749"}, "irwin-county-31750": {"city": "Irwin County", "rent": 1000, "zip": "31750"}, "irwin-county-31769": {"city": "Irwin County", "rent": 1090, "zip": "31769"}, "irwin-county-31774": {"city": "Irwin County", "rent": 1060, "zip": "31774"}, "irwin-county-31783": {"city": "Irwin County", "rent": 970, "zip": "31783"}, "irwin-county-31790": {"city": "Irwin County", "rent": 1070, "zip": "31790"}, "irwin-county-31798": {"city": "Irwin County", "rent": 990, "zip": "31798"}, "jackson-county-30517": {"city": "Jackson County", "rent": 1850, "zip": "30517"}, "jackson-county-30529": {"city": "Jackson County", "rent": 1170, "zip": "30529"}, "jackson-county-30530": {"city": "Jackson County", "rent": 1140, "zip": "30530"}, "jackson-county-30543": {"city": "Jackson County", "rent": 1460, "zip": "30543"}, "jackson-county-30548": {"city": "Jackson County", "rent": 1400, "zip": "30548"}, "jackson-county-30549": {"city": "Jackson County", "rent": 1200, "zip": "30549"}, "jackson-county-30558": {"city": "Jackson County", "rent": 1030, "zip": "30558"}, "jackson-county-30565": {"city": "Jackson County", "rent": 1170, "zip": "30565"}, "jackson-county-30567": {"city": "Jackson County", "rent": 1360, "zip": "30567"}, "jackson-county-30575": {"city": "Jackson County", "rent": 1360, "zip": "30575"}, "jackson-county-30601": {"city": "Jackson County", "rent": 1430, "zip": "30601"}, "jackson-county-30607": {"city": "Jackson County", "rent": 1160, "zip": "30607"}, "jackson-county-30622": {"city": "Jackson County", "rent": 1960, "zip": "30622"}, "jackson-county-30646": {"city": "Jackson County", "rent": 1160, "zip": "30646"}, "jackson-county-30666": {"city": "Jackson County", "rent": 1410, "zip": "30666"}, "jackson-county-30680": {"city": "Jackson County", "rent": 1440, "zip": "30680"}, "jeff-davis-county-31510": {"city": "Jeff Davis County", "rent": 980, "zip": "31510"}, "jeff-davis-county-31513": {"city": "Jeff Davis County", "rent": 970, "zip": "31513"}, "jeff-davis-county-31519": {"city": "Jeff Davis County", "rent": 970, "zip": "31519"}, "jeff-davis-county-31532": {"city": "Jeff Davis County", "rent": 970, "zip": "31532"}, "jeff-davis-county-31539": {"city": "Jeff Davis County", "rent": 970, "zip": "31539"}, "jefferson-county-30413": {"city": "Jefferson County", "rent": 1060, "zip": "30413"}, "jefferson-county-30434": {"city": "Jefferson County", "rent": 970, "zip": "30434"}, "jefferson-county-30477": {"city": "Jefferson County", "rent": 970, "zip": "30477"}, "jefferson-county-30803": {"city": "Jefferson County", "rent": 1050, "zip": "30803"}, "jefferson-county-30810": {"city": "Jefferson County", "rent": 970, "zip": "30810"}, "jefferson-county-30816": {"city": "Jefferson County", "rent": 970, "zip": "30816"}, "jefferson-county-30818": {"city": "Jefferson County", "rent": 1000, "zip": "30818"}, "jefferson-county-30823": {"city": "Jefferson County", "rent": 970, "zip": "30823"}, "jefferson-county-30833": {"city": "Jefferson County", "rent": 1030, "zip": "30833"}, "jenkins-county-30425": {"city": "Jenkins County", "rent": 1020, "zip": "30425"}, "jenkins-county-30441": {"city": "Jenkins County", "rent": 980, "zip": "30441"}, "jenkins-county-30442": {"city": "Jenkins County", "rent": 970, "zip": "30442"}, "jenkins-county-30455": {"city": "Jenkins County", "rent": 1150, "zip": "30455"}, "jenkins-county-30456": {"city": "Jenkins County", "rent": 970, "zip": "30456"}, "jenkins-county-30822": {"city": "Jenkins County", "rent": 970, "zip": "30822"}, "johnson-county-30413": {"city": "Johnson County", "rent": 1060, "zip": "30413"}, "johnson-county-30477": {"city": "Johnson County", "rent": 970, "zip": "30477"}, "johnson-county-31002": {"city": "Johnson County", "rent": 970, "zip": "31002"}, "johnson-county-31035": {"city": "Johnson County", "rent": 1020, "zip": "31035"}, "johnson-county-31049": {"city": "Johnson County", "rent": 990, "zip": "31049"}, "johnson-county-31089": {"city": "Johnson County", "rent": 1050, "zip": "31089"}, "johnson-county-31096": {"city": "Johnson County", "rent": 970, "zip": "31096"}, "lamar-county-30204": {"city": "Lamar County", "rent": 990, "zip": "30204"}, "lamar-county-30224": {"city": "Lamar County", "rent": 1360, "zip": "30224"}, "lamar-county-30233": {"city": "Lamar County", "rent": 1120, "zip": "30233"}, "lamar-county-30256": {"city": "Lamar County", "rent": 1030, "zip": "30256"}, "lamar-county-30257": {"city": "Lamar County", "rent": 1000, "zip": "30257"}, "lamar-county-30285": {"city": "Lamar County", "rent": 970, "zip": "30285"}, "lamar-county-30295": {"city": "Lamar County", "rent": 1160, "zip": "30295"}, "lamar-county-31016": {"city": "Lamar County", "rent": 1130, "zip": "31016"}, "lamar-county-31029": {"city": "Lamar County", "rent": 1200, "zip": "31029"}, "lamar-county-31097": {"city": "Lamar County", "rent": 990, "zip": "31097"}, "laurens-county-30411": {"city": "Laurens County", "rent": 970, "zip": "30411"}, "laurens-county-30428": {"city": "Laurens County", "rent": 970, "zip": "30428"}, "laurens-county-30454": {"city": "Laurens County", "rent": 1000, "zip": "30454"}, "laurens-county-31002": {"city": "Laurens County", "rent": 970, "zip": "31002"}, "laurens-county-31009": {"city": "Laurens County", "rent": 970, "zip": "31009"}, "laurens-county-31011": {"city": "Laurens County", "rent": 970, "zip": "31011"}, "laurens-county-31012": {"city": "Laurens County", "rent": 1000, "zip": "31012"}, "laurens-county-31017": {"city": "Laurens County", "rent": 1130, "zip": "31017"}, "laurens-county-31019": {"city": "Laurens County", "rent": 990, "zip": "31019"}, "laurens-county-31021": {"city": "Laurens County", "rent": 970, "zip": "31021"}, "laurens-county-31022": {"city": "Laurens County", "rent": 1000, "zip": "31022"}, "laurens-county-31027": {"city": "Laurens County", "rent": 1020, "zip": "31027"}, "laurens-county-31037": {"city": "Laurens County", "rent": 1320, "zip": "31037"}, "laurens-county-31040": {"city": "Laurens County", "rent": 970, "zip": "31040"}, "laurens-county-31042": {"city": "Laurens County", "rent": 1120, "zip": "31042"}, "laurens-county-31065": {"city": "Laurens County", "rent": 1180, "zip": "31065"}, "laurens-county-31075": {"city": "Laurens County", "rent": 1030, "zip": "31075"}, "laurens-county-31096": {"city": "Laurens County", "rent": 970, "zip": "31096"}, "macon-county-31030": {"city": "Macon County", "rent": 1180, "zip": "31030"}, "macon-county-31041": {"city": "Macon County", "rent": 1080, "zip": "31041"}, "macon-county-31057": {"city": "Macon County", "rent": 970, "zip": "31057"}, "macon-county-31063": {"city": "Macon County", "rent": 1060, "zip": "31063"}, "macon-county-31068": {"city": "Macon County", "rent": 970, "zip": "31068"}, "macon-county-31069": {"city": "Macon County", "rent": 1180, "zip": "31069"}, "macon-county-31076": {"city": "Macon County", "rent": 980, "zip": "31076"}, "macon-county-31081": {"city": "Macon County", "rent": 990, "zip": "31081"}, "macon-county-31091": {"city": "Macon County", "rent": 1180, "zip": "31091"}, "macon-county-31711": {"city": "Macon County", "rent": 970, "zip": "31711"}, "macon-county-31806": {"city": "Macon County", "rent": 980, "zip": "31806"}, "miller-county-39823": {"city": "Miller County", "rent": 1000, "zip": "39823"}, "miller-county-39837": {"city": "Miller County", "rent": 970, "zip": "39837"}, "miller-county-39841": {"city": "Miller County", "rent": 970, "zip": "39841"}, "miller-county-39845": {"city": "Miller County", "rent": 990, "zip": "39845"}, "miller-county-39859": {"city": "Miller County", "rent": 970, "zip": "39859"}, "mitchell-county-31705": {"city": "Mitchell County", "rent": 1020, "zip": "31705"}, "mitchell-county-31716": {"city": "Mitchell County", "rent": 1000, "zip": "31716"}, "mitchell-county-31730": {"city": "Mitchell County", "rent": 1000, "zip": "31730"}, "mitchell-county-31744": {"city": "Mitchell County", "rent": 1020, "zip": "31744"}, "mitchell-county-31765": {"city": "Mitchell County", "rent": 1040, "zip": "31765"}, "mitchell-county-31779": {"city": "Mitchell County", "rent": 1040, "zip": "31779"}, "mitchell-county-31784": {"city": "Mitchell County", "rent": 970, "zip": "31784"}, "montgomery-county-30410": {"city": "Montgomery County", "rent": 1070, "zip": "30410"}, "montgomery-county-30412": {"city": "Montgomery County", "rent": 1000, "zip": "30412"}, "montgomery-county-30445": {"city": "Montgomery County", "rent": 970, "zip": "30445"}, "montgomery-county-30457": {"city": "Montgomery County", "rent": 970, "zip": "30457"}, "montgomery-county-30470": {"city": "Montgomery County", "rent": 1100, "zip": "30470"}, "montgomery-county-30473": {"city": "Montgomery County", "rent": 970, "zip": "30473"}, "montgomery-county-30474": {"city": "Montgomery County", "rent": 1030, "zip": "30474"}, "pierce-county-31503": {"city": "Pierce County", "rent": 1140, "zip": "31503"}, "pierce-county-31510": {"city": "Pierce County", "rent": 980, "zip": "31510"}, "pierce-county-31516": {"city": "Pierce County", "rent": 1080, "zip": "31516"}, "pierce-county-31518": {"city": "Pierce County", "rent": 970, "zip": "31518"}, "pierce-county-31551": {"city": "Pierce County", "rent": 1040, "zip": "31551"}, "pierce-county-31556": {"city": "Pierce County", "rent": 970, "zip": "31556"}, "pierce-county-31557": {"city": "Pierce County", "rent": 1140, "zip": "31557"}, "polk-county-30104": {"city": "Polk County", "rent": 1080, "zip": "30104"}, "polk-county-30113": {"city": "Polk County", "rent": 1170, "zip": "30113"}, "polk-county-30124": {"city": "Polk County", "rent": 1270, "zip": "30124"}, "polk-county-30125": {"city": "Polk County", "rent": 1080, "zip": "30125"}, "polk-county-30138": {"city": "Polk County", "rent": 1020, "zip": "30138"}, "polk-county-30147": {"city": "Polk County", "rent": 1160, "zip": "30147"}, "polk-county-30153": {"city": "Polk County", "rent": 1190, "zip": "30153"}, "polk-county-30173": {"city": "Polk County", "rent": 1300, "zip": "30173"}, "polk-county-30178": {"city": "Polk County", "rent": 1260, "zip": "30178"}, "pulaski-county-31014": {"city": "Pulaski County", "rent": 1130, "zip": "31014"}, "pulaski-county-31023": {"city": "Pulaski County", "rent": 990, "zip": "31023"}, "pulaski-county-31036": {"city": "Pulaski County", "rent": 1180, "zip": "31036"}, "pulaski-county-31071": {"city": "Pulaski County", "rent": 970, "zip": "31071"}, "pulaski-county-31091": {"city": "Pulaski County", "rent": 1180, "zip": "31091"}, "pulaski-county-31092": {"city": "Pulaski County", "rent": 1030, "zip": "31092"}, "putnam-county-30625": {"city": "Putnam County", "rent": 1230, "zip": "30625"}, "putnam-county-30650": {"city": "Putnam County", "rent": 1450, "zip": "30650"}, "putnam-county-31024": {"city": "Putnam County", "rent": 1140, "zip": "31024"}, "putnam-county-31038": {"city": "Putnam County", "rent": 1230, "zip": "31038"}, "putnam-county-31061": {"city": "Putnam County", "rent": 1130, "zip": "31061"}, "quitman-county-31815": {"city": "Quitman County", "rent": 970, "zip": "31815"}, "quitman-county-39854": {"city": "Quitman County", "rent": 1000, "zip": "39854"}, "quitman-county-39867": {"city": "Quitman County", "rent": 1000, "zip": "39867"}, "rabun-county-30523": {"city": "Rabun County", "rent": 980, "zip": "30523"}, "rabun-county-30525": {"city": "Rabun County", "rent": 1060, "zip": "30525"}, "rabun-county-30537": {"city": "Rabun County", "rent": 1610, "zip": "30537"}, "rabun-county-30552": {"city": "Rabun County", "rent": 1190, "zip": "30552"}, "rabun-county-30562": {"city": "Rabun County", "rent": 970, "zip": "30562"}, "rabun-county-30568": {"city": "Rabun County", "rent": 1010, "zip": "30568"}, "rabun-county-30573": {"city": "Rabun County", "rent": 1140, "zip": "30573"}, "rabun-county-30576": {"city": "Rabun County", "rent": 1480, "zip": "30576"}, "rabun-county-30581": {"city": "Rabun County", "rent": 1320, "zip": "30581"}, "randolph-county-31832": {"city": "Randolph County", "rent": 1060, "zip": "31832"}, "randolph-county-39836": {"city": "Randolph County", "rent": 1010, "zip": "39836"}, "randolph-county-39840": {"city": "Randolph County", "rent": 1010, "zip": "39840"}, "randolph-county-39846": {"city": "Randolph County", "rent": 1020, "zip": "39846"}, "randolph-county-39851": {"city": "Randolph County", "rent": 970, "zip": "39851"}, "randolph-county-39866": {"city": "Randolph County", "rent": 970, "zip": "39866"}, "randolph-county-39867": {"city": "Randolph County", "rent": 1000, "zip": "39867"}, "randolph-county-39886": {"city": "Randolph County", "rent": 1160, "zip": "39886"}, "schley-county-31058": {"city": "Schley County", "rent": 1000, "zip": "31058"}, "schley-county-31068": {"city": "Schley County", "rent": 970, "zip": "31068"}, "schley-county-31081": {"city": "Schley County", "rent": 990, "zip": "31081"}, "schley-county-31711": {"city": "Schley County", "rent": 970, "zip": "31711"}, "schley-county-31719": {"city": "Schley County", "rent": 970, "zip": "31719"}, "schley-county-31803": {"city": "Schley County", "rent": 1000, "zip": "31803"}, "schley-county-31806": {"city": "Schley County", "rent": 980, "zip": "31806"}, "screven-county-30426": {"city": "Screven County", "rent": 990, "zip": "30426"}, "screven-county-30442": {"city": "Screven County", "rent": 970, "zip": "30442"}, "screven-county-30446": {"city": "Screven County", "rent": 1430, "zip": "30446"}, "screven-county-30449": {"city": "Screven County", "rent": 1250, "zip": "30449"}, "screven-county-30455": {"city": "Screven County", "rent": 1150, "zip": "30455"}, "screven-county-30467": {"city": "Screven County", "rent": 970, "zip": "30467"}, "seminole-county-39825": {"city": "Seminole County", "rent": 1210, "zip": "39825"}, "seminole-county-39837": {"city": "Seminole County", "rent": 970, "zip": "39837"}, "seminole-county-39845": {"city": "Seminole County", "rent": 990, "zip": "39845"}, "seminole-county-39859": {"city": "Seminole County", "rent": 970, "zip": "39859"}, "seminole-county-39861": {"city": "Seminole County", "rent": 970, "zip": "39861"}, "stephens-county-30511": {"city": "Stephens County", "rent": 1150, "zip": "30511"}, "stephens-county-30538": {"city": "Stephens County", "rent": 970, "zip": "30538"}, "stephens-county-30557": {"city": "Stephens County", "rent": 1100, "zip": "30557"}, "stephens-county-30563": {"city": "Stephens County", "rent": 970, "zip": "30563"}, "stephens-county-30577": {"city": "Stephens County", "rent": 1000, "zip": "30577"}, "stephens-county-30598": {"city": "Stephens County", "rent": 1000, "zip": "30598"}, "sumter-county-31709": {"city": "Sumter County", "rent": 1120, "zip": "31709"}, "sumter-county-31711": {"city": "Sumter County", "rent": 970, "zip": "31711"}, "sumter-county-31719": {"city": "Sumter County", "rent": 970, "zip": "31719"}, "sumter-county-31735": {"city": "Sumter County", "rent": 980, "zip": "31735"}, "sumter-county-31743": {"city": "Sumter County", "rent": 1150, "zip": "31743"}, "sumter-county-31764": {"city": "Sumter County", "rent": 1130, "zip": "31764"}, "sumter-county-31780": {"city": "Sumter County", "rent": 990, "zip": "31780"}, "sumter-county-31787": {"city": "Sumter County", "rent": 1160, "zip": "31787"}, "sumter-county-31806": {"city": "Sumter County", "rent": 980, "zip": "31806"}, "taliaferro-county-30631": {"city": "Taliaferro County", "rent": 970, "zip": "30631"}, "taliaferro-county-30660": {"city": "Taliaferro County", "rent": 1110, "zip": "30660"}, "taliaferro-county-30664": {"city": "Taliaferro County", "rent": 970, "zip": "30664"}, "taliaferro-county-30669": {"city": "Taliaferro County", "rent": 1110, "zip": "30669"}, "taliaferro-county-30673": {"city": "Taliaferro County", "rent": 970, "zip": "30673"}, "taliaferro-county-30678": {"city": "Taliaferro County", "rent": 980, "zip": "30678"}, "tattnall-county-30417": {"city": "Tattnall County", "rent": 1020, "zip": "30417"}, "tattnall-county-30420": {"city": "Tattnall County", "rent": 1070, "zip": "30420"}, "tattnall-county-30421": {"city": "Tattnall County", "rent": 970, "zip": "30421"}, "tattnall-county-30427": {"city": "Tattnall County", "rent": 1010, "zip": "30427"}, "tattnall-county-30436": {"city": "Tattnall County", "rent": 970, "zip": "30436"}, "tattnall-county-30453": {"city": "Tattnall County", "rent": 990, "zip": "30453"}, "tattnall-county-30499": {"city": "Tattnall County", "rent": 970, "zip": "30499"}, "taylor-county-31006": {"city": "Taylor County", "rent": 970, "zip": "31006"}, "taylor-county-31039": {"city": "Taylor County", "rent": 970, "zip": "31039"}, "taylor-county-31041": {"city": "Taylor County", "rent": 1080, "zip": "31041"}, "taylor-county-31058": {"city": "Taylor County", "rent": 1000, "zip": "31058"}, "taylor-county-31068": {"city": "Taylor County", "rent": 970, "zip": "31068"}, "taylor-county-31076": {"city": "Taylor County", "rent": 980, "zip": "31076"}, "taylor-county-31081": {"city": "Taylor County", "rent": 990, "zip": "31081"}, "taylor-county-31812": {"city": "Taylor County", "rent": 970, "zip": "31812"}, "telfair-county-31011": {"city": "Telfair County", "rent": 970, "zip": "31011"}, "telfair-county-31037": {"city": "Telfair County", "rent": 1320, "zip": "31037"}, "telfair-county-31055": {"city": "Telfair County", "rent": 970, "zip": "31055"}, "telfair-county-31060": {"city": "Telfair County", "rent": 1010, "zip": "31060"}, "telfair-county-31077": {"city": "Telfair County", "rent": 1010, "zip": "31077"}, "telfair-county-31083": {"city": "Telfair County", "rent": 970, "zip": "31083"}, "telfair-county-31544": {"city": "Telfair County", "rent": 1010, "zip": "31544"}, "telfair-county-31549": {"city": "Telfair County", "rent": 1140, "zip": "31549"}, "thomas-county-31626": {"city": "Thomas County", "rent": 1080, "zip": "31626"}, "thomas-county-31720": {"city": "Thomas County", "rent": 1040, "zip": "31720"}, "thomas-county-31738": {"city": "Thomas County", "rent": 1040, "zip": "31738"}, "thomas-county-31757": {"city": "Thomas County", "rent": 1260, "zip": "31757"}, "thomas-county-31758": {"city": "Thomas County", "rent": 1150, "zip": "31758"}, "thomas-county-31765": {"city": "Thomas County", "rent": 1040, "zip": "31765"}, "thomas-county-31773": {"city": "Thomas County", "rent": 1040, "zip": "31773"}, "thomas-county-31778": {"city": "Thomas County", "rent": 1040, "zip": "31778"}, "thomas-county-31779": {"city": "Thomas County", "rent": 1040, "zip": "31779"}, "thomas-county-31792": {"city": "Thomas County", "rent": 1180, "zip": "31792"}, "thomas-county-31799": {"city": "Thomas County", "rent": 1150, "zip": "31799"}, "thomas-county-39828": {"city": "Thomas County", "rent": 1040, "zip": "39828"}, "tift-county-31637": {"city": "Tift County", "rent": 970, "zip": "31637"}, "tift-county-31714": {"city": "Tift County", "rent": 980, "zip": "31714"}, "tift-county-31727": {"city": "Tift County", "rent": 970, "zip": "31727"}, "tift-county-31733": {"city": "Tift County", "rent": 1130, "zip": "31733"}, "tift-county-31749": {"city": "Tift County", "rent": 1030, "zip": "31749"}, "tift-county-31775": {"city": "Tift County", "rent": 980, "zip": "31775"}, "tift-county-31790": {"city": "Tift County", "rent": 1070, "zip": "31790"}, "tift-county-31793": {"city": "Tift County", "rent": 970, "zip": "31793"}, "tift-county-31794": {"city": "Tift County", "rent": 990, "zip": "31794"}, "tift-county-31795": {"city": "Tift County", "rent": 1070, "zip": "31795"}, "toombs-county-30436": {"city": "Toombs County", "rent": 970, "zip": "30436"}, "toombs-county-30453": {"city": "Toombs County", "rent": 990, "zip": "30453"}, "toombs-county-30473": {"city": "Toombs County", "rent": 970, "zip": "30473"}, "toombs-county-30474": {"city": "Toombs County", "rent": 1030, "zip": "30474"}, "toombs-county-30475": {"city": "Toombs County", "rent": 970, "zip": "30475"}, "towns-county-30525": {"city": "Towns County", "rent": 1060, "zip": "30525"}, "towns-county-30546": {"city": "Towns County", "rent": 1020, "zip": "30546"}, "towns-county-30582": {"city": "Towns County", "rent": 970, "zip": "30582"}, "treutlen-county-30436": {"city": "Treutlen County", "rent": 970, "zip": "30436"}, "treutlen-county-30445": {"city": "Treutlen County", "rent": 970, "zip": "30445"}, "treutlen-county-30457": {"city": "Treutlen County", "rent": 970, "zip": "30457"}, "treutlen-county-30470": {"city": "Treutlen County", "rent": 1100, "zip": "30470"}, "treutlen-county-30474": {"city": "Treutlen County", "rent": 1030, "zip": "30474"}, "treutlen-county-31002": {"city": "Treutlen County", "rent": 970, "zip": "31002"}, "troup-county-30217": {"city": "Troup County", "rent": 1030, "zip": "30217"}, "troup-county-30220": {"city": "Troup County", "rent": 1500, "zip": "30220"}, "troup-county-30230": {"city": "Troup County", "rent": 1170, "zip": "30230"}, "troup-county-30240": {"city": "Troup County", "rent": 1140, "zip": "30240"}, "troup-county-30241": {"city": "Troup County", "rent": 1240, "zip": "30241"}, "troup-county-30261": {"city": "Troup County", "rent": 1170, "zip": "30261"}, "troup-county-31822": {"city": "Troup County", "rent": 1030, "zip": "31822"}, "troup-county-31833": {"city": "Troup County", "rent": 1030, "zip": "31833"}, "turner-county-31712": {"city": "Turner County", "rent": 1000, "zip": "31712"}, "turner-county-31714": {"city": "Turner County", "rent": 980, "zip": "31714"}, "turner-county-31733": {"city": "Turner County", "rent": 1130, "zip": "31733"}, "turner-county-31783": {"city": "Turner County", "rent": 970, "zip": "31783"}, "turner-county-31789": {"city": "Turner County", "rent": 1290, "zip": "31789"}, "turner-county-31790": {"city": "Turner County", "rent": 1070, "zip": "31790"}, "union-county-30512": {"city": "Union County", "rent": 990, "zip": "30512"}, "union-county-30514": {"city": "Union County", "rent": 980, "zip": "30514"}, "union-county-30560": {"city": "Union County", "rent": 1400, "zip": "30560"}, "union-county-30572": {"city": "Union County", "rent": 1110, "zip": "30572"}, "union-county-30582": {"city": "Union County", "rent": 970, "zip": "30582"}, "upson-county-30204": {"city": "Upson County", "rent": 990, "zip": "30204"}, "upson-county-30256": {"city": "Upson County", "rent": 1030, "zip": "30256"}, "upson-county-30258": {"city": "Upson County", "rent": 1460, "zip": "30258"}, "upson-county-30285": {"city": "Upson County", "rent": 970, "zip": "30285"}, "upson-county-30286": {"city": "Upson County", "rent": 970, "zip": "30286"}, "upson-county-31016": {"city": "Upson County", "rent": 1130, "zip": "31016"}, "upson-county-31097": {"city": "Upson County", "rent": 990, "zip": "31097"}, "ware-county-31501": {"city": "Ware County", "rent": 1020, "zip": "31501"}, "ware-county-31502": {"city": "Ware County", "rent": 1030, "zip": "31502"}, "ware-county-31503": {"city": "Ware County", "rent": 1140, "zip": "31503"}, "ware-county-31550": {"city": "Ware County", "rent": 1030, "zip": "31550"}, "ware-county-31552": {"city": "Ware County", "rent": 1030, "zip": "31552"}, "ware-county-31554": {"city": "Ware County", "rent": 1010, "zip": "31554"}, "ware-county-31564": {"city": "Ware County", "rent": 1030, "zip": "31564"}, "ware-county-31624": {"city": "Ware County", "rent": 1050, "zip": "31624"}, "ware-county-31631": {"city": "Ware County", "rent": 1040, "zip": "31631"}, "warren-county-30807": {"city": "Warren County", "rent": 980, "zip": "30807"}, "warren-county-30808": {"city": "Warren County", "rent": 1020, "zip": "30808"}, "warren-county-30810": {"city": "Warren County", "rent": 970, "zip": "30810"}, "warren-county-30820": {"city": "Warren County", "rent": 970, "zip": "30820"}, "warren-county-30821": {"city": "Warren County", "rent": 980, "zip": "30821"}, "warren-county-30823": {"city": "Warren County", "rent": 970, "zip": "30823"}, "warren-county-30824": {"city": "Warren County", "rent": 1010, "zip": "30824"}, "warren-county-30828": {"city": "Warren County", "rent": 980, "zip": "30828"}, "warren-county-31045": {"city": "Warren County", "rent": 970, "zip": "31045"}, "washington-county-30413": {"city": "Washington County", "rent": 1060, "zip": "30413"}, "washington-county-30820": {"city": "Washington County", "rent": 970, "zip": "30820"}, "washington-county-31018": {"city": "Washington County", "rent": 970, "zip": "31018"}, "washington-county-31035": {"city": "Washington County", "rent": 1020, "zip": "31035"}, "washington-county-31067": {"city": "Washington County", "rent": 1050, "zip": "31067"}, "washington-county-31082": {"city": "Washington County", "rent": 990, "zip": "31082"}, "washington-county-31087": {"city": "Washington County", "rent": 970, "zip": "31087"}, "washington-county-31089": {"city": "Washington County", "rent": 1050, "zip": "31089"}, "washington-county-31094": {"city": "Washington County", "rent": 980, "zip": "31094"}, "washington-county-31096": {"city": "Washington County", "rent": 970, "zip": "31096"}, "wayne-county-31518": {"city": "Wayne County", "rent": 970, "zip": "31518"}, "wayne-county-31543": {"city": "Wayne County", "rent": 1140, "zip": "31543"}, "wayne-county-31545": {"city": "Wayne County", "rent": 1020, "zip": "31545"}, "wayne-county-31546": {"city": "Wayne County", "rent": 1020, "zip": "31546"}, "wayne-county-31555": {"city": "Wayne County", "rent": 1360, "zip": "31555"}, "wayne-county-31557": {"city": "Wayne County", "rent": 1140, "zip": "31557"}, "wayne-county-31560": {"city": "Wayne County", "rent": 970, "zip": "31560"}, "wayne-county-31598": {"city": "Wayne County", "rent": 1020, "zip": "31598"}, "wayne-county-31599": {"city": "Wayne County", "rent": 1020, "zip": "31599"}, "webster-county-31780": {"city": "Webster County", "rent": 990, "zip": "31780"}, "webster-county-31803": {"city": "Webster County", "rent": 1000, "zip": "31803"}, "webster-county-31824": {"city": "Webster County", "rent": 1000, "zip": "31824"}, "webster-county-31825": {"city": "Webster County", "rent": 1070, "zip": "31825"}, "webster-county-31832": {"city": "Webster County", "rent": 1060, "zip": "31832"}, "webster-county-39877": {"city": "Webster County", "rent": 1050, "zip": "39877"}, "wheeler-county-30411": {"city": "Wheeler County", "rent": 970, "zip": "30411"}, "wheeler-county-30428": {"city": "Wheeler County", "rent": 970, "zip": "30428"}, "wheeler-county-31037": {"city": "Wheeler County", "rent": 1320, "zip": "31037"}, "wheeler-county-31549": {"city": "Wheeler County", "rent": 1140, "zip": "31549"}, "white-county-30523": {"city": "White County", "rent": 980, "zip": "30523"}, "white-county-30527": {"city": "White County", "rent": 1360, "zip": "30527"}, "white-county-30528": {"city": "White County", "rent": 1360, "zip": "30528"}, "white-county-30533": {"city": "White County", "rent": 1250, "zip": "30533"}, "white-county-30545": {"city": "White County", "rent": 1010, "zip": "30545"}, "white-county-30554": {"city": "White County", "rent": 1360, "zip": "30554"}, "white-county-30564": {"city": "White County", "rent": 1360, "zip": "30564"}, "white-county-30571": {"city": "White County", "rent": 1170, "zip": "30571"}, "wilcox-county-31001": {"city": "Wilcox County", "rent": 970, "zip": "31001"}, "wilcox-county-31015": {"city": "Wilcox County", "rent": 970, "zip": "31015"}, "wilcox-county-31071": {"city": "Wilcox County", "rent": 970, "zip": "31071"}, "wilcox-county-31072": {"city": "Wilcox County", "rent": 970, "zip": "31072"}, "wilcox-county-31079": {"city": "Wilcox County", "rent": 970, "zip": "31079"}, "wilcox-county-31084": {"city": "Wilcox County", "rent": 970, "zip": "31084"}, "wilcox-county-31092": {"city": "Wilcox County", "rent": 1030, "zip": "31092"}, "wilcox-county-31714": {"city": "Wilcox County", "rent": 980, "zip": "31714"}, "wilcox-county-31750": {"city": "Wilcox County", "rent": 1000, "zip": "31750"}, "wilkes-county-30631": {"city": "Wilkes County", "rent": 970, "zip": "30631"}, "wilkes-county-30660": {"city": "Wilkes County", "rent": 1110, "zip": "30660"}, "wilkes-county-30668": {"city": "Wilkes County", "rent": 1030, "zip": "30668"}, "wilkes-county-30673": {"city": "Wilkes County", "rent": 970, "zip": "30673"}, "wilkes-county-30817": {"city": "Wilkes County", "rent": 1000, "zip": "30817"}, "wilkinson-county-31003": {"city": "Wilkinson County", "rent": 1180, "zip": "31003"}, "wilkinson-county-31017": {"city": "Wilkinson County", "rent": 1130, "zip": "31017"}, "wilkinson-county-31021": {"city": "Wilkinson County", "rent": 970, "zip": "31021"}, "wilkinson-county-31031": {"city": "Wilkinson County", "rent": 1130, "zip": "31031"}, "wilkinson-county-31042": {"city": "Wilkinson County", "rent": 1120, "zip": "31042"}, "wilkinson-county-31044": {"city": "Wilkinson County", "rent": 1130, "zip": "31044"}, "wilkinson-county-31054": {"city": "Wilkinson County", "rent": 1090, "zip": "31054"}, "wilkinson-county-31061": {"city": "Wilkinson County", "rent": 1130, "zip": "31061"}, "wilkinson-county-31065": {"city": "Wilkinson County", "rent": 1180, "zip": "31065"}, "wilkinson-county-31090": {"city": "Wilkinson County", "rent": 1120, "zip": "31090"}}