{"kahului-wailuku-lahaina-96708": {"city": "Kahului-Wailuku-Lahaina", "rent": 3260, "zip": "96708"}, "kahului-wailuku-lahaina-96713": {"city": "Kahului-Wailuku-Lahaina", "rent": 3120, "zip": "96713"}, "kahului-wailuku-lahaina-96729": {"city": "Kahului-Wailuku-Lahaina", "rent": 2080, "zip": "96729"}, "kahului-wailuku-lahaina-96732": {"city": "Kahului-Wailuku-Lahaina", "rent": 2150, "zip": "96732"}, "kahului-wailuku-lahaina-96733": {"city": "Kahului-Wailuku-Lahaina", "rent": 2620, "zip": "96733"}, "kahului-wailuku-lahaina-96748": {"city": "Kahului-Wailuku-Lahaina", "rent": 2110, "zip": "96748"}, "kahului-wailuku-lahaina-96753": {"city": "Kahului-Wailuku-Lahaina", "rent": 3130, "zip": "96753"}, "kahului-wailuku-lahaina-96757": {"city": "Kahului-Wailuku-Lahaina", "rent": 2120, "zip": "96757"}, "kahului-wailuku-lahaina-96761": {"city": "Kahului-Wailuku-Lahaina", "rent": 2890, "zip": "96761"}, "kahului-wailuku-lahaina-96763": {"city": "Kahului-Wailuku-Lahaina", "rent": 2080, "zip": "96763"}, "kahului-wailuku-lahaina-96767": {"city": "Kahului-Wailuku-Lahaina", "rent": 2620, "zip": "96767"}, "kahului-wailuku-lahaina-96768": {"city": "Kahului-Wailuku-Lahaina", "rent": 2600, "zip": "96768"}, "kahului-wailuku-lahaina-96770": {"city": "Kahului-Wailuku-Lahaina", "rent": 2080, "zip": "96770"}, "kahului-wailuku-lahaina-96779": {"city": "Kahului-Wailuku-Lahaina", "rent": 3510, "zip": "96779"}, "kahului-wailuku-lahaina-96784": {"city": "Kahului-Wailuku-Lahaina", "rent": 2620, "zip": "96784"}, "kahului-wailuku-lahaina-96788": {"city": "Kahului-Wailuku-Lahaina", "rent": 2620, "zip": "96788"}, "kahului-wailuku-lahaina-96790": {"city": "Kahului-Wailuku-Lahaina", "rent": 2780, "zip": "96790"}, "kahului-wailuku-lahaina-96793": {"city": "Kahului-Wailuku-Lahaina", "rent": 2430, "zip": "96793"}, "kalawao-county-96742": {"city": "Kalawao County", "rent": 2490, "zip": "96742"}, "urban-honolulu-96701": {"city": "Urban Honolulu", "rent": 2460, "zip": "96701"}, "urban-honolulu-96706": {"city": "Urban Honolulu", "rent": 3160, "zip": "96706"}, "urban-honolulu-96707": {"city": "Urban Honolulu", "rent": 3240, "zip": "96707"}, "urban-honolulu-96709": {"city": "Urban Honolulu", "rent": 2640, "zip": "96709"}, "urban-honolulu-96712": {"city": "Urban Honolulu", "rent": 2710, "zip": "96712"}, "urban-honolulu-96717": {"city": "Urban Honolulu", "rent": 2790, "zip": "96717"}, "urban-honolulu-96730": {"city": "Urban Honolulu", "rent": 2240, "zip": "96730"}, "urban-honolulu-96731": {"city": "Urban Honolulu", "rent": 2200, "zip": "96731"}, "urban-honolulu-96734": {"city": "Urban Honolulu", "rent": 3610, "zip": "96734"}, "urban-honolulu-96744": {"city": "Urban Honolulu", "rent": 2850, "zip": "96744"}, "urban-honolulu-96759": {"city": "Urban Honolulu", "rent": 2820, "zip": "96759"}, "urban-honolulu-96762": {"city": "Urban Honolulu", "rent": 3080, "zip": "96762"}, "urban-honolulu-96782": {"city": "Urban Honolulu", "rent": 2710, "zip": "96782"}, "urban-honolulu-96786": {"city": "Urban Honolulu", "rent": 2970, "zip": "96786"}, "urban-honolulu-96789": {"city": "Urban Honolulu", "rent": 2720, "zip": "96789"}, "urban-honolulu-96791": {"city": "Urban Honolulu", "rent": 2900, "zip": "96791"}, "urban-honolulu-96792": {"city": "Urban Honolulu", "rent": 2360, "zip": "96792"}, "urban-honolulu-96795": {"city": "Urban Honolulu", "rent": 2060, "zip": "96795"}, "urban-honolulu-96797": {"city": "Urban Honolulu", "rent": 2430, "zip": "96797"}, "urban-honolulu-96801": {"city": "Urban Honolulu", "rent": 2640, "zip": "96801"}, "urban-honolulu-96802": {"city": "Urban Honolulu", "rent": 2640, "zip": "96802"}, "urban-honolulu-96803": {"city": "Urban Honolulu", "rent": 2640, "zip": "96803"}, "urban-honolulu-96804": {"city": "Urban Honolulu", "rent": 2640, "zip": "96804"}, "urban-honolulu-96805": {"city": "Urban Honolulu", "rent": 2640, "zip": "96805"}, "urban-honolulu-96806": {"city": "Urban Honolulu", "rent": 2640, "zip": "96806"}, "urban-honolulu-96807": {"city": "Urban Honolulu", "rent": 2640, "zip": "96807"}, "urban-honolulu-96808": {"city": "Urban Honolulu", "rent": 2640, "zip": "96808"}, "urban-honolulu-96809": {"city": "Urban Honolulu", "rent": 2640, "zip": "96809"}, "urban-honolulu-96810": {"city": "Urban Honolulu", "rent": 2640, "zip": "96810"}, "urban-honolulu-96811": {"city": "Urban Honolulu", "rent": 2640, "zip": "96811"}, "urban-honolulu-96812": {"city": "Urban Honolulu", "rent": 2640, "zip": "96812"}, "urban-honolulu-96813": {"city": "Urban Honolulu", "rent": 2290, "zip": "96813"}, "urban-honolulu-96814": {"city": "Urban Honolulu", "rent": 2770, "zip": "96814"}, "urban-honolulu-96815": {"city": "Urban Honolulu", "rent": 3050, "zip": "96815"}, "urban-honolulu-96816": {"city": "Urban Honolulu", "rent": 2480, "zip": "96816"}, "urban-honolulu-96817": {"city": "Urban Honolulu", "rent": 2170, "zip": "96817"}, "urban-honolulu-96818": {"city": "Urban Honolulu", "rent": 3410, "zip": "96818"}, "urban-honolulu-96819": {"city": "Urban Honolulu", "rent": 2320, "zip": "96819"}, "urban-honolulu-96820": {"city": "Urban Honolulu", "rent": 2640, "zip": "96820"}, "urban-honolulu-96821": {"city": "Urban Honolulu", "rent": 3550, "zip": "96821"}, "urban-honolulu-96822": {"city": "Urban Honolulu", "rent": 2510, "zip": "96822"}, "urban-honolulu-96823": {"city": "Urban Honolulu", "rent": 2640, "zip": "96823"}, "urban-honolulu-96824": {"city": "Urban Honolulu", "rent": 2640, "zip": "96824"}, "urban-honolulu-96825": {"city": "Urban Honolulu", "rent": 3960, "zip": "96825"}, "urban-honolulu-96826": {"city": "Urban Honolulu", "rent": 2400, "zip": "96826"}, "urban-honolulu-96828": {"city": "Urban Honolulu", "rent": 2640, "zip": "96828"}, "urban-honolulu-96830": {"city": "Urban Honolulu", "rent": 2640, "zip": "96830"}, "urban-honolulu-96836": {"city": "Urban Honolulu", "rent": 2640, "zip": "96836"}, "urban-honolulu-96837": {"city": "Urban Honolulu", "rent": 2640, "zip": "96837"}, "urban-honolulu-96839": {"city": "Urban Honolulu", "rent": 2640, "zip": "96839"}, "urban-honolulu-96848": {"city": "Urban Honolulu", "rent": 2510, "zip": "96848"}, "urban-honolulu-96850": {"city": "Urban Honolulu", "rent": 2640, "zip": "96850"}, "urban-honolulu-96853": {"city": "Urban Honolulu", "rent": 3410, "zip": "96853"}, "urban-honolulu-96854": {"city": "Urban Honolulu", "rent": 2640, "zip": "96854"}, "urban-honolulu-96857": {"city": "Urban Honolulu", "rent": 2970, "zip": "96857"}, "urban-honolulu-96858": {"city": "Urban Honolulu", "rent": 2320, "zip": "96858"}, "urban-honolulu-96859": {"city": "Urban Honolulu", "rent": 2640, "zip": "96859"}, "urban-honolulu-96860": {"city": "Urban Honolulu", "rent": 3180, "zip": "96860"}, "urban-honolulu-96861": {"city": "Urban Honolulu", "rent": 2640, "zip": "96861"}, "urban-honolulu-96863": {"city": "Urban Honolulu", "rent": 3610, "zip": "96863"}, "hawaii-county-96704": {"city": "Hawaii County", "rent": 2550, "zip": "96704"}, "hawaii-county-96710": {"city": "Hawaii County", "rent": 2280, "zip": "96710"}, "hawaii-county-96719": {"city": "Hawaii County", "rent": 2350, "zip": "96719"}, "hawaii-county-96720": {"city": "Hawaii County", "rent": 1900, "zip": "96720"}, "hawaii-county-96721": {"city": "Hawaii County", "rent": 2080, "zip": "96721"}, "hawaii-county-96725": {"city": "Hawaii County", "rent": 2390, "zip": "96725"}, "hawaii-county-96726": {"city": "Hawaii County", "rent": 2550, "zip": "96726"}, "hawaii-county-96727": {"city": "Hawaii County", "rent": 1980, "zip": "96727"}, "hawaii-county-96728": {"city": "Hawaii County", "rent": 2310, "zip": "96728"}, "hawaii-county-96737": {"city": "Hawaii County", "rent": 2170, "zip": "96737"}, "hawaii-county-96738": {"city": "Hawaii County", "rent": 2830, "zip": "96738"}, "hawaii-county-96739": {"city": "Hawaii County", "rent": 2080, "zip": "96739"}, "hawaii-county-96740": {"city": "Hawaii County", "rent": 2500, "zip": "96740"}, "hawaii-county-96743": {"city": "Hawaii County", "rent": 3070, "zip": "96743"}, "hawaii-county-96745": {"city": "Hawaii County", "rent": 2080, "zip": "96745"}, "hawaii-county-96749": {"city": "Hawaii County", "rent": 1870, "zip": "96749"}, "hawaii-county-96750": {"city": "Hawaii County", "rent": 1870, "zip": "96750"}, "hawaii-county-96755": {"city": "Hawaii County", "rent": 1970, "zip": "96755"}, "hawaii-county-96760": {"city": "Hawaii County", "rent": 1870, "zip": "96760"}, "hawaii-county-96764": {"city": "Hawaii County", "rent": 1870, "zip": "96764"}, "hawaii-county-96771": {"city": "Hawaii County", "rent": 1940, "zip": "96771"}, "hawaii-county-96772": {"city": "Hawaii County", "rent": 1870, "zip": "96772"}, "hawaii-county-96773": {"city": "Hawaii County", "rent": 2080, "zip": "96773"}, "hawaii-county-96774": {"city": "Hawaii County", "rent": 2080, "zip": "96774"}, "hawaii-county-96776": {"city": "Hawaii County", "rent": 1950, "zip": "96776"}, "hawaii-county-96777": {"city": "Hawaii County", "rent": 1870, "zip": "96777"}, "hawaii-county-96778": {"city": "Hawaii County", "rent": 1970, "zip": "96778"}, "hawaii-county-96780": {"city": "Hawaii County", "rent": 1870, "zip": "96780"}, "hawaii-county-96781": {"city": "Hawaii County", "rent": 2280, "zip": "96781"}, "hawaii-county-96783": {"city": "Hawaii County", "rent": 2020, "zip": "96783"}, "hawaii-county-96785": {"city": "Hawaii County", "rent": 1870, "zip": "96785"}, "kauai-county-96703": {"city": "Kauai County", "rent": 2010, "zip": "96703"}, "kauai-county-96705": {"city": "Kauai County", "rent": 2110, "zip": "96705"}, "kauai-county-96714": {"city": "Kauai County", "rent": 3290, "zip": "96714"}, "kauai-county-96715": {"city": "Kauai County", "rent": 2330, "zip": "96715"}, "kauai-county-96716": {"city": "Kauai County", "rent": 2180, "zip": "96716"}, "kauai-county-96722": {"city": "Kauai County", "rent": 3500, "zip": "96722"}, "kauai-county-96741": {"city": "Kauai County", "rent": 2200, "zip": "96741"}, "kauai-county-96746": {"city": "Kauai County", "rent": 2510, "zip": "96746"}, "kauai-county-96747": {"city": "Kauai County", "rent": 1930, "zip": "96747"}, "kauai-county-96751": {"city": "Kauai County", "rent": 2510, "zip": "96751"}, "kauai-county-96752": {"city": "Kauai County", "rent": 2760, "zip": "96752"}, "kauai-county-96754": {"city": "Kauai County", "rent": 2660, "zip": "96754"}, "kauai-county-96756": {"city": "Kauai County", "rent": 2070, "zip": "96756"}, "kauai-county-96765": {"city": "Kauai County", "rent": 2540, "zip": "96765"}, "kauai-county-96766": {"city": "Kauai County", "rent": 2460, "zip": "96766"}, "kauai-county-96769": {"city": "Kauai County", "rent": 1930, "zip": "96769"}, "kauai-county-96796": {"city": "Kauai County", "rent": 2020, "zip": "96796"}}