{"bloomington-60936": {"city": "Bloomington", "rent": 980, "zip": "60936"}, "bloomington-61701": {"city": "Bloomington", "rent": 1260, "zip": "61701"}, "bloomington-61702": {"city": "Bloomington", "rent": 1300, "zip": "61702"}, "bloomington-61704": {"city": "Bloomington", "rent": 1430, "zip": "61704"}, "bloomington-61705": {"city": "Bloomington", "rent": 1620, "zip": "61705"}, "bloomington-61720": {"city": "Bloomington", "rent": 1470, "zip": "61720"}, "bloomington-61722": {"city": "Bloomington", "rent": 1460, "zip": "61722"}, "bloomington-61723": {"city": "Bloomington", "rent": 1020, "zip": "61723"}, "bloomington-61724": {"city": "Bloomington", "rent": 1000, "zip": "61724"}, "bloomington-61725": {"city": "Bloomington", "rent": 1220, "zip": "61725"}, "bloomington-61726": {"city": "Bloomington", "rent": 1080, "zip": "61726"}, "bloomington-61728": {"city": "Bloomington", "rent": 1060, "zip": "61728"}, "bloomington-61729": {"city": "Bloomington", "rent": 1060, "zip": "61729"}, "bloomington-61730": {"city": "Bloomington", "rent": 1230, "zip": "61730"}, "bloomington-61731": {"city": "Bloomington", "rent": 1160, "zip": "61731"}, "bloomington-61732": {"city": "Bloomington", "rent": 1450, "zip": "61732"}, "bloomington-61736": {"city": "Bloomington", "rent": 1370, "zip": "61736"}, "bloomington-61737": {"city": "Bloomington", "rent": 1280, "zip": "61737"}, "bloomington-61738": {"city": "Bloomington", "rent": 1040, "zip": "61738"}, "bloomington-61739": {"city": "Bloomington", "rent": 980, "zip": "61739"}, "bloomington-61744": {"city": "Bloomington", "rent": 980, "zip": "61744"}, "bloomington-61745": {"city": "Bloomington", "rent": 1300, "zip": "61745"}, "bloomington-61748": {"city": "Bloomington", "rent": 980, "zip": "61748"}, "bloomington-61752": {"city": "Bloomington", "rent": 1030, "zip": "61752"}, "bloomington-61753": {"city": "Bloomington", "rent": 1070, "zip": "61753"}, "bloomington-61754": {"city": "Bloomington", "rent": 1500, "zip": "61754"}, "bloomington-61755": {"city": "Bloomington", "rent": 1040, "zip": "61755"}, "bloomington-61759": {"city": "Bloomington", "rent": 980, "zip": "61759"}, "bloomington-61761": {"city": "Bloomington", "rent": 1230, "zip": "61761"}, "bloomington-61770": {"city": "Bloomington", "rent": 1160, "zip": "61770"}, "bloomington-61772": {"city": "Bloomington", "rent": 1510, "zip": "61772"}, "bloomington-61774": {"city": "Bloomington", "rent": 1420, "zip": "61774"}, "bloomington-61776": {"city": "Bloomington", "rent": 1260, "zip": "61776"}, "bloomington-61790": {"city": "Bloomington", "rent": 1300, "zip": "61790"}, "bloomington-61842": {"city": "Bloomington", "rent": 1210, "zip": "61842"}, "bloomington-61843": {"city": "Bloomington", "rent": 980, "zip": "61843"}, "bloomington-61845": {"city": "Bloomington", "rent": 980, "zip": "61845"}, "bloomington-61854": {"city": "Bloomington", "rent": 1170, "zip": "61854"}, "champaign-urbana-60936": {"city": "Champaign-Urbana", "rent": 980, "zip": "60936"}, "champaign-urbana-60949": {"city": "Champaign-Urbana", "rent": 1010, "zip": "60949"}, "champaign-urbana-60957": {"city": "Champaign-Urbana", "rent": 1020, "zip": "60957"}, "champaign-urbana-60960": {"city": "Champaign-Urbana", "rent": 980, "zip": "60960"}, "champaign-urbana-61801": {"city": "Champaign-Urbana", "rent": 1090, "zip": "61801"}, "champaign-urbana-61802": {"city": "Champaign-Urbana", "rent": 1090, "zip": "61802"}, "champaign-urbana-61803": {"city": "Champaign-Urbana", "rent": 1120, "zip": "61803"}, "champaign-urbana-61810": {"city": "Champaign-Urbana", "rent": 1030, "zip": "61810"}, "champaign-urbana-61813": {"city": "Champaign-Urbana", "rent": 980, "zip": "61813"}, "champaign-urbana-61815": {"city": "Champaign-Urbana", "rent": 1050, "zip": "61815"}, "champaign-urbana-61816": {"city": "Champaign-Urbana", "rent": 1080, "zip": "61816"}, "champaign-urbana-61818": {"city": "Champaign-Urbana", "rent": 1120, "zip": "61818"}, "champaign-urbana-61820": {"city": "Champaign-Urbana", "rent": 1270, "zip": "61820"}, "champaign-urbana-61821": {"city": "Champaign-Urbana", "rent": 1160, "zip": "61821"}, "champaign-urbana-61822": {"city": "Champaign-Urbana", "rent": 1430, "zip": "61822"}, "champaign-urbana-61824": {"city": "Champaign-Urbana", "rent": 1120, "zip": "61824"}, "champaign-urbana-61825": {"city": "Champaign-Urbana", "rent": 1120, "zip": "61825"}, "champaign-urbana-61826": {"city": "Champaign-Urbana", "rent": 1120, "zip": "61826"}, "champaign-urbana-61830": {"city": "Champaign-Urbana", "rent": 1130, "zip": "61830"}, "champaign-urbana-61839": {"city": "Champaign-Urbana", "rent": 980, "zip": "61839"}, "champaign-urbana-61840": {"city": "Champaign-Urbana", "rent": 1140, "zip": "61840"}, "champaign-urbana-61842": {"city": "Champaign-Urbana", "rent": 1210, "zip": "61842"}, "champaign-urbana-61843": {"city": "Champaign-Urbana", "rent": 980, "zip": "61843"}, "champaign-urbana-61844": {"city": "Champaign-Urbana", "rent": 1250, "zip": "61844"}, "champaign-urbana-61845": {"city": "Champaign-Urbana", "rent": 980, "zip": "61845"}, "champaign-urbana-61847": {"city": "Champaign-Urbana", "rent": 980, "zip": "61847"}, "champaign-urbana-61849": {"city": "Champaign-Urbana", "rent": 1040, "zip": "61849"}, "champaign-urbana-61851": {"city": "Champaign-Urbana", "rent": 1010, "zip": "61851"}, "champaign-urbana-61852": {"city": "Champaign-Urbana", "rent": 1050, "zip": "61852"}, "champaign-urbana-61853": {"city": "Champaign-Urbana", "rent": 1360, "zip": "61853"}, "champaign-urbana-61854": {"city": "Champaign-Urbana", "rent": 1170, "zip": "61854"}, "champaign-urbana-61855": {"city": "Champaign-Urbana", "rent": 1040, "zip": "61855"}, "champaign-urbana-61856": {"city": "Champaign-Urbana", "rent": 1140, "zip": "61856"}, "champaign-urbana-61859": {"city": "Champaign-Urbana", "rent": 1320, "zip": "61859"}, "champaign-urbana-61862": {"city": "Champaign-Urbana", "rent": 980, "zip": "61862"}, "champaign-urbana-61863": {"city": "Champaign-Urbana", "rent": 980, "zip": "61863"}, "champaign-urbana-61864": {"city": "Champaign-Urbana", "rent": 1180, "zip": "61864"}, "champaign-urbana-61866": {"city": "Champaign-Urbana", "rent": 1010, "zip": "61866"}, "champaign-urbana-61871": {"city": "Champaign-Urbana", "rent": 1130, "zip": "61871"}, "champaign-urbana-61872": {"city": "Champaign-Urbana", "rent": 1020, "zip": "61872"}, "champaign-urbana-61873": {"city": "Champaign-Urbana", "rent": 980, "zip": "61873"}, "champaign-urbana-61874": {"city": "Champaign-Urbana", "rent": 1020, "zip": "61874"}, "champaign-urbana-61875": {"city": "Champaign-Urbana", "rent": 1210, "zip": "61875"}, "champaign-urbana-61877": {"city": "Champaign-Urbana", "rent": 1230, "zip": "61877"}, "champaign-urbana-61878": {"city": "Champaign-Urbana", "rent": 980, "zip": "61878"}, "champaign-urbana-61880": {"city": "Champaign-Urbana", "rent": 980, "zip": "61880"}, "champaign-urbana-61882": {"city": "Champaign-Urbana", "rent": 1080, "zip": "61882"}, "champaign-urbana-61884": {"city": "Champaign-Urbana", "rent": 1120, "zip": "61884"}, "champaign-urbana-61913": {"city": "Champaign-Urbana", "rent": 980, "zip": "61913"}, "champaign-urbana-61929": {"city": "Champaign-Urbana", "rent": 980, "zip": "61929"}, "champaign-urbana-61936": {"city": "Champaign-Urbana", "rent": 1030, "zip": "61936"}, "champaign-urbana-61937": {"city": "Champaign-Urbana", "rent": 980, "zip": "61937"}, "champaign-urbana-61953": {"city": "Champaign-Urbana", "rent": 990, "zip": "61953"}, "champaign-urbana-61956": {"city": "Champaign-Urbana", "rent": 980, "zip": "61956"}, "ford-county-60911": {"city": "Ford County", "rent": 1060, "zip": "60911"}, "ford-county-60917": {"city": "Ford County", "rent": 1280, "zip": "60917"}, "ford-county-60918": {"city": "Ford County", "rent": 970, "zip": "60918"}, "ford-county-60919": {"city": "Ford County", "rent": 1130, "zip": "60919"}, "ford-county-60921": {"city": "Ford County", "rent": 920, "zip": "60921"}, "ford-county-60927": {"city": "Ford County", "rent": 1020, "zip": "60927"}, "ford-county-60929": {"city": "Ford County", "rent": 1060, "zip": "60929"}, "ford-county-60933": {"city": "Ford County", "rent": 1010, "zip": "60933"}, "ford-county-60936": {"city": "Ford County", "rent": 980, "zip": "60936"}, "ford-county-60941": {"city": "Ford County", "rent": 1310, "zip": "60941"}, "ford-county-60946": {"city": "Ford County", "rent": 1070, "zip": "60946"}, "ford-county-60948": {"city": "Ford County", "rent": 980, "zip": "60948"}, "ford-county-60949": {"city": "Ford County", "rent": 1010, "zip": "60949"}, "ford-county-60952": {"city": "Ford County", "rent": 920, "zip": "60952"}, "ford-county-60955": {"city": "Ford County", "rent": 920, "zip": "60955"}, "ford-county-60957": {"city": "Ford County", "rent": 1020, "zip": "60957"}, "ford-county-60959": {"city": "Ford County", "rent": 920, "zip": "60959"}, "ford-county-60960": {"city": "Ford County", "rent": 980, "zip": "60960"}, "ford-county-60962": {"city": "Ford County", "rent": 1070, "zip": "60962"}, "ford-county-60968": {"city": "Ford County", "rent": 920, "zip": "60968"}, "ford-county-61720": {"city": "Ford County", "rent": 1470, "zip": "61720"}, "ford-county-61731": {"city": "Ford County", "rent": 1160, "zip": "61731"}, "ford-county-61773": {"city": "Ford County", "rent": 1100, "zip": "61773"}, "ford-county-61775": {"city": "Ford County", "rent": 1200, "zip": "61775"}, "ford-county-61840": {"city": "Ford County", "rent": 1140, "zip": "61840"}, "ford-county-61845": {"city": "Ford County", "rent": 980, "zip": "61845"}, "chicago-joliet-naperville-60002": {"city": "Chicago-Joliet-Naperville", "rent": 1500, "zip": "60002"}, "chicago-joliet-naperville-60004": {"city": "Chicago-Joliet-Naperville", "rent": 2190, "zip": "60004"}, "chicago-joliet-naperville-60005": {"city": "Chicago-Joliet-Naperville", "rent": 1940, "zip": "60005"}, "chicago-joliet-naperville-60006": {"city": "Chicago-Joliet-Naperville", "rent": 1750, "zip": "60006"}, "chicago-joliet-naperville-60007": {"city": "Chicago-Joliet-Naperville", "rent": 1990, "zip": "60007"}, "chicago-joliet-naperville-60008": {"city": "Chicago-Joliet-Naperville", "rent": 1940, "zip": "60008"}, "chicago-joliet-naperville-60009": {"city": "Chicago-Joliet-Naperville", "rent": 1750, "zip": "60009"}, "chicago-joliet-naperville-60010": {"city": "Chicago-Joliet-Naperville", "rent": 2670, "zip": "60010"}, "chicago-joliet-naperville-60011": {"city": "Chicago-Joliet-Naperville", "rent": 1790, "zip": "60011"}, "chicago-joliet-naperville-60012": {"city": "Chicago-Joliet-Naperville", "rent": 2000, "zip": "60012"}, "chicago-joliet-naperville-60013": {"city": "Chicago-Joliet-Naperville", "rent": 1940, "zip": "60013"}, "chicago-joliet-naperville-60014": {"city": "Chicago-Joliet-Naperville", "rent": 1810, "zip": "60014"}, "chicago-joliet-naperville-60015": {"city": "Chicago-Joliet-Naperville", "rent": 2670, "zip": "60015"}, "chicago-joliet-naperville-60016": {"city": "Chicago-Joliet-Naperville", "rent": 1890, "zip": "60016"}, "chicago-joliet-naperville-60017": {"city": "Chicago-Joliet-Naperville", "rent": 1750, "zip": "60017"}, "chicago-joliet-naperville-60018": {"city": "Chicago-Joliet-Naperville", "rent": 1460, "zip": "60018"}, "chicago-joliet-naperville-60020": {"city": "Chicago-Joliet-Naperville", "rent": 1650, "zip": "60020"}, "chicago-joliet-naperville-60021": {"city": "Chicago-Joliet-Naperville", "rent": 2670, "zip": "60021"}, "chicago-joliet-naperville-60022": {"city": "Chicago-Joliet-Naperville", "rent": 2390, "zip": "60022"}, "chicago-joliet-naperville-60025": {"city": "Chicago-Joliet-Naperville", "rent": 2100, "zip": "60025"}, "chicago-joliet-naperville-60026": {"city": "Chicago-Joliet-Naperville", "rent": 2390, "zip": "60026"}, "chicago-joliet-naperville-60029": {"city": "Chicago-Joliet-Naperville", "rent": 2290, "zip": "60029"}, "chicago-joliet-naperville-60030": {"city": "Chicago-Joliet-Naperville", "rent": 1980, "zip": "60030"}, "chicago-joliet-naperville-60031": {"city": "Chicago-Joliet-Naperville", "rent": 2030, "zip": "60031"}, "chicago-joliet-naperville-60033": {"city": "Chicago-Joliet-Naperville", "rent": 1450, "zip": "60033"}, "chicago-joliet-naperville-60034": {"city": "Chicago-Joliet-Naperville", "rent": 1400, "zip": "60034"}, "chicago-joliet-naperville-60035": {"city": "Chicago-Joliet-Naperville", "rent": 2460, "zip": "60035"}, "chicago-joliet-naperville-60037": {"city": "Chicago-Joliet-Naperville", "rent": 1810, "zip": "60037"}, "chicago-joliet-naperville-60039": {"city": "Chicago-Joliet-Naperville", "rent": 1720, "zip": "60039"}, "chicago-joliet-naperville-60040": {"city": "Chicago-Joliet-Naperville", "rent": 2240, "zip": "60040"}, "chicago-joliet-naperville-60041": {"city": "Chicago-Joliet-Naperville", "rent": 1320, "zip": "60041"}, "chicago-joliet-naperville-60042": {"city": "Chicago-Joliet-Naperville", "rent": 2250, "zip": "60042"}, "chicago-joliet-naperville-60043": {"city": "Chicago-Joliet-Naperville", "rent": 2540, "zip": "60043"}, "chicago-joliet-naperville-60044": {"city": "Chicago-Joliet-Naperville", "rent": 2100, "zip": "60044"}, "chicago-joliet-naperville-60045": {"city": "Chicago-Joliet-Naperville", "rent": 2670, "zip": "60045"}, "chicago-joliet-naperville-60046": {"city": "Chicago-Joliet-Naperville", "rent": 2040, "zip": "60046"}, "chicago-joliet-naperville-60047": {"city": "Chicago-Joliet-Naperville", "rent": 2350, "zip": "60047"}, "chicago-joliet-naperville-60048": {"city": "Chicago-Joliet-Naperville", "rent": 2000, "zip": "60048"}, "chicago-joliet-naperville-60050": {"city": "Chicago-Joliet-Naperville", "rent": 1900, "zip": "60050"}, "chicago-joliet-naperville-60051": {"city": "Chicago-Joliet-Naperville", "rent": 2040, "zip": "60051"}, "chicago-joliet-naperville-60053": {"city": "Chicago-Joliet-Naperville", "rent": 2670, "zip": "60053"}, "chicago-joliet-naperville-60055": {"city": "Chicago-Joliet-Naperville", "rent": 1750, "zip": "60055"}, "chicago-joliet-naperville-60056": {"city": "Chicago-Joliet-Naperville", "rent": 1910, "zip": "60056"}, "chicago-joliet-naperville-60060": {"city": "Chicago-Joliet-Naperville", "rent": 1990, "zip": "60060"}, "chicago-joliet-naperville-60061": {"city": "Chicago-Joliet-Naperville", "rent": 2390, "zip": "60061"}, "chicago-joliet-naperville-60062": {"city": "Chicago-Joliet-Naperville", "rent": 2370, "zip": "60062"}, "chicago-joliet-naperville-60064": {"city": "Chicago-Joliet-Naperville", "rent": 1430, "zip": "60064"}, "chicago-joliet-naperville-60065": {"city": "Chicago-Joliet-Naperville", "rent": 1750, "zip": "60065"}, "chicago-joliet-naperville-60067": {"city": "Chicago-Joliet-Naperville", "rent": 1900, "zip": "60067"}, "chicago-joliet-naperville-60068": {"city": "Chicago-Joliet-Naperville", "rent": 1940, "zip": "60068"}, "chicago-joliet-naperville-60069": {"city": "Chicago-Joliet-Naperville", "rent": 2670, "zip": "60069"}, "chicago-joliet-naperville-60070": {"city": "Chicago-Joliet-Naperville", "rent": 1710, "zip": "60070"}, "chicago-joliet-naperville-60071": {"city": "Chicago-Joliet-Naperville", "rent": 1480, "zip": "60071"}, "chicago-joliet-naperville-60072": {"city": "Chicago-Joliet-Naperville", "rent": 1520, "zip": "60072"}, "chicago-joliet-naperville-60073": {"city": "Chicago-Joliet-Naperville", "rent": 1910, "zip": "60073"}, "chicago-joliet-naperville-60074": {"city": "Chicago-Joliet-Naperville", "rent": 1900, "zip": "60074"}, "chicago-joliet-naperville-60075": {"city": "Chicago-Joliet-Naperville", "rent": 1590, "zip": "60075"}, "chicago-joliet-naperville-60076": {"city": "Chicago-Joliet-Naperville", "rent": 1950, "zip": "60076"}, "chicago-joliet-naperville-60077": {"city": "Chicago-Joliet-Naperville", "rent": 1800, "zip": "60077"}, "chicago-joliet-naperville-60078": {"city": "Chicago-Joliet-Naperville", "rent": 1750, "zip": "60078"}, "chicago-joliet-naperville-60079": {"city": "Chicago-Joliet-Naperville", "rent": 1810, "zip": "60079"}, "chicago-joliet-naperville-60081": {"city": "Chicago-Joliet-Naperville", "rent": 1510, "zip": "60081"}, "chicago-joliet-naperville-60083": {"city": "Chicago-Joliet-Naperville", "rent": 2250, "zip": "60083"}, "chicago-joliet-naperville-60084": {"city": "Chicago-Joliet-Naperville", "rent": 1640, "zip": "60084"}, "chicago-joliet-naperville-60085": {"city": "Chicago-Joliet-Naperville", "rent": 1540, "zip": "60085"}, "chicago-joliet-naperville-60087": {"city": "Chicago-Joliet-Naperville", "rent": 1630, "zip": "60087"}, "chicago-joliet-naperville-60088": {"city": "Chicago-Joliet-Naperville", "rent": 2340, "zip": "60088"}, "chicago-joliet-naperville-60089": {"city": "Chicago-Joliet-Naperville", "rent": 2560, "zip": "60089"}, "chicago-joliet-naperville-60090": {"city": "Chicago-Joliet-Naperville", "rent": 1960, "zip": "60090"}, "chicago-joliet-naperville-60091": {"city": "Chicago-Joliet-Naperville", "rent": 2620, "zip": "60091"}, "chicago-joliet-naperville-60093": {"city": "Chicago-Joliet-Naperville", "rent": 2410, "zip": "60093"}, "chicago-joliet-naperville-60095": {"city": "Chicago-Joliet-Naperville", "rent": 1750, "zip": "60095"}, "chicago-joliet-naperville-60096": {"city": "Chicago-Joliet-Naperville", "rent": 1510, "zip": "60096"}, "chicago-joliet-naperville-60097": {"city": "Chicago-Joliet-Naperville", "rent": 1640, "zip": "60097"}, "chicago-joliet-naperville-60098": {"city": "Chicago-Joliet-Naperville", "rent": 1530, "zip": "60098"}, "chicago-joliet-naperville-60099": {"city": "Chicago-Joliet-Naperville", "rent": 1490, "zip": "60099"}, "chicago-joliet-naperville-60101": {"city": "Chicago-Joliet-Naperville", "rent": 1570, "zip": "60101"}, "chicago-joliet-naperville-60102": {"city": "Chicago-Joliet-Naperville", "rent": 2420, "zip": "60102"}, "chicago-joliet-naperville-60103": {"city": "Chicago-Joliet-Naperville", "rent": 2290, "zip": "60103"}, "chicago-joliet-naperville-60104": {"city": "Chicago-Joliet-Naperville", "rent": 1490, "zip": "60104"}, "chicago-joliet-naperville-60106": {"city": "Chicago-Joliet-Naperville", "rent": 1720, "zip": "60106"}, "chicago-joliet-naperville-60107": {"city": "Chicago-Joliet-Naperville", "rent": 2340, "zip": "60107"}, "chicago-joliet-naperville-60108": {"city": "Chicago-Joliet-Naperville", "rent": 2030, "zip": "60108"}, "chicago-joliet-naperville-60109": {"city": "Chicago-Joliet-Naperville", "rent": 1470, "zip": "60109"}, "chicago-joliet-naperville-60110": {"city": "Chicago-Joliet-Naperville", "rent": 1830, "zip": "60110"}, "chicago-joliet-naperville-60117": {"city": "Chicago-Joliet-Naperville", "rent": 2010, "zip": "60117"}, "chicago-joliet-naperville-60118": {"city": "Chicago-Joliet-Naperville", "rent": 1780, "zip": "60118"}, "chicago-joliet-naperville-60119": {"city": "Chicago-Joliet-Naperville", "rent": 2110, "zip": "60119"}, "chicago-joliet-naperville-60120": {"city": "Chicago-Joliet-Naperville", "rent": 1640, "zip": "60120"}, "chicago-joliet-naperville-60121": {"city": "Chicago-Joliet-Naperville", "rent": 1750, "zip": "60121"}, "chicago-joliet-naperville-60122": {"city": "Chicago-Joliet-Naperville", "rent": 2010, "zip": "60122"}, "chicago-joliet-naperville-60123": {"city": "Chicago-Joliet-Naperville", "rent": 1590, "zip": "60123"}, "chicago-joliet-naperville-60124": {"city": "Chicago-Joliet-Naperville", "rent": 2530, "zip": "60124"}, "chicago-joliet-naperville-60126": {"city": "Chicago-Joliet-Naperville", "rent": 2360, "zip": "60126"}, "chicago-joliet-naperville-60130": {"city": "Chicago-Joliet-Naperville", "rent": 1680, "zip": "60130"}, "chicago-joliet-naperville-60131": {"city": "Chicago-Joliet-Naperville", "rent": 1450, "zip": "60131"}, "chicago-joliet-naperville-60133": {"city": "Chicago-Joliet-Naperville", "rent": 1890, "zip": "60133"}, "chicago-joliet-naperville-60134": {"city": "Chicago-Joliet-Naperville", "rent": 2270, "zip": "60134"}, "chicago-joliet-naperville-60135": {"city": "Chicago-Joliet-Naperville", "rent": 1440, "zip": "60135"}, "chicago-joliet-naperville-60136": {"city": "Chicago-Joliet-Naperville", "rent": 2370, "zip": "60136"}, "chicago-joliet-naperville-60137": {"city": "Chicago-Joliet-Naperville", "rent": 1640, "zip": "60137"}, "chicago-joliet-naperville-60138": {"city": "Chicago-Joliet-Naperville", "rent": 2010, "zip": "60138"}, "chicago-joliet-naperville-60139": {"city": "Chicago-Joliet-Naperville", "rent": 1930, "zip": "60139"}, "chicago-joliet-naperville-60140": {"city": "Chicago-Joliet-Naperville", "rent": 2170, "zip": "60140"}, "chicago-joliet-naperville-60141": {"city": "Chicago-Joliet-Naperville", "rent": 1220, "zip": "60141"}, "chicago-joliet-naperville-60142": {"city": "Chicago-Joliet-Naperville", "rent": 1910, "zip": "60142"}, "chicago-joliet-naperville-60143": {"city": "Chicago-Joliet-Naperville", "rent": 2130, "zip": "60143"}, "chicago-joliet-naperville-60144": {"city": "Chicago-Joliet-Naperville", "rent": 1450, "zip": "60144"}, "chicago-joliet-naperville-60147": {"city": "Chicago-Joliet-Naperville", "rent": 1750, "zip": "60147"}, "chicago-joliet-naperville-60148": {"city": "Chicago-Joliet-Naperville", "rent": 2190, "zip": "60148"}, "chicago-joliet-naperville-60151": {"city": "Chicago-Joliet-Naperville", "rent": 2050, "zip": "60151"}, "chicago-joliet-naperville-60152": {"city": "Chicago-Joliet-Naperville", "rent": 1320, "zip": "60152"}, "chicago-joliet-naperville-60153": {"city": "Chicago-Joliet-Naperville", "rent": 1520, "zip": "60153"}, "chicago-joliet-naperville-60154": {"city": "Chicago-Joliet-Naperville", "rent": 2190, "zip": "60154"}, "chicago-joliet-naperville-60155": {"city": "Chicago-Joliet-Naperville", "rent": 1420, "zip": "60155"}, "chicago-joliet-naperville-60156": {"city": "Chicago-Joliet-Naperville", "rent": 2100, "zip": "60156"}, "chicago-joliet-naperville-60157": {"city": "Chicago-Joliet-Naperville", "rent": 2040, "zip": "60157"}, "chicago-joliet-naperville-60159": {"city": "Chicago-Joliet-Naperville", "rent": 1750, "zip": "60159"}, "chicago-joliet-naperville-60160": {"city": "Chicago-Joliet-Naperville", "rent": 1520, "zip": "60160"}, "chicago-joliet-naperville-60161": {"city": "Chicago-Joliet-Naperville", "rent": 1750, "zip": "60161"}, "chicago-joliet-naperville-60162": {"city": "Chicago-Joliet-Naperville", "rent": 1760, "zip": "60162"}, "chicago-joliet-naperville-60163": {"city": "Chicago-Joliet-Naperville", "rent": 1410, "zip": "60163"}, "chicago-joliet-naperville-60164": {"city": "Chicago-Joliet-Naperville", "rent": 1390, "zip": "60164"}, "chicago-joliet-naperville-60165": {"city": "Chicago-Joliet-Naperville", "rent": 1520, "zip": "60165"}, "chicago-joliet-naperville-60168": {"city": "Chicago-Joliet-Naperville", "rent": 1750, "zip": "60168"}, "chicago-joliet-naperville-60169": {"city": "Chicago-Joliet-Naperville", "rent": 2060, "zip": "60169"}, "chicago-joliet-naperville-60171": {"city": "Chicago-Joliet-Naperville", "rent": 1590, "zip": "60171"}, "chicago-joliet-naperville-60172": {"city": "Chicago-Joliet-Naperville", "rent": 2000, "zip": "60172"}, "chicago-joliet-naperville-60173": {"city": "Chicago-Joliet-Naperville", "rent": 2340, "zip": "60173"}, "chicago-joliet-naperville-60174": {"city": "Chicago-Joliet-Naperville", "rent": 2170, "zip": "60174"}, "chicago-joliet-naperville-60175": {"city": "Chicago-Joliet-Naperville", "rent": 2670, "zip": "60175"}, "chicago-joliet-naperville-60176": {"city": "Chicago-Joliet-Naperville", "rent": 1580, "zip": "60176"}, "chicago-joliet-naperville-60177": {"city": "Chicago-Joliet-Naperville", "rent": 2090, "zip": "60177"}, "chicago-joliet-naperville-60178": {"city": "Chicago-Joliet-Naperville", "rent": 1410, "zip": "60178"}, "chicago-joliet-naperville-60180": {"city": "Chicago-Joliet-Naperville", "rent": 1600, "zip": "60180"}, "chicago-joliet-naperville-60181": {"city": "Chicago-Joliet-Naperville", "rent": 2010, "zip": "60181"}, "chicago-joliet-naperville-60183": {"city": "Chicago-Joliet-Naperville", "rent": 2670, "zip": "60183"}, "chicago-joliet-naperville-60184": {"city": "Chicago-Joliet-Naperville", "rent": 2080, "zip": "60184"}, "chicago-joliet-naperville-60185": {"city": "Chicago-Joliet-Naperville", "rent": 1750, "zip": "60185"}, "chicago-joliet-naperville-60186": {"city": "Chicago-Joliet-Naperville", "rent": 2010, "zip": "60186"}, "chicago-joliet-naperville-60187": {"city": "Chicago-Joliet-Naperville", "rent": 2130, "zip": "60187"}, "chicago-joliet-naperville-60188": {"city": "Chicago-Joliet-Naperville", "rent": 1810, "zip": "60188"}, "chicago-joliet-naperville-60189": {"city": "Chicago-Joliet-Naperville", "rent": 2190, "zip": "60189"}, "chicago-joliet-naperville-60190": {"city": "Chicago-Joliet-Naperville", "rent": 2090, "zip": "60190"}, "chicago-joliet-naperville-60191": {"city": "Chicago-Joliet-Naperville", "rent": 2100, "zip": "60191"}, "chicago-joliet-naperville-60192": {"city": "Chicago-Joliet-Naperville", "rent": 2670, "zip": "60192"}, "chicago-joliet-naperville-60193": {"city": "Chicago-Joliet-Naperville", "rent": 2280, "zip": "60193"}, "chicago-joliet-naperville-60194": {"city": "Chicago-Joliet-Naperville", "rent": 2330, "zip": "60194"}, "chicago-joliet-naperville-60195": {"city": "Chicago-Joliet-Naperville", "rent": 2110, "zip": "60195"}, "chicago-joliet-naperville-60196": {"city": "Chicago-Joliet-Naperville", "rent": 1750, "zip": "60196"}, "chicago-joliet-naperville-60199": {"city": "Chicago-Joliet-Naperville", "rent": 2010, "zip": "60199"}, "chicago-joliet-naperville-60201": {"city": "Chicago-Joliet-Naperville", "rent": 2370, "zip": "60201"}, "chicago-joliet-naperville-60202": {"city": "Chicago-Joliet-Naperville", "rent": 2170, "zip": "60202"}, "chicago-joliet-naperville-60203": {"city": "Chicago-Joliet-Naperville", "rent": 2390, "zip": "60203"}, "chicago-joliet-naperville-60204": {"city": "Chicago-Joliet-Naperville", "rent": 1750, "zip": "60204"}, "chicago-joliet-naperville-60208": {"city": "Chicago-Joliet-Naperville", "rent": 2370, "zip": "60208"}, "chicago-joliet-naperville-60301": {"city": "Chicago-Joliet-Naperville", "rent": 2670, "zip": "60301"}, "chicago-joliet-naperville-60302": {"city": "Chicago-Joliet-Naperville", "rent": 1790, "zip": "60302"}, "chicago-joliet-naperville-60303": {"city": "Chicago-Joliet-Naperville", "rent": 1750, "zip": "60303"}, "chicago-joliet-naperville-60304": {"city": "Chicago-Joliet-Naperville", "rent": 1630, "zip": "60304"}, "chicago-joliet-naperville-60305": {"city": "Chicago-Joliet-Naperville", "rent": 1800, "zip": "60305"}, "chicago-joliet-naperville-60401": {"city": "Chicago-Joliet-Naperville", "rent": 1410, "zip": "60401"}, "chicago-joliet-naperville-60402": {"city": "Chicago-Joliet-Naperville", "rent": 1460, "zip": "60402"}, "chicago-joliet-naperville-60403": {"city": "Chicago-Joliet-Naperville", "rent": 1690, "zip": "60403"}, "chicago-joliet-naperville-60404": {"city": "Chicago-Joliet-Naperville", "rent": 2390, "zip": "60404"}, "chicago-joliet-naperville-60406": {"city": "Chicago-Joliet-Naperville", "rent": 1350, "zip": "60406"}, "chicago-joliet-naperville-60407": {"city": "Chicago-Joliet-Naperville", "rent": 1590, "zip": "60407"}, "chicago-joliet-naperville-60408": {"city": "Chicago-Joliet-Naperville", "rent": 1510, "zip": "60408"}, "chicago-joliet-naperville-60409": {"city": "Chicago-Joliet-Naperville", "rent": 1450, "zip": "60409"}, "chicago-joliet-naperville-60410": {"city": "Chicago-Joliet-Naperville", "rent": 2100, "zip": "60410"}, "chicago-joliet-naperville-60411": {"city": "Chicago-Joliet-Naperville", "rent": 1470, "zip": "60411"}, "chicago-joliet-naperville-60412": {"city": "Chicago-Joliet-Naperville", "rent": 1750, "zip": "60412"}, "chicago-joliet-naperville-60415": {"city": "Chicago-Joliet-Naperville", "rent": 1490, "zip": "60415"}, "chicago-joliet-naperville-60416": {"city": "Chicago-Joliet-Naperville", "rent": 1400, "zip": "60416"}, "chicago-joliet-naperville-60417": {"city": "Chicago-Joliet-Naperville", "rent": 1570, "zip": "60417"}, "chicago-joliet-naperville-60418": {"city": "Chicago-Joliet-Naperville", "rent": 1570, "zip": "60418"}, "chicago-joliet-naperville-60419": {"city": "Chicago-Joliet-Naperville", "rent": 1880, "zip": "60419"}, "chicago-joliet-naperville-60421": {"city": "Chicago-Joliet-Naperville", "rent": 1380, "zip": "60421"}, "chicago-joliet-naperville-60422": {"city": "Chicago-Joliet-Naperville", "rent": 2670, "zip": "60422"}, "chicago-joliet-naperville-60423": {"city": "Chicago-Joliet-Naperville", "rent": 1840, "zip": "60423"}, "chicago-joliet-naperville-60425": {"city": "Chicago-Joliet-Naperville", "rent": 2050, "zip": "60425"}, "chicago-joliet-naperville-60426": {"city": "Chicago-Joliet-Naperville", "rent": 1340, "zip": "60426"}, "chicago-joliet-naperville-60428": {"city": "Chicago-Joliet-Naperville", "rent": 2090, "zip": "60428"}, "chicago-joliet-naperville-60429": {"city": "Chicago-Joliet-Naperville", "rent": 1820, "zip": "60429"}, "chicago-joliet-naperville-60430": {"city": "Chicago-Joliet-Naperville", "rent": 1750, "zip": "60430"}, "chicago-joliet-naperville-60431": {"city": "Chicago-Joliet-Naperville", "rent": 1880, "zip": "60431"}, "chicago-joliet-naperville-60432": {"city": "Chicago-Joliet-Naperville", "rent": 1560, "zip": "60432"}, "chicago-joliet-naperville-60433": {"city": "Chicago-Joliet-Naperville", "rent": 1590, "zip": "60433"}, "chicago-joliet-naperville-60434": {"city": "Chicago-Joliet-Naperville", "rent": 1760, "zip": "60434"}, "chicago-joliet-naperville-60435": {"city": "Chicago-Joliet-Naperville", "rent": 1630, "zip": "60435"}, "chicago-joliet-naperville-60436": {"city": "Chicago-Joliet-Naperville", "rent": 1660, "zip": "60436"}, "chicago-joliet-naperville-60438": {"city": "Chicago-Joliet-Naperville", "rent": 1570, "zip": "60438"}, "chicago-joliet-naperville-60439": {"city": "Chicago-Joliet-Naperville", "rent": 1550, "zip": "60439"}, "chicago-joliet-naperville-60440": {"city": "Chicago-Joliet-Naperville", "rent": 2060, "zip": "60440"}, "chicago-joliet-naperville-60441": {"city": "Chicago-Joliet-Naperville", "rent": 1880, "zip": "60441"}, "chicago-joliet-naperville-60442": {"city": "Chicago-Joliet-Naperville", "rent": 1390, "zip": "60442"}, "chicago-joliet-naperville-60443": {"city": "Chicago-Joliet-Naperville", "rent": 2000, "zip": "60443"}, "chicago-joliet-naperville-60445": {"city": "Chicago-Joliet-Naperville", "rent": 1460, "zip": "60445"}, "chicago-joliet-naperville-60446": {"city": "Chicago-Joliet-Naperville", "rent": 2310, "zip": "60446"}, "chicago-joliet-naperville-60447": {"city": "Chicago-Joliet-Naperville", "rent": 1790, "zip": "60447"}, "chicago-joliet-naperville-60448": {"city": "Chicago-Joliet-Naperville", "rent": 1850, "zip": "60448"}, "chicago-joliet-naperville-60449": {"city": "Chicago-Joliet-Naperville", "rent": 1500, "zip": "60449"}, "chicago-joliet-naperville-60451": {"city": "Chicago-Joliet-Naperville", "rent": 1630, "zip": "60451"}, "chicago-joliet-naperville-60452": {"city": "Chicago-Joliet-Naperville", "rent": 1610, "zip": "60452"}, "chicago-joliet-naperville-60453": {"city": "Chicago-Joliet-Naperville", "rent": 1640, "zip": "60453"}, "chicago-joliet-naperville-60454": {"city": "Chicago-Joliet-Naperville", "rent": 1750, "zip": "60454"}, "chicago-joliet-naperville-60455": {"city": "Chicago-Joliet-Naperville", "rent": 1400, "zip": "60455"}, "chicago-joliet-naperville-60456": {"city": "Chicago-Joliet-Naperville", "rent": 1680, "zip": "60456"}, "chicago-joliet-naperville-60457": {"city": "Chicago-Joliet-Naperville", "rent": 1360, "zip": "60457"}, "chicago-joliet-naperville-60458": {"city": "Chicago-Joliet-Naperville", "rent": 1570, "zip": "60458"}, "chicago-joliet-naperville-60459": {"city": "Chicago-Joliet-Naperville", "rent": 1590, "zip": "60459"}, "chicago-joliet-naperville-60461": {"city": "Chicago-Joliet-Naperville", "rent": 2670, "zip": "60461"}, "chicago-joliet-naperville-60462": {"city": "Chicago-Joliet-Naperville", "rent": 1790, "zip": "60462"}, "chicago-joliet-naperville-60463": {"city": "Chicago-Joliet-Naperville", "rent": 2240, "zip": "60463"}, "chicago-joliet-naperville-60464": {"city": "Chicago-Joliet-Naperville", "rent": 2260, "zip": "60464"}, "chicago-joliet-naperville-60465": {"city": "Chicago-Joliet-Naperville", "rent": 1620, "zip": "60465"}, "chicago-joliet-naperville-60466": {"city": "Chicago-Joliet-Naperville", "rent": 1810, "zip": "60466"}, "chicago-joliet-naperville-60467": {"city": "Chicago-Joliet-Naperville", "rent": 2330, "zip": "60467"}, "chicago-joliet-naperville-60468": {"city": "Chicago-Joliet-Naperville", "rent": 1330, "zip": "60468"}, "chicago-joliet-naperville-60469": {"city": "Chicago-Joliet-Naperville", "rent": 1670, "zip": "60469"}, "chicago-joliet-naperville-60471": {"city": "Chicago-Joliet-Naperville", "rent": 1660, "zip": "60471"}, "chicago-joliet-naperville-60472": {"city": "Chicago-Joliet-Naperville", "rent": 1620, "zip": "60472"}, "chicago-joliet-naperville-60473": {"city": "Chicago-Joliet-Naperville", "rent": 2400, "zip": "60473"}, "chicago-joliet-naperville-60475": {"city": "Chicago-Joliet-Naperville", "rent": 1270, "zip": "60475"}, "chicago-joliet-naperville-60476": {"city": "Chicago-Joliet-Naperville", "rent": 1480, "zip": "60476"}, "chicago-joliet-naperville-60477": {"city": "Chicago-Joliet-Naperville", "rent": 1760, "zip": "60477"}, "chicago-joliet-naperville-60478": {"city": "Chicago-Joliet-Naperville", "rent": 2240, "zip": "60478"}, "chicago-joliet-naperville-60480": {"city": "Chicago-Joliet-Naperville", "rent": 1780, "zip": "60480"}, "chicago-joliet-naperville-60481": {"city": "Chicago-Joliet-Naperville", "rent": 1290, "zip": "60481"}, "chicago-joliet-naperville-60482": {"city": "Chicago-Joliet-Naperville", "rent": 1470, "zip": "60482"}, "chicago-joliet-naperville-60484": {"city": "Chicago-Joliet-Naperville", "rent": 1840, "zip": "60484"}, "chicago-joliet-naperville-60487": {"city": "Chicago-Joliet-Naperville", "rent": 1760, "zip": "60487"}, "chicago-joliet-naperville-60490": {"city": "Chicago-Joliet-Naperville", "rent": 2670, "zip": "60490"}, "chicago-joliet-naperville-60491": {"city": "Chicago-Joliet-Naperville", "rent": 2070, "zip": "60491"}, "chicago-joliet-naperville-60499": {"city": "Chicago-Joliet-Naperville", "rent": 1750, "zip": "60499"}, "chicago-joliet-naperville-60501": {"city": "Chicago-Joliet-Naperville", "rent": 1320, "zip": "60501"}, "chicago-joliet-naperville-60502": {"city": "Chicago-Joliet-Naperville", "rent": 2420, "zip": "60502"}, "chicago-joliet-naperville-60503": {"city": "Chicago-Joliet-Naperville", "rent": 2500, "zip": "60503"}, "chicago-joliet-naperville-60504": {"city": "Chicago-Joliet-Naperville", "rent": 2420, "zip": "60504"}, "chicago-joliet-naperville-60505": {"city": "Chicago-Joliet-Naperville", "rent": 1610, "zip": "60505"}, "chicago-joliet-naperville-60506": {"city": "Chicago-Joliet-Naperville", "rent": 1690, "zip": "60506"}, "chicago-joliet-naperville-60507": {"city": "Chicago-Joliet-Naperville", "rent": 1750, "zip": "60507"}, "chicago-joliet-naperville-60510": {"city": "Chicago-Joliet-Naperville", "rent": 1620, "zip": "60510"}, "chicago-joliet-naperville-60511": {"city": "Chicago-Joliet-Naperville", "rent": 1770, "zip": "60511"}, "chicago-joliet-naperville-60513": {"city": "Chicago-Joliet-Naperville", "rent": 1580, "zip": "60513"}, "chicago-joliet-naperville-60514": {"city": "Chicago-Joliet-Naperville", "rent": 1540, "zip": "60514"}, "chicago-joliet-naperville-60515": {"city": "Chicago-Joliet-Naperville", "rent": 2110, "zip": "60515"}, "chicago-joliet-naperville-60516": {"city": "Chicago-Joliet-Naperville", "rent": 2080, "zip": "60516"}, "chicago-joliet-naperville-60517": {"city": "Chicago-Joliet-Naperville", "rent": 1880, "zip": "60517"}, "chicago-joliet-naperville-60519": {"city": "Chicago-Joliet-Naperville", "rent": 2420, "zip": "60519"}, "chicago-joliet-naperville-60520": {"city": "Chicago-Joliet-Naperville", "rent": 1910, "zip": "60520"}, "chicago-joliet-naperville-60521": {"city": "Chicago-Joliet-Naperville", "rent": 2450, "zip": "60521"}, "chicago-joliet-naperville-60522": {"city": "Chicago-Joliet-Naperville", "rent": 2010, "zip": "60522"}, "chicago-joliet-naperville-60523": {"city": "Chicago-Joliet-Naperville", "rent": 1170, "zip": "60523"}, "chicago-joliet-naperville-60525": {"city": "Chicago-Joliet-Naperville", "rent": 1770, "zip": "60525"}, "chicago-joliet-naperville-60526": {"city": "Chicago-Joliet-Naperville", "rent": 1720, "zip": "60526"}, "chicago-joliet-naperville-60527": {"city": "Chicago-Joliet-Naperville", "rent": 2010, "zip": "60527"}, "chicago-joliet-naperville-60532": {"city": "Chicago-Joliet-Naperville", "rent": 2040, "zip": "60532"}, "chicago-joliet-naperville-60534": {"city": "Chicago-Joliet-Naperville", "rent": 1360, "zip": "60534"}, "chicago-joliet-naperville-60538": {"city": "Chicago-Joliet-Naperville", "rent": 2120, "zip": "60538"}, "chicago-joliet-naperville-60539": {"city": "Chicago-Joliet-Naperville", "rent": 1770, "zip": "60539"}, "chicago-joliet-naperville-60540": {"city": "Chicago-Joliet-Naperville", "rent": 2370, "zip": "60540"}, "chicago-joliet-naperville-60542": {"city": "Chicago-Joliet-Naperville", "rent": 2020, "zip": "60542"}, "chicago-joliet-naperville-60543": {"city": "Chicago-Joliet-Naperville", "rent": 1660, "zip": "60543"}, "chicago-joliet-naperville-60544": {"city": "Chicago-Joliet-Naperville", "rent": 2330, "zip": "60544"}, "chicago-joliet-naperville-60545": {"city": "Chicago-Joliet-Naperville", "rent": 1870, "zip": "60545"}, "chicago-joliet-naperville-60546": {"city": "Chicago-Joliet-Naperville", "rent": 1600, "zip": "60546"}, "chicago-joliet-naperville-60554": {"city": "Chicago-Joliet-Naperville", "rent": 1440, "zip": "60554"}, "chicago-joliet-naperville-60555": {"city": "Chicago-Joliet-Naperville", "rent": 2150, "zip": "60555"}, "chicago-joliet-naperville-60558": {"city": "Chicago-Joliet-Naperville", "rent": 2640, "zip": "60558"}, "chicago-joliet-naperville-60559": {"city": "Chicago-Joliet-Naperville", "rent": 1900, "zip": "60559"}, "chicago-joliet-naperville-60561": {"city": "Chicago-Joliet-Naperville", "rent": 2190, "zip": "60561"}, "chicago-joliet-naperville-60563": {"city": "Chicago-Joliet-Naperville", "rent": 2400, "zip": "60563"}, "chicago-joliet-naperville-60564": {"city": "Chicago-Joliet-Naperville", "rent": 2670, "zip": "60564"}, "chicago-joliet-naperville-60565": {"city": "Chicago-Joliet-Naperville", "rent": 2270, "zip": "60565"}, "chicago-joliet-naperville-60566": {"city": "Chicago-Joliet-Naperville", "rent": 2010, "zip": "60566"}, "chicago-joliet-naperville-60567": {"city": "Chicago-Joliet-Naperville", "rent": 1960, "zip": "60567"}, "chicago-joliet-naperville-60585": {"city": "Chicago-Joliet-Naperville", "rent": 2670, "zip": "60585"}, "chicago-joliet-naperville-60586": {"city": "Chicago-Joliet-Naperville", "rent": 2600, "zip": "60586"}, "chicago-joliet-naperville-60598": {"city": "Chicago-Joliet-Naperville", "rent": 2010, "zip": "60598"}, "chicago-joliet-naperville-60599": {"city": "Chicago-Joliet-Naperville", "rent": 2010, "zip": "60599"}, "chicago-joliet-naperville-60601": {"city": "Chicago-Joliet-Naperville", "rent": 2670, "zip": "60601"}, "chicago-joliet-naperville-60602": {"city": "Chicago-Joliet-Naperville", "rent": 2670, "zip": "60602"}, "chicago-joliet-naperville-60603": {"city": "Chicago-Joliet-Naperville", "rent": 2670, "zip": "60603"}, "chicago-joliet-naperville-60604": {"city": "Chicago-Joliet-Naperville", "rent": 2670, "zip": "60604"}, "chicago-joliet-naperville-60605": {"city": "Chicago-Joliet-Naperville", "rent": 2670, "zip": "60605"}, "chicago-joliet-naperville-60606": {"city": "Chicago-Joliet-Naperville", "rent": 2670, "zip": "60606"}, "chicago-joliet-naperville-60607": {"city": "Chicago-Joliet-Naperville", "rent": 2670, "zip": "60607"}, "chicago-joliet-naperville-60608": {"city": "Chicago-Joliet-Naperville", "rent": 1500, "zip": "60608"}, "chicago-joliet-naperville-60609": {"city": "Chicago-Joliet-Naperville", "rent": 1290, "zip": "60609"}, "chicago-joliet-naperville-60610": {"city": "Chicago-Joliet-Naperville", "rent": 2670, "zip": "60610"}, "chicago-joliet-naperville-60611": {"city": "Chicago-Joliet-Naperville", "rent": 2670, "zip": "60611"}, "chicago-joliet-naperville-60612": {"city": "Chicago-Joliet-Naperville", "rent": 1840, "zip": "60612"}, "chicago-joliet-naperville-60613": {"city": "Chicago-Joliet-Naperville", "rent": 2640, "zip": "60613"}, "chicago-joliet-naperville-60614": {"city": "Chicago-Joliet-Naperville", "rent": 2670, "zip": "60614"}, "chicago-joliet-naperville-60615": {"city": "Chicago-Joliet-Naperville", "rent": 2160, "zip": "60615"}, "chicago-joliet-naperville-60616": {"city": "Chicago-Joliet-Naperville", "rent": 1970, "zip": "60616"}, "chicago-joliet-naperville-60617": {"city": "Chicago-Joliet-Naperville", "rent": 1310, "zip": "60617"}, "chicago-joliet-naperville-60618": {"city": "Chicago-Joliet-Naperville", "rent": 1990, "zip": "60618"}, "chicago-joliet-naperville-60619": {"city": "Chicago-Joliet-Naperville", "rent": 1450, "zip": "60619"}, "chicago-joliet-naperville-60620": {"city": "Chicago-Joliet-Naperville", "rent": 1450, "zip": "60620"}, "chicago-joliet-naperville-60621": {"city": "Chicago-Joliet-Naperville", "rent": 1330, "zip": "60621"}, "chicago-joliet-naperville-60622": {"city": "Chicago-Joliet-Naperville", "rent": 2470, "zip": "60622"}, "chicago-joliet-naperville-60623": {"city": "Chicago-Joliet-Naperville", "rent": 1320, "zip": "60623"}, "chicago-joliet-naperville-60624": {"city": "Chicago-Joliet-Naperville", "rent": 1540, "zip": "60624"}, "chicago-joliet-naperville-60625": {"city": "Chicago-Joliet-Naperville", "rent": 2100, "zip": "60625"}, "chicago-joliet-naperville-60626": {"city": "Chicago-Joliet-Naperville", "rent": 2000, "zip": "60626"}, "chicago-joliet-naperville-60628": {"city": "Chicago-Joliet-Naperville", "rent": 1490, "zip": "60628"}, "chicago-joliet-naperville-60629": {"city": "Chicago-Joliet-Naperville", "rent": 1360, "zip": "60629"}, "chicago-joliet-naperville-60630": {"city": "Chicago-Joliet-Naperville", "rent": 1840, "zip": "60630"}, "chicago-joliet-naperville-60631": {"city": "Chicago-Joliet-Naperville", "rent": 1880, "zip": "60631"}, "chicago-joliet-naperville-60632": {"city": "Chicago-Joliet-Naperville", "rent": 1300, "zip": "60632"}, "chicago-joliet-naperville-60633": {"city": "Chicago-Joliet-Naperville", "rent": 1450, "zip": "60633"}, "chicago-joliet-naperville-60634": {"city": "Chicago-Joliet-Naperville", "rent": 1680, "zip": "60634"}, "chicago-joliet-naperville-60636": {"city": "Chicago-Joliet-Naperville", "rent": 1320, "zip": "60636"}, "chicago-joliet-naperville-60637": {"city": "Chicago-Joliet-Naperville", "rent": 1530, "zip": "60637"}, "chicago-joliet-naperville-60638": {"city": "Chicago-Joliet-Naperville", "rent": 1590, "zip": "60638"}, "chicago-joliet-naperville-60639": {"city": "Chicago-Joliet-Naperville", "rent": 1560, "zip": "60639"}, "chicago-joliet-naperville-60640": {"city": "Chicago-Joliet-Naperville", "rent": 2300, "zip": "60640"}, "chicago-joliet-naperville-60641": {"city": "Chicago-Joliet-Naperville", "rent": 1720, "zip": "60641"}, "chicago-joliet-naperville-60642": {"city": "Chicago-Joliet-Naperville", "rent": 2670, "zip": "60642"}, "chicago-joliet-naperville-60643": {"city": "Chicago-Joliet-Naperville", "rent": 1680, "zip": "60643"}, "chicago-joliet-naperville-60644": {"city": "Chicago-Joliet-Naperville", "rent": 1450, "zip": "60644"}, "chicago-joliet-naperville-60645": {"city": "Chicago-Joliet-Naperville", "rent": 1930, "zip": "60645"}, "chicago-joliet-naperville-60646": {"city": "Chicago-Joliet-Naperville", "rent": 1720, "zip": "60646"}, "chicago-joliet-naperville-60647": {"city": "Chicago-Joliet-Naperville", "rent": 2220, "zip": "60647"}, "chicago-joliet-naperville-60649": {"city": "Chicago-Joliet-Naperville", "rent": 1520, "zip": "60649"}, "chicago-joliet-naperville-60651": {"city": "Chicago-Joliet-Naperville", "rent": 1530, "zip": "60651"}, "chicago-joliet-naperville-60652": {"city": "Chicago-Joliet-Naperville", "rent": 1740, "zip": "60652"}, "chicago-joliet-naperville-60653": {"city": "Chicago-Joliet-Naperville", "rent": 1360, "zip": "60653"}, "chicago-joliet-naperville-60654": {"city": "Chicago-Joliet-Naperville", "rent": 2670, "zip": "60654"}, "chicago-joliet-naperville-60655": {"city": "Chicago-Joliet-Naperville", "rent": 1730, "zip": "60655"}, "chicago-joliet-naperville-60656": {"city": "Chicago-Joliet-Naperville", "rent": 1750, "zip": "60656"}, "chicago-joliet-naperville-60657": {"city": "Chicago-Joliet-Naperville", "rent": 2670, "zip": "60657"}, "chicago-joliet-naperville-60659": {"city": "Chicago-Joliet-Naperville", "rent": 1830, "zip": "60659"}, "chicago-joliet-naperville-60660": {"city": "Chicago-Joliet-Naperville", "rent": 2150, "zip": "60660"}, "chicago-joliet-naperville-60661": {"city": "Chicago-Joliet-Naperville", "rent": 2670, "zip": "60661"}, "chicago-joliet-naperville-60666": {"city": "Chicago-Joliet-Naperville", "rent": 1750, "zip": "60666"}, "chicago-joliet-naperville-60669": {"city": "Chicago-Joliet-Naperville", "rent": 1750, "zip": "60669"}, "chicago-joliet-naperville-60670": {"city": "Chicago-Joliet-Naperville", "rent": 1750, "zip": "60670"}, "chicago-joliet-naperville-60673": {"city": "Chicago-Joliet-Naperville", "rent": 1750, "zip": "60673"}, "chicago-joliet-naperville-60674": {"city": "Chicago-Joliet-Naperville", "rent": 1750, "zip": "60674"}, "chicago-joliet-naperville-60675": {"city": "Chicago-Joliet-Naperville", "rent": 1750, "zip": "60675"}, "chicago-joliet-naperville-60678": {"city": "Chicago-Joliet-Naperville", "rent": 1750, "zip": "60678"}, "chicago-joliet-naperville-60682": {"city": "Chicago-Joliet-Naperville", "rent": 1750, "zip": "60682"}, "chicago-joliet-naperville-60685": {"city": "Chicago-Joliet-Naperville", "rent": 1750, "zip": "60685"}, "chicago-joliet-naperville-60686": {"city": "Chicago-Joliet-Naperville", "rent": 1750, "zip": "60686"}, "chicago-joliet-naperville-60687": {"city": "Chicago-Joliet-Naperville", "rent": 1750, "zip": "60687"}, "chicago-joliet-naperville-60688": {"city": "Chicago-Joliet-Naperville", "rent": 1750, "zip": "60688"}, "chicago-joliet-naperville-60689": {"city": "Chicago-Joliet-Naperville", "rent": 1750, "zip": "60689"}, "chicago-joliet-naperville-60690": {"city": "Chicago-Joliet-Naperville", "rent": 1750, "zip": "60690"}, "chicago-joliet-naperville-60693": {"city": "Chicago-Joliet-Naperville", "rent": 1750, "zip": "60693"}, "chicago-joliet-naperville-60694": {"city": "Chicago-Joliet-Naperville", "rent": 1750, "zip": "60694"}, "chicago-joliet-naperville-60695": {"city": "Chicago-Joliet-Naperville", "rent": 1750, "zip": "60695"}, "chicago-joliet-naperville-60697": {"city": "Chicago-Joliet-Naperville", "rent": 1750, "zip": "60697"}, "chicago-joliet-naperville-60699": {"city": "Chicago-Joliet-Naperville", "rent": 1750, "zip": "60699"}, "chicago-joliet-naperville-60701": {"city": "Chicago-Joliet-Naperville", "rent": 1750, "zip": "60701"}, "chicago-joliet-naperville-60706": {"city": "Chicago-Joliet-Naperville", "rent": 1580, "zip": "60706"}, "chicago-joliet-naperville-60707": {"city": "Chicago-Joliet-Naperville", "rent": 1670, "zip": "60707"}, "chicago-joliet-naperville-60712": {"city": "Chicago-Joliet-Naperville", "rent": 2670, "zip": "60712"}, "chicago-joliet-naperville-60714": {"city": "Chicago-Joliet-Naperville", "rent": 1560, "zip": "60714"}, "chicago-joliet-naperville-60803": {"city": "Chicago-Joliet-Naperville", "rent": 1380, "zip": "60803"}, "chicago-joliet-naperville-60804": {"city": "Chicago-Joliet-Naperville", "rent": 1490, "zip": "60804"}, "chicago-joliet-naperville-60805": {"city": "Chicago-Joliet-Naperville", "rent": 1650, "zip": "60805"}, "chicago-joliet-naperville-60827": {"city": "Chicago-Joliet-Naperville", "rent": 1450, "zip": "60827"}, "chicago-joliet-naperville-60935": {"city": "Chicago-Joliet-Naperville", "rent": 1440, "zip": "60935"}, "chicago-joliet-naperville-60940": {"city": "Chicago-Joliet-Naperville", "rent": 1420, "zip": "60940"}, "chicago-joliet-naperville-60950": {"city": "Chicago-Joliet-Naperville", "rent": 1220, "zip": "60950"}, "chicago-joliet-naperville-61012": {"city": "Chicago-Joliet-Naperville", "rent": 1170, "zip": "61012"}, "chicago-joliet-naperville-61038": {"city": "Chicago-Joliet-Naperville", "rent": 1260, "zip": "61038"}, "dekalb-county-60111": {"city": "DeKalb County", "rent": 1370, "zip": "60111"}, "dekalb-county-60112": {"city": "DeKalb County", "rent": 1900, "zip": "60112"}, "dekalb-county-60115": {"city": "DeKalb County", "rent": 1320, "zip": "60115"}, "dekalb-county-60119": {"city": "DeKalb County", "rent": 2110, "zip": "60119"}, "dekalb-county-60129": {"city": "DeKalb County", "rent": 1290, "zip": "60129"}, "dekalb-county-60135": {"city": "DeKalb County", "rent": 1440, "zip": "60135"}, "dekalb-county-60140": {"city": "DeKalb County", "rent": 2170, "zip": "60140"}, "dekalb-county-60145": {"city": "DeKalb County", "rent": 1250, "zip": "60145"}, "dekalb-county-60146": {"city": "DeKalb County", "rent": 1440, "zip": "60146"}, "dekalb-county-60150": {"city": "DeKalb County", "rent": 1370, "zip": "60150"}, "dekalb-county-60151": {"city": "DeKalb County", "rent": 2050, "zip": "60151"}, "dekalb-county-60152": {"city": "DeKalb County", "rent": 1320, "zip": "60152"}, "dekalb-county-60178": {"city": "DeKalb County", "rent": 1410, "zip": "60178"}, "dekalb-county-60511": {"city": "DeKalb County", "rent": 1770, "zip": "60511"}, "dekalb-county-60518": {"city": "DeKalb County", "rent": 1250, "zip": "60518"}, "dekalb-county-60520": {"city": "DeKalb County", "rent": 1910, "zip": "60520"}, "dekalb-county-60530": {"city": "DeKalb County", "rent": 1260, "zip": "60530"}, "dekalb-county-60531": {"city": "DeKalb County", "rent": 1660, "zip": "60531"}, "dekalb-county-60548": {"city": "DeKalb County", "rent": 1700, "zip": "60548"}, "dekalb-county-60550": {"city": "DeKalb County", "rent": 1250, "zip": "60550"}, "dekalb-county-60552": {"city": "DeKalb County", "rent": 1630, "zip": "60552"}, "dekalb-county-60553": {"city": "DeKalb County", "rent": 1370, "zip": "60553"}, "dekalb-county-60556": {"city": "DeKalb County", "rent": 1250, "zip": "60556"}, "dekalb-county-61052": {"city": "DeKalb County", "rent": 1320, "zip": "61052"}, "dekalb-county-61068": {"city": "DeKalb County", "rent": 1250, "zip": "61068"}, "dekalb-county-61353": {"city": "DeKalb County", "rent": 1250, "zip": "61353"}, "grundy-county-60407": {"city": "Grundy County", "rent": 1590, "zip": "60407"}, "grundy-county-60408": {"city": "Grundy County", "rent": 1510, "zip": "60408"}, "grundy-county-60410": {"city": "Grundy County", "rent": 2100, "zip": "60410"}, "grundy-county-60416": {"city": "Grundy County", "rent": 1400, "zip": "60416"}, "grundy-county-60420": {"city": "Grundy County", "rent": 1360, "zip": "60420"}, "grundy-county-60424": {"city": "Grundy County", "rent": 1360, "zip": "60424"}, "grundy-county-60437": {"city": "Grundy County", "rent": 1360, "zip": "60437"}, "grundy-county-60444": {"city": "Grundy County", "rent": 1360, "zip": "60444"}, "grundy-county-60447": {"city": "Grundy County", "rent": 1790, "zip": "60447"}, "grundy-county-60450": {"city": "Grundy County", "rent": 1700, "zip": "60450"}, "grundy-county-60470": {"city": "Grundy County", "rent": 1360, "zip": "60470"}, "grundy-county-60474": {"city": "Grundy County", "rent": 1600, "zip": "60474"}, "grundy-county-60479": {"city": "Grundy County", "rent": 1510, "zip": "60479"}, "grundy-county-60481": {"city": "Grundy County", "rent": 1290, "zip": "60481"}, "grundy-county-60541": {"city": "Grundy County", "rent": 1860, "zip": "60541"}, "grundy-county-60961": {"city": "Grundy County", "rent": 1560, "zip": "60961"}, "grundy-county-61360": {"city": "Grundy County", "rent": 1360, "zip": "61360"}, "kendall-county-60431": {"city": "Kendall County", "rent": 1880, "zip": "60431"}, "kendall-county-60447": {"city": "Kendall County", "rent": 1790, "zip": "60447"}, "kendall-county-60450": {"city": "Kendall County", "rent": 1700, "zip": "60450"}, "kendall-county-60503": {"city": "Kendall County", "rent": 2500, "zip": "60503"}, "kendall-county-60504": {"city": "Kendall County", "rent": 2420, "zip": "60504"}, "kendall-county-60506": {"city": "Kendall County", "rent": 1690, "zip": "60506"}, "kendall-county-60511": {"city": "Kendall County", "rent": 1770, "zip": "60511"}, "kendall-county-60512": {"city": "Kendall County", "rent": 1860, "zip": "60512"}, "kendall-county-60536": {"city": "Kendall County", "rent": 1700, "zip": "60536"}, "kendall-county-60537": {"city": "Kendall County", "rent": 1700, "zip": "60537"}, "kendall-county-60538": {"city": "Kendall County", "rent": 2120, "zip": "60538"}, "kendall-county-60541": {"city": "Kendall County", "rent": 1860, "zip": "60541"}, "kendall-county-60543": {"city": "Kendall County", "rent": 1660, "zip": "60543"}, "kendall-county-60544": {"city": "Kendall County", "rent": 2330, "zip": "60544"}, "kendall-county-60545": {"city": "Kendall County", "rent": 1870, "zip": "60545"}, "kendall-county-60548": {"city": "Kendall County", "rent": 1700, "zip": "60548"}, "kendall-county-60551": {"city": "Kendall County", "rent": 1700, "zip": "60551"}, "kendall-county-60554": {"city": "Kendall County", "rent": 1440, "zip": "60554"}, "kendall-county-60560": {"city": "Kendall County", "rent": 1880, "zip": "60560"}, "kendall-county-60585": {"city": "Kendall County", "rent": 2670, "zip": "60585"}, "kendall-county-60586": {"city": "Kendall County", "rent": 2600, "zip": "60586"}, "decatur-61749": {"city": "Decatur", "rent": 950, "zip": "61749"}, "decatur-61756": {"city": "Decatur", "rent": 1040, "zip": "61756"}, "decatur-61818": {"city": "Decatur", "rent": 1120, "zip": "61818"}, "decatur-61830": {"city": "Decatur", "rent": 1130, "zip": "61830"}, "decatur-61882": {"city": "Decatur", "rent": 1080, "zip": "61882"}, "decatur-61914": {"city": "Decatur", "rent": 970, "zip": "61914"}, "decatur-61925": {"city": "Decatur", "rent": 920, "zip": "61925"}, "decatur-61937": {"city": "Decatur", "rent": 980, "zip": "61937"}, "decatur-62501": {"city": "Decatur", "rent": 1330, "zip": "62501"}, "decatur-62513": {"city": "Decatur", "rent": 1570, "zip": "62513"}, "decatur-62514": {"city": "Decatur", "rent": 1100, "zip": "62514"}, "decatur-62521": {"city": "Decatur", "rent": 1140, "zip": "62521"}, "decatur-62522": {"city": "Decatur", "rent": 1040, "zip": "62522"}, "decatur-62523": {"city": "Decatur", "rent": 920, "zip": "62523"}, "decatur-62524": {"city": "Decatur", "rent": 1060, "zip": "62524"}, "decatur-62525": {"city": "Decatur", "rent": 1060, "zip": "62525"}, "decatur-62526": {"city": "Decatur", "rent": 1100, "zip": "62526"}, "decatur-62532": {"city": "Decatur", "rent": 1110, "zip": "62532"}, "decatur-62535": {"city": "Decatur", "rent": 1150, "zip": "62535"}, "decatur-62537": {"city": "Decatur", "rent": 1050, "zip": "62537"}, "decatur-62539": {"city": "Decatur", "rent": 1020, "zip": "62539"}, "decatur-62543": {"city": "Decatur", "rent": 920, "zip": "62543"}, "decatur-62544": {"city": "Decatur", "rent": 1080, "zip": "62544"}, "decatur-62547": {"city": "Decatur", "rent": 1310, "zip": "62547"}, "decatur-62549": {"city": "Decatur", "rent": 990, "zip": "62549"}, "decatur-62550": {"city": "Decatur", "rent": 1150, "zip": "62550"}, "decatur-62551": {"city": "Decatur", "rent": 960, "zip": "62551"}, "decatur-62554": {"city": "Decatur", "rent": 1180, "zip": "62554"}, "decatur-62573": {"city": "Decatur", "rent": 950, "zip": "62573"}, "kankakee-60401": {"city": "Kankakee", "rent": 1410, "zip": "60401"}, "kankakee-60424": {"city": "Kankakee", "rent": 1360, "zip": "60424"}, "kankakee-60468": {"city": "Kankakee", "rent": 1330, "zip": "60468"}, "kankakee-60481": {"city": "Kankakee", "rent": 1290, "zip": "60481"}, "kankakee-60901": {"city": "Kankakee", "rent": 1240, "zip": "60901"}, "kankakee-60910": {"city": "Kankakee", "rent": 1140, "zip": "60910"}, "kankakee-60913": {"city": "Kankakee", "rent": 1310, "zip": "60913"}, "kankakee-60914": {"city": "Kankakee", "rent": 1490, "zip": "60914"}, "kankakee-60915": {"city": "Kankakee", "rent": 1360, "zip": "60915"}, "kankakee-60917": {"city": "Kankakee", "rent": 1280, "zip": "60917"}, "kankakee-60919": {"city": "Kankakee", "rent": 1130, "zip": "60919"}, "kankakee-60922": {"city": "Kankakee", "rent": 1210, "zip": "60922"}, "kankakee-60935": {"city": "Kankakee", "rent": 1440, "zip": "60935"}, "kankakee-60940": {"city": "Kankakee", "rent": 1420, "zip": "60940"}, "kankakee-60941": {"city": "Kankakee", "rent": 1310, "zip": "60941"}, "kankakee-60950": {"city": "Kankakee", "rent": 1220, "zip": "60950"}, "kankakee-60954": {"city": "Kankakee", "rent": 1130, "zip": "60954"}, "kankakee-60958": {"city": "Kankakee", "rent": 1130, "zip": "60958"}, "kankakee-60961": {"city": "Kankakee", "rent": 1560, "zip": "60961"}, "kankakee-60964": {"city": "Kankakee", "rent": 1130, "zip": "60964"}, "kankakee-60969": {"city": "Kankakee", "rent": 1310, "zip": "60969"}, "massac-county-62908": {"city": "Massac County", "rent": 950, "zip": "62908"}, "massac-county-62910": {"city": "Massac County", "rent": 980, "zip": "62910"}, "massac-county-62938": {"city": "Massac County", "rent": 970, "zip": "62938"}, "massac-county-62941": {"city": "Massac County", "rent": 1280, "zip": "62941"}, "massac-county-62943": {"city": "Massac County", "rent": 950, "zip": "62943"}, "massac-county-62953": {"city": "Massac County", "rent": 1050, "zip": "62953"}, "massac-county-62956": {"city": "Massac County", "rent": 940, "zip": "62956"}, "massac-county-62960": {"city": "Massac County", "rent": 970, "zip": "62960"}, "peoria-61314": {"city": "Peoria", "rent": 1080, "zip": "61314"}, "peoria-61321": {"city": "Peoria", "rent": 920, "zip": "61321"}, "peoria-61334": {"city": "Peoria", "rent": 1040, "zip": "61334"}, "peoria-61336": {"city": "Peoria", "rent": 920, "zip": "61336"}, "peoria-61345": {"city": "Peoria", "rent": 950, "zip": "61345"}, "peoria-61358": {"city": "Peoria", "rent": 950, "zip": "61358"}, "peoria-61369": {"city": "Peoria", "rent": 920, "zip": "61369"}, "peoria-61375": {"city": "Peoria", "rent": 920, "zip": "61375"}, "peoria-61377": {"city": "Peoria", "rent": 920, "zip": "61377"}, "peoria-61421": {"city": "Peoria", "rent": 990, "zip": "61421"}, "peoria-61424": {"city": "Peoria", "rent": 920, "zip": "61424"}, "peoria-61426": {"city": "Peoria", "rent": 960, "zip": "61426"}, "peoria-61434": {"city": "Peoria", "rent": 980, "zip": "61434"}, "peoria-61443": {"city": "Peoria", "rent": 1050, "zip": "61443"}, "peoria-61449": {"city": "Peoria", "rent": 950, "zip": "61449"}, "peoria-61451": {"city": "Peoria", "rent": 960, "zip": "61451"}, "peoria-61479": {"city": "Peoria", "rent": 940, "zip": "61479"}, "peoria-61483": {"city": "Peoria", "rent": 920, "zip": "61483"}, "peoria-61489": {"city": "Peoria", "rent": 920, "zip": "61489"}, "peoria-61491": {"city": "Peoria", "rent": 920, "zip": "61491"}, "peoria-61516": {"city": "Peoria", "rent": 1060, "zip": "61516"}, "peoria-61517": {"city": "Peoria", "rent": 990, "zip": "61517"}, "peoria-61520": {"city": "Peoria", "rent": 920, "zip": "61520"}, "peoria-61523": {"city": "Peoria", "rent": 1030, "zip": "61523"}, "peoria-61525": {"city": "Peoria", "rent": 1420, "zip": "61525"}, "peoria-61526": {"city": "Peoria", "rent": 1120, "zip": "61526"}, "peoria-61528": {"city": "Peoria", "rent": 1180, "zip": "61528"}, "peoria-61529": {"city": "Peoria", "rent": 920, "zip": "61529"}, "peoria-61530": {"city": "Peoria", "rent": 970, "zip": "61530"}, "peoria-61531": {"city": "Peoria", "rent": 980, "zip": "61531"}, "peoria-61533": {"city": "Peoria", "rent": 920, "zip": "61533"}, "peoria-61534": {"city": "Peoria", "rent": 970, "zip": "61534"}, "peoria-61535": {"city": "Peoria", "rent": 1020, "zip": "61535"}, "peoria-61536": {"city": "Peoria", "rent": 990, "zip": "61536"}, "peoria-61537": {"city": "Peoria", "rent": 920, "zip": "61537"}, "peoria-61539": {"city": "Peoria", "rent": 920, "zip": "61539"}, "peoria-61540": {"city": "Peoria", "rent": 970, "zip": "61540"}, "peoria-61541": {"city": "Peoria", "rent": 1180, "zip": "61541"}, "peoria-61545": {"city": "Peoria", "rent": 1100, "zip": "61545"}, "peoria-61546": {"city": "Peoria", "rent": 920, "zip": "61546"}, "peoria-61547": {"city": "Peoria", "rent": 920, "zip": "61547"}, "peoria-61548": {"city": "Peoria", "rent": 1240, "zip": "61548"}, "peoria-61550": {"city": "Peoria", "rent": 1140, "zip": "61550"}, "peoria-61552": {"city": "Peoria", "rent": 1110, "zip": "61552"}, "peoria-61554": {"city": "Peoria", "rent": 960, "zip": "61554"}, "peoria-61555": {"city": "Peoria", "rent": 1000, "zip": "61555"}, "peoria-61559": {"city": "Peoria", "rent": 1100, "zip": "61559"}, "peoria-61560": {"city": "Peoria", "rent": 950, "zip": "61560"}, "peoria-61561": {"city": "Peoria", "rent": 1120, "zip": "61561"}, "peoria-61562": {"city": "Peoria", "rent": 1030, "zip": "61562"}, "peoria-61564": {"city": "Peoria", "rent": 920, "zip": "61564"}, "peoria-61565": {"city": "Peoria", "rent": 920, "zip": "61565"}, "peoria-61568": {"city": "Peoria", "rent": 1030, "zip": "61568"}, "peoria-61569": {"city": "Peoria", "rent": 940, "zip": "61569"}, "peoria-61570": {"city": "Peoria", "rent": 980, "zip": "61570"}, "peoria-61571": {"city": "Peoria", "rent": 1100, "zip": "61571"}, "peoria-61601": {"city": "Peoria", "rent": 1060, "zip": "61601"}, "peoria-61602": {"city": "Peoria", "rent": 1220, "zip": "61602"}, "peoria-61603": {"city": "Peoria", "rent": 1110, "zip": "61603"}, "peoria-61604": {"city": "Peoria", "rent": 1050, "zip": "61604"}, "peoria-61605": {"city": "Peoria", "rent": 970, "zip": "61605"}, "peoria-61606": {"city": "Peoria", "rent": 1010, "zip": "61606"}, "peoria-61607": {"city": "Peoria", "rent": 1090, "zip": "61607"}, "peoria-61610": {"city": "Peoria", "rent": 920, "zip": "61610"}, "peoria-61611": {"city": "Peoria", "rent": 1000, "zip": "61611"}, "peoria-61612": {"city": "Peoria", "rent": 1060, "zip": "61612"}, "peoria-61613": {"city": "Peoria", "rent": 1060, "zip": "61613"}, "peoria-61614": {"city": "Peoria", "rent": 1030, "zip": "61614"}, "peoria-61615": {"city": "Peoria", "rent": 1200, "zip": "61615"}, "peoria-61616": {"city": "Peoria", "rent": 1020, "zip": "61616"}, "peoria-61625": {"city": "Peoria", "rent": 1010, "zip": "61625"}, "peoria-61630": {"city": "Peoria", "rent": 1060, "zip": "61630"}, "peoria-61651": {"city": "Peoria", "rent": 1060, "zip": "61651"}, "peoria-61652": {"city": "Peoria", "rent": 1060, "zip": "61652"}, "peoria-61653": {"city": "Peoria", "rent": 1060, "zip": "61653"}, "peoria-61654": {"city": "Peoria", "rent": 1060, "zip": "61654"}, "peoria-61655": {"city": "Peoria", "rent": 1060, "zip": "61655"}, "peoria-61656": {"city": "Peoria", "rent": 1060, "zip": "61656"}, "peoria-61721": {"city": "Peoria", "rent": 1420, "zip": "61721"}, "peoria-61725": {"city": "Peoria", "rent": 1220, "zip": "61725"}, "peoria-61729": {"city": "Peoria", "rent": 1060, "zip": "61729"}, "peoria-61732": {"city": "Peoria", "rent": 1450, "zip": "61732"}, "peoria-61733": {"city": "Peoria", "rent": 1250, "zip": "61733"}, "peoria-61734": {"city": "Peoria", "rent": 970, "zip": "61734"}, "peoria-61738": {"city": "Peoria", "rent": 1040, "zip": "61738"}, "peoria-61740": {"city": "Peoria", "rent": 960, "zip": "61740"}, "peoria-61742": {"city": "Peoria", "rent": 1200, "zip": "61742"}, "peoria-61744": {"city": "Peoria", "rent": 980, "zip": "61744"}, "peoria-61747": {"city": "Peoria", "rent": 1000, "zip": "61747"}, "peoria-61748": {"city": "Peoria", "rent": 980, "zip": "61748"}, "peoria-61755": {"city": "Peoria", "rent": 1040, "zip": "61755"}, "peoria-61759": {"city": "Peoria", "rent": 980, "zip": "61759"}, "peoria-61760": {"city": "Peoria", "rent": 1110, "zip": "61760"}, "peoria-61771": {"city": "Peoria", "rent": 1060, "zip": "61771"}, "peoria-61774": {"city": "Peoria", "rent": 1420, "zip": "61774"}, "peoria-62635": {"city": "Peoria", "rent": 1080, "zip": "62635"}, "peoria-62682": {"city": "Peoria", "rent": 1040, "zip": "62682"}, "rockford-60033": {"city": "Rockford", "rent": 1450, "zip": "60033"}, "rockford-60135": {"city": "Rockford", "rent": 1440, "zip": "60135"}, "rockford-60145": {"city": "Rockford", "rent": 1250, "zip": "60145"}, "rockford-60146": {"city": "Rockford", "rent": 1440, "zip": "60146"}, "rockford-60152": {"city": "Rockford", "rent": 1320, "zip": "60152"}, "rockford-61008": {"city": "Rockford", "rent": 1180, "zip": "61008"}, "rockford-61011": {"city": "Rockford", "rent": 1760, "zip": "61011"}, "rockford-61012": {"city": "Rockford", "rent": 1170, "zip": "61012"}, "rockford-61016": {"city": "Rockford", "rent": 1070, "zip": "61016"}, "rockford-61019": {"city": "Rockford", "rent": 1330, "zip": "61019"}, "rockford-61020": {"city": "Rockford", "rent": 1370, "zip": "61020"}, "rockford-61024": {"city": "Rockford", "rent": 1070, "zip": "61024"}, "rockford-61038": {"city": "Rockford", "rent": 1260, "zip": "61038"}, "rockford-61039": {"city": "Rockford", "rent": 1070, "zip": "61039"}, "rockford-61047": {"city": "Rockford", "rent": 1360, "zip": "61047"}, "rockford-61052": {"city": "Rockford", "rent": 1320, "zip": "61052"}, "rockford-61063": {"city": "Rockford", "rent": 1320, "zip": "61063"}, "rockford-61065": {"city": "Rockford", "rent": 1760, "zip": "61065"}, "rockford-61072": {"city": "Rockford", "rent": 1170, "zip": "61072"}, "rockford-61073": {"city": "Rockford", "rent": 1560, "zip": "61073"}, "rockford-61077": {"city": "Rockford", "rent": 1310, "zip": "61077"}, "rockford-61079": {"city": "Rockford", "rent": 1070, "zip": "61079"}, "rockford-61080": {"city": "Rockford", "rent": 1080, "zip": "61080"}, "rockford-61084": {"city": "Rockford", "rent": 1200, "zip": "61084"}, "rockford-61088": {"city": "Rockford", "rent": 1240, "zip": "61088"}, "rockford-61101": {"city": "Rockford", "rent": 1170, "zip": "61101"}, "rockford-61102": {"city": "Rockford", "rent": 1070, "zip": "61102"}, "rockford-61103": {"city": "Rockford", "rent": 1110, "zip": "61103"}, "rockford-61104": {"city": "Rockford", "rent": 1070, "zip": "61104"}, "rockford-61105": {"city": "Rockford", "rent": 1170, "zip": "61105"}, "rockford-61107": {"city": "Rockford", "rent": 1210, "zip": "61107"}, "rockford-61108": {"city": "Rockford", "rent": 1180, "zip": "61108"}, "rockford-61109": {"city": "Rockford", "rent": 1100, "zip": "61109"}, "rockford-61110": {"city": "Rockford", "rent": 1170, "zip": "61110"}, "rockford-61111": {"city": "Rockford", "rent": 1240, "zip": "61111"}, "rockford-61112": {"city": "Rockford", "rent": 1090, "zip": "61112"}, "rockford-61114": {"city": "Rockford", "rent": 1480, "zip": "61114"}, "rockford-61115": {"city": "Rockford", "rent": 1350, "zip": "61115"}, "rockford-61125": {"city": "Rockford", "rent": 1170, "zip": "61125"}, "rockford-61126": {"city": "Rockford", "rent": 1170, "zip": "61126"}, "rockford-61130": {"city": "Rockford", "rent": 1170, "zip": "61130"}, "rockford-61131": {"city": "Rockford", "rent": 1170, "zip": "61131"}, "rockford-61132": {"city": "Rockford", "rent": 1170, "zip": "61132"}, "bond-county-62017": {"city": "Bond County", "rent": 1150, "zip": "62017"}, "bond-county-62019": {"city": "Bond County", "rent": 1080, "zip": "62019"}, "bond-county-62074": {"city": "Bond County", "rent": 990, "zip": "62074"}, "bond-county-62077": {"city": "Bond County", "rent": 1200, "zip": "62077"}, "bond-county-62086": {"city": "Bond County", "rent": 990, "zip": "62086"}, "bond-county-62231": {"city": "Bond County", "rent": 1160, "zip": "62231"}, "bond-county-62246": {"city": "Bond County", "rent": 990, "zip": "62246"}, "bond-county-62249": {"city": "Bond County", "rent": 990, "zip": "62249"}, "bond-county-62253": {"city": "Bond County", "rent": 990, "zip": "62253"}, "bond-county-62262": {"city": "Bond County", "rent": 1090, "zip": "62262"}, "bond-county-62273": {"city": "Bond County", "rent": 1230, "zip": "62273"}, "bond-county-62275": {"city": "Bond County", "rent": 1130, "zip": "62275"}, "bond-county-62284": {"city": "Bond County", "rent": 940, "zip": "62284"}, "bond-county-62471": {"city": "Bond County", "rent": 920, "zip": "62471"}, "macoupin-county-62002": {"city": "Macoupin County", "rent": 1160, "zip": "62002"}, "macoupin-county-62009": {"city": "Macoupin County", "rent": 920, "zip": "62009"}, "macoupin-county-62012": {"city": "Macoupin County", "rent": 1130, "zip": "62012"}, "macoupin-county-62014": {"city": "Macoupin County", "rent": 1030, "zip": "62014"}, "macoupin-county-62021": {"city": "Macoupin County", "rent": 1050, "zip": "62021"}, "macoupin-county-62023": {"city": "Macoupin County", "rent": 920, "zip": "62023"}, "macoupin-county-62033": {"city": "Macoupin County", "rent": 920, "zip": "62033"}, "macoupin-county-62044": {"city": "Macoupin County", "rent": 1060, "zip": "62044"}, "macoupin-county-62056": {"city": "Macoupin County", "rent": 920, "zip": "62056"}, "macoupin-county-62063": {"city": "Macoupin County", "rent": 990, "zip": "62063"}, "macoupin-county-62069": {"city": "Macoupin County", "rent": 920, "zip": "62069"}, "macoupin-county-62074": {"city": "Macoupin County", "rent": 990, "zip": "62074"}, "macoupin-county-62079": {"city": "Macoupin County", "rent": 990, "zip": "62079"}, "macoupin-county-62082": {"city": "Macoupin County", "rent": 940, "zip": "62082"}, "macoupin-county-62085": {"city": "Macoupin County", "rent": 920, "zip": "62085"}, "macoupin-county-62088": {"city": "Macoupin County", "rent": 1030, "zip": "62088"}, "macoupin-county-62091": {"city": "Macoupin County", "rent": 970, "zip": "62091"}, "macoupin-county-62093": {"city": "Macoupin County", "rent": 940, "zip": "62093"}, "macoupin-county-62560": {"city": "Macoupin County", "rent": 1060, "zip": "62560"}, "macoupin-county-62572": {"city": "Macoupin County", "rent": 920, "zip": "62572"}, "macoupin-county-62626": {"city": "Macoupin County", "rent": 920, "zip": "62626"}, "macoupin-county-62630": {"city": "Macoupin County", "rent": 950, "zip": "62630"}, "macoupin-county-62638": {"city": "Macoupin County", "rent": 1100, "zip": "62638"}, "macoupin-county-62640": {"city": "Macoupin County", "rent": 930, "zip": "62640"}, "macoupin-county-62649": {"city": "Macoupin County", "rent": 920, "zip": "62649"}, "macoupin-county-62667": {"city": "Macoupin County", "rent": 920, "zip": "62667"}, "macoupin-county-62668": {"city": "Macoupin County", "rent": 920, "zip": "62668"}, "macoupin-county-62672": {"city": "Macoupin County", "rent": 930, "zip": "62672"}, "macoupin-county-62674": {"city": "Macoupin County", "rent": 920, "zip": "62674"}, "macoupin-county-62685": {"city": "Macoupin County", "rent": 1010, "zip": "62685"}, "macoupin-county-62690": {"city": "Macoupin County", "rent": 1020, "zip": "62690"}, "macoupin-county-62692": {"city": "Macoupin County", "rent": 1020, "zip": "62692"}, "springfield-62515": {"city": "Springfield", "rent": 1140, "zip": "62515"}, "springfield-62520": {"city": "Springfield", "rent": 1160, "zip": "62520"}, "springfield-62530": {"city": "Springfield", "rent": 1110, "zip": "62530"}, "springfield-62536": {"city": "Springfield", "rent": 1210, "zip": "62536"}, "springfield-62539": {"city": "Springfield", "rent": 1020, "zip": "62539"}, "springfield-62545": {"city": "Springfield", "rent": 1060, "zip": "62545"}, "springfield-62548": {"city": "Springfield", "rent": 1020, "zip": "62548"}, "springfield-62558": {"city": "Springfield", "rent": 1080, "zip": "62558"}, "springfield-62561": {"city": "Springfield", "rent": 1390, "zip": "62561"}, "springfield-62563": {"city": "Springfield", "rent": 1620, "zip": "62563"}, "springfield-62612": {"city": "Springfield", "rent": 1090, "zip": "62612"}, "springfield-62613": {"city": "Springfield", "rent": 1190, "zip": "62613"}, "springfield-62615": {"city": "Springfield", "rent": 1200, "zip": "62615"}, "springfield-62625": {"city": "Springfield", "rent": 1180, "zip": "62625"}, "springfield-62629": {"city": "Springfield", "rent": 1460, "zip": "62629"}, "springfield-62642": {"city": "Springfield", "rent": 1040, "zip": "62642"}, "springfield-62659": {"city": "Springfield", "rent": 1110, "zip": "62659"}, "springfield-62661": {"city": "Springfield", "rent": 1120, "zip": "62661"}, "springfield-62666": {"city": "Springfield", "rent": 1020, "zip": "62666"}, "springfield-62670": {"city": "Springfield", "rent": 1140, "zip": "62670"}, "springfield-62673": {"city": "Springfield", "rent": 1020, "zip": "62673"}, "springfield-62675": {"city": "Springfield", "rent": 1080, "zip": "62675"}, "springfield-62677": {"city": "Springfield", "rent": 1160, "zip": "62677"}, "springfield-62684": {"city": "Springfield", "rent": 1670, "zip": "62684"}, "springfield-62688": {"city": "Springfield", "rent": 1110, "zip": "62688"}, "springfield-62689": {"city": "Springfield", "rent": 1090, "zip": "62689"}, "springfield-62690": {"city": "Springfield", "rent": 1020, "zip": "62690"}, "springfield-62692": {"city": "Springfield", "rent": 1020, "zip": "62692"}, "springfield-62693": {"city": "Springfield", "rent": 1350, "zip": "62693"}, "springfield-62701": {"city": "Springfield", "rent": 1370, "zip": "62701"}, "springfield-62702": {"city": "Springfield", "rent": 1180, "zip": "62702"}, "springfield-62703": {"city": "Springfield", "rent": 1200, "zip": "62703"}, "springfield-62704": {"city": "Springfield", "rent": 1200, "zip": "62704"}, "springfield-62705": {"city": "Springfield", "rent": 1210, "zip": "62705"}, "springfield-62706": {"city": "Springfield", "rent": 1210, "zip": "62706"}, "springfield-62707": {"city": "Springfield", "rent": 1150, "zip": "62707"}, "springfield-62708": {"city": "Springfield", "rent": 1210, "zip": "62708"}, "springfield-62711": {"city": "Springfield", "rent": 1460, "zip": "62711"}, "springfield-62712": {"city": "Springfield", "rent": 1390, "zip": "62712"}, "springfield-62719": {"city": "Springfield", "rent": 1210, "zip": "62719"}, "springfield-62726": {"city": "Springfield", "rent": 1210, "zip": "62726"}, "springfield-62736": {"city": "Springfield", "rent": 1210, "zip": "62736"}, "springfield-62756": {"city": "Springfield", "rent": 1210, "zip": "62756"}, "springfield-62764": {"city": "Springfield", "rent": 1210, "zip": "62764"}, "springfield-62776": {"city": "Springfield", "rent": 1210, "zip": "62776"}, "springfield-62781": {"city": "Springfield", "rent": 1210, "zip": "62781"}, "springfield-62791": {"city": "Springfield", "rent": 1210, "zip": "62791"}, "springfield-62796": {"city": "Springfield", "rent": 1210, "zip": "62796"}, "adams-county-62301": {"city": "Adams County", "rent": 1050, "zip": "62301"}, "adams-county-62305": {"city": "Adams County", "rent": 1180, "zip": "62305"}, "adams-county-62306": {"city": "Adams County", "rent": 1060, "zip": "62306"}, "adams-county-62311": {"city": "Adams County", "rent": 920, "zip": "62311"}, "adams-county-62312": {"city": "Adams County", "rent": 920, "zip": "62312"}, "adams-county-62314": {"city": "Adams County", "rent": 950, "zip": "62314"}, "adams-county-62316": {"city": "Adams County", "rent": 920, "zip": "62316"}, "adams-county-62320": {"city": "Adams County", "rent": 930, "zip": "62320"}, "adams-county-62324": {"city": "Adams County", "rent": 1070, "zip": "62324"}, "adams-county-62325": {"city": "Adams County", "rent": 1030, "zip": "62325"}, "adams-county-62338": {"city": "Adams County", "rent": 1160, "zip": "62338"}, "adams-county-62339": {"city": "Adams County", "rent": 920, "zip": "62339"}, "adams-county-62343": {"city": "Adams County", "rent": 920, "zip": "62343"}, "adams-county-62346": {"city": "Adams County", "rent": 970, "zip": "62346"}, "adams-county-62347": {"city": "Adams County", "rent": 1010, "zip": "62347"}, "adams-county-62348": {"city": "Adams County", "rent": 1120, "zip": "62348"}, "adams-county-62349": {"city": "Adams County", "rent": 1000, "zip": "62349"}, "adams-county-62351": {"city": "Adams County", "rent": 1130, "zip": "62351"}, "adams-county-62359": {"city": "Adams County", "rent": 1060, "zip": "62359"}, "adams-county-62360": {"city": "Adams County", "rent": 1120, "zip": "62360"}, "adams-county-62365": {"city": "Adams County", "rent": 920, "zip": "62365"}, "adams-county-62373": {"city": "Adams County", "rent": 1000, "zip": "62373"}, "adams-county-62376": {"city": "Adams County", "rent": 1120, "zip": "62376"}, "adams-county-62379": {"city": "Adams County", "rent": 920, "zip": "62379"}, "brown-county-62314": {"city": "Brown County", "rent": 950, "zip": "62314"}, "brown-county-62323": {"city": "Brown County", "rent": 940, "zip": "62323"}, "brown-county-62353": {"city": "Brown County", "rent": 1050, "zip": "62353"}, "brown-county-62375": {"city": "Brown County", "rent": 1380, "zip": "62375"}, "brown-county-62378": {"city": "Brown County", "rent": 1020, "zip": "62378"}, "bureau-county-61243": {"city": "Bureau County", "rent": 1040, "zip": "61243"}, "bureau-county-61283": {"city": "Bureau County", "rent": 1010, "zip": "61283"}, "bureau-county-61312": {"city": "Bureau County", "rent": 1330, "zip": "61312"}, "bureau-county-61314": {"city": "Bureau County", "rent": 1080, "zip": "61314"}, "bureau-county-61315": {"city": "Bureau County", "rent": 970, "zip": "61315"}, "bureau-county-61317": {"city": "Bureau County", "rent": 1030, "zip": "61317"}, "bureau-county-61320": {"city": "Bureau County", "rent": 1110, "zip": "61320"}, "bureau-county-61322": {"city": "Bureau County", "rent": 1130, "zip": "61322"}, "bureau-county-61323": {"city": "Bureau County", "rent": 970, "zip": "61323"}, "bureau-county-61328": {"city": "Bureau County", "rent": 920, "zip": "61328"}, "bureau-county-61329": {"city": "Bureau County", "rent": 1010, "zip": "61329"}, "bureau-county-61330": {"city": "Bureau County", "rent": 960, "zip": "61330"}, "bureau-county-61337": {"city": "Bureau County", "rent": 1190, "zip": "61337"}, "bureau-county-61338": {"city": "Bureau County", "rent": 920, "zip": "61338"}, "bureau-county-61342": {"city": "Bureau County", "rent": 1020, "zip": "61342"}, "bureau-county-61344": {"city": "Bureau County", "rent": 1250, "zip": "61344"}, "bureau-county-61345": {"city": "Bureau County", "rent": 950, "zip": "61345"}, "bureau-county-61346": {"city": "Bureau County", "rent": 1160, "zip": "61346"}, "bureau-county-61349": {"city": "Bureau County", "rent": 920, "zip": "61349"}, "bureau-county-61354": {"city": "Bureau County", "rent": 960, "zip": "61354"}, "bureau-county-61356": {"city": "Bureau County", "rent": 970, "zip": "61356"}, "bureau-county-61359": {"city": "Bureau County", "rent": 920, "zip": "61359"}, "bureau-county-61361": {"city": "Bureau County", "rent": 1070, "zip": "61361"}, "bureau-county-61362": {"city": "Bureau County", "rent": 1190, "zip": "61362"}, "bureau-county-61368": {"city": "Bureau County", "rent": 980, "zip": "61368"}, "bureau-county-61374": {"city": "Bureau County", "rent": 950, "zip": "61374"}, "bureau-county-61376": {"city": "Bureau County", "rent": 1270, "zip": "61376"}, "bureau-county-61379": {"city": "Bureau County", "rent": 990, "zip": "61379"}, "bureau-county-61421": {"city": "Bureau County", "rent": 990, "zip": "61421"}, "bureau-county-61443": {"city": "Bureau County", "rent": 1050, "zip": "61443"}, "bureau-county-61537": {"city": "Bureau County", "rent": 920, "zip": "61537"}, "bureau-county-61560": {"city": "Bureau County", "rent": 950, "zip": "61560"}, "carroll-county-61014": {"city": "Carroll County", "rent": 1120, "zip": "61014"}, "carroll-county-61028": {"city": "Carroll County", "rent": 1060, "zip": "61028"}, "carroll-county-61046": {"city": "Carroll County", "rent": 920, "zip": "61046"}, "carroll-county-61051": {"city": "Carroll County", "rent": 920, "zip": "61051"}, "carroll-county-61053": {"city": "Carroll County", "rent": 920, "zip": "61053"}, "carroll-county-61062": {"city": "Carroll County", "rent": 920, "zip": "61062"}, "carroll-county-61064": {"city": "Carroll County", "rent": 1030, "zip": "61064"}, "carroll-county-61074": {"city": "Carroll County", "rent": 970, "zip": "61074"}, "carroll-county-61078": {"city": "Carroll County", "rent": 960, "zip": "61078"}, "carroll-county-61252": {"city": "Carroll County", "rent": 1000, "zip": "61252"}, "carroll-county-61270": {"city": "Carroll County", "rent": 1060, "zip": "61270"}, "carroll-county-61285": {"city": "Carroll County", "rent": 940, "zip": "61285"}, "cass-county-62611": {"city": "Cass County", "rent": 1010, "zip": "62611"}, "cass-county-62612": {"city": "Cass County", "rent": 1090, "zip": "62612"}, "cass-county-62618": {"city": "Cass County", "rent": 940, "zip": "62618"}, "cass-county-62622": {"city": "Cass County", "rent": 930, "zip": "62622"}, "cass-county-62627": {"city": "Cass County", "rent": 1170, "zip": "62627"}, "cass-county-62665": {"city": "Cass County", "rent": 920, "zip": "62665"}, "cass-county-62673": {"city": "Cass County", "rent": 1020, "zip": "62673"}, "cass-county-62675": {"city": "Cass County", "rent": 1080, "zip": "62675"}, "cass-county-62677": {"city": "Cass County", "rent": 1160, "zip": "62677"}, "cass-county-62691": {"city": "Cass County", "rent": 920, "zip": "62691"}, "christian-county-62075": {"city": "Christian County", "rent": 1030, "zip": "62075"}, "christian-county-62083": {"city": "Christian County", "rent": 970, "zip": "62083"}, "christian-county-62510": {"city": "Christian County", "rent": 920, "zip": "62510"}, "christian-county-62513": {"city": "Christian County", "rent": 1570, "zip": "62513"}, "christian-county-62517": {"city": "Christian County", "rent": 1050, "zip": "62517"}, "christian-county-62531": {"city": "Christian County", "rent": 980, "zip": "62531"}, "christian-county-62538": {"city": "Christian County", "rent": 920, "zip": "62538"}, "christian-county-62540": {"city": "Christian County", "rent": 970, "zip": "62540"}, "christian-county-62545": {"city": "Christian County", "rent": 1060, "zip": "62545"}, "christian-county-62546": {"city": "Christian County", "rent": 920, "zip": "62546"}, "christian-county-62547": {"city": "Christian County", "rent": 1310, "zip": "62547"}, "christian-county-62550": {"city": "Christian County", "rent": 1150, "zip": "62550"}, "christian-county-62555": {"city": "Christian County", "rent": 920, "zip": "62555"}, "christian-county-62556": {"city": "Christian County", "rent": 940, "zip": "62556"}, "christian-county-62557": {"city": "Christian County", "rent": 950, "zip": "62557"}, "christian-county-62558": {"city": "Christian County", "rent": 1080, "zip": "62558"}, "christian-county-62560": {"city": "Christian County", "rent": 1060, "zip": "62560"}, "christian-county-62563": {"city": "Christian County", "rent": 1620, "zip": "62563"}, "christian-county-62567": {"city": "Christian County", "rent": 1060, "zip": "62567"}, "christian-county-62568": {"city": "Christian County", "rent": 980, "zip": "62568"}, "christian-county-62570": {"city": "Christian County", "rent": 1070, "zip": "62570"}, "clark-county-61912": {"city": "Clark County", "rent": 920, "zip": "61912"}, "clark-county-61933": {"city": "Clark County", "rent": 1000, "zip": "61933"}, "clark-county-61944": {"city": "Clark County", "rent": 920, "zip": "61944"}, "clark-county-62413": {"city": "Clark County", "rent": 940, "zip": "62413"}, "clark-county-62420": {"city": "Clark County", "rent": 970, "zip": "62420"}, "clark-county-62423": {"city": "Clark County", "rent": 970, "zip": "62423"}, "clark-county-62441": {"city": "Clark County", "rent": 1010, "zip": "62441"}, "clark-county-62442": {"city": "Clark County", "rent": 1030, "zip": "62442"}, "clark-county-62449": {"city": "Clark County", "rent": 920, "zip": "62449"}, "clark-county-62474": {"city": "Clark County", "rent": 1050, "zip": "62474"}, "clark-county-62477": {"city": "Clark County", "rent": 1510, "zip": "62477"}, "clark-county-62478": {"city": "Clark County", "rent": 1230, "zip": "62478"}, "clark-county-62481": {"city": "Clark County", "rent": 930, "zip": "62481"}, "clay-county-62424": {"city": "Clay County", "rent": 920, "zip": "62424"}, "clay-county-62426": {"city": "Clay County", "rent": 920, "zip": "62426"}, "clay-county-62434": {"city": "Clay County", "rent": 960, "zip": "62434"}, "clay-county-62443": {"city": "Clay County", "rent": 970, "zip": "62443"}, "clay-county-62448": {"city": "Clay County", "rent": 920, "zip": "62448"}, "clay-county-62824": {"city": "Clay County", "rent": 920, "zip": "62824"}, "clay-county-62838": {"city": "Clay County", "rent": 920, "zip": "62838"}, "clay-county-62839": {"city": "Clay County", "rent": 920, "zip": "62839"}, "clay-county-62854": {"city": "Clay County", "rent": 920, "zip": "62854"}, "clay-county-62858": {"city": "Clay County", "rent": 1090, "zip": "62858"}, "clay-county-62868": {"city": "Clay County", "rent": 920, "zip": "62868"}, "clay-county-62879": {"city": "Clay County", "rent": 920, "zip": "62879"}, "clay-county-62899": {"city": "Clay County", "rent": 920, "zip": "62899"}, "coles-county-61910": {"city": "Coles County", "rent": 930, "zip": "61910"}, "coles-county-61911": {"city": "Coles County", "rent": 920, "zip": "61911"}, "coles-county-61912": {"city": "Coles County", "rent": 920, "zip": "61912"}, "coles-county-61920": {"city": "Coles County", "rent": 1000, "zip": "61920"}, "coles-county-61928": {"city": "Coles County", "rent": 940, "zip": "61928"}, "coles-county-61930": {"city": "Coles County", "rent": 970, "zip": "61930"}, "coles-county-61931": {"city": "Coles County", "rent": 1080, "zip": "61931"}, "coles-county-61933": {"city": "Coles County", "rent": 1000, "zip": "61933"}, "coles-county-61938": {"city": "Coles County", "rent": 920, "zip": "61938"}, "coles-county-61943": {"city": "Coles County", "rent": 920, "zip": "61943"}, "coles-county-61951": {"city": "Coles County", "rent": 980, "zip": "61951"}, "coles-county-62420": {"city": "Coles County", "rent": 970, "zip": "62420"}, "coles-county-62440": {"city": "Coles County", "rent": 1310, "zip": "62440"}, "coles-county-62447": {"city": "Coles County", "rent": 970, "zip": "62447"}, "coles-county-62469": {"city": "Coles County", "rent": 1050, "zip": "62469"}, "coles-county-62474": {"city": "Coles County", "rent": 1050, "zip": "62474"}, "crawford-county-62413": {"city": "Crawford County", "rent": 940, "zip": "62413"}, "crawford-county-62421": {"city": "Crawford County", "rent": 980, "zip": "62421"}, "crawford-county-62427": {"city": "Crawford County", "rent": 990, "zip": "62427"}, "crawford-county-62433": {"city": "Crawford County", "rent": 920, "zip": "62433"}, "crawford-county-62442": {"city": "Crawford County", "rent": 1030, "zip": "62442"}, "crawford-county-62449": {"city": "Crawford County", "rent": 920, "zip": "62449"}, "crawford-county-62451": {"city": "Crawford County", "rent": 920, "zip": "62451"}, "crawford-county-62454": {"city": "Crawford County", "rent": 970, "zip": "62454"}, "crawford-county-62464": {"city": "Crawford County", "rent": 970, "zip": "62464"}, "crawford-county-62466": {"city": "Crawford County", "rent": 920, "zip": "62466"}, "crawford-county-62478": {"city": "Crawford County", "rent": 1230, "zip": "62478"}, "cumberland-county-61920": {"city": "Cumberland County", "rent": 1000, "zip": "61920"}, "cumberland-county-61938": {"city": "Cumberland County", "rent": 920, "zip": "61938"}, "cumberland-county-62420": {"city": "Cumberland County", "rent": 970, "zip": "62420"}, "cumberland-county-62428": {"city": "Cumberland County", "rent": 920, "zip": "62428"}, "cumberland-county-62432": {"city": "Cumberland County", "rent": 920, "zip": "62432"}, "cumberland-county-62436": {"city": "Cumberland County", "rent": 940, "zip": "62436"}, "cumberland-county-62440": {"city": "Cumberland County", "rent": 1310, "zip": "62440"}, "cumberland-county-62445": {"city": "Cumberland County", "rent": 920, "zip": "62445"}, "cumberland-county-62447": {"city": "Cumberland County", "rent": 970, "zip": "62447"}, "cumberland-county-62462": {"city": "Cumberland County", "rent": 920, "zip": "62462"}, "cumberland-county-62467": {"city": "Cumberland County", "rent": 920, "zip": "62467"}, "cumberland-county-62468": {"city": "Cumberland County", "rent": 970, "zip": "62468"}, "cumberland-county-62469": {"city": "Cumberland County", "rent": 1050, "zip": "62469"}, "de-witt-county-61727": {"city": "De Witt County", "rent": 1050, "zip": "61727"}, "de-witt-county-61735": {"city": "De Witt County", "rent": 1080, "zip": "61735"}, "de-witt-county-61745": {"city": "De Witt County", "rent": 1300, "zip": "61745"}, "de-witt-county-61749": {"city": "De Witt County", "rent": 950, "zip": "61749"}, "de-witt-county-61750": {"city": "De Witt County", "rent": 1050, "zip": "61750"}, "de-witt-county-61752": {"city": "De Witt County", "rent": 1030, "zip": "61752"}, "de-witt-county-61754": {"city": "De Witt County", "rent": 1500, "zip": "61754"}, "de-witt-county-61756": {"city": "De Witt County", "rent": 1040, "zip": "61756"}, "de-witt-county-61777": {"city": "De Witt County", "rent": 920, "zip": "61777"}, "de-witt-county-61778": {"city": "De Witt County", "rent": 1180, "zip": "61778"}, "de-witt-county-61839": {"city": "De Witt County", "rent": 980, "zip": "61839"}, "de-witt-county-61842": {"city": "De Witt County", "rent": 1210, "zip": "61842"}, "de-witt-county-61882": {"city": "De Witt County", "rent": 1080, "zip": "61882"}, "de-witt-county-62501": {"city": "De Witt County", "rent": 1330, "zip": "62501"}, "de-witt-county-62512": {"city": "De Witt County", "rent": 990, "zip": "62512"}, "douglas-county-61810": {"city": "Douglas County", "rent": 1030, "zip": "61810"}, "douglas-county-61851": {"city": "Douglas County", "rent": 1010, "zip": "61851"}, "douglas-county-61852": {"city": "Douglas County", "rent": 1050, "zip": "61852"}, "douglas-county-61863": {"city": "Douglas County", "rent": 980, "zip": "61863"}, "douglas-county-61872": {"city": "Douglas County", "rent": 1020, "zip": "61872"}, "douglas-county-61910": {"city": "Douglas County", "rent": 930, "zip": "61910"}, "douglas-county-61911": {"city": "Douglas County", "rent": 920, "zip": "61911"}, "douglas-county-61913": {"city": "Douglas County", "rent": 980, "zip": "61913"}, "douglas-county-61917": {"city": "Douglas County", "rent": 970, "zip": "61917"}, "douglas-county-61919": {"city": "Douglas County", "rent": 920, "zip": "61919"}, "douglas-county-61930": {"city": "Douglas County", "rent": 970, "zip": "61930"}, "douglas-county-61941": {"city": "Douglas County", "rent": 920, "zip": "61941"}, "douglas-county-61942": {"city": "Douglas County", "rent": 920, "zip": "61942"}, "douglas-county-61943": {"city": "Douglas County", "rent": 920, "zip": "61943"}, "douglas-county-61953": {"city": "Douglas County", "rent": 990, "zip": "61953"}, "douglas-county-61956": {"city": "Douglas County", "rent": 980, "zip": "61956"}, "edgar-county-61810": {"city": "Edgar County", "rent": 1030, "zip": "61810"}, "edgar-county-61850": {"city": "Edgar County", "rent": 970, "zip": "61850"}, "edgar-county-61870": {"city": "Edgar County", "rent": 920, "zip": "61870"}, "edgar-county-61876": {"city": "Edgar County", "rent": 1010, "zip": "61876"}, "edgar-county-61917": {"city": "Edgar County", "rent": 970, "zip": "61917"}, "edgar-county-61924": {"city": "Edgar County", "rent": 920, "zip": "61924"}, "edgar-county-61932": {"city": "Edgar County", "rent": 1170, "zip": "61932"}, "edgar-county-61933": {"city": "Edgar County", "rent": 1000, "zip": "61933"}, "edgar-county-61940": {"city": "Edgar County", "rent": 1040, "zip": "61940"}, "edgar-county-61942": {"city": "Edgar County", "rent": 920, "zip": "61942"}, "edgar-county-61943": {"city": "Edgar County", "rent": 920, "zip": "61943"}, "edgar-county-61944": {"city": "Edgar County", "rent": 920, "zip": "61944"}, "edgar-county-61949": {"city": "Edgar County", "rent": 920, "zip": "61949"}, "edgar-county-61955": {"city": "Edgar County", "rent": 1370, "zip": "61955"}, "edgar-county-62423": {"city": "Edgar County", "rent": 970, "zip": "62423"}, "edgar-county-62441": {"city": "Edgar County", "rent": 1010, "zip": "62441"}, "edwards-county-62476": {"city": "Edwards County", "rent": 920, "zip": "62476"}, "edwards-county-62806": {"city": "Edwards County", "rent": 940, "zip": "62806"}, "edwards-county-62815": {"city": "Edwards County", "rent": 920, "zip": "62815"}, "edwards-county-62818": {"city": "Edwards County", "rent": 930, "zip": "62818"}, "edwards-county-62833": {"city": "Edwards County", "rent": 930, "zip": "62833"}, "edwards-county-62844": {"city": "Edwards County", "rent": 920, "zip": "62844"}, "effingham-county-62401": {"city": "Effingham County", "rent": 920, "zip": "62401"}, "effingham-county-62411": {"city": "Effingham County", "rent": 1050, "zip": "62411"}, "effingham-county-62414": {"city": "Effingham County", "rent": 990, "zip": "62414"}, "effingham-county-62424": {"city": "Effingham County", "rent": 920, "zip": "62424"}, "effingham-county-62426": {"city": "Effingham County", "rent": 920, "zip": "62426"}, "effingham-county-62443": {"city": "Effingham County", "rent": 970, "zip": "62443"}, "effingham-county-62445": {"city": "Effingham County", "rent": 920, "zip": "62445"}, "effingham-county-62458": {"city": "Effingham County", "rent": 920, "zip": "62458"}, "effingham-county-62461": {"city": "Effingham County", "rent": 940, "zip": "62461"}, "effingham-county-62462": {"city": "Effingham County", "rent": 920, "zip": "62462"}, "effingham-county-62467": {"city": "Effingham County", "rent": 920, "zip": "62467"}, "effingham-county-62473": {"city": "Effingham County", "rent": 920, "zip": "62473"}, "effingham-county-62479": {"city": "Effingham County", "rent": 1030, "zip": "62479"}, "effingham-county-62838": {"city": "Effingham County", "rent": 920, "zip": "62838"}, "effingham-county-62858": {"city": "Effingham County", "rent": 1090, "zip": "62858"}, "fayette-county-62011": {"city": "Fayette County", "rent": 960, "zip": "62011"}, "fayette-county-62075": {"city": "Fayette County", "rent": 1030, "zip": "62075"}, "fayette-county-62080": {"city": "Fayette County", "rent": 990, "zip": "62080"}, "fayette-county-62253": {"city": "Fayette County", "rent": 990, "zip": "62253"}, "fayette-county-62262": {"city": "Fayette County", "rent": 1090, "zip": "62262"}, "fayette-county-62411": {"city": "Fayette County", "rent": 1050, "zip": "62411"}, "fayette-county-62414": {"city": "Fayette County", "rent": 990, "zip": "62414"}, "fayette-county-62418": {"city": "Fayette County", "rent": 970, "zip": "62418"}, "fayette-county-62422": {"city": "Fayette County", "rent": 920, "zip": "62422"}, "fayette-county-62426": {"city": "Fayette County", "rent": 920, "zip": "62426"}, "fayette-county-62431": {"city": "Fayette County", "rent": 920, "zip": "62431"}, "fayette-county-62458": {"city": "Fayette County", "rent": 920, "zip": "62458"}, "fayette-county-62471": {"city": "Fayette County", "rent": 920, "zip": "62471"}, "fayette-county-62838": {"city": "Fayette County", "rent": 920, "zip": "62838"}, "fayette-county-62854": {"city": "Fayette County", "rent": 920, "zip": "62854"}, "fayette-county-62875": {"city": "Fayette County", "rent": 1090, "zip": "62875"}, "fayette-county-62880": {"city": "Fayette County", "rent": 920, "zip": "62880"}, "fayette-county-62885": {"city": "Fayette County", "rent": 920, "zip": "62885"}, "fayette-county-62892": {"city": "Fayette County", "rent": 1060, "zip": "62892"}, "franklin-county-62810": {"city": "Franklin County", "rent": 950, "zip": "62810"}, "franklin-county-62812": {"city": "Franklin County", "rent": 920, "zip": "62812"}, "franklin-county-62819": {"city": "Franklin County", "rent": 1020, "zip": "62819"}, "franklin-county-62822": {"city": "Franklin County", "rent": 920, "zip": "62822"}, "franklin-county-62825": {"city": "Franklin County", "rent": 920, "zip": "62825"}, "franklin-county-62836": {"city": "Franklin County", "rent": 950, "zip": "62836"}, "franklin-county-62840": {"city": "Franklin County", "rent": 920, "zip": "62840"}, "franklin-county-62841": {"city": "Franklin County", "rent": 1040, "zip": "62841"}, "franklin-county-62856": {"city": "Franklin County", "rent": 1020, "zip": "62856"}, "franklin-county-62860": {"city": "Franklin County", "rent": 990, "zip": "62860"}, "franklin-county-62865": {"city": "Franklin County", "rent": 920, "zip": "62865"}, "franklin-county-62874": {"city": "Franklin County", "rent": 920, "zip": "62874"}, "franklin-county-62883": {"city": "Franklin County", "rent": 970, "zip": "62883"}, "franklin-county-62884": {"city": "Franklin County", "rent": 920, "zip": "62884"}, "franklin-county-62890": {"city": "Franklin County", "rent": 1230, "zip": "62890"}, "franklin-county-62891": {"city": "Franklin County", "rent": 1000, "zip": "62891"}, "franklin-county-62896": {"city": "Franklin County", "rent": 930, "zip": "62896"}, "franklin-county-62897": {"city": "Franklin County", "rent": 1180, "zip": "62897"}, "franklin-county-62932": {"city": "Franklin County", "rent": 920, "zip": "62932"}, "franklin-county-62948": {"city": "Franklin County", "rent": 1160, "zip": "62948"}, "franklin-county-62983": {"city": "Franklin County", "rent": 950, "zip": "62983"}, "franklin-county-62999": {"city": "Franklin County", "rent": 920, "zip": "62999"}, "fulton-county-61415": {"city": "Fulton County", "rent": 920, "zip": "61415"}, "fulton-county-61427": {"city": "Fulton County", "rent": 950, "zip": "61427"}, "fulton-county-61431": {"city": "Fulton County", "rent": 960, "zip": "61431"}, "fulton-county-61432": {"city": "Fulton County", "rent": 990, "zip": "61432"}, "fulton-county-61433": {"city": "Fulton County", "rent": 930, "zip": "61433"}, "fulton-county-61441": {"city": "Fulton County", "rent": 930, "zip": "61441"}, "fulton-county-61459": {"city": "Fulton County", "rent": 940, "zip": "61459"}, "fulton-county-61474": {"city": "Fulton County", "rent": 940, "zip": "61474"}, "fulton-county-61477": {"city": "Fulton County", "rent": 930, "zip": "61477"}, "fulton-county-61482": {"city": "Fulton County", "rent": 920, "zip": "61482"}, "fulton-county-61484": {"city": "Fulton County", "rent": 920, "zip": "61484"}, "fulton-county-61501": {"city": "Fulton County", "rent": 920, "zip": "61501"}, "fulton-county-61519": {"city": "Fulton County", "rent": 920, "zip": "61519"}, "fulton-county-61520": {"city": "Fulton County", "rent": 920, "zip": "61520"}, "fulton-county-61524": {"city": "Fulton County", "rent": 960, "zip": "61524"}, "fulton-county-61531": {"city": "Fulton County", "rent": 980, "zip": "61531"}, "fulton-county-61533": {"city": "Fulton County", "rent": 920, "zip": "61533"}, "fulton-county-61542": {"city": "Fulton County", "rent": 920, "zip": "61542"}, "fulton-county-61543": {"city": "Fulton County", "rent": 920, "zip": "61543"}, "fulton-county-61544": {"city": "Fulton County", "rent": 1050, "zip": "61544"}, "fulton-county-61553": {"city": "Fulton County", "rent": 920, "zip": "61553"}, "fulton-county-61563": {"city": "Fulton County", "rent": 920, "zip": "61563"}, "fulton-county-61569": {"city": "Fulton County", "rent": 940, "zip": "61569"}, "fulton-county-62644": {"city": "Fulton County", "rent": 920, "zip": "62644"}, "gallatin-county-62867": {"city": "Gallatin County", "rent": 920, "zip": "62867"}, "gallatin-county-62869": {"city": "Gallatin County", "rent": 920, "zip": "62869"}, "gallatin-county-62871": {"city": "Gallatin County", "rent": 1050, "zip": "62871"}, "gallatin-county-62930": {"city": "Gallatin County", "rent": 970, "zip": "62930"}, "gallatin-county-62931": {"city": "Gallatin County", "rent": 920, "zip": "62931"}, "gallatin-county-62934": {"city": "Gallatin County", "rent": 940, "zip": "62934"}, "gallatin-county-62954": {"city": "Gallatin County", "rent": 940, "zip": "62954"}, "gallatin-county-62979": {"city": "Gallatin County", "rent": 930, "zip": "62979"}, "gallatin-county-62984": {"city": "Gallatin County", "rent": 950, "zip": "62984"}, "greene-county-62016": {"city": "Greene County", "rent": 1090, "zip": "62016"}, "greene-county-62027": {"city": "Greene County", "rent": 1050, "zip": "62027"}, "greene-county-62044": {"city": "Greene County", "rent": 1060, "zip": "62044"}, "greene-county-62050": {"city": "Greene County", "rent": 950, "zip": "62050"}, "greene-county-62052": {"city": "Greene County", "rent": 990, "zip": "62052"}, "greene-county-62054": {"city": "Greene County", "rent": 990, "zip": "62054"}, "greene-county-62063": {"city": "Greene County", "rent": 990, "zip": "62063"}, "greene-county-62078": {"city": "Greene County", "rent": 940, "zip": "62078"}, "greene-county-62081": {"city": "Greene County", "rent": 1000, "zip": "62081"}, "greene-county-62082": {"city": "Greene County", "rent": 940, "zip": "62082"}, "greene-county-62092": {"city": "Greene County", "rent": 920, "zip": "62092"}, "greene-county-62098": {"city": "Greene County", "rent": 1030, "zip": "62098"}, "greene-county-62630": {"city": "Greene County", "rent": 950, "zip": "62630"}, "greene-county-62649": {"city": "Greene County", "rent": 920, "zip": "62649"}, "greene-county-62694": {"city": "Greene County", "rent": 920, "zip": "62694"}, "hamilton-county-62810": {"city": "Hamilton County", "rent": 950, "zip": "62810"}, "hamilton-county-62817": {"city": "Hamilton County", "rent": 1120, "zip": "62817"}, "hamilton-county-62828": {"city": "Hamilton County", "rent": 920, "zip": "62828"}, "hamilton-county-62829": {"city": "Hamilton County", "rent": 990, "zip": "62829"}, "hamilton-county-62835": {"city": "Hamilton County", "rent": 920, "zip": "62835"}, "hamilton-county-62859": {"city": "Hamilton County", "rent": 920, "zip": "62859"}, "hamilton-county-62860": {"city": "Hamilton County", "rent": 990, "zip": "62860"}, "hamilton-county-62869": {"city": "Hamilton County", "rent": 920, "zip": "62869"}, "hamilton-county-62887": {"city": "Hamilton County", "rent": 940, "zip": "62887"}, "hamilton-county-62890": {"city": "Hamilton County", "rent": 1230, "zip": "62890"}, "hamilton-county-62895": {"city": "Hamilton County", "rent": 1040, "zip": "62895"}, "hamilton-county-62930": {"city": "Hamilton County", "rent": 970, "zip": "62930"}, "hamilton-county-62935": {"city": "Hamilton County", "rent": 1030, "zip": "62935"}, "hancock-county-61420": {"city": "Hancock County", "rent": 970, "zip": "61420"}, "hancock-county-61450": {"city": "Hancock County", "rent": 920, "zip": "61450"}, "hancock-county-61454": {"city": "Hancock County", "rent": 920, "zip": "61454"}, "hancock-county-62311": {"city": "Hancock County", "rent": 920, "zip": "62311"}, "hancock-county-62313": {"city": "Hancock County", "rent": 920, "zip": "62313"}, "hancock-county-62316": {"city": "Hancock County", "rent": 920, "zip": "62316"}, "hancock-county-62321": {"city": "Hancock County", "rent": 920, "zip": "62321"}, "hancock-county-62326": {"city": "Hancock County", "rent": 960, "zip": "62326"}, "hancock-county-62329": {"city": "Hancock County", "rent": 920, "zip": "62329"}, "hancock-county-62330": {"city": "Hancock County", "rent": 1040, "zip": "62330"}, "hancock-county-62334": {"city": "Hancock County", "rent": 940, "zip": "62334"}, "hancock-county-62336": {"city": "Hancock County", "rent": 920, "zip": "62336"}, "hancock-county-62341": {"city": "Hancock County", "rent": 990, "zip": "62341"}, "hancock-county-62346": {"city": "Hancock County", "rent": 970, "zip": "62346"}, "hancock-county-62349": {"city": "Hancock County", "rent": 1000, "zip": "62349"}, "hancock-county-62351": {"city": "Hancock County", "rent": 1130, "zip": "62351"}, "hancock-county-62354": {"city": "Hancock County", "rent": 1000, "zip": "62354"}, "hancock-county-62358": {"city": "Hancock County", "rent": 1040, "zip": "62358"}, "hancock-county-62367": {"city": "Hancock County", "rent": 920, "zip": "62367"}, "hancock-county-62373": {"city": "Hancock County", "rent": 1000, "zip": "62373"}, "hancock-county-62374": {"city": "Hancock County", "rent": 1100, "zip": "62374"}, "hancock-county-62379": {"city": "Hancock County", "rent": 920, "zip": "62379"}, "hancock-county-62380": {"city": "Hancock County", "rent": 960, "zip": "62380"}, "hardin-county-62919": {"city": "Hardin County", "rent": 920, "zip": "62919"}, "hardin-county-62931": {"city": "Hardin County", "rent": 920, "zip": "62931"}, "hardin-county-62938": {"city": "Hardin County", "rent": 970, "zip": "62938"}, "hardin-county-62947": {"city": "Hardin County", "rent": 920, "zip": "62947"}, "hardin-county-62982": {"city": "Hardin County", "rent": 1040, "zip": "62982"}, "henderson-county-61418": {"city": "Henderson County", "rent": 940, "zip": "61418"}, "henderson-county-61425": {"city": "Henderson County", "rent": 950, "zip": "61425"}, "henderson-county-61437": {"city": "Henderson County", "rent": 990, "zip": "61437"}, "henderson-county-61442": {"city": "Henderson County", "rent": 930, "zip": "61442"}, "henderson-county-61447": {"city": "Henderson County", "rent": 960, "zip": "61447"}, "henderson-county-61450": {"city": "Henderson County", "rent": 920, "zip": "61450"}, "henderson-county-61453": {"city": "Henderson County", "rent": 980, "zip": "61453"}, "henderson-county-61454": {"city": "Henderson County", "rent": 920, "zip": "61454"}, "henderson-county-61460": {"city": "Henderson County", "rent": 920, "zip": "61460"}, "henderson-county-61462": {"city": "Henderson County", "rent": 920, "zip": "61462"}, "henderson-county-61469": {"city": "Henderson County", "rent": 920, "zip": "61469"}, "henderson-county-61471": {"city": "Henderson County", "rent": 920, "zip": "61471"}, "henderson-county-61476": {"city": "Henderson County", "rent": 970, "zip": "61476"}, "henderson-county-61478": {"city": "Henderson County", "rent": 970, "zip": "61478"}, "henderson-county-61480": {"city": "Henderson County", "rent": 920, "zip": "61480"}, "henderson-county-62330": {"city": "Henderson County", "rent": 1040, "zip": "62330"}, "iroquois-county-60911": {"city": "Iroquois County", "rent": 1060, "zip": "60911"}, "iroquois-county-60912": {"city": "Iroquois County", "rent": 920, "zip": "60912"}, "iroquois-county-60918": {"city": "Iroquois County", "rent": 970, "zip": "60918"}, "iroquois-county-60922": {"city": "Iroquois County", "rent": 1210, "zip": "60922"}, "iroquois-county-60924": {"city": "Iroquois County", "rent": 920, "zip": "60924"}, "iroquois-county-60926": {"city": "Iroquois County", "rent": 920, "zip": "60926"}, "iroquois-county-60927": {"city": "Iroquois County", "rent": 1020, "zip": "60927"}, "iroquois-county-60928": {"city": "Iroquois County", "rent": 920, "zip": "60928"}, "iroquois-county-60930": {"city": "Iroquois County", "rent": 990, "zip": "60930"}, "iroquois-county-60931": {"city": "Iroquois County", "rent": 1010, "zip": "60931"}, "iroquois-county-60938": {"city": "Iroquois County", "rent": 920, "zip": "60938"}, "iroquois-county-60939": {"city": "Iroquois County", "rent": 920, "zip": "60939"}, "iroquois-county-60941": {"city": "Iroquois County", "rent": 1310, "zip": "60941"}, "iroquois-county-60942": {"city": "Iroquois County", "rent": 1010, "zip": "60942"}, "iroquois-county-60945": {"city": "Iroquois County", "rent": 1120, "zip": "60945"}, "iroquois-county-60948": {"city": "Iroquois County", "rent": 980, "zip": "60948"}, "iroquois-county-60951": {"city": "Iroquois County", "rent": 990, "zip": "60951"}, "iroquois-county-60953": {"city": "Iroquois County", "rent": 920, "zip": "60953"}, "iroquois-county-60955": {"city": "Iroquois County", "rent": 920, "zip": "60955"}, "iroquois-county-60956": {"city": "Iroquois County", "rent": 920, "zip": "60956"}, "iroquois-county-60957": {"city": "Iroquois County", "rent": 1020, "zip": "60957"}, "iroquois-county-60960": {"city": "Iroquois County", "rent": 980, "zip": "60960"}, "iroquois-county-60964": {"city": "Iroquois County", "rent": 1130, "zip": "60964"}, "iroquois-county-60966": {"city": "Iroquois County", "rent": 920, "zip": "60966"}, "iroquois-county-60967": {"city": "Iroquois County", "rent": 920, "zip": "60967"}, "iroquois-county-60968": {"city": "Iroquois County", "rent": 920, "zip": "60968"}, "iroquois-county-60970": {"city": "Iroquois County", "rent": 920, "zip": "60970"}, "iroquois-county-60973": {"city": "Iroquois County", "rent": 1020, "zip": "60973"}, "iroquois-county-60974": {"city": "Iroquois County", "rent": 1080, "zip": "60974"}, "jackson-county-62272": {"city": "Jackson County", "rent": 920, "zip": "62272"}, "jackson-county-62274": {"city": "Jackson County", "rent": 920, "zip": "62274"}, "jackson-county-62280": {"city": "Jackson County", "rent": 950, "zip": "62280"}, "jackson-county-62832": {"city": "Jackson County", "rent": 950, "zip": "62832"}, "jackson-county-62901": {"city": "Jackson County", "rent": 980, "zip": "62901"}, "jackson-county-62902": {"city": "Jackson County", "rent": 940, "zip": "62902"}, "jackson-county-62903": {"city": "Jackson County", "rent": 930, "zip": "62903"}, "jackson-county-62905": {"city": "Jackson County", "rent": 920, "zip": "62905"}, "jackson-county-62907": {"city": "Jackson County", "rent": 970, "zip": "62907"}, "jackson-county-62916": {"city": "Jackson County", "rent": 920, "zip": "62916"}, "jackson-county-62918": {"city": "Jackson County", "rent": 1120, "zip": "62918"}, "jackson-county-62920": {"city": "Jackson County", "rent": 950, "zip": "62920"}, "jackson-county-62924": {"city": "Jackson County", "rent": 1000, "zip": "62924"}, "jackson-county-62927": {"city": "Jackson County", "rent": 960, "zip": "62927"}, "jackson-county-62932": {"city": "Jackson County", "rent": 920, "zip": "62932"}, "jackson-county-62940": {"city": "Jackson County", "rent": 920, "zip": "62940"}, "jackson-county-62942": {"city": "Jackson County", "rent": 920, "zip": "62942"}, "jackson-county-62950": {"city": "Jackson County", "rent": 930, "zip": "62950"}, "jackson-county-62958": {"city": "Jackson County", "rent": 990, "zip": "62958"}, "jackson-county-62966": {"city": "Jackson County", "rent": 920, "zip": "62966"}, "jackson-county-62975": {"city": "Jackson County", "rent": 920, "zip": "62975"}, "jackson-county-62994": {"city": "Jackson County", "rent": 1140, "zip": "62994"}, "jasper-county-62420": {"city": "Jasper County", "rent": 970, "zip": "62420"}, "jasper-county-62424": {"city": "Jasper County", "rent": 920, "zip": "62424"}, "jasper-county-62425": {"city": "Jasper County", "rent": 920, "zip": "62425"}, "jasper-county-62428": {"city": "Jasper County", "rent": 920, "zip": "62428"}, "jasper-county-62432": {"city": "Jasper County", "rent": 920, "zip": "62432"}, "jasper-county-62434": {"city": "Jasper County", "rent": 960, "zip": "62434"}, "jasper-county-62436": {"city": "Jasper County", "rent": 940, "zip": "62436"}, "jasper-county-62445": {"city": "Jasper County", "rent": 920, "zip": "62445"}, "jasper-county-62448": {"city": "Jasper County", "rent": 920, "zip": "62448"}, "jasper-county-62449": {"city": "Jasper County", "rent": 920, "zip": "62449"}, "jasper-county-62459": {"city": "Jasper County", "rent": 930, "zip": "62459"}, "jasper-county-62467": {"city": "Jasper County", "rent": 920, "zip": "62467"}, "jasper-county-62475": {"city": "Jasper County", "rent": 930, "zip": "62475"}, "jasper-county-62479": {"city": "Jasper County", "rent": 1030, "zip": "62479"}, "jasper-county-62480": {"city": "Jasper County", "rent": 930, "zip": "62480"}, "jasper-county-62481": {"city": "Jasper County", "rent": 930, "zip": "62481"}, "jefferson-county-62801": {"city": "Jefferson County", "rent": 990, "zip": "62801"}, "jefferson-county-62808": {"city": "Jefferson County", "rent": 920, "zip": "62808"}, "jefferson-county-62810": {"city": "Jefferson County", "rent": 950, "zip": "62810"}, "jefferson-county-62814": {"city": "Jefferson County", "rent": 920, "zip": "62814"}, "jefferson-county-62816": {"city": "Jefferson County", "rent": 970, "zip": "62816"}, "jefferson-county-62830": {"city": "Jefferson County", "rent": 920, "zip": "62830"}, "jefferson-county-62831": {"city": "Jefferson County", "rent": 980, "zip": "62831"}, "jefferson-county-62836": {"city": "Jefferson County", "rent": 950, "zip": "62836"}, "jefferson-county-62846": {"city": "Jefferson County", "rent": 920, "zip": "62846"}, "jefferson-county-62851": {"city": "Jefferson County", "rent": 970, "zip": "62851"}, "jefferson-county-62853": {"city": "Jefferson County", "rent": 1160, "zip": "62853"}, "jefferson-county-62864": {"city": "Jefferson County", "rent": 1050, "zip": "62864"}, "jefferson-county-62872": {"city": "Jefferson County", "rent": 960, "zip": "62872"}, "jefferson-county-62877": {"city": "Jefferson County", "rent": 1010, "zip": "62877"}, "jefferson-county-62883": {"city": "Jefferson County", "rent": 970, "zip": "62883"}, "jefferson-county-62884": {"city": "Jefferson County", "rent": 920, "zip": "62884"}, "jefferson-county-62889": {"city": "Jefferson County", "rent": 970, "zip": "62889"}, "jefferson-county-62893": {"city": "Jefferson County", "rent": 1030, "zip": "62893"}, "jefferson-county-62894": {"city": "Jefferson County", "rent": 920, "zip": "62894"}, "jefferson-county-62898": {"city": "Jefferson County", "rent": 1060, "zip": "62898"}, "jo-daviess-county-61001": {"city": "Jo Daviess County", "rent": 1390, "zip": "61001"}, "jo-daviess-county-61025": {"city": "Jo Daviess County", "rent": 1050, "zip": "61025"}, "jo-daviess-county-61028": {"city": "Jo Daviess County", "rent": 1060, "zip": "61028"}, "jo-daviess-county-61036": {"city": "Jo Daviess County", "rent": 930, "zip": "61036"}, "jo-daviess-county-61041": {"city": "Jo Daviess County", "rent": 920, "zip": "61041"}, "jo-daviess-county-61044": {"city": "Jo Daviess County", "rent": 950, "zip": "61044"}, "jo-daviess-county-61048": {"city": "Jo Daviess County", "rent": 920, "zip": "61048"}, "jo-daviess-county-61053": {"city": "Jo Daviess County", "rent": 920, "zip": "61053"}, "jo-daviess-county-61059": {"city": "Jo Daviess County", "rent": 1350, "zip": "61059"}, "jo-daviess-county-61062": {"city": "Jo Daviess County", "rent": 920, "zip": "61062"}, "jo-daviess-county-61074": {"city": "Jo Daviess County", "rent": 970, "zip": "61074"}, "jo-daviess-county-61075": {"city": "Jo Daviess County", "rent": 920, "zip": "61075"}, "jo-daviess-county-61085": {"city": "Jo Daviess County", "rent": 1020, "zip": "61085"}, "jo-daviess-county-61087": {"city": "Jo Daviess County", "rent": 920, "zip": "61087"}, "jo-daviess-county-61089": {"city": "Jo Daviess County", "rent": 980, "zip": "61089"}, "johnson-county-62902": {"city": "Johnson County", "rent": 940, "zip": "62902"}, "johnson-county-62908": {"city": "Johnson County", "rent": 950, "zip": "62908"}, "johnson-county-62909": {"city": "Johnson County", "rent": 920, "zip": "62909"}, "johnson-county-62912": {"city": "Johnson County", "rent": 970, "zip": "62912"}, "johnson-county-62922": {"city": "Johnson County", "rent": 930, "zip": "62922"}, "johnson-county-62923": {"city": "Johnson County", "rent": 1120, "zip": "62923"}, "johnson-county-62938": {"city": "Johnson County", "rent": 970, "zip": "62938"}, "johnson-county-62939": {"city": "Johnson County", "rent": 1060, "zip": "62939"}, "johnson-county-62943": {"city": "Johnson County", "rent": 950, "zip": "62943"}, "johnson-county-62967": {"city": "Johnson County", "rent": 930, "zip": "62967"}, "johnson-county-62972": {"city": "Johnson County", "rent": 950, "zip": "62972"}, "johnson-county-62985": {"city": "Johnson County", "rent": 1020, "zip": "62985"}, "johnson-county-62995": {"city": "Johnson County", "rent": 920, "zip": "62995"}, "knox-county-61401": {"city": "Knox County", "rent": 930, "zip": "61401"}, "knox-county-61402": {"city": "Knox County", "rent": 920, "zip": "61402"}, "knox-county-61410": {"city": "Knox County", "rent": 920, "zip": "61410"}, "knox-county-61412": {"city": "Knox County", "rent": 960, "zip": "61412"}, "knox-county-61414": {"city": "Knox County", "rent": 980, "zip": "61414"}, "knox-county-61423": {"city": "Knox County", "rent": 920, "zip": "61423"}, "knox-county-61428": {"city": "Knox County", "rent": 920, "zip": "61428"}, "knox-county-61430": {"city": "Knox County", "rent": 940, "zip": "61430"}, "knox-county-61434": {"city": "Knox County", "rent": 980, "zip": "61434"}, "knox-county-61436": {"city": "Knox County", "rent": 1200, "zip": "61436"}, "knox-county-61439": {"city": "Knox County", "rent": 1050, "zip": "61439"}, "knox-county-61448": {"city": "Knox County", "rent": 920, "zip": "61448"}, "knox-county-61449": {"city": "Knox County", "rent": 950, "zip": "61449"}, "knox-county-61458": {"city": "Knox County", "rent": 960, "zip": "61458"}, "knox-county-61466": {"city": "Knox County", "rent": 1010, "zip": "61466"}, "knox-county-61467": {"city": "Knox County", "rent": 1040, "zip": "61467"}, "knox-county-61472": {"city": "Knox County", "rent": 930, "zip": "61472"}, "knox-county-61474": {"city": "Knox County", "rent": 940, "zip": "61474"}, "knox-county-61485": {"city": "Knox County", "rent": 930, "zip": "61485"}, "knox-county-61488": {"city": "Knox County", "rent": 920, "zip": "61488"}, "knox-county-61489": {"city": "Knox County", "rent": 920, "zip": "61489"}, "knox-county-61490": {"city": "Knox County", "rent": 930, "zip": "61490"}, "knox-county-61529": {"city": "Knox County", "rent": 920, "zip": "61529"}, "knox-county-61531": {"city": "Knox County", "rent": 980, "zip": "61531"}, "knox-county-61544": {"city": "Knox County", "rent": 1050, "zip": "61544"}, "knox-county-61572": {"city": "Knox County", "rent": 1040, "zip": "61572"}, "la-salle-county-60437": {"city": "La Salle County", "rent": 1360, "zip": "60437"}, "la-salle-county-60470": {"city": "La Salle County", "rent": 1360, "zip": "60470"}, "la-salle-county-60518": {"city": "La Salle County", "rent": 1250, "zip": "60518"}, "la-salle-county-60531": {"city": "La Salle County", "rent": 1660, "zip": "60531"}, "la-salle-county-60537": {"city": "La Salle County", "rent": 1700, "zip": "60537"}, "la-salle-county-60541": {"city": "La Salle County", "rent": 1860, "zip": "60541"}, "la-salle-county-60548": {"city": "La Salle County", "rent": 1700, "zip": "60548"}, "la-salle-county-60549": {"city": "La Salle County", "rent": 1140, "zip": "60549"}, "la-salle-county-60551": {"city": "La Salle County", "rent": 1700, "zip": "60551"}, "la-salle-county-60552": {"city": "La Salle County", "rent": 1630, "zip": "60552"}, "la-salle-county-60557": {"city": "La Salle County", "rent": 1130, "zip": "60557"}, "la-salle-county-61301": {"city": "La Salle County", "rent": 1160, "zip": "61301"}, "la-salle-county-61311": {"city": "La Salle County", "rent": 970, "zip": "61311"}, "la-salle-county-61316": {"city": "La Salle County", "rent": 1070, "zip": "61316"}, "la-salle-county-61320": {"city": "La Salle County", "rent": 1110, "zip": "61320"}, "la-salle-county-61321": {"city": "La Salle County", "rent": 920, "zip": "61321"}, "la-salle-county-61325": {"city": "La Salle County", "rent": 1050, "zip": "61325"}, "la-salle-county-61332": {"city": "La Salle County", "rent": 1070, "zip": "61332"}, "la-salle-county-61333": {"city": "La Salle County", "rent": 950, "zip": "61333"}, "la-salle-county-61334": {"city": "La Salle County", "rent": 1040, "zip": "61334"}, "la-salle-county-61336": {"city": "La Salle County", "rent": 920, "zip": "61336"}, "la-salle-county-61341": {"city": "La Salle County", "rent": 1240, "zip": "61341"}, "la-salle-county-61342": {"city": "La Salle County", "rent": 1020, "zip": "61342"}, "la-salle-county-61348": {"city": "La Salle County", "rent": 960, "zip": "61348"}, "la-salle-county-61350": {"city": "La Salle County", "rent": 1130, "zip": "61350"}, "la-salle-county-61354": {"city": "La Salle County", "rent": 960, "zip": "61354"}, "la-salle-county-61358": {"city": "La Salle County", "rent": 950, "zip": "61358"}, "la-salle-county-61360": {"city": "La Salle County", "rent": 1360, "zip": "61360"}, "la-salle-county-61364": {"city": "La Salle County", "rent": 970, "zip": "61364"}, "la-salle-county-61370": {"city": "La Salle County", "rent": 990, "zip": "61370"}, "la-salle-county-61371": {"city": "La Salle County", "rent": 1020, "zip": "61371"}, "la-salle-county-61372": {"city": "La Salle County", "rent": 920, "zip": "61372"}, "la-salle-county-61373": {"city": "La Salle County", "rent": 1430, "zip": "61373"}, "la-salle-county-61377": {"city": "La Salle County", "rent": 920, "zip": "61377"}, "lawrence-county-62410": {"city": "Lawrence County", "rent": 920, "zip": "62410"}, "lawrence-county-62417": {"city": "Lawrence County", "rent": 950, "zip": "62417"}, "lawrence-county-62421": {"city": "Lawrence County", "rent": 980, "zip": "62421"}, "lawrence-county-62427": {"city": "Lawrence County", "rent": 990, "zip": "62427"}, "lawrence-county-62439": {"city": "Lawrence County", "rent": 950, "zip": "62439"}, "lawrence-county-62460": {"city": "Lawrence County", "rent": 920, "zip": "62460"}, "lawrence-county-62466": {"city": "Lawrence County", "rent": 920, "zip": "62466"}, "lee-county-60518": {"city": "Lee County", "rent": 1250, "zip": "60518"}, "lee-county-60530": {"city": "Lee County", "rent": 1260, "zip": "60530"}, "lee-county-60553": {"city": "Lee County", "rent": 1370, "zip": "60553"}, "lee-county-61006": {"city": "Lee County", "rent": 920, "zip": "61006"}, "lee-county-61021": {"city": "Lee County", "rent": 920, "zip": "61021"}, "lee-county-61031": {"city": "Lee County", "rent": 920, "zip": "61031"}, "lee-county-61042": {"city": "Lee County", "rent": 920, "zip": "61042"}, "lee-county-61057": {"city": "Lee County", "rent": 920, "zip": "61057"}, "lee-county-61064": {"city": "Lee County", "rent": 1030, "zip": "61064"}, "lee-county-61068": {"city": "Lee County", "rent": 1250, "zip": "61068"}, "lee-county-61071": {"city": "Lee County", "rent": 940, "zip": "61071"}, "lee-county-61081": {"city": "Lee County", "rent": 920, "zip": "61081"}, "lee-county-61243": {"city": "Lee County", "rent": 1040, "zip": "61243"}, "lee-county-61310": {"city": "Lee County", "rent": 940, "zip": "61310"}, "lee-county-61318": {"city": "Lee County", "rent": 1130, "zip": "61318"}, "lee-county-61324": {"city": "Lee County", "rent": 920, "zip": "61324"}, "lee-county-61330": {"city": "Lee County", "rent": 960, "zip": "61330"}, "lee-county-61331": {"city": "Lee County", "rent": 920, "zip": "61331"}, "lee-county-61342": {"city": "Lee County", "rent": 1020, "zip": "61342"}, "lee-county-61349": {"city": "Lee County", "rent": 920, "zip": "61349"}, "lee-county-61353": {"city": "Lee County", "rent": 1250, "zip": "61353"}, "lee-county-61367": {"city": "Lee County", "rent": 1030, "zip": "61367"}, "lee-county-61376": {"city": "Lee County", "rent": 1270, "zip": "61376"}, "lee-county-61378": {"city": "Lee County", "rent": 1280, "zip": "61378"}, "livingston-county-60420": {"city": "Livingston County", "rent": 1360, "zip": "60420"}, "livingston-county-60460": {"city": "Livingston County", "rent": 1230, "zip": "60460"}, "livingston-county-60470": {"city": "Livingston County", "rent": 1360, "zip": "60470"}, "livingston-county-60917": {"city": "Livingston County", "rent": 1280, "zip": "60917"}, "livingston-county-60919": {"city": "Livingston County", "rent": 1130, "zip": "60919"}, "livingston-county-60920": {"city": "Livingston County", "rent": 1090, "zip": "60920"}, "livingston-county-60921": {"city": "Livingston County", "rent": 920, "zip": "60921"}, "livingston-county-60929": {"city": "Livingston County", "rent": 1060, "zip": "60929"}, "livingston-county-60934": {"city": "Livingston County", "rent": 1110, "zip": "60934"}, "livingston-county-60946": {"city": "Livingston County", "rent": 1070, "zip": "60946"}, "livingston-county-60952": {"city": "Livingston County", "rent": 920, "zip": "60952"}, "livingston-county-60959": {"city": "Livingston County", "rent": 920, "zip": "60959"}, "livingston-county-60961": {"city": "Livingston County", "rent": 1560, "zip": "60961"}, "livingston-county-60962": {"city": "Livingston County", "rent": 1070, "zip": "60962"}, "livingston-county-60968": {"city": "Livingston County", "rent": 920, "zip": "60968"}, "livingston-county-61311": {"city": "Livingston County", "rent": 970, "zip": "61311"}, "livingston-county-61313": {"city": "Livingston County", "rent": 1040, "zip": "61313"}, "livingston-county-61319": {"city": "Livingston County", "rent": 980, "zip": "61319"}, "livingston-county-61321": {"city": "Livingston County", "rent": 920, "zip": "61321"}, "livingston-county-61333": {"city": "Livingston County", "rent": 950, "zip": "61333"}, "livingston-county-61364": {"city": "Livingston County", "rent": 970, "zip": "61364"}, "livingston-county-61726": {"city": "Livingston County", "rent": 1080, "zip": "61726"}, "livingston-county-61728": {"city": "Livingston County", "rent": 1060, "zip": "61728"}, "livingston-county-61731": {"city": "Livingston County", "rent": 1160, "zip": "61731"}, "livingston-county-61739": {"city": "Livingston County", "rent": 980, "zip": "61739"}, "livingston-county-61740": {"city": "Livingston County", "rent": 960, "zip": "61740"}, "livingston-county-61741": {"city": "Livingston County", "rent": 920, "zip": "61741"}, "livingston-county-61743": {"city": "Livingston County", "rent": 920, "zip": "61743"}, "livingston-county-61744": {"city": "Livingston County", "rent": 980, "zip": "61744"}, "livingston-county-61760": {"city": "Livingston County", "rent": 1110, "zip": "61760"}, "livingston-county-61764": {"city": "Livingston County", "rent": 1020, "zip": "61764"}, "livingston-county-61769": {"city": "Livingston County", "rent": 1010, "zip": "61769"}, "livingston-county-61775": {"city": "Livingston County", "rent": 1200, "zip": "61775"}, "logan-county-61721": {"city": "Logan County", "rent": 1420, "zip": "61721"}, "logan-county-61723": {"city": "Logan County", "rent": 1020, "zip": "61723"}, "logan-county-61749": {"city": "Logan County", "rent": 950, "zip": "61749"}, "logan-county-61751": {"city": "Logan County", "rent": 1000, "zip": "61751"}, "logan-county-61754": {"city": "Logan County", "rent": 1500, "zip": "61754"}, "logan-county-62512": {"city": "Logan County", "rent": 990, "zip": "62512"}, "logan-county-62518": {"city": "Logan County", "rent": 940, "zip": "62518"}, "logan-county-62519": {"city": "Logan County", "rent": 1040, "zip": "62519"}, "logan-county-62541": {"city": "Logan County", "rent": 930, "zip": "62541"}, "logan-county-62543": {"city": "Logan County", "rent": 920, "zip": "62543"}, "logan-county-62548": {"city": "Logan County", "rent": 1020, "zip": "62548"}, "logan-county-62613": {"city": "Logan County", "rent": 1190, "zip": "62613"}, "logan-county-62634": {"city": "Logan County", "rent": 930, "zip": "62634"}, "logan-county-62635": {"city": "Logan County", "rent": 1080, "zip": "62635"}, "logan-county-62643": {"city": "Logan County", "rent": 1190, "zip": "62643"}, "logan-county-62656": {"city": "Logan County", "rent": 990, "zip": "62656"}, "logan-county-62666": {"city": "Logan County", "rent": 1020, "zip": "62666"}, "logan-county-62671": {"city": "Logan County", "rent": 1020, "zip": "62671"}, "logan-county-62682": {"city": "Logan County", "rent": 1040, "zip": "62682"}, "logan-county-62693": {"city": "Logan County", "rent": 1350, "zip": "62693"}, "mcdonough-county-61411": {"city": "McDonough County", "rent": 950, "zip": "61411"}, "mcdonough-county-61415": {"city": "McDonough County", "rent": 920, "zip": "61415"}, "mcdonough-county-61416": {"city": "McDonough County", "rent": 990, "zip": "61416"}, "mcdonough-county-61420": {"city": "McDonough County", "rent": 970, "zip": "61420"}, "mcdonough-county-61422": {"city": "McDonough County", "rent": 920, "zip": "61422"}, "mcdonough-county-61438": {"city": "McDonough County", "rent": 920, "zip": "61438"}, "mcdonough-county-61440": {"city": "McDonough County", "rent": 920, "zip": "61440"}, "mcdonough-county-61450": {"city": "McDonough County", "rent": 920, "zip": "61450"}, "mcdonough-county-61452": {"city": "McDonough County", "rent": 920, "zip": "61452"}, "mcdonough-county-61455": {"city": "McDonough County", "rent": 990, "zip": "61455"}, "mcdonough-county-61459": {"city": "McDonough County", "rent": 940, "zip": "61459"}, "mcdonough-county-61470": {"city": "McDonough County", "rent": 1100, "zip": "61470"}, "mcdonough-county-61473": {"city": "McDonough County", "rent": 970, "zip": "61473"}, "mcdonough-county-61475": {"city": "McDonough County", "rent": 960, "zip": "61475"}, "mcdonough-county-61482": {"city": "McDonough County", "rent": 920, "zip": "61482"}, "mcdonough-county-61484": {"city": "McDonough County", "rent": 920, "zip": "61484"}, "mcdonough-county-62326": {"city": "McDonough County", "rent": 960, "zip": "62326"}, "mcdonough-county-62367": {"city": "McDonough County", "rent": 920, "zip": "62367"}, "mcdonough-county-62374": {"city": "McDonough County", "rent": 1100, "zip": "62374"}, "marion-county-62801": {"city": "Marion County", "rent": 990, "zip": "62801"}, "marion-county-62807": {"city": "Marion County", "rent": 920, "zip": "62807"}, "marion-county-62830": {"city": "Marion County", "rent": 920, "zip": "62830"}, "marion-county-62838": {"city": "Marion County", "rent": 920, "zip": "62838"}, "marion-county-62849": {"city": "Marion County", "rent": 920, "zip": "62849"}, "marion-county-62851": {"city": "Marion County", "rent": 970, "zip": "62851"}, "marion-county-62853": {"city": "Marion County", "rent": 1160, "zip": "62853"}, "marion-county-62854": {"city": "Marion County", "rent": 920, "zip": "62854"}, "marion-county-62870": {"city": "Marion County", "rent": 990, "zip": "62870"}, "marion-county-62875": {"city": "Marion County", "rent": 1090, "zip": "62875"}, "marion-county-62881": {"city": "Marion County", "rent": 940, "zip": "62881"}, "marion-county-62882": {"city": "Marion County", "rent": 990, "zip": "62882"}, "marion-county-62885": {"city": "Marion County", "rent": 920, "zip": "62885"}, "marion-county-62889": {"city": "Marion County", "rent": 970, "zip": "62889"}, "marion-county-62892": {"city": "Marion County", "rent": 1060, "zip": "62892"}, "marion-county-62893": {"city": "Marion County", "rent": 1030, "zip": "62893"}, "marion-county-62899": {"city": "Marion County", "rent": 920, "zip": "62899"}, "mason-county-61532": {"city": "Mason County", "rent": 1020, "zip": "61532"}, "mason-county-61534": {"city": "Mason County", "rent": 970, "zip": "61534"}, "mason-county-61546": {"city": "Mason County", "rent": 920, "zip": "61546"}, "mason-county-61567": {"city": "Mason County", "rent": 1120, "zip": "61567"}, "mason-county-62617": {"city": "Mason County", "rent": 930, "zip": "62617"}, "mason-county-62627": {"city": "Mason County", "rent": 1170, "zip": "62627"}, "mason-county-62633": {"city": "Mason County", "rent": 920, "zip": "62633"}, "mason-county-62644": {"city": "Mason County", "rent": 920, "zip": "62644"}, "mason-county-62655": {"city": "Mason County", "rent": 920, "zip": "62655"}, "mason-county-62664": {"city": "Mason County", "rent": 920, "zip": "62664"}, "mason-county-62671": {"city": "Mason County", "rent": 1020, "zip": "62671"}, "mason-county-62682": {"city": "Mason County", "rent": 1040, "zip": "62682"}, "montgomery-county-62015": {"city": "Montgomery County", "rent": 1150, "zip": "62015"}, "montgomery-county-62017": {"city": "Montgomery County", "rent": 1150, "zip": "62017"}, "montgomery-county-62019": {"city": "Montgomery County", "rent": 1080, "zip": "62019"}, "montgomery-county-62032": {"city": "Montgomery County", "rent": 920, "zip": "62032"}, "montgomery-county-62049": {"city": "Montgomery County", "rent": 1020, "zip": "62049"}, "montgomery-county-62051": {"city": "Montgomery County", "rent": 1140, "zip": "62051"}, "montgomery-county-62056": {"city": "Montgomery County", "rent": 920, "zip": "62056"}, "montgomery-county-62069": {"city": "Montgomery County", "rent": 920, "zip": "62069"}, "montgomery-county-62074": {"city": "Montgomery County", "rent": 990, "zip": "62074"}, "montgomery-county-62075": {"city": "Montgomery County", "rent": 1030, "zip": "62075"}, "montgomery-county-62076": {"city": "Montgomery County", "rent": 1030, "zip": "62076"}, "montgomery-county-62077": {"city": "Montgomery County", "rent": 1200, "zip": "62077"}, "montgomery-county-62080": {"city": "Montgomery County", "rent": 990, "zip": "62080"}, "montgomery-county-62083": {"city": "Montgomery County", "rent": 970, "zip": "62083"}, "montgomery-county-62086": {"city": "Montgomery County", "rent": 990, "zip": "62086"}, "montgomery-county-62089": {"city": "Montgomery County", "rent": 930, "zip": "62089"}, "montgomery-county-62091": {"city": "Montgomery County", "rent": 970, "zip": "62091"}, "montgomery-county-62094": {"city": "Montgomery County", "rent": 920, "zip": "62094"}, "montgomery-county-62262": {"city": "Montgomery County", "rent": 1090, "zip": "62262"}, "montgomery-county-62533": {"city": "Montgomery County", "rent": 950, "zip": "62533"}, "montgomery-county-62538": {"city": "Montgomery County", "rent": 920, "zip": "62538"}, "montgomery-county-62546": {"city": "Montgomery County", "rent": 920, "zip": "62546"}, "montgomery-county-62553": {"city": "Montgomery County", "rent": 970, "zip": "62553"}, "montgomery-county-62557": {"city": "Montgomery County", "rent": 950, "zip": "62557"}, "montgomery-county-62558": {"city": "Montgomery County", "rent": 1080, "zip": "62558"}, "montgomery-county-62560": {"city": "Montgomery County", "rent": 1060, "zip": "62560"}, "montgomery-county-62572": {"city": "Montgomery County", "rent": 920, "zip": "62572"}, "montgomery-county-62640": {"city": "Montgomery County", "rent": 930, "zip": "62640"}, "montgomery-county-62690": {"city": "Montgomery County", "rent": 1020, "zip": "62690"}, "morgan-county-62082": {"city": "Morgan County", "rent": 940, "zip": "62082"}, "morgan-county-62601": {"city": "Morgan County", "rent": 1050, "zip": "62601"}, "morgan-county-62611": {"city": "Morgan County", "rent": 1010, "zip": "62611"}, "morgan-county-62612": {"city": "Morgan County", "rent": 1090, "zip": "62612"}, "morgan-county-62621": {"city": "Morgan County", "rent": 960, "zip": "62621"}, "morgan-county-62628": {"city": "Morgan County", "rent": 1120, "zip": "62628"}, "morgan-county-62631": {"city": "Morgan County", "rent": 1050, "zip": "62631"}, "morgan-county-62638": {"city": "Morgan County", "rent": 1100, "zip": "62638"}, "morgan-county-62650": {"city": "Morgan County", "rent": 920, "zip": "62650"}, "morgan-county-62651": {"city": "Morgan County", "rent": 920, "zip": "62651"}, "morgan-county-62665": {"city": "Morgan County", "rent": 920, "zip": "62665"}, "morgan-county-62667": {"city": "Morgan County", "rent": 920, "zip": "62667"}, "morgan-county-62668": {"city": "Morgan County", "rent": 920, "zip": "62668"}, "morgan-county-62670": {"city": "Morgan County", "rent": 1140, "zip": "62670"}, "morgan-county-62677": {"city": "Morgan County", "rent": 1160, "zip": "62677"}, "morgan-county-62692": {"city": "Morgan County", "rent": 1020, "zip": "62692"}, "morgan-county-62694": {"city": "Morgan County", "rent": 920, "zip": "62694"}, "morgan-county-62695": {"city": "Morgan County", "rent": 1060, "zip": "62695"}, "moultrie-county-61911": {"city": "Moultrie County", "rent": 920, "zip": "61911"}, "moultrie-county-61913": {"city": "Moultrie County", "rent": 980, "zip": "61913"}, "moultrie-county-61914": {"city": "Moultrie County", "rent": 970, "zip": "61914"}, "moultrie-county-61925": {"city": "Moultrie County", "rent": 920, "zip": "61925"}, "moultrie-county-61928": {"city": "Moultrie County", "rent": 940, "zip": "61928"}, "moultrie-county-61929": {"city": "Moultrie County", "rent": 980, "zip": "61929"}, "moultrie-county-61937": {"city": "Moultrie County", "rent": 980, "zip": "61937"}, "moultrie-county-61951": {"city": "Moultrie County", "rent": 980, "zip": "61951"}, "moultrie-county-61957": {"city": "Moultrie County", "rent": 920, "zip": "61957"}, "moultrie-county-62534": {"city": "Moultrie County", "rent": 1000, "zip": "62534"}, "ogle-county-60113": {"city": "Ogle County", "rent": 1220, "zip": "60113"}, "ogle-county-60129": {"city": "Ogle County", "rent": 1290, "zip": "60129"}, "ogle-county-60146": {"city": "Ogle County", "rent": 1440, "zip": "60146"}, "ogle-county-60553": {"city": "Ogle County", "rent": 1370, "zip": "60553"}, "ogle-county-61006": {"city": "Ogle County", "rent": 920, "zip": "61006"}, "ogle-county-61007": {"city": "Ogle County", "rent": 960, "zip": "61007"}, "ogle-county-61010": {"city": "Ogle County", "rent": 1240, "zip": "61010"}, "ogle-county-61015": {"city": "Ogle County", "rent": 1060, "zip": "61015"}, "ogle-county-61020": {"city": "Ogle County", "rent": 1370, "zip": "61020"}, "ogle-county-61021": {"city": "Ogle County", "rent": 920, "zip": "61021"}, "ogle-county-61030": {"city": "Ogle County", "rent": 1040, "zip": "61030"}, "ogle-county-61031": {"city": "Ogle County", "rent": 920, "zip": "61031"}, "ogle-county-61039": {"city": "Ogle County", "rent": 1070, "zip": "61039"}, "ogle-county-61043": {"city": "Ogle County", "rent": 1160, "zip": "61043"}, "ogle-county-61047": {"city": "Ogle County", "rent": 1360, "zip": "61047"}, "ogle-county-61049": {"city": "Ogle County", "rent": 1190, "zip": "61049"}, "ogle-county-61051": {"city": "Ogle County", "rent": 920, "zip": "61051"}, "ogle-county-61052": {"city": "Ogle County", "rent": 1320, "zip": "61052"}, "ogle-county-61054": {"city": "Ogle County", "rent": 1120, "zip": "61054"}, "ogle-county-61061": {"city": "Ogle County", "rent": 1030, "zip": "61061"}, "ogle-county-61064": {"city": "Ogle County", "rent": 1030, "zip": "61064"}, "ogle-county-61068": {"city": "Ogle County", "rent": 1250, "zip": "61068"}, "ogle-county-61078": {"city": "Ogle County", "rent": 960, "zip": "61078"}, "ogle-county-61084": {"city": "Ogle County", "rent": 1200, "zip": "61084"}, "ogle-county-61088": {"city": "Ogle County", "rent": 1240, "zip": "61088"}, "ogle-county-61091": {"city": "Ogle County", "rent": 970, "zip": "61091"}, "ogle-county-61102": {"city": "Ogle County", "rent": 1070, "zip": "61102"}, "ogle-county-61109": {"city": "Ogle County", "rent": 1100, "zip": "61109"}, "perry-county-62237": {"city": "Perry County", "rent": 1010, "zip": "62237"}, "perry-county-62238": {"city": "Perry County", "rent": 1200, "zip": "62238"}, "perry-county-62263": {"city": "Perry County", "rent": 950, "zip": "62263"}, "perry-county-62268": {"city": "Perry County", "rent": 970, "zip": "62268"}, "perry-county-62272": {"city": "Perry County", "rent": 920, "zip": "62272"}, "perry-county-62274": {"city": "Perry County", "rent": 920, "zip": "62274"}, "perry-county-62286": {"city": "Perry County", "rent": 920, "zip": "62286"}, "perry-county-62831": {"city": "Perry County", "rent": 980, "zip": "62831"}, "perry-county-62832": {"city": "Perry County", "rent": 950, "zip": "62832"}, "perry-county-62883": {"city": "Perry County", "rent": 970, "zip": "62883"}, "perry-county-62888": {"city": "Perry County", "rent": 1070, "zip": "62888"}, "perry-county-62907": {"city": "Perry County", "rent": 970, "zip": "62907"}, "perry-county-62916": {"city": "Perry County", "rent": 920, "zip": "62916"}, "perry-county-62997": {"city": "Perry County", "rent": 1040, "zip": "62997"}, "pike-county-62312": {"city": "Pike County", "rent": 920, "zip": "62312"}, "pike-county-62314": {"city": "Pike County", "rent": 950, "zip": "62314"}, "pike-county-62323": {"city": "Pike County", "rent": 940, "zip": "62323"}, "pike-county-62340": {"city": "Pike County", "rent": 920, "zip": "62340"}, "pike-county-62343": {"city": "Pike County", "rent": 920, "zip": "62343"}, "pike-county-62345": {"city": "Pike County", "rent": 920, "zip": "62345"}, "pike-county-62352": {"city": "Pike County", "rent": 1180, "zip": "62352"}, "pike-county-62355": {"city": "Pike County", "rent": 1260, "zip": "62355"}, "pike-county-62356": {"city": "Pike County", "rent": 920, "zip": "62356"}, "pike-county-62357": {"city": "Pike County", "rent": 920, "zip": "62357"}, "pike-county-62361": {"city": "Pike County", "rent": 1070, "zip": "62361"}, "pike-county-62362": {"city": "Pike County", "rent": 920, "zip": "62362"}, "pike-county-62363": {"city": "Pike County", "rent": 970, "zip": "62363"}, "pike-county-62366": {"city": "Pike County", "rent": 990, "zip": "62366"}, "pike-county-62370": {"city": "Pike County", "rent": 930, "zip": "62370"}, "pope-county-62910": {"city": "Pope County", "rent": 980, "zip": "62910"}, "pope-county-62928": {"city": "Pope County", "rent": 1090, "zip": "62928"}, "pope-county-62938": {"city": "Pope County", "rent": 970, "zip": "62938"}, "pope-county-62943": {"city": "Pope County", "rent": 950, "zip": "62943"}, "pope-county-62946": {"city": "Pope County", "rent": 920, "zip": "62946"}, "pope-county-62947": {"city": "Pope County", "rent": 920, "zip": "62947"}, "pope-county-62960": {"city": "Pope County", "rent": 970, "zip": "62960"}, "pope-county-62972": {"city": "Pope County", "rent": 950, "zip": "62972"}, "pope-county-62985": {"city": "Pope County", "rent": 1020, "zip": "62985"}, "pope-county-62987": {"city": "Pope County", "rent": 930, "zip": "62987"}, "pulaski-county-62923": {"city": "Pulaski County", "rent": 1120, "zip": "62923"}, "pulaski-county-62926": {"city": "Pulaski County", "rent": 920, "zip": "62926"}, "pulaski-county-62941": {"city": "Pulaski County", "rent": 1280, "zip": "62941"}, "pulaski-county-62956": {"city": "Pulaski County", "rent": 940, "zip": "62956"}, "pulaski-county-62963": {"city": "Pulaski County", "rent": 1160, "zip": "62963"}, "pulaski-county-62964": {"city": "Pulaski County", "rent": 920, "zip": "62964"}, "pulaski-county-62970": {"city": "Pulaski County", "rent": 920, "zip": "62970"}, "pulaski-county-62973": {"city": "Pulaski County", "rent": 920, "zip": "62973"}, "pulaski-county-62976": {"city": "Pulaski County", "rent": 920, "zip": "62976"}, "pulaski-county-62992": {"city": "Pulaski County", "rent": 920, "zip": "62992"}, "pulaski-county-62996": {"city": "Pulaski County", "rent": 930, "zip": "62996"}, "putnam-county-61326": {"city": "Putnam County", "rent": 920, "zip": "61326"}, "putnam-county-61327": {"city": "Putnam County", "rent": 980, "zip": "61327"}, "putnam-county-61334": {"city": "Putnam County", "rent": 1040, "zip": "61334"}, "putnam-county-61335": {"city": "Putnam County", "rent": 970, "zip": "61335"}, "putnam-county-61336": {"city": "Putnam County", "rent": 920, "zip": "61336"}, "putnam-county-61340": {"city": "Putnam County", "rent": 1010, "zip": "61340"}, "putnam-county-61354": {"city": "Putnam County", "rent": 960, "zip": "61354"}, "putnam-county-61363": {"city": "Putnam County", "rent": 990, "zip": "61363"}, "putnam-county-61560": {"city": "Putnam County", "rent": 950, "zip": "61560"}, "randolph-county-62217": {"city": "Randolph County", "rent": 950, "zip": "62217"}, "randolph-county-62233": {"city": "Randolph County", "rent": 940, "zip": "62233"}, "randolph-county-62237": {"city": "Randolph County", "rent": 1010, "zip": "62237"}, "randolph-county-62238": {"city": "Randolph County", "rent": 1200, "zip": "62238"}, "randolph-county-62241": {"city": "Randolph County", "rent": 930, "zip": "62241"}, "randolph-county-62242": {"city": "Randolph County", "rent": 920, "zip": "62242"}, "randolph-county-62257": {"city": "Randolph County", "rent": 990, "zip": "62257"}, "randolph-county-62259": {"city": "Randolph County", "rent": 920, "zip": "62259"}, "randolph-county-62261": {"city": "Randolph County", "rent": 930, "zip": "62261"}, "randolph-county-62272": {"city": "Randolph County", "rent": 920, "zip": "62272"}, "randolph-county-62277": {"city": "Randolph County", "rent": 990, "zip": "62277"}, "randolph-county-62278": {"city": "Randolph County", "rent": 1000, "zip": "62278"}, "randolph-county-62280": {"city": "Randolph County", "rent": 950, "zip": "62280"}, "randolph-county-62286": {"city": "Randolph County", "rent": 920, "zip": "62286"}, "randolph-county-62288": {"city": "Randolph County", "rent": 920, "zip": "62288"}, "randolph-county-62292": {"city": "Randolph County", "rent": 950, "zip": "62292"}, "randolph-county-62297": {"city": "Randolph County", "rent": 1160, "zip": "62297"}, "randolph-county-62907": {"city": "Randolph County", "rent": 970, "zip": "62907"}, "randolph-county-62916": {"city": "Randolph County", "rent": 920, "zip": "62916"}, "randolph-county-63673": {"city": "Randolph County", "rent": 950, "zip": "63673"}, "richland-county-62419": {"city": "Richland County", "rent": 930, "zip": "62419"}, "richland-county-62421": {"city": "Richland County", "rent": 980, "zip": "62421"}, "richland-county-62425": {"city": "Richland County", "rent": 920, "zip": "62425"}, "richland-county-62448": {"city": "Richland County", "rent": 920, "zip": "62448"}, "richland-county-62450": {"city": "Richland County", "rent": 920, "zip": "62450"}, "richland-county-62452": {"city": "Richland County", "rent": 920, "zip": "62452"}, "richland-county-62466": {"city": "Richland County", "rent": 920, "zip": "62466"}, "richland-county-62476": {"city": "Richland County", "rent": 920, "zip": "62476"}, "richland-county-62868": {"city": "Richland County", "rent": 920, "zip": "62868"}, "saline-county-62869": {"city": "Saline County", "rent": 920, "zip": "62869"}, "saline-county-62890": {"city": "Saline County", "rent": 1230, "zip": "62890"}, "saline-county-62917": {"city": "Saline County", "rent": 930, "zip": "62917"}, "saline-county-62922": {"city": "Saline County", "rent": 930, "zip": "62922"}, "saline-county-62930": {"city": "Saline County", "rent": 970, "zip": "62930"}, "saline-county-62934": {"city": "Saline County", "rent": 940, "zip": "62934"}, "saline-county-62935": {"city": "Saline County", "rent": 1030, "zip": "62935"}, "saline-county-62946": {"city": "Saline County", "rent": 920, "zip": "62946"}, "saline-county-62947": {"city": "Saline County", "rent": 920, "zip": "62947"}, "saline-county-62965": {"city": "Saline County", "rent": 920, "zip": "62965"}, "saline-county-62972": {"city": "Saline County", "rent": 950, "zip": "62972"}, "saline-county-62977": {"city": "Saline County", "rent": 980, "zip": "62977"}, "saline-county-62987": {"city": "Saline County", "rent": 930, "zip": "62987"}, "schuyler-county-61440": {"city": "Schuyler County", "rent": 920, "zip": "61440"}, "schuyler-county-61452": {"city": "Schuyler County", "rent": 920, "zip": "61452"}, "schuyler-county-61484": {"city": "Schuyler County", "rent": 920, "zip": "61484"}, "schuyler-county-61501": {"city": "Schuyler County", "rent": 920, "zip": "61501"}, "schuyler-county-62311": {"city": "Schuyler County", "rent": 920, "zip": "62311"}, "schuyler-county-62319": {"city": "Schuyler County", "rent": 970, "zip": "62319"}, "schuyler-county-62344": {"city": "Schuyler County", "rent": 920, "zip": "62344"}, "schuyler-county-62346": {"city": "Schuyler County", "rent": 970, "zip": "62346"}, "schuyler-county-62367": {"city": "Schuyler County", "rent": 920, "zip": "62367"}, "schuyler-county-62618": {"city": "Schuyler County", "rent": 940, "zip": "62618"}, "schuyler-county-62624": {"city": "Schuyler County", "rent": 930, "zip": "62624"}, "schuyler-county-62639": {"city": "Schuyler County", "rent": 920, "zip": "62639"}, "schuyler-county-62681": {"city": "Schuyler County", "rent": 920, "zip": "62681"}, "scott-county-62082": {"city": "Scott County", "rent": 940, "zip": "62082"}, "scott-county-62363": {"city": "Scott County", "rent": 970, "zip": "62363"}, "scott-county-62610": {"city": "Scott County", "rent": 1010, "zip": "62610"}, "scott-county-62621": {"city": "Scott County", "rent": 960, "zip": "62621"}, "scott-county-62628": {"city": "Scott County", "rent": 1120, "zip": "62628"}, "scott-county-62650": {"city": "Scott County", "rent": 920, "zip": "62650"}, "scott-county-62663": {"city": "Scott County", "rent": 920, "zip": "62663"}, "scott-county-62665": {"city": "Scott County", "rent": 920, "zip": "62665"}, "scott-county-62668": {"city": "Scott County", "rent": 920, "zip": "62668"}, "scott-county-62694": {"city": "Scott County", "rent": 920, "zip": "62694"}, "shelby-county-61914": {"city": "Shelby County", "rent": 970, "zip": "61914"}, "shelby-county-61928": {"city": "Shelby County", "rent": 940, "zip": "61928"}, "shelby-county-61951": {"city": "Shelby County", "rent": 980, "zip": "61951"}, "shelby-county-61957": {"city": "Shelby County", "rent": 920, "zip": "61957"}, "shelby-county-62401": {"city": "Shelby County", "rent": 920, "zip": "62401"}, "shelby-county-62414": {"city": "Shelby County", "rent": 990, "zip": "62414"}, "shelby-county-62422": {"city": "Shelby County", "rent": 920, "zip": "62422"}, "shelby-county-62431": {"city": "Shelby County", "rent": 920, "zip": "62431"}, "shelby-county-62438": {"city": "Shelby County", "rent": 920, "zip": "62438"}, "shelby-county-62444": {"city": "Shelby County", "rent": 990, "zip": "62444"}, "shelby-county-62447": {"city": "Shelby County", "rent": 970, "zip": "62447"}, "shelby-county-62461": {"city": "Shelby County", "rent": 940, "zip": "62461"}, "shelby-county-62462": {"city": "Shelby County", "rent": 920, "zip": "62462"}, "shelby-county-62463": {"city": "Shelby County", "rent": 1020, "zip": "62463"}, "shelby-county-62465": {"city": "Shelby County", "rent": 1130, "zip": "62465"}, "shelby-county-62510": {"city": "Shelby County", "rent": 920, "zip": "62510"}, "shelby-county-62534": {"city": "Shelby County", "rent": 1000, "zip": "62534"}, "shelby-county-62544": {"city": "Shelby County", "rent": 1080, "zip": "62544"}, "shelby-county-62550": {"city": "Shelby County", "rent": 1150, "zip": "62550"}, "shelby-county-62553": {"city": "Shelby County", "rent": 970, "zip": "62553"}, "shelby-county-62557": {"city": "Shelby County", "rent": 950, "zip": "62557"}, "shelby-county-62565": {"city": "Shelby County", "rent": 920, "zip": "62565"}, "shelby-county-62571": {"city": "Shelby County", "rent": 920, "zip": "62571"}, "stephenson-county-61007": {"city": "Stephenson County", "rent": 960, "zip": "61007"}, "stephenson-county-61013": {"city": "Stephenson County", "rent": 920, "zip": "61013"}, "stephenson-county-61018": {"city": "Stephenson County", "rent": 920, "zip": "61018"}, "stephenson-county-61019": {"city": "Stephenson County", "rent": 1330, "zip": "61019"}, "stephenson-county-61027": {"city": "Stephenson County", "rent": 920, "zip": "61027"}, "stephenson-county-61032": {"city": "Stephenson County", "rent": 920, "zip": "61032"}, "stephenson-county-61039": {"city": "Stephenson County", "rent": 1070, "zip": "61039"}, "stephenson-county-61044": {"city": "Stephenson County", "rent": 950, "zip": "61044"}, "stephenson-county-61047": {"city": "Stephenson County", "rent": 1360, "zip": "61047"}, "stephenson-county-61048": {"city": "Stephenson County", "rent": 920, "zip": "61048"}, "stephenson-county-61050": {"city": "Stephenson County", "rent": 940, "zip": "61050"}, "stephenson-county-61060": {"city": "Stephenson County", "rent": 920, "zip": "61060"}, "stephenson-county-61062": {"city": "Stephenson County", "rent": 920, "zip": "61062"}, "stephenson-county-61063": {"city": "Stephenson County", "rent": 1320, "zip": "61063"}, "stephenson-county-61067": {"city": "Stephenson County", "rent": 950, "zip": "61067"}, "stephenson-county-61070": {"city": "Stephenson County", "rent": 1260, "zip": "61070"}, "stephenson-county-61078": {"city": "Stephenson County", "rent": 960, "zip": "61078"}, "stephenson-county-61087": {"city": "Stephenson County", "rent": 920, "zip": "61087"}, "stephenson-county-61089": {"city": "Stephenson County", "rent": 980, "zip": "61089"}, "union-county-62902": {"city": "Union County", "rent": 940, "zip": "62902"}, "union-county-62905": {"city": "Union County", "rent": 920, "zip": "62905"}, "union-county-62906": {"city": "Union County", "rent": 960, "zip": "62906"}, "union-county-62912": {"city": "Union County", "rent": 970, "zip": "62912"}, "union-county-62920": {"city": "Union County", "rent": 950, "zip": "62920"}, "union-county-62923": {"city": "Union County", "rent": 1120, "zip": "62923"}, "union-county-62926": {"city": "Union County", "rent": 920, "zip": "62926"}, "union-county-62939": {"city": "Union County", "rent": 1060, "zip": "62939"}, "union-county-62952": {"city": "Union County", "rent": 920, "zip": "62952"}, "union-county-62957": {"city": "Union County", "rent": 1050, "zip": "62957"}, "union-county-62958": {"city": "Union County", "rent": 990, "zip": "62958"}, "union-county-62961": {"city": "Union County", "rent": 920, "zip": "62961"}, "union-county-62988": {"city": "Union County", "rent": 920, "zip": "62988"}, "union-county-62998": {"city": "Union County", "rent": 970, "zip": "62998"}, "vermilion-county-60932": {"city": "Vermilion County", "rent": 950, "zip": "60932"}, "vermilion-county-60942": {"city": "Vermilion County", "rent": 1010, "zip": "60942"}, "vermilion-county-60960": {"city": "Vermilion County", "rent": 980, "zip": "60960"}, "vermilion-county-60963": {"city": "Vermilion County", "rent": 1070, "zip": "60963"}, "vermilion-county-61810": {"city": "Vermilion County", "rent": 1030, "zip": "61810"}, "vermilion-county-61811": {"city": "Vermilion County", "rent": 1030, "zip": "61811"}, "vermilion-county-61812": {"city": "Vermilion County", "rent": 1080, "zip": "61812"}, "vermilion-county-61814": {"city": "Vermilion County", "rent": 1060, "zip": "61814"}, "vermilion-county-61817": {"city": "Vermilion County", "rent": 1070, "zip": "61817"}, "vermilion-county-61831": {"city": "Vermilion County", "rent": 1010, "zip": "61831"}, "vermilion-county-61832": {"city": "Vermilion County", "rent": 1010, "zip": "61832"}, "vermilion-county-61833": {"city": "Vermilion County", "rent": 940, "zip": "61833"}, "vermilion-county-61834": {"city": "Vermilion County", "rent": 1100, "zip": "61834"}, "vermilion-county-61841": {"city": "Vermilion County", "rent": 920, "zip": "61841"}, "vermilion-county-61844": {"city": "Vermilion County", "rent": 1250, "zip": "61844"}, "vermilion-county-61846": {"city": "Vermilion County", "rent": 920, "zip": "61846"}, "vermilion-county-61848": {"city": "Vermilion County", "rent": 1030, "zip": "61848"}, "vermilion-county-61849": {"city": "Vermilion County", "rent": 1040, "zip": "61849"}, "vermilion-county-61850": {"city": "Vermilion County", "rent": 970, "zip": "61850"}, "vermilion-county-61857": {"city": "Vermilion County", "rent": 1250, "zip": "61857"}, "vermilion-county-61858": {"city": "Vermilion County", "rent": 950, "zip": "61858"}, "vermilion-county-61859": {"city": "Vermilion County", "rent": 1320, "zip": "61859"}, "vermilion-county-61862": {"city": "Vermilion County", "rent": 980, "zip": "61862"}, "vermilion-county-61865": {"city": "Vermilion County", "rent": 920, "zip": "61865"}, "vermilion-county-61870": {"city": "Vermilion County", "rent": 920, "zip": "61870"}, "vermilion-county-61876": {"city": "Vermilion County", "rent": 1010, "zip": "61876"}, "vermilion-county-61883": {"city": "Vermilion County", "rent": 920, "zip": "61883"}, "wabash-county-62410": {"city": "Wabash County", "rent": 920, "zip": "62410"}, "wabash-county-62460": {"city": "Wabash County", "rent": 920, "zip": "62460"}, "wabash-county-62476": {"city": "Wabash County", "rent": 920, "zip": "62476"}, "wabash-county-62811": {"city": "Wabash County", "rent": 940, "zip": "62811"}, "wabash-county-62818": {"city": "Wabash County", "rent": 930, "zip": "62818"}, "wabash-county-62852": {"city": "Wabash County", "rent": 920, "zip": "62852"}, "wabash-county-62863": {"city": "Wabash County", "rent": 920, "zip": "62863"}, "warren-county-61401": {"city": "Warren County", "rent": 930, "zip": "61401"}, "warren-county-61410": {"city": "Warren County", "rent": 920, "zip": "61410"}, "warren-county-61412": {"city": "Warren County", "rent": 960, "zip": "61412"}, "warren-county-61415": {"city": "Warren County", "rent": 920, "zip": "61415"}, "warren-county-61417": {"city": "Warren County", "rent": 950, "zip": "61417"}, "warren-county-61418": {"city": "Warren County", "rent": 940, "zip": "61418"}, "warren-county-61423": {"city": "Warren County", "rent": 920, "zip": "61423"}, "warren-county-61435": {"city": "Warren County", "rent": 940, "zip": "61435"}, "warren-county-61438": {"city": "Warren County", "rent": 920, "zip": "61438"}, "warren-county-61447": {"city": "Warren County", "rent": 960, "zip": "61447"}, "warren-county-61453": {"city": "Warren County", "rent": 980, "zip": "61453"}, "warren-county-61462": {"city": "Warren County", "rent": 920, "zip": "61462"}, "warren-county-61466": {"city": "Warren County", "rent": 1010, "zip": "61466"}, "warren-county-61473": {"city": "Warren County", "rent": 970, "zip": "61473"}, "warren-county-61474": {"city": "Warren County", "rent": 940, "zip": "61474"}, "warren-county-61475": {"city": "Warren County", "rent": 960, "zip": "61475"}, "warren-county-61476": {"city": "Warren County", "rent": 970, "zip": "61476"}, "warren-county-61478": {"city": "Warren County", "rent": 970, "zip": "61478"}, "washington-county-62214": {"city": "Washington County", "rent": 1000, "zip": "62214"}, "washington-county-62237": {"city": "Washington County", "rent": 1010, "zip": "62237"}, "washington-county-62255": {"city": "Washington County", "rent": 1000, "zip": "62255"}, "washington-county-62257": {"city": "Washington County", "rent": 990, "zip": "62257"}, "washington-county-62263": {"city": "Washington County", "rent": 950, "zip": "62263"}, "washington-county-62268": {"city": "Washington County", "rent": 970, "zip": "62268"}, "washington-county-62271": {"city": "Washington County", "rent": 920, "zip": "62271"}, "washington-county-62801": {"city": "Washington County", "rent": 990, "zip": "62801"}, "washington-county-62803": {"city": "Washington County", "rent": 920, "zip": "62803"}, "washington-county-62808": {"city": "Washington County", "rent": 920, "zip": "62808"}, "washington-county-62831": {"city": "Washington County", "rent": 980, "zip": "62831"}, "washington-county-62848": {"city": "Washington County", "rent": 1030, "zip": "62848"}, "washington-county-62876": {"city": "Washington County", "rent": 1030, "zip": "62876"}, "washington-county-62877": {"city": "Washington County", "rent": 1010, "zip": "62877"}, "wayne-county-62446": {"city": "Wayne County", "rent": 990, "zip": "62446"}, "wayne-county-62809": {"city": "Wayne County", "rent": 930, "zip": "62809"}, "wayne-county-62810": {"city": "Wayne County", "rent": 950, "zip": "62810"}, "wayne-county-62814": {"city": "Wayne County", "rent": 920, "zip": "62814"}, "wayne-county-62820": {"city": "Wayne County", "rent": 940, "zip": "62820"}, "wayne-county-62823": {"city": "Wayne County", "rent": 920, "zip": "62823"}, "wayne-county-62824": {"city": "Wayne County", "rent": 920, "zip": "62824"}, "wayne-county-62828": {"city": "Wayne County", "rent": 920, "zip": "62828"}, "wayne-county-62833": {"city": "Wayne County", "rent": 930, "zip": "62833"}, "wayne-county-62837": {"city": "Wayne County", "rent": 920, "zip": "62837"}, "wayne-county-62839": {"city": "Wayne County", "rent": 920, "zip": "62839"}, "wayne-county-62842": {"city": "Wayne County", "rent": 1120, "zip": "62842"}, "wayne-county-62843": {"city": "Wayne County", "rent": 920, "zip": "62843"}, "wayne-county-62850": {"city": "Wayne County", "rent": 940, "zip": "62850"}, "wayne-county-62851": {"city": "Wayne County", "rent": 970, "zip": "62851"}, "wayne-county-62862": {"city": "Wayne County", "rent": 960, "zip": "62862"}, "wayne-county-62868": {"city": "Wayne County", "rent": 920, "zip": "62868"}, "wayne-county-62878": {"city": "Wayne County", "rent": 920, "zip": "62878"}, "wayne-county-62886": {"city": "Wayne County", "rent": 980, "zip": "62886"}, "wayne-county-62895": {"city": "Wayne County", "rent": 1040, "zip": "62895"}, "wayne-county-62899": {"city": "Wayne County", "rent": 920, "zip": "62899"}, "white-county-62820": {"city": "White County", "rent": 940, "zip": "62820"}, "white-county-62821": {"city": "White County", "rent": 950, "zip": "62821"}, "white-county-62827": {"city": "White County", "rent": 920, "zip": "62827"}, "white-county-62834": {"city": "White County", "rent": 920, "zip": "62834"}, "white-county-62835": {"city": "White County", "rent": 920, "zip": "62835"}, "white-county-62844": {"city": "White County", "rent": 920, "zip": "62844"}, "white-county-62861": {"city": "White County", "rent": 950, "zip": "62861"}, "white-county-62862": {"city": "White County", "rent": 960, "zip": "62862"}, "white-county-62867": {"city": "White County", "rent": 920, "zip": "62867"}, "white-county-62869": {"city": "White County", "rent": 920, "zip": "62869"}, "white-county-62887": {"city": "White County", "rent": 940, "zip": "62887"}, "whiteside-county-61014": {"city": "Whiteside County", "rent": 1120, "zip": "61014"}, "whiteside-county-61037": {"city": "Whiteside County", "rent": 920, "zip": "61037"}, "whiteside-county-61042": {"city": "Whiteside County", "rent": 920, "zip": "61042"}, "whiteside-county-61051": {"city": "Whiteside County", "rent": 920, "zip": "61051"}, "whiteside-county-61064": {"city": "Whiteside County", "rent": 1030, "zip": "61064"}, "whiteside-county-61071": {"city": "Whiteside County", "rent": 940, "zip": "61071"}, "whiteside-county-61081": {"city": "Whiteside County", "rent": 920, "zip": "61081"}, "whiteside-county-61230": {"city": "Whiteside County", "rent": 940, "zip": "61230"}, "whiteside-county-61243": {"city": "Whiteside County", "rent": 1040, "zip": "61243"}, "whiteside-county-61250": {"city": "Whiteside County", "rent": 930, "zip": "61250"}, "whiteside-county-61251": {"city": "Whiteside County", "rent": 980, "zip": "61251"}, "whiteside-county-61252": {"city": "Whiteside County", "rent": 1000, "zip": "61252"}, "whiteside-county-61254": {"city": "Whiteside County", "rent": 1150, "zip": "61254"}, "whiteside-county-61261": {"city": "Whiteside County", "rent": 1290, "zip": "61261"}, "whiteside-county-61270": {"city": "Whiteside County", "rent": 1060, "zip": "61270"}, "whiteside-county-61277": {"city": "Whiteside County", "rent": 930, "zip": "61277"}, "whiteside-county-61283": {"city": "Whiteside County", "rent": 1010, "zip": "61283"}, "whiteside-county-61376": {"city": "Whiteside County", "rent": 1270, "zip": "61376"}, "williamson-county-62841": {"city": "Williamson County", "rent": 1040, "zip": "62841"}, "williamson-county-62890": {"city": "Williamson County", "rent": 1230, "zip": "62890"}, "williamson-county-62896": {"city": "Williamson County", "rent": 930, "zip": "62896"}, "williamson-county-62901": {"city": "Williamson County", "rent": 980, "zip": "62901"}, "williamson-county-62902": {"city": "Williamson County", "rent": 940, "zip": "62902"}, "williamson-county-62915": {"city": "Williamson County", "rent": 1040, "zip": "62915"}, "williamson-county-62917": {"city": "Williamson County", "rent": 930, "zip": "62917"}, "williamson-county-62918": {"city": "Williamson County", "rent": 1120, "zip": "62918"}, "williamson-county-62921": {"city": "Williamson County", "rent": 1120, "zip": "62921"}, "williamson-county-62922": {"city": "Williamson County", "rent": 930, "zip": "62922"}, "williamson-county-62924": {"city": "Williamson County", "rent": 1000, "zip": "62924"}, "williamson-county-62933": {"city": "Williamson County", "rent": 940, "zip": "62933"}, "williamson-county-62939": {"city": "Williamson County", "rent": 1060, "zip": "62939"}, "williamson-county-62948": {"city": "Williamson County", "rent": 1160, "zip": "62948"}, "williamson-county-62949": {"city": "Williamson County", "rent": 950, "zip": "62949"}, "williamson-county-62951": {"city": "Williamson County", "rent": 930, "zip": "62951"}, "williamson-county-62958": {"city": "Williamson County", "rent": 990, "zip": "62958"}, "williamson-county-62959": {"city": "Williamson County", "rent": 1020, "zip": "62959"}, "williamson-county-62967": {"city": "Williamson County", "rent": 930, "zip": "62967"}, "williamson-county-62972": {"city": "Williamson County", "rent": 950, "zip": "62972"}, "williamson-county-62974": {"city": "Williamson County", "rent": 1050, "zip": "62974"}, "williamson-county-62987": {"city": "Williamson County", "rent": 930, "zip": "62987"}}