{"bloomington-46151": {"city": "Bloomington", "rent": 1230, "zip": "46151"}, "bloomington-47264": {"city": "Bloomington", "rent": 1040, "zip": "47264"}, "bloomington-47401": {"city": "Bloomington", "rent": 1230, "zip": "47401"}, "bloomington-47402": {"city": "Bloomington", "rent": 1210, "zip": "47402"}, "bloomington-47403": {"city": "Bloomington", "rent": 1110, "zip": "47403"}, "bloomington-47404": {"city": "Bloomington", "rent": 1240, "zip": "47404"}, "bloomington-47405": {"city": "Bloomington", "rent": 1210, "zip": "47405"}, "bloomington-47406": {"city": "Bloomington", "rent": 1210, "zip": "47406"}, "bloomington-47407": {"city": "Bloomington", "rent": 1210, "zip": "47407"}, "bloomington-47408": {"city": "Bloomington", "rent": 1200, "zip": "47408"}, "bloomington-47421": {"city": "Bloomington", "rent": 990, "zip": "47421"}, "bloomington-47426": {"city": "Bloomington", "rent": 1210, "zip": "47426"}, "bloomington-47429": {"city": "Bloomington", "rent": 1110, "zip": "47429"}, "bloomington-47433": {"city": "Bloomington", "rent": 1100, "zip": "47433"}, "bloomington-47434": {"city": "Bloomington", "rent": 1110, "zip": "47434"}, "bloomington-47436": {"city": "Bloomington", "rent": 1100, "zip": "47436"}, "bloomington-47448": {"city": "Bloomington", "rent": 1290, "zip": "47448"}, "bloomington-47458": {"city": "Bloomington", "rent": 1230, "zip": "47458"}, "bloomington-47460": {"city": "Bloomington", "rent": 1110, "zip": "47460"}, "bloomington-47462": {"city": "Bloomington", "rent": 1030, "zip": "47462"}, "bloomington-47464": {"city": "Bloomington", "rent": 1110, "zip": "47464"}, "bloomington-47468": {"city": "Bloomington", "rent": 1220, "zip": "47468"}, "owen-county-46120": {"city": "Owen County", "rent": 1100, "zip": "46120"}, "owen-county-46166": {"city": "Owen County", "rent": 1190, "zip": "46166"}, "owen-county-47404": {"city": "Owen County", "rent": 1240, "zip": "47404"}, "owen-county-47424": {"city": "Owen County", "rent": 1010, "zip": "47424"}, "owen-county-47427": {"city": "Owen County", "rent": 960, "zip": "47427"}, "owen-county-47431": {"city": "Owen County", "rent": 960, "zip": "47431"}, "owen-county-47433": {"city": "Owen County", "rent": 1100, "zip": "47433"}, "owen-county-47455": {"city": "Owen County", "rent": 960, "zip": "47455"}, "owen-county-47456": {"city": "Owen County", "rent": 1100, "zip": "47456"}, "owen-county-47459": {"city": "Owen County", "rent": 1020, "zip": "47459"}, "owen-county-47460": {"city": "Owen County", "rent": 1110, "zip": "47460"}, "owen-county-47471": {"city": "Owen County", "rent": 960, "zip": "47471"}, "owen-county-47833": {"city": "Owen County", "rent": 1010, "zip": "47833"}, "owen-county-47841": {"city": "Owen County", "rent": 960, "zip": "47841"}, "owen-county-47868": {"city": "Owen County", "rent": 1020, "zip": "47868"}, "gary-46301": {"city": "Gary", "rent": 1210, "zip": "46301"}, "gary-46302": {"city": "Gary", "rent": 1320, "zip": "46302"}, "gary-46303": {"city": "Gary", "rent": 1410, "zip": "46303"}, "gary-46304": {"city": "Gary", "rent": 1410, "zip": "46304"}, "gary-46307": {"city": "Gary", "rent": 1510, "zip": "46307"}, "gary-46308": {"city": "Gary", "rent": 1310, "zip": "46308"}, "gary-46310": {"city": "Gary", "rent": 1160, "zip": "46310"}, "gary-46311": {"city": "Gary", "rent": 1450, "zip": "46311"}, "gary-46312": {"city": "Gary", "rent": 1040, "zip": "46312"}, "gary-46319": {"city": "Gary", "rent": 1340, "zip": "46319"}, "gary-46320": {"city": "Gary", "rent": 1130, "zip": "46320"}, "gary-46321": {"city": "Gary", "rent": 1680, "zip": "46321"}, "gary-46322": {"city": "Gary", "rent": 1470, "zip": "46322"}, "gary-46323": {"city": "Gary", "rent": 1420, "zip": "46323"}, "gary-46324": {"city": "Gary", "rent": 1350, "zip": "46324"}, "gary-46325": {"city": "Gary", "rent": 1310, "zip": "46325"}, "gary-46327": {"city": "Gary", "rent": 1290, "zip": "46327"}, "gary-46341": {"city": "Gary", "rent": 1120, "zip": "46341"}, "gary-46342": {"city": "Gary", "rent": 1340, "zip": "46342"}, "gary-46347": {"city": "Gary", "rent": 1240, "zip": "46347"}, "gary-46348": {"city": "Gary", "rent": 1290, "zip": "46348"}, "gary-46349": {"city": "Gary", "rent": 1180, "zip": "46349"}, "gary-46355": {"city": "Gary", "rent": 1310, "zip": "46355"}, "gary-46356": {"city": "Gary", "rent": 1460, "zip": "46356"}, "gary-46360": {"city": "Gary", "rent": 1090, "zip": "46360"}, "gary-46368": {"city": "Gary", "rent": 1330, "zip": "46368"}, "gary-46372": {"city": "Gary", "rent": 1060, "zip": "46372"}, "gary-46373": {"city": "Gary", "rent": 1160, "zip": "46373"}, "gary-46375": {"city": "Gary", "rent": 1480, "zip": "46375"}, "gary-46376": {"city": "Gary", "rent": 1220, "zip": "46376"}, "gary-46377": {"city": "Gary", "rent": 1460, "zip": "46377"}, "gary-46379": {"city": "Gary", "rent": 1220, "zip": "46379"}, "gary-46381": {"city": "Gary", "rent": 1270, "zip": "46381"}, "gary-46383": {"city": "Gary", "rent": 1350, "zip": "46383"}, "gary-46384": {"city": "Gary", "rent": 1360, "zip": "46384"}, "gary-46385": {"city": "Gary", "rent": 1470, "zip": "46385"}, "gary-46390": {"city": "Gary", "rent": 1490, "zip": "46390"}, "gary-46391": {"city": "Gary", "rent": 1420, "zip": "46391"}, "gary-46393": {"city": "Gary", "rent": 1390, "zip": "46393"}, "gary-46394": {"city": "Gary", "rent": 1160, "zip": "46394"}, "gary-46401": {"city": "Gary", "rent": 1310, "zip": "46401"}, "gary-46402": {"city": "Gary", "rent": 1120, "zip": "46402"}, "gary-46403": {"city": "Gary", "rent": 1140, "zip": "46403"}, "gary-46404": {"city": "Gary", "rent": 1200, "zip": "46404"}, "gary-46405": {"city": "Gary", "rent": 1350, "zip": "46405"}, "gary-46406": {"city": "Gary", "rent": 1170, "zip": "46406"}, "gary-46407": {"city": "Gary", "rent": 1070, "zip": "46407"}, "gary-46408": {"city": "Gary", "rent": 1210, "zip": "46408"}, "gary-46409": {"city": "Gary", "rent": 1410, "zip": "46409"}, "gary-46410": {"city": "Gary", "rent": 1590, "zip": "46410"}, "gary-46411": {"city": "Gary", "rent": 1310, "zip": "46411"}, "gary-47922": {"city": "Gary", "rent": 1200, "zip": "47922"}, "gary-47942": {"city": "Gary", "rent": 960, "zip": "47942"}, "gary-47943": {"city": "Gary", "rent": 1130, "zip": "47943"}, "gary-47948": {"city": "Gary", "rent": 960, "zip": "47948"}, "gary-47951": {"city": "Gary", "rent": 980, "zip": "47951"}, "gary-47963": {"city": "Gary", "rent": 970, "zip": "47963"}, "gary-47964": {"city": "Gary", "rent": 1010, "zip": "47964"}, "gary-47978": {"city": "Gary", "rent": 1150, "zip": "47978"}, "jasper-county-46310": {"city": "Jasper County", "rent": 1160, "zip": "46310"}, "jasper-county-46341": {"city": "Jasper County", "rent": 1120, "zip": "46341"}, "jasper-county-46374": {"city": "Jasper County", "rent": 1050, "zip": "46374"}, "jasper-county-46380": {"city": "Jasper County", "rent": 1170, "zip": "46380"}, "jasper-county-46392": {"city": "Jasper County", "rent": 1210, "zip": "46392"}, "jasper-county-47922": {"city": "Jasper County", "rent": 1200, "zip": "47922"}, "jasper-county-47943": {"city": "Jasper County", "rent": 1130, "zip": "47943"}, "jasper-county-47946": {"city": "Jasper County", "rent": 1370, "zip": "47946"}, "jasper-county-47948": {"city": "Jasper County", "rent": 960, "zip": "47948"}, "jasper-county-47957": {"city": "Jasper County", "rent": 1160, "zip": "47957"}, "jasper-county-47959": {"city": "Jasper County", "rent": 1100, "zip": "47959"}, "jasper-county-47977": {"city": "Jasper County", "rent": 1050, "zip": "47977"}, "jasper-county-47978": {"city": "Jasper County", "rent": 1150, "zip": "47978"}, "jasper-county-47995": {"city": "Jasper County", "rent": 1090, "zip": "47995"}, "franklin-county-46173": {"city": "Franklin County", "rent": 970, "zip": "46173"}, "franklin-county-47003": {"city": "Franklin County", "rent": 960, "zip": "47003"}, "franklin-county-47006": {"city": "Franklin County", "rent": 1050, "zip": "47006"}, "franklin-county-47010": {"city": "Franklin County", "rent": 1070, "zip": "47010"}, "franklin-county-47012": {"city": "Franklin County", "rent": 1030, "zip": "47012"}, "franklin-county-47016": {"city": "Franklin County", "rent": 1100, "zip": "47016"}, "franklin-county-47024": {"city": "Franklin County", "rent": 1330, "zip": "47024"}, "franklin-county-47030": {"city": "Franklin County", "rent": 1160, "zip": "47030"}, "franklin-county-47035": {"city": "Franklin County", "rent": 1230, "zip": "47035"}, "franklin-county-47036": {"city": "Franklin County", "rent": 1210, "zip": "47036"}, "franklin-county-47041": {"city": "Franklin County", "rent": 1060, "zip": "47041"}, "franklin-county-47060": {"city": "Franklin County", "rent": 1250, "zip": "47060"}, "franklin-county-47240": {"city": "Franklin County", "rent": 1100, "zip": "47240"}, "franklin-county-47331": {"city": "Franklin County", "rent": 960, "zip": "47331"}, "franklin-county-47353": {"city": "Franklin County", "rent": 970, "zip": "47353"}, "columbus-46124": {"city": "Columbus", "rent": 1100, "zip": "46124"}, "columbus-47201": {"city": "Columbus", "rent": 1430, "zip": "47201"}, "columbus-47202": {"city": "Columbus", "rent": 1420, "zip": "47202"}, "columbus-47203": {"city": "Columbus", "rent": 1220, "zip": "47203"}, "columbus-47226": {"city": "Columbus", "rent": 1150, "zip": "47226"}, "columbus-47232": {"city": "Columbus", "rent": 1150, "zip": "47232"}, "columbus-47234": {"city": "Columbus", "rent": 1260, "zip": "47234"}, "columbus-47236": {"city": "Columbus", "rent": 1150, "zip": "47236"}, "columbus-47240": {"city": "Columbus", "rent": 1100, "zip": "47240"}, "columbus-47244": {"city": "Columbus", "rent": 1440, "zip": "47244"}, "columbus-47246": {"city": "Columbus", "rent": 1260, "zip": "47246"}, "columbus-47247": {"city": "Columbus", "rent": 1150, "zip": "47247"}, "columbus-47273": {"city": "Columbus", "rent": 1150, "zip": "47273"}, "columbus-47274": {"city": "Columbus", "rent": 1100, "zip": "47274"}, "columbus-47280": {"city": "Columbus", "rent": 1200, "zip": "47280"}, "columbus-47283": {"city": "Columbus", "rent": 1150, "zip": "47283"}, "columbus-47448": {"city": "Columbus", "rent": 1290, "zip": "47448"}, "elkhart-goshen-46507": {"city": "Elkhart-Goshen", "rent": 1220, "zip": "46507"}, "elkhart-goshen-46514": {"city": "Elkhart-Goshen", "rent": 1240, "zip": "46514"}, "elkhart-goshen-46515": {"city": "Elkhart-Goshen", "rent": 1180, "zip": "46515"}, "elkhart-goshen-46516": {"city": "Elkhart-Goshen", "rent": 1150, "zip": "46516"}, "elkhart-goshen-46517": {"city": "Elkhart-Goshen", "rent": 1060, "zip": "46517"}, "elkhart-goshen-46526": {"city": "Elkhart-Goshen", "rent": 1250, "zip": "46526"}, "elkhart-goshen-46527": {"city": "Elkhart-Goshen", "rent": 1180, "zip": "46527"}, "elkhart-goshen-46528": {"city": "Elkhart-Goshen", "rent": 1220, "zip": "46528"}, "elkhart-goshen-46530": {"city": "Elkhart-Goshen", "rent": 1860, "zip": "46530"}, "elkhart-goshen-46540": {"city": "Elkhart-Goshen", "rent": 1250, "zip": "46540"}, "elkhart-goshen-46542": {"city": "Elkhart-Goshen", "rent": 1160, "zip": "46542"}, "elkhart-goshen-46543": {"city": "Elkhart-Goshen", "rent": 1170, "zip": "46543"}, "elkhart-goshen-46550": {"city": "Elkhart-Goshen", "rent": 1080, "zip": "46550"}, "elkhart-goshen-46553": {"city": "Elkhart-Goshen", "rent": 1090, "zip": "46553"}, "elkhart-goshen-46561": {"city": "Elkhart-Goshen", "rent": 1390, "zip": "46561"}, "elkhart-goshen-46565": {"city": "Elkhart-Goshen", "rent": 960, "zip": "46565"}, "elkhart-goshen-46567": {"city": "Elkhart-Goshen", "rent": 1100, "zip": "46567"}, "elkhart-goshen-46573": {"city": "Elkhart-Goshen", "rent": 1240, "zip": "46573"}, "elkhart-goshen-46767": {"city": "Elkhart-Goshen", "rent": 1040, "zip": "46767"}, "evansville-47523": {"city": "Evansville", "rent": 980, "zip": "47523"}, "evansville-47537": {"city": "Evansville", "rent": 960, "zip": "47537"}, "evansville-47541": {"city": "Evansville", "rent": 1010, "zip": "47541"}, "evansville-47601": {"city": "Evansville", "rent": 1020, "zip": "47601"}, "evansville-47610": {"city": "Evansville", "rent": 1090, "zip": "47610"}, "evansville-47612": {"city": "Evansville", "rent": 960, "zip": "47612"}, "evansville-47613": {"city": "Evansville", "rent": 1150, "zip": "47613"}, "evansville-47616": {"city": "Evansville", "rent": 970, "zip": "47616"}, "evansville-47618": {"city": "Evansville", "rent": 1130, "zip": "47618"}, "evansville-47619": {"city": "Evansville", "rent": 970, "zip": "47619"}, "evansville-47620": {"city": "Evansville", "rent": 960, "zip": "47620"}, "evansville-47629": {"city": "Evansville", "rent": 1170, "zip": "47629"}, "evansville-47630": {"city": "Evansville", "rent": 1280, "zip": "47630"}, "evansville-47631": {"city": "Evansville", "rent": 1050, "zip": "47631"}, "evansville-47633": {"city": "Evansville", "rent": 960, "zip": "47633"}, "evansville-47637": {"city": "Evansville", "rent": 960, "zip": "47637"}, "evansville-47638": {"city": "Evansville", "rent": 1020, "zip": "47638"}, "evansville-47639": {"city": "Evansville", "rent": 1010, "zip": "47639"}, "evansville-47660": {"city": "Evansville", "rent": 1020, "zip": "47660"}, "evansville-47701": {"city": "Evansville", "rent": 1130, "zip": "47701"}, "evansville-47702": {"city": "Evansville", "rent": 1130, "zip": "47702"}, "evansville-47703": {"city": "Evansville", "rent": 1130, "zip": "47703"}, "evansville-47704": {"city": "Evansville", "rent": 1130, "zip": "47704"}, "evansville-47705": {"city": "Evansville", "rent": 1130, "zip": "47705"}, "evansville-47706": {"city": "Evansville", "rent": 1130, "zip": "47706"}, "evansville-47708": {"city": "Evansville", "rent": 1320, "zip": "47708"}, "evansville-47710": {"city": "Evansville", "rent": 1040, "zip": "47710"}, "evansville-47711": {"city": "Evansville", "rent": 1140, "zip": "47711"}, "evansville-47712": {"city": "Evansville", "rent": 1110, "zip": "47712"}, "evansville-47713": {"city": "Evansville", "rent": 1080, "zip": "47713"}, "evansville-47714": {"city": "Evansville", "rent": 1120, "zip": "47714"}, "evansville-47715": {"city": "Evansville", "rent": 1240, "zip": "47715"}, "evansville-47716": {"city": "Evansville", "rent": 1130, "zip": "47716"}, "evansville-47719": {"city": "Evansville", "rent": 1130, "zip": "47719"}, "evansville-47720": {"city": "Evansville", "rent": 1220, "zip": "47720"}, "evansville-47721": {"city": "Evansville", "rent": 1130, "zip": "47721"}, "evansville-47724": {"city": "Evansville", "rent": 1130, "zip": "47724"}, "evansville-47725": {"city": "Evansville", "rent": 1580, "zip": "47725"}, "evansville-47728": {"city": "Evansville", "rent": 1130, "zip": "47728"}, "evansville-47730": {"city": "Evansville", "rent": 1130, "zip": "47730"}, "evansville-47731": {"city": "Evansville", "rent": 1130, "zip": "47731"}, "evansville-47732": {"city": "Evansville", "rent": 1130, "zip": "47732"}, "evansville-47733": {"city": "Evansville", "rent": 1130, "zip": "47733"}, "evansville-47734": {"city": "Evansville", "rent": 1130, "zip": "47734"}, "evansville-47735": {"city": "Evansville", "rent": 1130, "zip": "47735"}, "evansville-47736": {"city": "Evansville", "rent": 1130, "zip": "47736"}, "evansville-47737": {"city": "Evansville", "rent": 1130, "zip": "47737"}, "evansville-47747": {"city": "Evansville", "rent": 1130, "zip": "47747"}, "evansville-47750": {"city": "Evansville", "rent": 1130, "zip": "47750"}, "fort-wayne-46562": {"city": "Fort Wayne", "rent": 960, "zip": "46562"}, "fort-wayne-46704": {"city": "Fort Wayne", "rent": 1410, "zip": "46704"}, "fort-wayne-46706": {"city": "Fort Wayne", "rent": 970, "zip": "46706"}, "fort-wayne-46723": {"city": "Fort Wayne", "rent": 1090, "zip": "46723"}, "fort-wayne-46725": {"city": "Fort Wayne", "rent": 1070, "zip": "46725"}, "fort-wayne-46733": {"city": "Fort Wayne", "rent": 960, "zip": "46733"}, "fort-wayne-46741": {"city": "Fort Wayne", "rent": 1470, "zip": "46741"}, "fort-wayne-46743": {"city": "Fort Wayne", "rent": 1150, "zip": "46743"}, "fort-wayne-46745": {"city": "Fort Wayne", "rent": 970, "zip": "46745"}, "fort-wayne-46748": {"city": "Fort Wayne", "rent": 1670, "zip": "46748"}, "fort-wayne-46750": {"city": "Fort Wayne", "rent": 960, "zip": "46750"}, "fort-wayne-46764": {"city": "Fort Wayne", "rent": 1160, "zip": "46764"}, "fort-wayne-46765": {"city": "Fort Wayne", "rent": 1360, "zip": "46765"}, "fort-wayne-46773": {"city": "Fort Wayne", "rent": 970, "zip": "46773"}, "fort-wayne-46774": {"city": "Fort Wayne", "rent": 1110, "zip": "46774"}, "fort-wayne-46777": {"city": "Fort Wayne", "rent": 1070, "zip": "46777"}, "fort-wayne-46783": {"city": "Fort Wayne", "rent": 1000, "zip": "46783"}, "fort-wayne-46787": {"city": "Fort Wayne", "rent": 980, "zip": "46787"}, "fort-wayne-46788": {"city": "Fort Wayne", "rent": 1180, "zip": "46788"}, "fort-wayne-46797": {"city": "Fort Wayne", "rent": 1130, "zip": "46797"}, "fort-wayne-46798": {"city": "Fort Wayne", "rent": 1340, "zip": "46798"}, "fort-wayne-46799": {"city": "Fort Wayne", "rent": 1060, "zip": "46799"}, "fort-wayne-46802": {"city": "Fort Wayne", "rent": 1010, "zip": "46802"}, "fort-wayne-46803": {"city": "Fort Wayne", "rent": 1010, "zip": "46803"}, "fort-wayne-46804": {"city": "Fort Wayne", "rent": 1260, "zip": "46804"}, "fort-wayne-46805": {"city": "Fort Wayne", "rent": 980, "zip": "46805"}, "fort-wayne-46806": {"city": "Fort Wayne", "rent": 970, "zip": "46806"}, "fort-wayne-46807": {"city": "Fort Wayne", "rent": 1100, "zip": "46807"}, "fort-wayne-46808": {"city": "Fort Wayne", "rent": 1040, "zip": "46808"}, "fort-wayne-46809": {"city": "Fort Wayne", "rent": 960, "zip": "46809"}, "fort-wayne-46814": {"city": "Fort Wayne", "rent": 1650, "zip": "46814"}, "fort-wayne-46815": {"city": "Fort Wayne", "rent": 1090, "zip": "46815"}, "fort-wayne-46816": {"city": "Fort Wayne", "rent": 970, "zip": "46816"}, "fort-wayne-46818": {"city": "Fort Wayne", "rent": 1410, "zip": "46818"}, "fort-wayne-46819": {"city": "Fort Wayne", "rent": 1090, "zip": "46819"}, "fort-wayne-46825": {"city": "Fort Wayne", "rent": 1260, "zip": "46825"}, "fort-wayne-46835": {"city": "Fort Wayne", "rent": 1230, "zip": "46835"}, "fort-wayne-46845": {"city": "Fort Wayne", "rent": 1580, "zip": "46845"}, "fort-wayne-46850": {"city": "Fort Wayne", "rent": 1120, "zip": "46850"}, "fort-wayne-46851": {"city": "Fort Wayne", "rent": 1120, "zip": "46851"}, "fort-wayne-46852": {"city": "Fort Wayne", "rent": 1120, "zip": "46852"}, "fort-wayne-46853": {"city": "Fort Wayne", "rent": 1120, "zip": "46853"}, "fort-wayne-46854": {"city": "Fort Wayne", "rent": 1120, "zip": "46854"}, "fort-wayne-46855": {"city": "Fort Wayne", "rent": 1120, "zip": "46855"}, "fort-wayne-46856": {"city": "Fort Wayne", "rent": 1120, "zip": "46856"}, "fort-wayne-46857": {"city": "Fort Wayne", "rent": 1120, "zip": "46857"}, "fort-wayne-46858": {"city": "Fort Wayne", "rent": 1120, "zip": "46858"}, "fort-wayne-46859": {"city": "Fort Wayne", "rent": 1120, "zip": "46859"}, "fort-wayne-46860": {"city": "Fort Wayne", "rent": 1120, "zip": "46860"}, "fort-wayne-46861": {"city": "Fort Wayne", "rent": 1120, "zip": "46861"}, "fort-wayne-46862": {"city": "Fort Wayne", "rent": 1120, "zip": "46862"}, "fort-wayne-46863": {"city": "Fort Wayne", "rent": 1120, "zip": "46863"}, "fort-wayne-46864": {"city": "Fort Wayne", "rent": 1120, "zip": "46864"}, "fort-wayne-46865": {"city": "Fort Wayne", "rent": 1120, "zip": "46865"}, "fort-wayne-46866": {"city": "Fort Wayne", "rent": 1120, "zip": "46866"}, "fort-wayne-46867": {"city": "Fort Wayne", "rent": 1120, "zip": "46867"}, "fort-wayne-46868": {"city": "Fort Wayne", "rent": 1120, "zip": "46868"}, "fort-wayne-46869": {"city": "Fort Wayne", "rent": 1120, "zip": "46869"}, "fort-wayne-46885": {"city": "Fort Wayne", "rent": 1120, "zip": "46885"}, "fort-wayne-46895": {"city": "Fort Wayne", "rent": 1120, "zip": "46895"}, "fort-wayne-46898": {"city": "Fort Wayne", "rent": 1120, "zip": "46898"}, "fort-wayne-46899": {"city": "Fort Wayne", "rent": 1120, "zip": "46899"}, "fort-wayne-46962": {"city": "Fort Wayne", "rent": 1000, "zip": "46962"}, "wells-county-46714": {"city": "Wells County", "rent": 960, "zip": "46714"}, "wells-county-46731": {"city": "Wells County", "rent": 1000, "zip": "46731"}, "wells-county-46733": {"city": "Wells County", "rent": 960, "zip": "46733"}, "wells-county-46740": {"city": "Wells County", "rent": 960, "zip": "46740"}, "wells-county-46759": {"city": "Wells County", "rent": 970, "zip": "46759"}, "wells-county-46766": {"city": "Wells County", "rent": 990, "zip": "46766"}, "wells-county-46770": {"city": "Wells County", "rent": 970, "zip": "46770"}, "wells-county-46777": {"city": "Wells County", "rent": 1070, "zip": "46777"}, "wells-county-46778": {"city": "Wells County", "rent": 960, "zip": "46778"}, "wells-county-46781": {"city": "Wells County", "rent": 960, "zip": "46781"}, "wells-county-46783": {"city": "Wells County", "rent": 1000, "zip": "46783"}, "wells-county-46791": {"city": "Wells County", "rent": 1140, "zip": "46791"}, "wells-county-46792": {"city": "Wells County", "rent": 1100, "zip": "46792"}, "wells-county-46798": {"city": "Wells County", "rent": 1340, "zip": "46798"}, "wells-county-46799": {"city": "Wells County", "rent": 1060, "zip": "46799"}, "wells-county-46819": {"city": "Wells County", "rent": 1090, "zip": "46819"}, "wells-county-46952": {"city": "Wells County", "rent": 960, "zip": "46952"}, "wells-county-46991": {"city": "Wells County", "rent": 1040, "zip": "46991"}, "wells-county-47326": {"city": "Wells County", "rent": 960, "zip": "47326"}, "wells-county-47348": {"city": "Wells County", "rent": 960, "zip": "47348"}, "wells-county-47359": {"city": "Wells County", "rent": 980, "zip": "47359"}, "anderson-46001": {"city": "Anderson", "rent": 1100, "zip": "46001"}, "anderson-46011": {"city": "Anderson", "rent": 1380, "zip": "46011"}, "anderson-46012": {"city": "Anderson", "rent": 1270, "zip": "46012"}, "anderson-46013": {"city": "Anderson", "rent": 1160, "zip": "46013"}, "anderson-46015": {"city": "Anderson", "rent": 1210, "zip": "46015"}, "anderson-46016": {"city": "Anderson", "rent": 1200, "zip": "46016"}, "anderson-46017": {"city": "Anderson", "rent": 1240, "zip": "46017"}, "anderson-46018": {"city": "Anderson", "rent": 1210, "zip": "46018"}, "anderson-46036": {"city": "Anderson", "rent": 1100, "zip": "46036"}, "anderson-46040": {"city": "Anderson", "rent": 1530, "zip": "46040"}, "anderson-46044": {"city": "Anderson", "rent": 1180, "zip": "46044"}, "anderson-46048": {"city": "Anderson", "rent": 1690, "zip": "46048"}, "anderson-46051": {"city": "Anderson", "rent": 1420, "zip": "46051"}, "anderson-46056": {"city": "Anderson", "rent": 1350, "zip": "46056"}, "anderson-46060": {"city": "Anderson", "rent": 1590, "zip": "46060"}, "anderson-46063": {"city": "Anderson", "rent": 1090, "zip": "46063"}, "anderson-46064": {"city": "Anderson", "rent": 1430, "zip": "46064"}, "anderson-46070": {"city": "Anderson", "rent": 1120, "zip": "46070"}, "anderson-46928": {"city": "Anderson", "rent": 980, "zip": "46928"}, "anderson-47342": {"city": "Anderson", "rent": 970, "zip": "47342"}, "anderson-47356": {"city": "Anderson", "rent": 980, "zip": "47356"}, "indianapolis-carmel-46011": {"city": "Indianapolis-Carmel", "rent": 1380, "zip": "46011"}, "indianapolis-carmel-46030": {"city": "Indianapolis-Carmel", "rent": 1240, "zip": "46030"}, "indianapolis-carmel-46031": {"city": "Indianapolis-Carmel", "rent": 1410, "zip": "46031"}, "indianapolis-carmel-46032": {"city": "Indianapolis-Carmel", "rent": 2040, "zip": "46032"}, "indianapolis-carmel-46033": {"city": "Indianapolis-Carmel", "rent": 2070, "zip": "46033"}, "indianapolis-carmel-46034": {"city": "Indianapolis-Carmel", "rent": 1500, "zip": "46034"}, "indianapolis-carmel-46035": {"city": "Indianapolis-Carmel", "rent": 1100, "zip": "46035"}, "indianapolis-carmel-46036": {"city": "Indianapolis-Carmel", "rent": 1100, "zip": "46036"}, "indianapolis-carmel-46037": {"city": "Indianapolis-Carmel", "rent": 1920, "zip": "46037"}, "indianapolis-carmel-46038": {"city": "Indianapolis-Carmel", "rent": 1940, "zip": "46038"}, "indianapolis-carmel-46040": {"city": "Indianapolis-Carmel", "rent": 1530, "zip": "46040"}, "indianapolis-carmel-46041": {"city": "Indianapolis-Carmel", "rent": 1100, "zip": "46041"}, "indianapolis-carmel-46049": {"city": "Indianapolis-Carmel", "rent": 1370, "zip": "46049"}, "indianapolis-carmel-46050": {"city": "Indianapolis-Carmel", "rent": 1100, "zip": "46050"}, "indianapolis-carmel-46052": {"city": "Indianapolis-Carmel", "rent": 1230, "zip": "46052"}, "indianapolis-carmel-46055": {"city": "Indianapolis-Carmel", "rent": 1910, "zip": "46055"}, "indianapolis-carmel-46056": {"city": "Indianapolis-Carmel", "rent": 1350, "zip": "46056"}, "indianapolis-carmel-46060": {"city": "Indianapolis-Carmel", "rent": 1590, "zip": "46060"}, "indianapolis-carmel-46061": {"city": "Indianapolis-Carmel", "rent": 1850, "zip": "46061"}, "indianapolis-carmel-46062": {"city": "Indianapolis-Carmel", "rent": 1730, "zip": "46062"}, "indianapolis-carmel-46064": {"city": "Indianapolis-Carmel", "rent": 1430, "zip": "46064"}, "indianapolis-carmel-46069": {"city": "Indianapolis-Carmel", "rent": 1180, "zip": "46069"}, "indianapolis-carmel-46071": {"city": "Indianapolis-Carmel", "rent": 1270, "zip": "46071"}, "indianapolis-carmel-46072": {"city": "Indianapolis-Carmel", "rent": 1370, "zip": "46072"}, "indianapolis-carmel-46074": {"city": "Indianapolis-Carmel", "rent": 1900, "zip": "46074"}, "indianapolis-carmel-46075": {"city": "Indianapolis-Carmel", "rent": 2150, "zip": "46075"}, "indianapolis-carmel-46077": {"city": "Indianapolis-Carmel", "rent": 2120, "zip": "46077"}, "indianapolis-carmel-46082": {"city": "Indianapolis-Carmel", "rent": 1850, "zip": "46082"}, "indianapolis-carmel-46102": {"city": "Indianapolis-Carmel", "rent": 1430, "zip": "46102"}, "indianapolis-carmel-46103": {"city": "Indianapolis-Carmel", "rent": 1430, "zip": "46103"}, "indianapolis-carmel-46106": {"city": "Indianapolis-Carmel", "rent": 2030, "zip": "46106"}, "indianapolis-carmel-46107": {"city": "Indianapolis-Carmel", "rent": 1350, "zip": "46107"}, "indianapolis-carmel-46110": {"city": "Indianapolis-Carmel", "rent": 1130, "zip": "46110"}, "indianapolis-carmel-46111": {"city": "Indianapolis-Carmel", "rent": 1360, "zip": "46111"}, "indianapolis-carmel-46112": {"city": "Indianapolis-Carmel", "rent": 1740, "zip": "46112"}, "indianapolis-carmel-46113": {"city": "Indianapolis-Carmel", "rent": 1750, "zip": "46113"}, "indianapolis-carmel-46115": {"city": "Indianapolis-Carmel", "rent": 1100, "zip": "46115"}, "indianapolis-carmel-46117": {"city": "Indianapolis-Carmel", "rent": 1160, "zip": "46117"}, "indianapolis-carmel-46118": {"city": "Indianapolis-Carmel", "rent": 1240, "zip": "46118"}, "indianapolis-carmel-46120": {"city": "Indianapolis-Carmel", "rent": 1100, "zip": "46120"}, "indianapolis-carmel-46121": {"city": "Indianapolis-Carmel", "rent": 1420, "zip": "46121"}, "indianapolis-carmel-46122": {"city": "Indianapolis-Carmel", "rent": 1430, "zip": "46122"}, "indianapolis-carmel-46123": {"city": "Indianapolis-Carmel", "rent": 1850, "zip": "46123"}, "indianapolis-carmel-46124": {"city": "Indianapolis-Carmel", "rent": 1100, "zip": "46124"}, "indianapolis-carmel-46125": {"city": "Indianapolis-Carmel", "rent": 1230, "zip": "46125"}, "indianapolis-carmel-46126": {"city": "Indianapolis-Carmel", "rent": 1100, "zip": "46126"}, "indianapolis-carmel-46130": {"city": "Indianapolis-Carmel", "rent": 1180, "zip": "46130"}, "indianapolis-carmel-46131": {"city": "Indianapolis-Carmel", "rent": 1430, "zip": "46131"}, "indianapolis-carmel-46140": {"city": "Indianapolis-Carmel", "rent": 1370, "zip": "46140"}, "indianapolis-carmel-46142": {"city": "Indianapolis-Carmel", "rent": 1410, "zip": "46142"}, "indianapolis-carmel-46143": {"city": "Indianapolis-Carmel", "rent": 1770, "zip": "46143"}, "indianapolis-carmel-46144": {"city": "Indianapolis-Carmel", "rent": 1300, "zip": "46144"}, "indianapolis-carmel-46147": {"city": "Indianapolis-Carmel", "rent": 1260, "zip": "46147"}, "indianapolis-carmel-46148": {"city": "Indianapolis-Carmel", "rent": 1100, "zip": "46148"}, "indianapolis-carmel-46149": {"city": "Indianapolis-Carmel", "rent": 1500, "zip": "46149"}, "indianapolis-carmel-46150": {"city": "Indianapolis-Carmel", "rent": 1220, "zip": "46150"}, "indianapolis-carmel-46151": {"city": "Indianapolis-Carmel", "rent": 1230, "zip": "46151"}, "indianapolis-carmel-46154": {"city": "Indianapolis-Carmel", "rent": 1370, "zip": "46154"}, "indianapolis-carmel-46157": {"city": "Indianapolis-Carmel", "rent": 1100, "zip": "46157"}, "indianapolis-carmel-46158": {"city": "Indianapolis-Carmel", "rent": 1370, "zip": "46158"}, "indianapolis-carmel-46160": {"city": "Indianapolis-Carmel", "rent": 1110, "zip": "46160"}, "indianapolis-carmel-46161": {"city": "Indianapolis-Carmel", "rent": 1300, "zip": "46161"}, "indianapolis-carmel-46162": {"city": "Indianapolis-Carmel", "rent": 1480, "zip": "46162"}, "indianapolis-carmel-46163": {"city": "Indianapolis-Carmel", "rent": 1380, "zip": "46163"}, "indianapolis-carmel-46164": {"city": "Indianapolis-Carmel", "rent": 1160, "zip": "46164"}, "indianapolis-carmel-46165": {"city": "Indianapolis-Carmel", "rent": 1810, "zip": "46165"}, "indianapolis-carmel-46166": {"city": "Indianapolis-Carmel", "rent": 1190, "zip": "46166"}, "indianapolis-carmel-46167": {"city": "Indianapolis-Carmel", "rent": 1430, "zip": "46167"}, "indianapolis-carmel-46168": {"city": "Indianapolis-Carmel", "rent": 1610, "zip": "46168"}, "indianapolis-carmel-46176": {"city": "Indianapolis-Carmel", "rent": 1240, "zip": "46176"}, "indianapolis-carmel-46180": {"city": "Indianapolis-Carmel", "rent": 1230, "zip": "46180"}, "indianapolis-carmel-46181": {"city": "Indianapolis-Carmel", "rent": 1460, "zip": "46181"}, "indianapolis-carmel-46182": {"city": "Indianapolis-Carmel", "rent": 1560, "zip": "46182"}, "indianapolis-carmel-46183": {"city": "Indianapolis-Carmel", "rent": 1560, "zip": "46183"}, "indianapolis-carmel-46184": {"city": "Indianapolis-Carmel", "rent": 2200, "zip": "46184"}, "indianapolis-carmel-46186": {"city": "Indianapolis-Carmel", "rent": 1320, "zip": "46186"}, "indianapolis-carmel-46201": {"city": "Indianapolis-Carmel", "rent": 1280, "zip": "46201"}, "indianapolis-carmel-46202": {"city": "Indianapolis-Carmel", "rent": 1850, "zip": "46202"}, "indianapolis-carmel-46203": {"city": "Indianapolis-Carmel", "rent": 1320, "zip": "46203"}, "indianapolis-carmel-46204": {"city": "Indianapolis-Carmel", "rent": 2170, "zip": "46204"}, "indianapolis-carmel-46205": {"city": "Indianapolis-Carmel", "rent": 1500, "zip": "46205"}, "indianapolis-carmel-46206": {"city": "Indianapolis-Carmel", "rent": 1410, "zip": "46206"}, "indianapolis-carmel-46208": {"city": "Indianapolis-Carmel", "rent": 1350, "zip": "46208"}, "indianapolis-carmel-46214": {"city": "Indianapolis-Carmel", "rent": 1350, "zip": "46214"}, "indianapolis-carmel-46216": {"city": "Indianapolis-Carmel", "rent": 1650, "zip": "46216"}, "indianapolis-carmel-46217": {"city": "Indianapolis-Carmel", "rent": 1730, "zip": "46217"}, "indianapolis-carmel-46218": {"city": "Indianapolis-Carmel", "rent": 1260, "zip": "46218"}, "indianapolis-carmel-46219": {"city": "Indianapolis-Carmel", "rent": 1340, "zip": "46219"}, "indianapolis-carmel-46220": {"city": "Indianapolis-Carmel", "rent": 1690, "zip": "46220"}, "indianapolis-carmel-46221": {"city": "Indianapolis-Carmel", "rent": 1440, "zip": "46221"}, "indianapolis-carmel-46222": {"city": "Indianapolis-Carmel", "rent": 1370, "zip": "46222"}, "indianapolis-carmel-46224": {"city": "Indianapolis-Carmel", "rent": 1370, "zip": "46224"}, "indianapolis-carmel-46225": {"city": "Indianapolis-Carmel", "rent": 1330, "zip": "46225"}, "indianapolis-carmel-46226": {"city": "Indianapolis-Carmel", "rent": 1340, "zip": "46226"}, "indianapolis-carmel-46227": {"city": "Indianapolis-Carmel", "rent": 1320, "zip": "46227"}, "indianapolis-carmel-46228": {"city": "Indianapolis-Carmel", "rent": 1780, "zip": "46228"}, "indianapolis-carmel-46229": {"city": "Indianapolis-Carmel", "rent": 1300, "zip": "46229"}, "indianapolis-carmel-46230": {"city": "Indianapolis-Carmel", "rent": 1410, "zip": "46230"}, "indianapolis-carmel-46231": {"city": "Indianapolis-Carmel", "rent": 2040, "zip": "46231"}, "indianapolis-carmel-46234": {"city": "Indianapolis-Carmel", "rent": 1780, "zip": "46234"}, "indianapolis-carmel-46235": {"city": "Indianapolis-Carmel", "rent": 1250, "zip": "46235"}, "indianapolis-carmel-46236": {"city": "Indianapolis-Carmel", "rent": 2120, "zip": "46236"}, "indianapolis-carmel-46237": {"city": "Indianapolis-Carmel", "rent": 1620, "zip": "46237"}, "indianapolis-carmel-46239": {"city": "Indianapolis-Carmel", "rent": 1640, "zip": "46239"}, "indianapolis-carmel-46240": {"city": "Indianapolis-Carmel", "rent": 1740, "zip": "46240"}, "indianapolis-carmel-46241": {"city": "Indianapolis-Carmel", "rent": 1410, "zip": "46241"}, "indianapolis-carmel-46242": {"city": "Indianapolis-Carmel", "rent": 1410, "zip": "46242"}, "indianapolis-carmel-46244": {"city": "Indianapolis-Carmel", "rent": 1410, "zip": "46244"}, "indianapolis-carmel-46247": {"city": "Indianapolis-Carmel", "rent": 1410, "zip": "46247"}, "indianapolis-carmel-46250": {"city": "Indianapolis-Carmel", "rent": 1630, "zip": "46250"}, "indianapolis-carmel-46251": {"city": "Indianapolis-Carmel", "rent": 1410, "zip": "46251"}, "indianapolis-carmel-46253": {"city": "Indianapolis-Carmel", "rent": 1410, "zip": "46253"}, "indianapolis-carmel-46254": {"city": "Indianapolis-Carmel", "rent": 1440, "zip": "46254"}, "indianapolis-carmel-46256": {"city": "Indianapolis-Carmel", "rent": 1430, "zip": "46256"}, "indianapolis-carmel-46259": {"city": "Indianapolis-Carmel", "rent": 1600, "zip": "46259"}, "indianapolis-carmel-46260": {"city": "Indianapolis-Carmel", "rent": 1490, "zip": "46260"}, "indianapolis-carmel-46268": {"city": "Indianapolis-Carmel", "rent": 1530, "zip": "46268"}, "indianapolis-carmel-46278": {"city": "Indianapolis-Carmel", "rent": 1720, "zip": "46278"}, "indianapolis-carmel-46280": {"city": "Indianapolis-Carmel", "rent": 2040, "zip": "46280"}, "indianapolis-carmel-46282": {"city": "Indianapolis-Carmel", "rent": 1410, "zip": "46282"}, "indianapolis-carmel-46290": {"city": "Indianapolis-Carmel", "rent": 1840, "zip": "46290"}, "indianapolis-carmel-47201": {"city": "Indianapolis-Carmel", "rent": 1430, "zip": "47201"}, "indianapolis-carmel-47234": {"city": "Indianapolis-Carmel", "rent": 1260, "zip": "47234"}, "indianapolis-carmel-47235": {"city": "Indianapolis-Carmel", "rent": 1100, "zip": "47235"}, "indianapolis-carmel-47240": {"city": "Indianapolis-Carmel", "rent": 1100, "zip": "47240"}, "indianapolis-carmel-47272": {"city": "Indianapolis-Carmel", "rent": 1110, "zip": "47272"}, "indianapolis-carmel-47274": {"city": "Indianapolis-Carmel", "rent": 1100, "zip": "47274"}, "indianapolis-carmel-47384": {"city": "Indianapolis-Carmel", "rent": 1100, "zip": "47384"}, "indianapolis-carmel-47401": {"city": "Indianapolis-Carmel", "rent": 1230, "zip": "47401"}, "indianapolis-carmel-47433": {"city": "Indianapolis-Carmel", "rent": 1100, "zip": "47433"}, "indianapolis-carmel-47435": {"city": "Indianapolis-Carmel", "rent": 1270, "zip": "47435"}, "indianapolis-carmel-47448": {"city": "Indianapolis-Carmel", "rent": 1290, "zip": "47448"}, "indianapolis-carmel-47456": {"city": "Indianapolis-Carmel", "rent": 1100, "zip": "47456"}, "indianapolis-carmel-47468": {"city": "Indianapolis-Carmel", "rent": 1220, "zip": "47468"}, "indianapolis-carmel-47933": {"city": "Indianapolis-Carmel", "rent": 1230, "zip": "47933"}, "indianapolis-carmel-47968": {"city": "Indianapolis-Carmel", "rent": 1210, "zip": "47968"}, "tipton-county-46031": {"city": "Tipton County", "rent": 1410, "zip": "46031"}, "tipton-county-46036": {"city": "Tipton County", "rent": 1100, "zip": "46036"}, "tipton-county-46039": {"city": "Tipton County", "rent": 1090, "zip": "46039"}, "tipton-county-46045": {"city": "Tipton County", "rent": 1100, "zip": "46045"}, "tipton-county-46047": {"city": "Tipton County", "rent": 1100, "zip": "46047"}, "tipton-county-46049": {"city": "Tipton County", "rent": 1370, "zip": "46049"}, "tipton-county-46050": {"city": "Tipton County", "rent": 1100, "zip": "46050"}, "tipton-county-46068": {"city": "Tipton County", "rent": 1160, "zip": "46068"}, "tipton-county-46069": {"city": "Tipton County", "rent": 1180, "zip": "46069"}, "tipton-county-46072": {"city": "Tipton County", "rent": 1370, "zip": "46072"}, "tipton-county-46076": {"city": "Tipton County", "rent": 1190, "zip": "46076"}, "tipton-county-46902": {"city": "Tipton County", "rent": 1140, "zip": "46902"}, "tipton-county-46936": {"city": "Tipton County", "rent": 1180, "zip": "46936"}, "tipton-county-46979": {"city": "Tipton County", "rent": 1170, "zip": "46979"}, "kokomo-46039": {"city": "Kokomo", "rent": 1090, "zip": "46039"}, "kokomo-46041": {"city": "Kokomo", "rent": 1100, "zip": "46041"}, "kokomo-46068": {"city": "Kokomo", "rent": 1160, "zip": "46068"}, "kokomo-46076": {"city": "Kokomo", "rent": 1190, "zip": "46076"}, "kokomo-46901": {"city": "Kokomo", "rent": 1050, "zip": "46901"}, "kokomo-46902": {"city": "Kokomo", "rent": 1140, "zip": "46902"}, "kokomo-46903": {"city": "Kokomo", "rent": 1120, "zip": "46903"}, "kokomo-46904": {"city": "Kokomo", "rent": 1120, "zip": "46904"}, "kokomo-46919": {"city": "Kokomo", "rent": 960, "zip": "46919"}, "kokomo-46928": {"city": "Kokomo", "rent": 980, "zip": "46928"}, "kokomo-46929": {"city": "Kokomo", "rent": 960, "zip": "46929"}, "kokomo-46932": {"city": "Kokomo", "rent": 960, "zip": "46932"}, "kokomo-46936": {"city": "Kokomo", "rent": 1180, "zip": "46936"}, "kokomo-46937": {"city": "Kokomo", "rent": 1140, "zip": "46937"}, "kokomo-46965": {"city": "Kokomo", "rent": 1140, "zip": "46965"}, "kokomo-46979": {"city": "Kokomo", "rent": 1170, "zip": "46979"}, "kokomo-46995": {"city": "Kokomo", "rent": 1120, "zip": "46995"}, "warren-county-47906": {"city": "Warren County", "rent": 1270, "zip": "47906"}, "warren-county-47917": {"city": "Warren County", "rent": 1050, "zip": "47917"}, "warren-county-47918": {"city": "Warren County", "rent": 1050, "zip": "47918"}, "warren-county-47921": {"city": "Warren County", "rent": 1110, "zip": "47921"}, "warren-county-47932": {"city": "Warren County", "rent": 960, "zip": "47932"}, "warren-county-47944": {"city": "Warren County", "rent": 1050, "zip": "47944"}, "warren-county-47970": {"city": "Warren County", "rent": 1050, "zip": "47970"}, "warren-county-47975": {"city": "Warren County", "rent": 1050, "zip": "47975"}, "warren-county-47982": {"city": "Warren County", "rent": 960, "zip": "47982"}, "warren-county-47991": {"city": "Warren County", "rent": 960, "zip": "47991"}, "warren-county-47993": {"city": "Warren County", "rent": 1010, "zip": "47993"}, "lafayette-west-lafayette-46041": {"city": "Lafayette-West Lafayette", "rent": 1100, "zip": "46041"}, "lafayette-west-lafayette-46058": {"city": "Lafayette-West Lafayette", "rent": 1130, "zip": "46058"}, "lafayette-west-lafayette-46923": {"city": "Lafayette-West Lafayette", "rent": 1050, "zip": "46923"}, "lafayette-west-lafayette-47901": {"city": "Lafayette-West Lafayette", "rent": 1130, "zip": "47901"}, "lafayette-west-lafayette-47902": {"city": "Lafayette-West Lafayette", "rent": 1250, "zip": "47902"}, "lafayette-west-lafayette-47903": {"city": "Lafayette-West Lafayette", "rent": 1250, "zip": "47903"}, "lafayette-west-lafayette-47904": {"city": "Lafayette-West Lafayette", "rent": 1140, "zip": "47904"}, "lafayette-west-lafayette-47905": {"city": "Lafayette-West Lafayette", "rent": 1270, "zip": "47905"}, "lafayette-west-lafayette-47906": {"city": "Lafayette-West Lafayette", "rent": 1270, "zip": "47906"}, "lafayette-west-lafayette-47907": {"city": "Lafayette-West Lafayette", "rent": 1250, "zip": "47907"}, "lafayette-west-lafayette-47909": {"city": "Lafayette-West Lafayette", "rent": 1270, "zip": "47909"}, "lafayette-west-lafayette-47917": {"city": "Lafayette-West Lafayette", "rent": 1050, "zip": "47917"}, "lafayette-west-lafayette-47918": {"city": "Lafayette-West Lafayette", "rent": 1050, "zip": "47918"}, "lafayette-west-lafayette-47920": {"city": "Lafayette-West Lafayette", "rent": 1130, "zip": "47920"}, "lafayette-west-lafayette-47921": {"city": "Lafayette-West Lafayette", "rent": 1110, "zip": "47921"}, "lafayette-west-lafayette-47924": {"city": "Lafayette-West Lafayette", "rent": 1270, "zip": "47924"}, "lafayette-west-lafayette-47930": {"city": "Lafayette-West Lafayette", "rent": 1130, "zip": "47930"}, "lafayette-west-lafayette-47941": {"city": "Lafayette-West Lafayette", "rent": 1130, "zip": "47941"}, "lafayette-west-lafayette-47942": {"city": "Lafayette-West Lafayette", "rent": 960, "zip": "47942"}, "lafayette-west-lafayette-47944": {"city": "Lafayette-West Lafayette", "rent": 1050, "zip": "47944"}, "lafayette-west-lafayette-47948": {"city": "Lafayette-West Lafayette", "rent": 960, "zip": "47948"}, "lafayette-west-lafayette-47955": {"city": "Lafayette-West Lafayette", "rent": 1050, "zip": "47955"}, "lafayette-west-lafayette-47962": {"city": "Lafayette-West Lafayette", "rent": 1250, "zip": "47962"}, "lafayette-west-lafayette-47967": {"city": "Lafayette-West Lafayette", "rent": 1080, "zip": "47967"}, "lafayette-west-lafayette-47970": {"city": "Lafayette-West Lafayette", "rent": 1050, "zip": "47970"}, "lafayette-west-lafayette-47971": {"city": "Lafayette-West Lafayette", "rent": 1050, "zip": "47971"}, "lafayette-west-lafayette-47975": {"city": "Lafayette-West Lafayette", "rent": 1050, "zip": "47975"}, "lafayette-west-lafayette-47977": {"city": "Lafayette-West Lafayette", "rent": 1050, "zip": "47977"}, "lafayette-west-lafayette-47981": {"city": "Lafayette-West Lafayette", "rent": 1170, "zip": "47981"}, "lafayette-west-lafayette-47983": {"city": "Lafayette-West Lafayette", "rent": 1270, "zip": "47983"}, "lafayette-west-lafayette-47986": {"city": "Lafayette-West Lafayette", "rent": 1050, "zip": "47986"}, "lafayette-west-lafayette-47992": {"city": "Lafayette-West Lafayette", "rent": 1210, "zip": "47992"}, "lafayette-west-lafayette-47995": {"city": "Lafayette-West Lafayette", "rent": 1090, "zip": "47995"}, "lafayette-west-lafayette-47996": {"city": "Lafayette-West Lafayette", "rent": 1250, "zip": "47996"}, "carroll-county-46041": {"city": "Carroll County", "rent": 1100, "zip": "46041"}, "carroll-county-46065": {"city": "Carroll County", "rent": 1160, "zip": "46065"}, "carroll-county-46913": {"city": "Carroll County", "rent": 990, "zip": "46913"}, "carroll-county-46915": {"city": "Carroll County", "rent": 960, "zip": "46915"}, "carroll-county-46916": {"city": "Carroll County", "rent": 970, "zip": "46916"}, "carroll-county-46917": {"city": "Carroll County", "rent": 980, "zip": "46917"}, "carroll-county-46920": {"city": "Carroll County", "rent": 1040, "zip": "46920"}, "carroll-county-46923": {"city": "Carroll County", "rent": 1050, "zip": "46923"}, "carroll-county-46929": {"city": "Carroll County", "rent": 960, "zip": "46929"}, "carroll-county-46932": {"city": "Carroll County", "rent": 960, "zip": "46932"}, "carroll-county-46947": {"city": "Carroll County", "rent": 970, "zip": "46947"}, "carroll-county-46977": {"city": "Carroll County", "rent": 970, "zip": "46977"}, "carroll-county-46979": {"city": "Carroll County", "rent": 1170, "zip": "46979"}, "carroll-county-47905": {"city": "Carroll County", "rent": 1270, "zip": "47905"}, "carroll-county-47920": {"city": "Carroll County", "rent": 1130, "zip": "47920"}, "carroll-county-47923": {"city": "Carroll County", "rent": 1020, "zip": "47923"}, "carroll-county-47926": {"city": "Carroll County", "rent": 1020, "zip": "47926"}, "carroll-county-47950": {"city": "Carroll County", "rent": 1130, "zip": "47950"}, "carroll-county-47960": {"city": "Carroll County", "rent": 1010, "zip": "47960"}, "carroll-county-47997": {"city": "Carroll County", "rent": 960, "zip": "47997"}, "washington-county-47106": {"city": "Washington County", "rent": 1070, "zip": "47106"}, "washington-county-47108": {"city": "Washington County", "rent": 1060, "zip": "47108"}, "washington-county-47115": {"city": "Washington County", "rent": 1070, "zip": "47115"}, "washington-county-47120": {"city": "Washington County", "rent": 1070, "zip": "47120"}, "washington-county-47125": {"city": "Washington County", "rent": 1190, "zip": "47125"}, "washington-county-47126": {"city": "Washington County", "rent": 1070, "zip": "47126"}, "washington-county-47145": {"city": "Washington County", "rent": 980, "zip": "47145"}, "washington-county-47164": {"city": "Washington County", "rent": 1070, "zip": "47164"}, "washington-county-47165": {"city": "Washington County", "rent": 1070, "zip": "47165"}, "washington-county-47167": {"city": "Washington County", "rent": 960, "zip": "47167"}, "washington-county-47170": {"city": "Washington County", "rent": 1100, "zip": "47170"}, "washington-county-47281": {"city": "Washington County", "rent": 1000, "zip": "47281"}, "washington-county-47452": {"city": "Washington County", "rent": 960, "zip": "47452"}, "michigan-city-la-porte-46340": {"city": "Michigan City-La Porte", "rent": 1030, "zip": "46340"}, "michigan-city-la-porte-46345": {"city": "Michigan City-La Porte", "rent": 1250, "zip": "46345"}, "michigan-city-la-porte-46346": {"city": "Michigan City-La Porte", "rent": 1100, "zip": "46346"}, "michigan-city-la-porte-46348": {"city": "Michigan City-La Porte", "rent": 1290, "zip": "46348"}, "michigan-city-la-porte-46350": {"city": "Michigan City-La Porte", "rent": 1140, "zip": "46350"}, "michigan-city-la-porte-46360": {"city": "Michigan City-La Porte", "rent": 1090, "zip": "46360"}, "michigan-city-la-porte-46365": {"city": "Michigan City-La Porte", "rent": 1170, "zip": "46365"}, "michigan-city-la-porte-46371": {"city": "Michigan City-La Porte", "rent": 1440, "zip": "46371"}, "michigan-city-la-porte-46382": {"city": "Michigan City-La Porte", "rent": 1190, "zip": "46382"}, "michigan-city-la-porte-46383": {"city": "Michigan City-La Porte", "rent": 1350, "zip": "46383"}, "michigan-city-la-porte-46390": {"city": "Michigan City-La Porte", "rent": 1490, "zip": "46390"}, "michigan-city-la-porte-46391": {"city": "Michigan City-La Porte", "rent": 1420, "zip": "46391"}, "michigan-city-la-porte-46532": {"city": "Michigan City-La Porte", "rent": 1130, "zip": "46532"}, "michigan-city-la-porte-46552": {"city": "Michigan City-La Porte", "rent": 1160, "zip": "46552"}, "michigan-city-la-porte-46554": {"city": "Michigan City-La Porte", "rent": 1060, "zip": "46554"}, "michigan-city-la-porte-46574": {"city": "Michigan City-La Porte", "rent": 1040, "zip": "46574"}, "muncie-46001": {"city": "Muncie", "rent": 1100, "zip": "46001"}, "muncie-46012": {"city": "Muncie", "rent": 1270, "zip": "46012"}, "muncie-46017": {"city": "Muncie", "rent": 1240, "zip": "46017"}, "muncie-46070": {"city": "Muncie", "rent": 1120, "zip": "46070"}, "muncie-46989": {"city": "Muncie", "rent": 960, "zip": "46989"}, "muncie-47302": {"city": "Muncie", "rent": 1020, "zip": "47302"}, "muncie-47303": {"city": "Muncie", "rent": 1070, "zip": "47303"}, "muncie-47304": {"city": "Muncie", "rent": 1120, "zip": "47304"}, "muncie-47305": {"city": "Muncie", "rent": 960, "zip": "47305"}, "muncie-47306": {"city": "Muncie", "rent": 1100, "zip": "47306"}, "muncie-47307": {"city": "Muncie", "rent": 1040, "zip": "47307"}, "muncie-47308": {"city": "Muncie", "rent": 1040, "zip": "47308"}, "muncie-47320": {"city": "Muncie", "rent": 960, "zip": "47320"}, "muncie-47334": {"city": "Muncie", "rent": 960, "zip": "47334"}, "muncie-47336": {"city": "Muncie", "rent": 970, "zip": "47336"}, "muncie-47338": {"city": "Muncie", "rent": 960, "zip": "47338"}, "muncie-47342": {"city": "Muncie", "rent": 970, "zip": "47342"}, "muncie-47354": {"city": "Muncie", "rent": 1160, "zip": "47354"}, "muncie-47356": {"city": "Muncie", "rent": 980, "zip": "47356"}, "muncie-47367": {"city": "Muncie", "rent": 1020, "zip": "47367"}, "muncie-47368": {"city": "Muncie", "rent": 960, "zip": "47368"}, "muncie-47383": {"city": "Muncie", "rent": 1110, "zip": "47383"}, "muncie-47386": {"city": "Muncie", "rent": 990, "zip": "47386"}, "muncie-47396": {"city": "Muncie", "rent": 1010, "zip": "47396"}, "south-bend-mishawaka-46506": {"city": "South Bend-Mishawaka", "rent": 1000, "zip": "46506"}, "south-bend-mishawaka-46517": {"city": "South Bend-Mishawaka", "rent": 1060, "zip": "46517"}, "south-bend-mishawaka-46530": {"city": "South Bend-Mishawaka", "rent": 1860, "zip": "46530"}, "south-bend-mishawaka-46536": {"city": "South Bend-Mishawaka", "rent": 1140, "zip": "46536"}, "south-bend-mishawaka-46544": {"city": "South Bend-Mishawaka", "rent": 1270, "zip": "46544"}, "south-bend-mishawaka-46545": {"city": "South Bend-Mishawaka", "rent": 1330, "zip": "46545"}, "south-bend-mishawaka-46546": {"city": "South Bend-Mishawaka", "rent": 1290, "zip": "46546"}, "south-bend-mishawaka-46550": {"city": "South Bend-Mishawaka", "rent": 1080, "zip": "46550"}, "south-bend-mishawaka-46552": {"city": "South Bend-Mishawaka", "rent": 1160, "zip": "46552"}, "south-bend-mishawaka-46554": {"city": "South Bend-Mishawaka", "rent": 1060, "zip": "46554"}, "south-bend-mishawaka-46556": {"city": "South Bend-Mishawaka", "rent": 1520, "zip": "46556"}, "south-bend-mishawaka-46561": {"city": "South Bend-Mishawaka", "rent": 1390, "zip": "46561"}, "south-bend-mishawaka-46563": {"city": "South Bend-Mishawaka", "rent": 1040, "zip": "46563"}, "south-bend-mishawaka-46573": {"city": "South Bend-Mishawaka", "rent": 1240, "zip": "46573"}, "south-bend-mishawaka-46574": {"city": "South Bend-Mishawaka", "rent": 1040, "zip": "46574"}, "south-bend-mishawaka-46595": {"city": "South Bend-Mishawaka", "rent": 1000, "zip": "46595"}, "south-bend-mishawaka-46601": {"city": "South Bend-Mishawaka", "rent": 1060, "zip": "46601"}, "south-bend-mishawaka-46613": {"city": "South Bend-Mishawaka", "rent": 1280, "zip": "46613"}, "south-bend-mishawaka-46614": {"city": "South Bend-Mishawaka", "rent": 1110, "zip": "46614"}, "south-bend-mishawaka-46615": {"city": "South Bend-Mishawaka", "rent": 1190, "zip": "46615"}, "south-bend-mishawaka-46616": {"city": "South Bend-Mishawaka", "rent": 1300, "zip": "46616"}, "south-bend-mishawaka-46617": {"city": "South Bend-Mishawaka", "rent": 1780, "zip": "46617"}, "south-bend-mishawaka-46619": {"city": "South Bend-Mishawaka", "rent": 1190, "zip": "46619"}, "south-bend-mishawaka-46624": {"city": "South Bend-Mishawaka", "rent": 1290, "zip": "46624"}, "south-bend-mishawaka-46628": {"city": "South Bend-Mishawaka", "rent": 1310, "zip": "46628"}, "south-bend-mishawaka-46634": {"city": "South Bend-Mishawaka", "rent": 1290, "zip": "46634"}, "south-bend-mishawaka-46635": {"city": "South Bend-Mishawaka", "rent": 1200, "zip": "46635"}, "south-bend-mishawaka-46637": {"city": "South Bend-Mishawaka", "rent": 1440, "zip": "46637"}, "south-bend-mishawaka-46660": {"city": "South Bend-Mishawaka", "rent": 1290, "zip": "46660"}, "south-bend-mishawaka-46680": {"city": "South Bend-Mishawaka", "rent": 1290, "zip": "46680"}, "terre-haute-46171": {"city": "Terre Haute", "rent": 1030, "zip": "46171"}, "terre-haute-47427": {"city": "Terre Haute", "rent": 960, "zip": "47427"}, "terre-haute-47438": {"city": "Terre Haute", "rent": 980, "zip": "47438"}, "terre-haute-47801": {"city": "Terre Haute", "rent": 1120, "zip": "47801"}, "terre-haute-47802": {"city": "Terre Haute", "rent": 1110, "zip": "47802"}, "terre-haute-47803": {"city": "Terre Haute", "rent": 1150, "zip": "47803"}, "terre-haute-47804": {"city": "Terre Haute", "rent": 1130, "zip": "47804"}, "terre-haute-47805": {"city": "Terre Haute", "rent": 1020, "zip": "47805"}, "terre-haute-47807": {"city": "Terre Haute", "rent": 1130, "zip": "47807"}, "terre-haute-47809": {"city": "Terre Haute", "rent": 1130, "zip": "47809"}, "terre-haute-47831": {"city": "Terre Haute", "rent": 1000, "zip": "47831"}, "terre-haute-47833": {"city": "Terre Haute", "rent": 1010, "zip": "47833"}, "terre-haute-47834": {"city": "Terre Haute", "rent": 1040, "zip": "47834"}, "terre-haute-47837": {"city": "Terre Haute", "rent": 1080, "zip": "47837"}, "terre-haute-47840": {"city": "Terre Haute", "rent": 1040, "zip": "47840"}, "terre-haute-47841": {"city": "Terre Haute", "rent": 960, "zip": "47841"}, "terre-haute-47842": {"city": "Terre Haute", "rent": 1010, "zip": "47842"}, "terre-haute-47845": {"city": "Terre Haute", "rent": 970, "zip": "47845"}, "terre-haute-47846": {"city": "Terre Haute", "rent": 1040, "zip": "47846"}, "terre-haute-47847": {"city": "Terre Haute", "rent": 960, "zip": "47847"}, "terre-haute-47850": {"city": "Terre Haute", "rent": 1280, "zip": "47850"}, "terre-haute-47851": {"city": "Terre Haute", "rent": 1120, "zip": "47851"}, "terre-haute-47853": {"city": "Terre Haute", "rent": 1210, "zip": "47853"}, "terre-haute-47854": {"city": "Terre Haute", "rent": 1040, "zip": "47854"}, "terre-haute-47857": {"city": "Terre Haute", "rent": 960, "zip": "47857"}, "terre-haute-47858": {"city": "Terre Haute", "rent": 1000, "zip": "47858"}, "terre-haute-47863": {"city": "Terre Haute", "rent": 970, "zip": "47863"}, "terre-haute-47866": {"city": "Terre Haute", "rent": 1180, "zip": "47866"}, "terre-haute-47868": {"city": "Terre Haute", "rent": 1020, "zip": "47868"}, "terre-haute-47869": {"city": "Terre Haute", "rent": 1280, "zip": "47869"}, "terre-haute-47870": {"city": "Terre Haute", "rent": 1120, "zip": "47870"}, "terre-haute-47871": {"city": "Terre Haute", "rent": 1200, "zip": "47871"}, "terre-haute-47874": {"city": "Terre Haute", "rent": 960, "zip": "47874"}, "terre-haute-47875": {"city": "Terre Haute", "rent": 1000, "zip": "47875"}, "terre-haute-47876": {"city": "Terre Haute", "rent": 970, "zip": "47876"}, "terre-haute-47878": {"city": "Terre Haute", "rent": 1120, "zip": "47878"}, "terre-haute-47879": {"city": "Terre Haute", "rent": 960, "zip": "47879"}, "terre-haute-47880": {"city": "Terre Haute", "rent": 990, "zip": "47880"}, "terre-haute-47881": {"city": "Terre Haute", "rent": 1040, "zip": "47881"}, "terre-haute-47884": {"city": "Terre Haute", "rent": 1010, "zip": "47884"}, "terre-haute-47885": {"city": "Terre Haute", "rent": 970, "zip": "47885"}, "terre-haute-47928": {"city": "Terre Haute", "rent": 1150, "zip": "47928"}, "terre-haute-47932": {"city": "Terre Haute", "rent": 960, "zip": "47932"}, "terre-haute-47966": {"city": "Terre Haute", "rent": 1150, "zip": "47966"}, "terre-haute-47974": {"city": "Terre Haute", "rent": 980, "zip": "47974"}, "sullivan-county-47438": {"city": "Sullivan County", "rent": 980, "zip": "47438"}, "sullivan-county-47528": {"city": "Sullivan County", "rent": 1010, "zip": "47528"}, "sullivan-county-47561": {"city": "Sullivan County", "rent": 960, "zip": "47561"}, "sullivan-county-47578": {"city": "Sullivan County", "rent": 970, "zip": "47578"}, "sullivan-county-47838": {"city": "Sullivan County", "rent": 970, "zip": "47838"}, "sullivan-county-47848": {"city": "Sullivan County", "rent": 960, "zip": "47848"}, "sullivan-county-47849": {"city": "Sullivan County", "rent": 1210, "zip": "47849"}, "sullivan-county-47850": {"city": "Sullivan County", "rent": 1280, "zip": "47850"}, "sullivan-county-47852": {"city": "Sullivan County", "rent": 1030, "zip": "47852"}, "sullivan-county-47855": {"city": "Sullivan County", "rent": 1100, "zip": "47855"}, "sullivan-county-47858": {"city": "Sullivan County", "rent": 1000, "zip": "47858"}, "sullivan-county-47861": {"city": "Sullivan County", "rent": 1010, "zip": "47861"}, "sullivan-county-47865": {"city": "Sullivan County", "rent": 1010, "zip": "47865"}, "sullivan-county-47866": {"city": "Sullivan County", "rent": 1180, "zip": "47866"}, "sullivan-county-47879": {"city": "Sullivan County", "rent": 960, "zip": "47879"}, "sullivan-county-47882": {"city": "Sullivan County", "rent": 1050, "zip": "47882"}, "adams-county-46711": {"city": "Adams County", "rent": 970, "zip": "46711"}, "adams-county-46714": {"city": "Adams County", "rent": 960, "zip": "46714"}, "adams-county-46731": {"city": "Adams County", "rent": 1000, "zip": "46731"}, "adams-county-46733": {"city": "Adams County", "rent": 960, "zip": "46733"}, "adams-county-46740": {"city": "Adams County", "rent": 960, "zip": "46740"}, "adams-county-46745": {"city": "Adams County", "rent": 970, "zip": "46745"}, "adams-county-46772": {"city": "Adams County", "rent": 960, "zip": "46772"}, "adams-county-46773": {"city": "Adams County", "rent": 970, "zip": "46773"}, "adams-county-46777": {"city": "Adams County", "rent": 1070, "zip": "46777"}, "adams-county-46780": {"city": "Adams County", "rent": 960, "zip": "46780"}, "adams-county-46782": {"city": "Adams County", "rent": 960, "zip": "46782"}, "adams-county-47326": {"city": "Adams County", "rent": 960, "zip": "47326"}, "blackford-county-46952": {"city": "Blackford County", "rent": 960, "zip": "46952"}, "blackford-county-46953": {"city": "Blackford County", "rent": 970, "zip": "46953"}, "blackford-county-46989": {"city": "Blackford County", "rent": 960, "zip": "46989"}, "blackford-county-47336": {"city": "Blackford County", "rent": 970, "zip": "47336"}, "blackford-county-47338": {"city": "Blackford County", "rent": 960, "zip": "47338"}, "blackford-county-47348": {"city": "Blackford County", "rent": 960, "zip": "47348"}, "blackford-county-47359": {"city": "Blackford County", "rent": 980, "zip": "47359"}, "blackford-county-47369": {"city": "Blackford County", "rent": 1150, "zip": "47369"}, "cass-county-46901": {"city": "Cass County", "rent": 1050, "zip": "46901"}, "cass-county-46917": {"city": "Cass County", "rent": 980, "zip": "46917"}, "cass-county-46926": {"city": "Cass County", "rent": 960, "zip": "46926"}, "cass-county-46932": {"city": "Cass County", "rent": 960, "zip": "46932"}, "cass-county-46942": {"city": "Cass County", "rent": 960, "zip": "46942"}, "cass-county-46947": {"city": "Cass County", "rent": 970, "zip": "46947"}, "cass-county-46950": {"city": "Cass County", "rent": 980, "zip": "46950"}, "cass-county-46961": {"city": "Cass County", "rent": 990, "zip": "46961"}, "cass-county-46967": {"city": "Cass County", "rent": 960, "zip": "46967"}, "cass-county-46970": {"city": "Cass County", "rent": 990, "zip": "46970"}, "cass-county-46978": {"city": "Cass County", "rent": 1020, "zip": "46978"}, "cass-county-46988": {"city": "Cass County", "rent": 1030, "zip": "46988"}, "cass-county-46994": {"city": "Cass County", "rent": 960, "zip": "46994"}, "cass-county-46998": {"city": "Cass County", "rent": 960, "zip": "46998"}, "cass-county-47926": {"city": "Cass County", "rent": 1020, "zip": "47926"}, "clinton-county-46035": {"city": "Clinton County", "rent": 1100, "zip": "46035"}, "clinton-county-46039": {"city": "Clinton County", "rent": 1090, "zip": "46039"}, "clinton-county-46041": {"city": "Clinton County", "rent": 1100, "zip": "46041"}, "clinton-county-46049": {"city": "Clinton County", "rent": 1370, "zip": "46049"}, "clinton-county-46050": {"city": "Clinton County", "rent": 1100, "zip": "46050"}, "clinton-county-46057": {"city": "Clinton County", "rent": 1040, "zip": "46057"}, "clinton-county-46058": {"city": "Clinton County", "rent": 1130, "zip": "46058"}, "clinton-county-46065": {"city": "Clinton County", "rent": 1160, "zip": "46065"}, "clinton-county-46067": {"city": "Clinton County", "rent": 1010, "zip": "46067"}, "clinton-county-46069": {"city": "Clinton County", "rent": 1180, "zip": "46069"}, "clinton-county-46071": {"city": "Clinton County", "rent": 1270, "zip": "46071"}, "clinton-county-46920": {"city": "Clinton County", "rent": 1040, "zip": "46920"}, "clinton-county-46979": {"city": "Clinton County", "rent": 1170, "zip": "46979"}, "clinton-county-47905": {"city": "Clinton County", "rent": 1270, "zip": "47905"}, "clinton-county-47930": {"city": "Clinton County", "rent": 1130, "zip": "47930"}, "crawford-county-47112": {"city": "Crawford County", "rent": 1110, "zip": "47112"}, "crawford-county-47116": {"city": "Crawford County", "rent": 1030, "zip": "47116"}, "crawford-county-47118": {"city": "Crawford County", "rent": 960, "zip": "47118"}, "crawford-county-47123": {"city": "Crawford County", "rent": 960, "zip": "47123"}, "crawford-county-47137": {"city": "Crawford County", "rent": 1070, "zip": "47137"}, "crawford-county-47140": {"city": "Crawford County", "rent": 960, "zip": "47140"}, "crawford-county-47145": {"city": "Crawford County", "rent": 980, "zip": "47145"}, "crawford-county-47174": {"city": "Crawford County", "rent": 960, "zip": "47174"}, "crawford-county-47175": {"city": "Crawford County", "rent": 960, "zip": "47175"}, "crawford-county-47513": {"city": "Crawford County", "rent": 1030, "zip": "47513"}, "crawford-county-47576": {"city": "Crawford County", "rent": 960, "zip": "47576"}, "daviess-county-47449": {"city": "Daviess County", "rent": 990, "zip": "47449"}, "daviess-county-47501": {"city": "Daviess County", "rent": 1020, "zip": "47501"}, "daviess-county-47519": {"city": "Daviess County", "rent": 1290, "zip": "47519"}, "daviess-county-47529": {"city": "Daviess County", "rent": 960, "zip": "47529"}, "daviess-county-47553": {"city": "Daviess County", "rent": 960, "zip": "47553"}, "daviess-county-47558": {"city": "Daviess County", "rent": 1030, "zip": "47558"}, "daviess-county-47562": {"city": "Daviess County", "rent": 960, "zip": "47562"}, "daviess-county-47568": {"city": "Daviess County", "rent": 960, "zip": "47568"}, "decatur-county-46156": {"city": "Decatur County", "rent": 1050, "zip": "46156"}, "decatur-county-46173": {"city": "Decatur County", "rent": 970, "zip": "46173"}, "decatur-county-46182": {"city": "Decatur County", "rent": 1560, "zip": "46182"}, "decatur-county-47006": {"city": "Decatur County", "rent": 1050, "zip": "47006"}, "decatur-county-47225": {"city": "Decatur County", "rent": 1020, "zip": "47225"}, "decatur-county-47240": {"city": "Decatur County", "rent": 1100, "zip": "47240"}, "decatur-county-47244": {"city": "Decatur County", "rent": 1440, "zip": "47244"}, "decatur-county-47246": {"city": "Decatur County", "rent": 1260, "zip": "47246"}, "decatur-county-47263": {"city": "Decatur County", "rent": 1300, "zip": "47263"}, "decatur-county-47265": {"city": "Decatur County", "rent": 970, "zip": "47265"}, "decatur-county-47272": {"city": "Decatur County", "rent": 1110, "zip": "47272"}, "decatur-county-47283": {"city": "Decatur County", "rent": 1150, "zip": "47283"}, "dekalb-county-46705": {"city": "DeKalb County", "rent": 960, "zip": "46705"}, "dekalb-county-46706": {"city": "DeKalb County", "rent": 970, "zip": "46706"}, "dekalb-county-46710": {"city": "DeKalb County", "rent": 960, "zip": "46710"}, "dekalb-county-46721": {"city": "DeKalb County", "rent": 960, "zip": "46721"}, "dekalb-county-46730": {"city": "DeKalb County", "rent": 1030, "zip": "46730"}, "dekalb-county-46738": {"city": "DeKalb County", "rent": 980, "zip": "46738"}, "dekalb-county-46742": {"city": "DeKalb County", "rent": 1020, "zip": "46742"}, "dekalb-county-46743": {"city": "DeKalb County", "rent": 1150, "zip": "46743"}, "dekalb-county-46747": {"city": "DeKalb County", "rent": 1060, "zip": "46747"}, "dekalb-county-46748": {"city": "DeKalb County", "rent": 1670, "zip": "46748"}, "dekalb-county-46755": {"city": "DeKalb County", "rent": 960, "zip": "46755"}, "dekalb-county-46763": {"city": "DeKalb County", "rent": 1100, "zip": "46763"}, "dekalb-county-46785": {"city": "DeKalb County", "rent": 960, "zip": "46785"}, "dekalb-county-46788": {"city": "DeKalb County", "rent": 1180, "zip": "46788"}, "dekalb-county-46793": {"city": "DeKalb County", "rent": 960, "zip": "46793"}, "dubois-county-47432": {"city": "Dubois County", "rent": 990, "zip": "47432"}, "dubois-county-47513": {"city": "Dubois County", "rent": 1030, "zip": "47513"}, "dubois-county-47521": {"city": "Dubois County", "rent": 1010, "zip": "47521"}, "dubois-county-47523": {"city": "Dubois County", "rent": 980, "zip": "47523"}, "dubois-county-47527": {"city": "Dubois County", "rent": 990, "zip": "47527"}, "dubois-county-47532": {"city": "Dubois County", "rent": 1030, "zip": "47532"}, "dubois-county-47541": {"city": "Dubois County", "rent": 1010, "zip": "47541"}, "dubois-county-47542": {"city": "Dubois County", "rent": 960, "zip": "47542"}, "dubois-county-47545": {"city": "Dubois County", "rent": 960, "zip": "47545"}, "dubois-county-47546": {"city": "Dubois County", "rent": 960, "zip": "47546"}, "dubois-county-47547": {"city": "Dubois County", "rent": 960, "zip": "47547"}, "dubois-county-47564": {"city": "Dubois County", "rent": 1020, "zip": "47564"}, "dubois-county-47575": {"city": "Dubois County", "rent": 980, "zip": "47575"}, "dubois-county-47580": {"city": "Dubois County", "rent": 960, "zip": "47580"}, "dubois-county-47590": {"city": "Dubois County", "rent": 1000, "zip": "47590"}, "fayette-county-46127": {"city": "Fayette County", "rent": 980, "zip": "46127"}, "fayette-county-46133": {"city": "Fayette County", "rent": 1020, "zip": "46133"}, "fayette-county-46173": {"city": "Fayette County", "rent": 970, "zip": "46173"}, "fayette-county-47024": {"city": "Fayette County", "rent": 1330, "zip": "47024"}, "fayette-county-47322": {"city": "Fayette County", "rent": 960, "zip": "47322"}, "fayette-county-47325": {"city": "Fayette County", "rent": 980, "zip": "47325"}, "fayette-county-47327": {"city": "Fayette County", "rent": 960, "zip": "47327"}, "fayette-county-47331": {"city": "Fayette County", "rent": 960, "zip": "47331"}, "fayette-county-47352": {"city": "Fayette County", "rent": 1040, "zip": "47352"}, "fayette-county-47357": {"city": "Fayette County", "rent": 960, "zip": "47357"}, "fountain-county-47918": {"city": "Fountain County", "rent": 1050, "zip": "47918"}, "fountain-county-47932": {"city": "Fountain County", "rent": 960, "zip": "47932"}, "fountain-county-47933": {"city": "Fountain County", "rent": 1230, "zip": "47933"}, "fountain-county-47949": {"city": "Fountain County", "rent": 1180, "zip": "47949"}, "fountain-county-47952": {"city": "Fountain County", "rent": 960, "zip": "47952"}, "fountain-county-47958": {"city": "Fountain County", "rent": 960, "zip": "47958"}, "fountain-county-47969": {"city": "Fountain County", "rent": 970, "zip": "47969"}, "fountain-county-47987": {"city": "Fountain County", "rent": 960, "zip": "47987"}, "fountain-county-47990": {"city": "Fountain County", "rent": 1050, "zip": "47990"}, "fountain-county-47992": {"city": "Fountain County", "rent": 1210, "zip": "47992"}, "fountain-county-47994": {"city": "Fountain County", "rent": 990, "zip": "47994"}, "fulton-county-46501": {"city": "Fulton County", "rent": 1010, "zip": "46501"}, "fulton-county-46511": {"city": "Fulton County", "rent": 980, "zip": "46511"}, "fulton-county-46539": {"city": "Fulton County", "rent": 1080, "zip": "46539"}, "fulton-county-46570": {"city": "Fulton County", "rent": 990, "zip": "46570"}, "fulton-county-46910": {"city": "Fulton County", "rent": 1020, "zip": "46910"}, "fulton-county-46912": {"city": "Fulton County", "rent": 960, "zip": "46912"}, "fulton-county-46922": {"city": "Fulton County", "rent": 960, "zip": "46922"}, "fulton-county-46931": {"city": "Fulton County", "rent": 960, "zip": "46931"}, "fulton-county-46939": {"city": "Fulton County", "rent": 960, "zip": "46939"}, "fulton-county-46945": {"city": "Fulton County", "rent": 960, "zip": "46945"}, "fulton-county-46950": {"city": "Fulton County", "rent": 980, "zip": "46950"}, "fulton-county-46951": {"city": "Fulton County", "rent": 1150, "zip": "46951"}, "fulton-county-46960": {"city": "Fulton County", "rent": 960, "zip": "46960"}, "fulton-county-46975": {"city": "Fulton County", "rent": 970, "zip": "46975"}, "fulton-county-46978": {"city": "Fulton County", "rent": 1020, "zip": "46978"}, "fulton-county-46982": {"city": "Fulton County", "rent": 1090, "zip": "46982"}, "fulton-county-46985": {"city": "Fulton County", "rent": 1020, "zip": "46985"}, "fulton-county-46988": {"city": "Fulton County", "rent": 1030, "zip": "46988"}, "gibson-county-47612": {"city": "Gibson County", "rent": 960, "zip": "47612"}, "gibson-county-47613": {"city": "Gibson County", "rent": 1150, "zip": "47613"}, "gibson-county-47616": {"city": "Gibson County", "rent": 970, "zip": "47616"}, "gibson-county-47619": {"city": "Gibson County", "rent": 970, "zip": "47619"}, "gibson-county-47633": {"city": "Gibson County", "rent": 960, "zip": "47633"}, "gibson-county-47639": {"city": "Gibson County", "rent": 1010, "zip": "47639"}, "gibson-county-47640": {"city": "Gibson County", "rent": 960, "zip": "47640"}, "gibson-county-47647": {"city": "Gibson County", "rent": 1000, "zip": "47647"}, "gibson-county-47648": {"city": "Gibson County", "rent": 990, "zip": "47648"}, "gibson-county-47649": {"city": "Gibson County", "rent": 1130, "zip": "47649"}, "gibson-county-47654": {"city": "Gibson County", "rent": 1020, "zip": "47654"}, "gibson-county-47660": {"city": "Gibson County", "rent": 1020, "zip": "47660"}, "gibson-county-47665": {"city": "Gibson County", "rent": 1080, "zip": "47665"}, "gibson-county-47666": {"city": "Gibson County", "rent": 960, "zip": "47666"}, "gibson-county-47670": {"city": "Gibson County", "rent": 1010, "zip": "47670"}, "gibson-county-47683": {"city": "Gibson County", "rent": 1070, "zip": "47683"}, "gibson-county-47725": {"city": "Gibson County", "rent": 1580, "zip": "47725"}, "grant-county-46036": {"city": "Grant County", "rent": 1100, "zip": "46036"}, "grant-county-46070": {"city": "Grant County", "rent": 1120, "zip": "46070"}, "grant-county-46919": {"city": "Grant County", "rent": 960, "zip": "46919"}, "grant-county-46928": {"city": "Grant County", "rent": 980, "zip": "46928"}, "grant-county-46930": {"city": "Grant County", "rent": 980, "zip": "46930"}, "grant-county-46933": {"city": "Grant County", "rent": 990, "zip": "46933"}, "grant-county-46938": {"city": "Grant County", "rent": 1090, "zip": "46938"}, "grant-county-46940": {"city": "Grant County", "rent": 1090, "zip": "46940"}, "grant-county-46952": {"city": "Grant County", "rent": 960, "zip": "46952"}, "grant-county-46953": {"city": "Grant County", "rent": 970, "zip": "46953"}, "grant-county-46957": {"city": "Grant County", "rent": 1130, "zip": "46957"}, "grant-county-46986": {"city": "Grant County", "rent": 960, "zip": "46986"}, "grant-county-46987": {"city": "Grant County", "rent": 1220, "zip": "46987"}, "grant-county-46989": {"city": "Grant County", "rent": 960, "zip": "46989"}, "grant-county-46991": {"city": "Grant County", "rent": 1040, "zip": "46991"}, "grant-county-47342": {"city": "Grant County", "rent": 970, "zip": "47342"}, "grant-county-47348": {"city": "Grant County", "rent": 960, "zip": "47348"}, "greene-county-47403": {"city": "Greene County", "rent": 1110, "zip": "47403"}, "greene-county-47424": {"city": "Greene County", "rent": 1010, "zip": "47424"}, "greene-county-47438": {"city": "Greene County", "rent": 980, "zip": "47438"}, "greene-county-47441": {"city": "Greene County", "rent": 960, "zip": "47441"}, "greene-county-47443": {"city": "Greene County", "rent": 1010, "zip": "47443"}, "greene-county-47445": {"city": "Greene County", "rent": 970, "zip": "47445"}, "greene-county-47449": {"city": "Greene County", "rent": 990, "zip": "47449"}, "greene-county-47453": {"city": "Greene County", "rent": 1010, "zip": "47453"}, "greene-county-47457": {"city": "Greene County", "rent": 960, "zip": "47457"}, "greene-county-47459": {"city": "Greene County", "rent": 1020, "zip": "47459"}, "greene-county-47460": {"city": "Greene County", "rent": 1110, "zip": "47460"}, "greene-county-47462": {"city": "Greene County", "rent": 1030, "zip": "47462"}, "greene-county-47465": {"city": "Greene County", "rent": 960, "zip": "47465"}, "greene-county-47471": {"city": "Greene County", "rent": 960, "zip": "47471"}, "greene-county-47529": {"city": "Greene County", "rent": 960, "zip": "47529"}, "greene-county-47562": {"city": "Greene County", "rent": 960, "zip": "47562"}, "greene-county-47578": {"city": "Greene County", "rent": 970, "zip": "47578"}, "greene-county-47838": {"city": "Greene County", "rent": 970, "zip": "47838"}, "greene-county-47848": {"city": "Greene County", "rent": 960, "zip": "47848"}, "henry-county-46056": {"city": "Henry County", "rent": 1350, "zip": "46056"}, "henry-county-46117": {"city": "Henry County", "rent": 1160, "zip": "46117"}, "henry-county-46148": {"city": "Henry County", "rent": 1100, "zip": "46148"}, "henry-county-46186": {"city": "Henry County", "rent": 1320, "zip": "46186"}, "henry-county-47302": {"city": "Henry County", "rent": 1020, "zip": "47302"}, "henry-county-47327": {"city": "Henry County", "rent": 960, "zip": "47327"}, "henry-county-47334": {"city": "Henry County", "rent": 960, "zip": "47334"}, "henry-county-47337": {"city": "Henry County", "rent": 1350, "zip": "47337"}, "henry-county-47344": {"city": "Henry County", "rent": 960, "zip": "47344"}, "henry-county-47346": {"city": "Henry County", "rent": 960, "zip": "47346"}, "henry-county-47351": {"city": "Henry County", "rent": 1230, "zip": "47351"}, "henry-county-47352": {"city": "Henry County", "rent": 1040, "zip": "47352"}, "henry-county-47354": {"city": "Henry County", "rent": 1160, "zip": "47354"}, "henry-county-47356": {"city": "Henry County", "rent": 980, "zip": "47356"}, "henry-county-47360": {"city": "Henry County", "rent": 1030, "zip": "47360"}, "henry-county-47361": {"city": "Henry County", "rent": 1080, "zip": "47361"}, "henry-county-47362": {"city": "Henry County", "rent": 960, "zip": "47362"}, "henry-county-47366": {"city": "Henry County", "rent": 960, "zip": "47366"}, "henry-county-47384": {"city": "Henry County", "rent": 1100, "zip": "47384"}, "henry-county-47385": {"city": "Henry County", "rent": 960, "zip": "47385"}, "henry-county-47386": {"city": "Henry County", "rent": 990, "zip": "47386"}, "henry-county-47387": {"city": "Henry County", "rent": 980, "zip": "47387"}, "henry-county-47388": {"city": "Henry County", "rent": 1110, "zip": "47388"}, "huntington-county-46702": {"city": "Huntington County", "rent": 960, "zip": "46702"}, "huntington-county-46713": {"city": "Huntington County", "rent": 960, "zip": "46713"}, "huntington-county-46725": {"city": "Huntington County", "rent": 1070, "zip": "46725"}, "huntington-county-46750": {"city": "Huntington County", "rent": 960, "zip": "46750"}, "huntington-county-46766": {"city": "Huntington County", "rent": 990, "zip": "46766"}, "huntington-county-46770": {"city": "Huntington County", "rent": 970, "zip": "46770"}, "huntington-county-46783": {"city": "Huntington County", "rent": 1000, "zip": "46783"}, "huntington-county-46787": {"city": "Huntington County", "rent": 980, "zip": "46787"}, "huntington-county-46792": {"city": "Huntington County", "rent": 1100, "zip": "46792"}, "huntington-county-46940": {"city": "Huntington County", "rent": 1090, "zip": "46940"}, "huntington-county-46952": {"city": "Huntington County", "rent": 960, "zip": "46952"}, "huntington-county-46991": {"city": "Huntington County", "rent": 1040, "zip": "46991"}, "jackson-county-47102": {"city": "Jackson County", "rent": 960, "zip": "47102"}, "jackson-county-47201": {"city": "Jackson County", "rent": 1430, "zip": "47201"}, "jackson-county-47220": {"city": "Jackson County", "rent": 960, "zip": "47220"}, "jackson-county-47228": {"city": "Jackson County", "rent": 1060, "zip": "47228"}, "jackson-county-47229": {"city": "Jackson County", "rent": 1050, "zip": "47229"}, "jackson-county-47235": {"city": "Jackson County", "rent": 1100, "zip": "47235"}, "jackson-county-47260": {"city": "Jackson County", "rent": 1000, "zip": "47260"}, "jackson-county-47264": {"city": "Jackson County", "rent": 1040, "zip": "47264"}, "jackson-county-47274": {"city": "Jackson County", "rent": 1100, "zip": "47274"}, "jackson-county-47281": {"city": "Jackson County", "rent": 1000, "zip": "47281"}, "jay-county-46740": {"city": "Jay County", "rent": 960, "zip": "46740"}, "jay-county-47320": {"city": "Jay County", "rent": 960, "zip": "47320"}, "jay-county-47326": {"city": "Jay County", "rent": 960, "zip": "47326"}, "jay-county-47336": {"city": "Jay County", "rent": 970, "zip": "47336"}, "jay-county-47359": {"city": "Jay County", "rent": 980, "zip": "47359"}, "jay-county-47369": {"city": "Jay County", "rent": 1150, "zip": "47369"}, "jay-county-47371": {"city": "Jay County", "rent": 960, "zip": "47371"}, "jay-county-47373": {"city": "Jay County", "rent": 990, "zip": "47373"}, "jay-county-47380": {"city": "Jay County", "rent": 960, "zip": "47380"}, "jay-county-47381": {"city": "Jay County", "rent": 960, "zip": "47381"}, "jay-county-47390": {"city": "Jay County", "rent": 960, "zip": "47390"}, "jefferson-county-47043": {"city": "Jefferson County", "rent": 960, "zip": "47043"}, "jefferson-county-47138": {"city": "Jefferson County", "rent": 1430, "zip": "47138"}, "jefferson-county-47147": {"city": "Jefferson County", "rent": 1130, "zip": "47147"}, "jefferson-county-47170": {"city": "Jefferson County", "rent": 1100, "zip": "47170"}, "jefferson-county-47224": {"city": "Jefferson County", "rent": 960, "zip": "47224"}, "jefferson-county-47227": {"city": "Jefferson County", "rent": 960, "zip": "47227"}, "jefferson-county-47230": {"city": "Jefferson County", "rent": 960, "zip": "47230"}, "jefferson-county-47231": {"city": "Jefferson County", "rent": 1080, "zip": "47231"}, "jefferson-county-47243": {"city": "Jefferson County", "rent": 1070, "zip": "47243"}, "jefferson-county-47250": {"city": "Jefferson County", "rent": 960, "zip": "47250"}, "jefferson-county-47270": {"city": "Jefferson County", "rent": 990, "zip": "47270"}, "jennings-county-47037": {"city": "Jennings County", "rent": 960, "zip": "47037"}, "jennings-county-47223": {"city": "Jennings County", "rent": 1020, "zip": "47223"}, "jennings-county-47227": {"city": "Jennings County", "rent": 960, "zip": "47227"}, "jennings-county-47229": {"city": "Jennings County", "rent": 1050, "zip": "47229"}, "jennings-county-47230": {"city": "Jennings County", "rent": 960, "zip": "47230"}, "jennings-county-47231": {"city": "Jennings County", "rent": 1080, "zip": "47231"}, "jennings-county-47232": {"city": "Jennings County", "rent": 1150, "zip": "47232"}, "jennings-county-47245": {"city": "Jennings County", "rent": 960, "zip": "47245"}, "jennings-county-47265": {"city": "Jennings County", "rent": 970, "zip": "47265"}, "jennings-county-47270": {"city": "Jennings County", "rent": 990, "zip": "47270"}, "jennings-county-47273": {"city": "Jennings County", "rent": 1150, "zip": "47273"}, "jennings-county-47274": {"city": "Jennings County", "rent": 1100, "zip": "47274"}, "jennings-county-47282": {"city": "Jennings County", "rent": 960, "zip": "47282"}, "jennings-county-47283": {"city": "Jennings County", "rent": 1150, "zip": "47283"}, "knox-county-47512": {"city": "Knox County", "rent": 960, "zip": "47512"}, "knox-county-47516": {"city": "Knox County", "rent": 960, "zip": "47516"}, "knox-county-47524": {"city": "Knox County", "rent": 960, "zip": "47524"}, "knox-county-47528": {"city": "Knox County", "rent": 1010, "zip": "47528"}, "knox-county-47535": {"city": "Knox County", "rent": 990, "zip": "47535"}, "knox-county-47557": {"city": "Knox County", "rent": 1210, "zip": "47557"}, "knox-county-47561": {"city": "Knox County", "rent": 960, "zip": "47561"}, "knox-county-47573": {"city": "Knox County", "rent": 960, "zip": "47573"}, "knox-county-47578": {"city": "Knox County", "rent": 970, "zip": "47578"}, "knox-county-47591": {"city": "Knox County", "rent": 970, "zip": "47591"}, "knox-county-47596": {"city": "Knox County", "rent": 1010, "zip": "47596"}, "knox-county-47597": {"city": "Knox County", "rent": 960, "zip": "47597"}, "knox-county-47838": {"city": "Knox County", "rent": 970, "zip": "47838"}, "kosciusko-county-46502": {"city": "Kosciusko County", "rent": 1140, "zip": "46502"}, "kosciusko-county-46504": {"city": "Kosciusko County", "rent": 970, "zip": "46504"}, "kosciusko-county-46506": {"city": "Kosciusko County", "rent": 1000, "zip": "46506"}, "kosciusko-county-46508": {"city": "Kosciusko County", "rent": 970, "zip": "46508"}, "kosciusko-county-46510": {"city": "Kosciusko County", "rent": 1020, "zip": "46510"}, "kosciusko-county-46524": {"city": "Kosciusko County", "rent": 970, "zip": "46524"}, "kosciusko-county-46538": {"city": "Kosciusko County", "rent": 1130, "zip": "46538"}, "kosciusko-county-46539": {"city": "Kosciusko County", "rent": 1080, "zip": "46539"}, "kosciusko-county-46542": {"city": "Kosciusko County", "rent": 1160, "zip": "46542"}, "kosciusko-county-46550": {"city": "Kosciusko County", "rent": 1080, "zip": "46550"}, "kosciusko-county-46555": {"city": "Kosciusko County", "rent": 1170, "zip": "46555"}, "kosciusko-county-46562": {"city": "Kosciusko County", "rent": 960, "zip": "46562"}, "kosciusko-county-46567": {"city": "Kosciusko County", "rent": 1100, "zip": "46567"}, "kosciusko-county-46580": {"city": "Kosciusko County", "rent": 1130, "zip": "46580"}, "kosciusko-county-46581": {"city": "Kosciusko County", "rent": 1140, "zip": "46581"}, "kosciusko-county-46582": {"city": "Kosciusko County", "rent": 1220, "zip": "46582"}, "kosciusko-county-46590": {"city": "Kosciusko County", "rent": 1210, "zip": "46590"}, "kosciusko-county-46732": {"city": "Kosciusko County", "rent": 1120, "zip": "46732"}, "kosciusko-county-46767": {"city": "Kosciusko County", "rent": 1040, "zip": "46767"}, "kosciusko-county-46787": {"city": "Kosciusko County", "rent": 980, "zip": "46787"}, "kosciusko-county-46910": {"city": "Kosciusko County", "rent": 1020, "zip": "46910"}, "kosciusko-county-46962": {"city": "Kosciusko County", "rent": 1000, "zip": "46962"}, "kosciusko-county-46975": {"city": "Kosciusko County", "rent": 970, "zip": "46975"}, "kosciusko-county-46982": {"city": "Kosciusko County", "rent": 1090, "zip": "46982"}, "lagrange-county-46528": {"city": "LaGrange County", "rent": 1220, "zip": "46528"}, "lagrange-county-46540": {"city": "LaGrange County", "rent": 1250, "zip": "46540"}, "lagrange-county-46543": {"city": "LaGrange County", "rent": 1170, "zip": "46543"}, "lagrange-county-46565": {"city": "LaGrange County", "rent": 960, "zip": "46565"}, "lagrange-county-46571": {"city": "LaGrange County", "rent": 1050, "zip": "46571"}, "lagrange-county-46703": {"city": "LaGrange County", "rent": 990, "zip": "46703"}, "lagrange-county-46746": {"city": "LaGrange County", "rent": 1000, "zip": "46746"}, "lagrange-county-46747": {"city": "LaGrange County", "rent": 1060, "zip": "46747"}, "lagrange-county-46761": {"city": "LaGrange County", "rent": 960, "zip": "46761"}, "lagrange-county-46767": {"city": "LaGrange County", "rent": 1040, "zip": "46767"}, "lagrange-county-46771": {"city": "LaGrange County", "rent": 980, "zip": "46771"}, "lagrange-county-46776": {"city": "LaGrange County", "rent": 1140, "zip": "46776"}, "lagrange-county-46784": {"city": "LaGrange County", "rent": 1010, "zip": "46784"}, "lagrange-county-46786": {"city": "LaGrange County", "rent": 1020, "zip": "46786"}, "lagrange-county-46789": {"city": "LaGrange County", "rent": 1010, "zip": "46789"}, "lagrange-county-46795": {"city": "LaGrange County", "rent": 1020, "zip": "46795"}, "lawrence-county-47108": {"city": "Lawrence County", "rent": 1060, "zip": "47108"}, "lawrence-county-47260": {"city": "Lawrence County", "rent": 1000, "zip": "47260"}, "lawrence-county-47264": {"city": "Lawrence County", "rent": 1040, "zip": "47264"}, "lawrence-county-47420": {"city": "Lawrence County", "rent": 990, "zip": "47420"}, "lawrence-county-47421": {"city": "Lawrence County", "rent": 990, "zip": "47421"}, "lawrence-county-47436": {"city": "Lawrence County", "rent": 1100, "zip": "47436"}, "lawrence-county-47437": {"city": "Lawrence County", "rent": 990, "zip": "47437"}, "lawrence-county-47446": {"city": "Lawrence County", "rent": 960, "zip": "47446"}, "lawrence-county-47451": {"city": "Lawrence County", "rent": 960, "zip": "47451"}, "lawrence-county-47452": {"city": "Lawrence County", "rent": 960, "zip": "47452"}, "lawrence-county-47462": {"city": "Lawrence County", "rent": 1030, "zip": "47462"}, "lawrence-county-47467": {"city": "Lawrence County", "rent": 960, "zip": "47467"}, "lawrence-county-47470": {"city": "Lawrence County", "rent": 1000, "zip": "47470"}, "marshall-county-46501": {"city": "Marshall County", "rent": 1010, "zip": "46501"}, "marshall-county-46504": {"city": "Marshall County", "rent": 970, "zip": "46504"}, "marshall-county-46506": {"city": "Marshall County", "rent": 1000, "zip": "46506"}, "marshall-county-46511": {"city": "Marshall County", "rent": 980, "zip": "46511"}, "marshall-county-46513": {"city": "Marshall County", "rent": 1010, "zip": "46513"}, "marshall-county-46524": {"city": "Marshall County", "rent": 970, "zip": "46524"}, "marshall-county-46531": {"city": "Marshall County", "rent": 1380, "zip": "46531"}, "marshall-county-46536": {"city": "Marshall County", "rent": 1140, "zip": "46536"}, "marshall-county-46537": {"city": "Marshall County", "rent": 1060, "zip": "46537"}, "marshall-county-46539": {"city": "Marshall County", "rent": 1080, "zip": "46539"}, "marshall-county-46550": {"city": "Marshall County", "rent": 1080, "zip": "46550"}, "marshall-county-46563": {"city": "Marshall County", "rent": 1040, "zip": "46563"}, "marshall-county-46570": {"city": "Marshall County", "rent": 990, "zip": "46570"}, "marshall-county-46572": {"city": "Marshall County", "rent": 1040, "zip": "46572"}, "marshall-county-46574": {"city": "Marshall County", "rent": 1040, "zip": "46574"}, "marshall-county-46975": {"city": "Marshall County", "rent": 970, "zip": "46975"}, "martin-county-47432": {"city": "Martin County", "rent": 990, "zip": "47432"}, "martin-county-47446": {"city": "Martin County", "rent": 960, "zip": "47446"}, "martin-county-47449": {"city": "Martin County", "rent": 990, "zip": "47449"}, "martin-county-47470": {"city": "Martin County", "rent": 1000, "zip": "47470"}, "martin-county-47522": {"city": "Martin County", "rent": 1020, "zip": "47522"}, "martin-county-47553": {"city": "Martin County", "rent": 960, "zip": "47553"}, "martin-county-47562": {"city": "Martin County", "rent": 960, "zip": "47562"}, "martin-county-47581": {"city": "Martin County", "rent": 1080, "zip": "47581"}, "miami-county-46901": {"city": "Miami County", "rent": 1050, "zip": "46901"}, "miami-county-46910": {"city": "Miami County", "rent": 1020, "zip": "46910"}, "miami-county-46911": {"city": "Miami County", "rent": 980, "zip": "46911"}, "miami-county-46914": {"city": "Miami County", "rent": 960, "zip": "46914"}, "miami-county-46919": {"city": "Miami County", "rent": 960, "zip": "46919"}, "miami-county-46921": {"city": "Miami County", "rent": 960, "zip": "46921"}, "miami-county-46926": {"city": "Miami County", "rent": 960, "zip": "46926"}, "miami-county-46932": {"city": "Miami County", "rent": 960, "zip": "46932"}, "miami-county-46936": {"city": "Miami County", "rent": 1180, "zip": "46936"}, "miami-county-46951": {"city": "Miami County", "rent": 1150, "zip": "46951"}, "miami-county-46958": {"city": "Miami County", "rent": 990, "zip": "46958"}, "miami-county-46959": {"city": "Miami County", "rent": 960, "zip": "46959"}, "miami-county-46970": {"city": "Miami County", "rent": 990, "zip": "46970"}, "miami-county-46971": {"city": "Miami County", "rent": 960, "zip": "46971"}, "miami-county-46974": {"city": "Miami County", "rent": 1050, "zip": "46974"}, "miami-county-46975": {"city": "Miami County", "rent": 970, "zip": "46975"}, "miami-county-46982": {"city": "Miami County", "rent": 1090, "zip": "46982"}, "miami-county-46992": {"city": "Miami County", "rent": 960, "zip": "46992"}, "montgomery-county-46035": {"city": "Montgomery County", "rent": 1100, "zip": "46035"}, "montgomery-county-46071": {"city": "Montgomery County", "rent": 1270, "zip": "46071"}, "montgomery-county-46172": {"city": "Montgomery County", "rent": 1100, "zip": "46172"}, "montgomery-county-46175": {"city": "Montgomery County", "rent": 1070, "zip": "46175"}, "montgomery-county-47916": {"city": "Montgomery County", "rent": 1000, "zip": "47916"}, "montgomery-county-47930": {"city": "Montgomery County", "rent": 1130, "zip": "47930"}, "montgomery-county-47933": {"city": "Montgomery County", "rent": 1230, "zip": "47933"}, "montgomery-county-47940": {"city": "Montgomery County", "rent": 960, "zip": "47940"}, "montgomery-county-47949": {"city": "Montgomery County", "rent": 1180, "zip": "47949"}, "montgomery-county-47954": {"city": "Montgomery County", "rent": 1070, "zip": "47954"}, "montgomery-county-47955": {"city": "Montgomery County", "rent": 1050, "zip": "47955"}, "montgomery-county-47965": {"city": "Montgomery County", "rent": 1070, "zip": "47965"}, "montgomery-county-47967": {"city": "Montgomery County", "rent": 1080, "zip": "47967"}, "montgomery-county-47968": {"city": "Montgomery County", "rent": 1210, "zip": "47968"}, "montgomery-county-47981": {"city": "Montgomery County", "rent": 1170, "zip": "47981"}, "montgomery-county-47989": {"city": "Montgomery County", "rent": 960, "zip": "47989"}, "montgomery-county-47990": {"city": "Montgomery County", "rent": 1050, "zip": "47990"}, "montgomery-county-47994": {"city": "Montgomery County", "rent": 990, "zip": "47994"}, "noble-county-46543": {"city": "Noble County", "rent": 1170, "zip": "46543"}, "noble-county-46562": {"city": "Noble County", "rent": 960, "zip": "46562"}, "noble-county-46571": {"city": "Noble County", "rent": 1050, "zip": "46571"}, "noble-county-46701": {"city": "Noble County", "rent": 1020, "zip": "46701"}, "noble-county-46710": {"city": "Noble County", "rent": 960, "zip": "46710"}, "noble-county-46723": {"city": "Noble County", "rent": 1090, "zip": "46723"}, "noble-county-46725": {"city": "Noble County", "rent": 1070, "zip": "46725"}, "noble-county-46730": {"city": "Noble County", "rent": 1030, "zip": "46730"}, "noble-county-46732": {"city": "Noble County", "rent": 1120, "zip": "46732"}, "noble-county-46748": {"city": "Noble County", "rent": 1670, "zip": "46748"}, "noble-county-46755": {"city": "Noble County", "rent": 960, "zip": "46755"}, "noble-county-46760": {"city": "Noble County", "rent": 1030, "zip": "46760"}, "noble-county-46763": {"city": "Noble County", "rent": 1100, "zip": "46763"}, "noble-county-46764": {"city": "Noble County", "rent": 1160, "zip": "46764"}, "noble-county-46767": {"city": "Noble County", "rent": 1040, "zip": "46767"}, "noble-county-46784": {"city": "Noble County", "rent": 1010, "zip": "46784"}, "noble-county-46794": {"city": "Noble County", "rent": 1020, "zip": "46794"}, "noble-county-46795": {"city": "Noble County", "rent": 1020, "zip": "46795"}, "noble-county-46796": {"city": "Noble County", "rent": 1020, "zip": "46796"}, "orange-county-47108": {"city": "Orange County", "rent": 1060, "zip": "47108"}, "orange-county-47118": {"city": "Orange County", "rent": 960, "zip": "47118"}, "orange-county-47125": {"city": "Orange County", "rent": 1190, "zip": "47125"}, "orange-county-47140": {"city": "Orange County", "rent": 960, "zip": "47140"}, "orange-county-47175": {"city": "Orange County", "rent": 960, "zip": "47175"}, "orange-county-47432": {"city": "Orange County", "rent": 990, "zip": "47432"}, "orange-county-47446": {"city": "Orange County", "rent": 960, "zip": "47446"}, "orange-county-47452": {"city": "Orange County", "rent": 960, "zip": "47452"}, "orange-county-47454": {"city": "Orange County", "rent": 990, "zip": "47454"}, "orange-county-47469": {"city": "Orange County", "rent": 960, "zip": "47469"}, "orange-county-47513": {"city": "Orange County", "rent": 1030, "zip": "47513"}, "orange-county-47527": {"city": "Orange County", "rent": 990, "zip": "47527"}, "orange-county-47581": {"city": "Orange County", "rent": 1080, "zip": "47581"}, "parke-county-46135": {"city": "Parke County", "rent": 1020, "zip": "46135"}, "parke-county-46175": {"city": "Parke County", "rent": 1070, "zip": "46175"}, "parke-county-47805": {"city": "Parke County", "rent": 1020, "zip": "47805"}, "parke-county-47832": {"city": "Parke County", "rent": 1050, "zip": "47832"}, "parke-county-47834": {"city": "Parke County", "rent": 1040, "zip": "47834"}, "parke-county-47836": {"city": "Parke County", "rent": 980, "zip": "47836"}, "parke-county-47837": {"city": "Parke County", "rent": 1080, "zip": "47837"}, "parke-county-47859": {"city": "Parke County", "rent": 1230, "zip": "47859"}, "parke-county-47860": {"city": "Parke County", "rent": 960, "zip": "47860"}, "parke-county-47862": {"city": "Parke County", "rent": 1040, "zip": "47862"}, "parke-county-47872": {"city": "Parke County", "rent": 960, "zip": "47872"}, "parke-county-47874": {"city": "Parke County", "rent": 960, "zip": "47874"}, "parke-county-47952": {"city": "Parke County", "rent": 960, "zip": "47952"}, "parke-county-47989": {"city": "Parke County", "rent": 960, "zip": "47989"}, "perry-county-47118": {"city": "Perry County", "rent": 960, "zip": "47118"}, "perry-county-47137": {"city": "Perry County", "rent": 1070, "zip": "47137"}, "perry-county-47513": {"city": "Perry County", "rent": 1030, "zip": "47513"}, "perry-county-47514": {"city": "Perry County", "rent": 960, "zip": "47514"}, "perry-county-47515": {"city": "Perry County", "rent": 1040, "zip": "47515"}, "perry-county-47520": {"city": "Perry County", "rent": 1030, "zip": "47520"}, "perry-county-47525": {"city": "Perry County", "rent": 990, "zip": "47525"}, "perry-county-47532": {"city": "Perry County", "rent": 1030, "zip": "47532"}, "perry-county-47551": {"city": "Perry County", "rent": 960, "zip": "47551"}, "perry-county-47574": {"city": "Perry County", "rent": 1030, "zip": "47574"}, "perry-county-47576": {"city": "Perry County", "rent": 960, "zip": "47576"}, "perry-county-47577": {"city": "Perry County", "rent": 1100, "zip": "47577"}, "perry-county-47586": {"city": "Perry County", "rent": 960, "zip": "47586"}, "perry-county-47588": {"city": "Perry County", "rent": 1190, "zip": "47588"}, "pike-county-47541": {"city": "Pike County", "rent": 1010, "zip": "47541"}, "pike-county-47542": {"city": "Pike County", "rent": 960, "zip": "47542"}, "pike-county-47564": {"city": "Pike County", "rent": 1020, "zip": "47564"}, "pike-county-47567": {"city": "Pike County", "rent": 960, "zip": "47567"}, "pike-county-47584": {"city": "Pike County", "rent": 1070, "zip": "47584"}, "pike-county-47585": {"city": "Pike County", "rent": 1000, "zip": "47585"}, "pike-county-47590": {"city": "Pike County", "rent": 1000, "zip": "47590"}, "pike-county-47598": {"city": "Pike County", "rent": 1050, "zip": "47598"}, "pike-county-47619": {"city": "Pike County", "rent": 970, "zip": "47619"}, "pike-county-47640": {"city": "Pike County", "rent": 960, "zip": "47640"}, "pike-county-47660": {"city": "Pike County", "rent": 1020, "zip": "47660"}, "pike-county-47666": {"city": "Pike County", "rent": 960, "zip": "47666"}, "pulaski-county-46366": {"city": "Pulaski County", "rent": 990, "zip": "46366"}, "pulaski-county-46374": {"city": "Pulaski County", "rent": 1050, "zip": "46374"}, "pulaski-county-46392": {"city": "Pulaski County", "rent": 1210, "zip": "46392"}, "pulaski-county-46511": {"city": "Pulaski County", "rent": 980, "zip": "46511"}, "pulaski-county-46939": {"city": "Pulaski County", "rent": 960, "zip": "46939"}, "pulaski-county-46960": {"city": "Pulaski County", "rent": 960, "zip": "46960"}, "pulaski-county-46968": {"city": "Pulaski County", "rent": 960, "zip": "46968"}, "pulaski-county-46975": {"city": "Pulaski County", "rent": 970, "zip": "46975"}, "pulaski-county-46978": {"city": "Pulaski County", "rent": 1020, "zip": "46978"}, "pulaski-county-46985": {"city": "Pulaski County", "rent": 1020, "zip": "46985"}, "pulaski-county-46996": {"city": "Pulaski County", "rent": 960, "zip": "46996"}, "pulaski-county-47946": {"city": "Pulaski County", "rent": 1370, "zip": "47946"}, "pulaski-county-47957": {"city": "Pulaski County", "rent": 1160, "zip": "47957"}, "pulaski-county-47959": {"city": "Pulaski County", "rent": 1100, "zip": "47959"}, "pulaski-county-47960": {"city": "Pulaski County", "rent": 1010, "zip": "47960"}, "putnam-county-46105": {"city": "Putnam County", "rent": 1030, "zip": "46105"}, "putnam-county-46120": {"city": "Putnam County", "rent": 1100, "zip": "46120"}, "putnam-county-46121": {"city": "Putnam County", "rent": 1420, "zip": "46121"}, "putnam-county-46128": {"city": "Putnam County", "rent": 1210, "zip": "46128"}, "putnam-county-46135": {"city": "Putnam County", "rent": 1020, "zip": "46135"}, "putnam-county-46165": {"city": "Putnam County", "rent": 1810, "zip": "46165"}, "putnam-county-46170": {"city": "Putnam County", "rent": 1030, "zip": "46170"}, "putnam-county-46171": {"city": "Putnam County", "rent": 1030, "zip": "46171"}, "putnam-county-46172": {"city": "Putnam County", "rent": 1100, "zip": "46172"}, "putnam-county-46175": {"city": "Putnam County", "rent": 1070, "zip": "46175"}, "putnam-county-47456": {"city": "Putnam County", "rent": 1100, "zip": "47456"}, "putnam-county-47834": {"city": "Putnam County", "rent": 1040, "zip": "47834"}, "putnam-county-47840": {"city": "Putnam County", "rent": 1040, "zip": "47840"}, "putnam-county-47868": {"city": "Putnam County", "rent": 1020, "zip": "47868"}, "putnam-county-47872": {"city": "Putnam County", "rent": 960, "zip": "47872"}, "putnam-county-47954": {"city": "Putnam County", "rent": 1070, "zip": "47954"}, "putnam-county-47989": {"city": "Putnam County", "rent": 960, "zip": "47989"}, "randolph-county-47320": {"city": "Randolph County", "rent": 960, "zip": "47320"}, "randolph-county-47340": {"city": "Randolph County", "rent": 1000, "zip": "47340"}, "randolph-county-47341": {"city": "Randolph County", "rent": 960, "zip": "47341"}, "randolph-county-47354": {"city": "Randolph County", "rent": 1160, "zip": "47354"}, "randolph-county-47355": {"city": "Randolph County", "rent": 960, "zip": "47355"}, "randolph-county-47358": {"city": "Randolph County", "rent": 960, "zip": "47358"}, "randolph-county-47368": {"city": "Randolph County", "rent": 960, "zip": "47368"}, "randolph-county-47373": {"city": "Randolph County", "rent": 990, "zip": "47373"}, "randolph-county-47380": {"city": "Randolph County", "rent": 960, "zip": "47380"}, "randolph-county-47382": {"city": "Randolph County", "rent": 960, "zip": "47382"}, "randolph-county-47383": {"city": "Randolph County", "rent": 1110, "zip": "47383"}, "randolph-county-47390": {"city": "Randolph County", "rent": 960, "zip": "47390"}, "randolph-county-47393": {"city": "Randolph County", "rent": 1340, "zip": "47393"}, "randolph-county-47394": {"city": "Randolph County", "rent": 990, "zip": "47394"}, "ripley-county-47006": {"city": "Ripley County", "rent": 1050, "zip": "47006"}, "ripley-county-47017": {"city": "Ripley County", "rent": 1020, "zip": "47017"}, "ripley-county-47018": {"city": "Ripley County", "rent": 1180, "zip": "47018"}, "ripley-county-47021": {"city": "Ripley County", "rent": 990, "zip": "47021"}, "ripley-county-47023": {"city": "Ripley County", "rent": 1240, "zip": "47023"}, "ripley-county-47031": {"city": "Ripley County", "rent": 1140, "zip": "47031"}, "ripley-county-47032": {"city": "Ripley County", "rent": 1190, "zip": "47032"}, "ripley-county-47033": {"city": "Ripley County", "rent": 990, "zip": "47033"}, "ripley-county-47034": {"city": "Ripley County", "rent": 1100, "zip": "47034"}, "ripley-county-47037": {"city": "Ripley County", "rent": 960, "zip": "47037"}, "ripley-county-47041": {"city": "Ripley County", "rent": 1060, "zip": "47041"}, "ripley-county-47042": {"city": "Ripley County", "rent": 960, "zip": "47042"}, "ripley-county-47223": {"city": "Ripley County", "rent": 1020, "zip": "47223"}, "ripley-county-47224": {"city": "Ripley County", "rent": 960, "zip": "47224"}, "ripley-county-47240": {"city": "Ripley County", "rent": 1100, "zip": "47240"}, "ripley-county-47250": {"city": "Ripley County", "rent": 960, "zip": "47250"}, "rush-county-46104": {"city": "Rush County", "rent": 1080, "zip": "46104"}, "rush-county-46115": {"city": "Rush County", "rent": 1100, "zip": "46115"}, "rush-county-46127": {"city": "Rush County", "rent": 980, "zip": "46127"}, "rush-county-46133": {"city": "Rush County", "rent": 1020, "zip": "46133"}, "rush-county-46140": {"city": "Rush County", "rent": 1370, "zip": "46140"}, "rush-county-46146": {"city": "Rush County", "rent": 970, "zip": "46146"}, "rush-county-46148": {"city": "Rush County", "rent": 1100, "zip": "46148"}, "rush-county-46150": {"city": "Rush County", "rent": 1220, "zip": "46150"}, "rush-county-46155": {"city": "Rush County", "rent": 970, "zip": "46155"}, "rush-county-46156": {"city": "Rush County", "rent": 1050, "zip": "46156"}, "rush-county-46161": {"city": "Rush County", "rent": 1300, "zip": "46161"}, "rush-county-46173": {"city": "Rush County", "rent": 970, "zip": "46173"}, "rush-county-46176": {"city": "Rush County", "rent": 1240, "zip": "46176"}, "rush-county-46182": {"city": "Rush County", "rent": 1560, "zip": "46182"}, "rush-county-47240": {"city": "Rush County", "rent": 1100, "zip": "47240"}, "rush-county-47272": {"city": "Rush County", "rent": 1110, "zip": "47272"}, "rush-county-47352": {"city": "Rush County", "rent": 1040, "zip": "47352"}, "scott-county-47102": {"city": "Scott County", "rent": 960, "zip": "47102"}, "scott-county-47126": {"city": "Scott County", "rent": 1070, "zip": "47126"}, "scott-county-47138": {"city": "Scott County", "rent": 1430, "zip": "47138"}, "scott-county-47141": {"city": "Scott County", "rent": 1170, "zip": "47141"}, "scott-county-47147": {"city": "Scott County", "rent": 1130, "zip": "47147"}, "scott-county-47170": {"city": "Scott County", "rent": 1100, "zip": "47170"}, "scott-county-47177": {"city": "Scott County", "rent": 1070, "zip": "47177"}, "scott-county-47230": {"city": "Scott County", "rent": 960, "zip": "47230"}, "spencer-county-47523": {"city": "Spencer County", "rent": 980, "zip": "47523"}, "spencer-county-47531": {"city": "Spencer County", "rent": 1140, "zip": "47531"}, "spencer-county-47532": {"city": "Spencer County", "rent": 1030, "zip": "47532"}, "spencer-county-47537": {"city": "Spencer County", "rent": 960, "zip": "47537"}, "spencer-county-47541": {"city": "Spencer County", "rent": 1010, "zip": "47541"}, "spencer-county-47550": {"city": "Spencer County", "rent": 960, "zip": "47550"}, "spencer-county-47552": {"city": "Spencer County", "rent": 1030, "zip": "47552"}, "spencer-county-47556": {"city": "Spencer County", "rent": 960, "zip": "47556"}, "spencer-county-47577": {"city": "Spencer County", "rent": 1100, "zip": "47577"}, "spencer-county-47579": {"city": "Spencer County", "rent": 1410, "zip": "47579"}, "spencer-county-47588": {"city": "Spencer County", "rent": 1190, "zip": "47588"}, "spencer-county-47601": {"city": "Spencer County", "rent": 1020, "zip": "47601"}, "spencer-county-47611": {"city": "Spencer County", "rent": 1040, "zip": "47611"}, "spencer-county-47615": {"city": "Spencer County", "rent": 1150, "zip": "47615"}, "spencer-county-47617": {"city": "Spencer County", "rent": 960, "zip": "47617"}, "spencer-county-47634": {"city": "Spencer County", "rent": 1430, "zip": "47634"}, "spencer-county-47635": {"city": "Spencer County", "rent": 960, "zip": "47635"}, "spencer-county-47637": {"city": "Spencer County", "rent": 960, "zip": "47637"}, "starke-county-46366": {"city": "Starke County", "rent": 990, "zip": "46366"}, "starke-county-46374": {"city": "Starke County", "rent": 1050, "zip": "46374"}, "starke-county-46511": {"city": "Starke County", "rent": 980, "zip": "46511"}, "starke-county-46531": {"city": "Starke County", "rent": 1380, "zip": "46531"}, "starke-county-46532": {"city": "Starke County", "rent": 1130, "zip": "46532"}, "starke-county-46534": {"city": "Starke County", "rent": 960, "zip": "46534"}, "starke-county-46563": {"city": "Starke County", "rent": 1040, "zip": "46563"}, "starke-county-46574": {"city": "Starke County", "rent": 1040, "zip": "46574"}, "starke-county-46960": {"city": "Starke County", "rent": 960, "zip": "46960"}, "starke-county-46968": {"city": "Starke County", "rent": 960, "zip": "46968"}, "starke-county-46996": {"city": "Starke County", "rent": 960, "zip": "46996"}, "steuben-county-46703": {"city": "Steuben County", "rent": 990, "zip": "46703"}, "steuben-county-46705": {"city": "Steuben County", "rent": 960, "zip": "46705"}, "steuben-county-46737": {"city": "Steuben County", "rent": 1280, "zip": "46737"}, "steuben-county-46742": {"city": "Steuben County", "rent": 1020, "zip": "46742"}, "steuben-county-46747": {"city": "Steuben County", "rent": 1060, "zip": "46747"}, "steuben-county-46761": {"city": "Steuben County", "rent": 960, "zip": "46761"}, "steuben-county-46776": {"city": "Steuben County", "rent": 1140, "zip": "46776"}, "steuben-county-46779": {"city": "Steuben County", "rent": 1010, "zip": "46779"}, "steuben-county-46793": {"city": "Steuben County", "rent": 960, "zip": "46793"}, "steuben-county-46795": {"city": "Steuben County", "rent": 1020, "zip": "46795"}, "switzerland-county-47011": {"city": "Switzerland County", "rent": 1010, "zip": "47011"}, "switzerland-county-47017": {"city": "Switzerland County", "rent": 1020, "zip": "47017"}, "switzerland-county-47018": {"city": "Switzerland County", "rent": 1180, "zip": "47018"}, "switzerland-county-47019": {"city": "Switzerland County", "rent": 960, "zip": "47019"}, "switzerland-county-47020": {"city": "Switzerland County", "rent": 980, "zip": "47020"}, "switzerland-county-47038": {"city": "Switzerland County", "rent": 980, "zip": "47038"}, "switzerland-county-47040": {"city": "Switzerland County", "rent": 1010, "zip": "47040"}, "switzerland-county-47043": {"city": "Switzerland County", "rent": 960, "zip": "47043"}, "switzerland-county-47224": {"city": "Switzerland County", "rent": 960, "zip": "47224"}, "switzerland-county-47250": {"city": "Switzerland County", "rent": 960, "zip": "47250"}, "union-county-47003": {"city": "Union County", "rent": 960, "zip": "47003"}, "union-county-47010": {"city": "Union County", "rent": 1070, "zip": "47010"}, "union-county-47325": {"city": "Union County", "rent": 980, "zip": "47325"}, "union-county-47331": {"city": "Union County", "rent": 960, "zip": "47331"}, "union-county-47353": {"city": "Union County", "rent": 970, "zip": "47353"}, "union-county-47374": {"city": "Union County", "rent": 970, "zip": "47374"}, "wabash-county-46702": {"city": "Wabash County", "rent": 960, "zip": "46702"}, "wabash-county-46750": {"city": "Wabash County", "rent": 960, "zip": "46750"}, "wabash-county-46787": {"city": "Wabash County", "rent": 980, "zip": "46787"}, "wabash-county-46911": {"city": "Wabash County", "rent": 980, "zip": "46911"}, "wabash-county-46919": {"city": "Wabash County", "rent": 960, "zip": "46919"}, "wabash-county-46926": {"city": "Wabash County", "rent": 960, "zip": "46926"}, "wabash-county-46940": {"city": "Wabash County", "rent": 1090, "zip": "46940"}, "wabash-county-46941": {"city": "Wabash County", "rent": 1050, "zip": "46941"}, "wabash-county-46943": {"city": "Wabash County", "rent": 1020, "zip": "46943"}, "wabash-county-46946": {"city": "Wabash County", "rent": 1000, "zip": "46946"}, "wabash-county-46962": {"city": "Wabash County", "rent": 1000, "zip": "46962"}, "wabash-county-46970": {"city": "Wabash County", "rent": 990, "zip": "46970"}, "wabash-county-46974": {"city": "Wabash County", "rent": 1050, "zip": "46974"}, "wabash-county-46980": {"city": "Wabash County", "rent": 1000, "zip": "46980"}, "wabash-county-46982": {"city": "Wabash County", "rent": 1090, "zip": "46982"}, "wabash-county-46984": {"city": "Wabash County", "rent": 1090, "zip": "46984"}, "wabash-county-46990": {"city": "Wabash County", "rent": 1000, "zip": "46990"}, "wabash-county-46992": {"city": "Wabash County", "rent": 960, "zip": "46992"}, "wayne-county-47324": {"city": "Wayne County", "rent": 1030, "zip": "47324"}, "wayne-county-47325": {"city": "Wayne County", "rent": 980, "zip": "47325"}, "wayne-county-47327": {"city": "Wayne County", "rent": 960, "zip": "47327"}, "wayne-county-47330": {"city": "Wayne County", "rent": 1020, "zip": "47330"}, "wayne-county-47331": {"city": "Wayne County", "rent": 960, "zip": "47331"}, "wayne-county-47335": {"city": "Wayne County", "rent": 960, "zip": "47335"}, "wayne-county-47339": {"city": "Wayne County", "rent": 1050, "zip": "47339"}, "wayne-county-47341": {"city": "Wayne County", "rent": 960, "zip": "47341"}, "wayne-county-47345": {"city": "Wayne County", "rent": 970, "zip": "47345"}, "wayne-county-47346": {"city": "Wayne County", "rent": 960, "zip": "47346"}, "wayne-county-47353": {"city": "Wayne County", "rent": 970, "zip": "47353"}, "wayne-county-47354": {"city": "Wayne County", "rent": 1160, "zip": "47354"}, "wayne-county-47355": {"city": "Wayne County", "rent": 960, "zip": "47355"}, "wayne-county-47357": {"city": "Wayne County", "rent": 960, "zip": "47357"}, "wayne-county-47358": {"city": "Wayne County", "rent": 960, "zip": "47358"}, "wayne-county-47360": {"city": "Wayne County", "rent": 1030, "zip": "47360"}, "wayne-county-47370": {"city": "Wayne County", "rent": 990, "zip": "47370"}, "wayne-county-47374": {"city": "Wayne County", "rent": 970, "zip": "47374"}, "wayne-county-47375": {"city": "Wayne County", "rent": 960, "zip": "47375"}, "wayne-county-47392": {"city": "Wayne County", "rent": 1230, "zip": "47392"}, "wayne-county-47393": {"city": "Wayne County", "rent": 1340, "zip": "47393"}, "white-county-46978": {"city": "White County", "rent": 1020, "zip": "46978"}, "white-county-46985": {"city": "White County", "rent": 1020, "zip": "46985"}, "white-county-46996": {"city": "White County", "rent": 960, "zip": "46996"}, "white-county-47906": {"city": "White County", "rent": 1270, "zip": "47906"}, "white-county-47920": {"city": "White County", "rent": 1130, "zip": "47920"}, "white-county-47923": {"city": "White County", "rent": 1020, "zip": "47923"}, "white-county-47925": {"city": "White County", "rent": 1010, "zip": "47925"}, "white-county-47926": {"city": "White County", "rent": 1020, "zip": "47926"}, "white-county-47929": {"city": "White County", "rent": 1000, "zip": "47929"}, "white-county-47944": {"city": "White County", "rent": 1050, "zip": "47944"}, "white-county-47946": {"city": "White County", "rent": 1370, "zip": "47946"}, "white-county-47950": {"city": "White County", "rent": 1130, "zip": "47950"}, "white-county-47959": {"city": "White County", "rent": 1100, "zip": "47959"}, "white-county-47960": {"city": "White County", "rent": 1010, "zip": "47960"}, "white-county-47970": {"city": "White County", "rent": 1050, "zip": "47970"}, "white-county-47977": {"city": "White County", "rent": 1050, "zip": "47977"}, "white-county-47978": {"city": "White County", "rent": 1150, "zip": "47978"}, "white-county-47980": {"city": "White County", "rent": 960, "zip": "47980"}, "white-county-47995": {"city": "White County", "rent": 1090, "zip": "47995"}}