{"ames-50010": {"city": "Ames", "rent": 1150, "zip": "50010"}, "ames-50011": {"city": "Ames", "rent": 1150, "zip": "50011"}, "ames-50012": {"city": "Ames", "rent": 1270, "zip": "50012"}, "ames-50013": {"city": "Ames", "rent": 1300, "zip": "50013"}, "ames-50014": {"city": "Ames", "rent": 1310, "zip": "50014"}, "ames-50046": {"city": "Ames", "rent": 1220, "zip": "50046"}, "ames-50055": {"city": "Ames", "rent": 1010, "zip": "50055"}, "ames-50056": {"city": "Ames", "rent": 1130, "zip": "50056"}, "ames-50105": {"city": "Ames", "rent": 1050, "zip": "50105"}, "ames-50122": {"city": "Ames", "rent": 960, "zip": "50122"}, "ames-50124": {"city": "Ames", "rent": 1300, "zip": "50124"}, "ames-50134": {"city": "Ames", "rent": 1070, "zip": "50134"}, "ames-50154": {"city": "Ames", "rent": 960, "zip": "50154"}, "ames-50156": {"city": "Ames", "rent": 1020, "zip": "50156"}, "ames-50161": {"city": "Ames", "rent": 980, "zip": "50161"}, "ames-50201": {"city": "Ames", "rent": 1000, "zip": "50201"}, "ames-50206": {"city": "Ames", "rent": 960, "zip": "50206"}, "ames-50226": {"city": "Ames", "rent": 1030, "zip": "50226"}, "ames-50230": {"city": "Ames", "rent": 960, "zip": "50230"}, "ames-50236": {"city": "Ames", "rent": 1080, "zip": "50236"}, "ames-50239": {"city": "Ames", "rent": 1010, "zip": "50239"}, "ames-50243": {"city": "Ames", "rent": 1280, "zip": "50243"}, "ames-50244": {"city": "Ames", "rent": 980, "zip": "50244"}, "ames-50247": {"city": "Ames", "rent": 960, "zip": "50247"}, "ames-50248": {"city": "Ames", "rent": 1040, "zip": "50248"}, "ames-50278": {"city": "Ames", "rent": 1130, "zip": "50278"}, "boone-county-50014": {"city": "Boone County", "rent": 1310, "zip": "50014"}, "boone-county-50031": {"city": "Boone County", "rent": 960, "zip": "50031"}, "boone-county-50036": {"city": "Boone County", "rent": 1030, "zip": "50036"}, "boone-county-50039": {"city": "Boone County", "rent": 1030, "zip": "50039"}, "boone-county-50040": {"city": "Boone County", "rent": 940, "zip": "50040"}, "boone-county-50064": {"city": "Boone County", "rent": 920, "zip": "50064"}, "boone-county-50107": {"city": "Boone County", "rent": 1060, "zip": "50107"}, "boone-county-50134": {"city": "Boone County", "rent": 1070, "zip": "50134"}, "boone-county-50152": {"city": "Boone County", "rent": 1020, "zip": "50152"}, "boone-county-50156": {"city": "Boone County", "rent": 1020, "zip": "50156"}, "boone-county-50212": {"city": "Boone County", "rent": 960, "zip": "50212"}, "boone-county-50217": {"city": "Boone County", "rent": 930, "zip": "50217"}, "boone-county-50220": {"city": "Boone County", "rent": 1090, "zip": "50220"}, "boone-county-50223": {"city": "Boone County", "rent": 920, "zip": "50223"}, "boone-county-50235": {"city": "Boone County", "rent": 1130, "zip": "50235"}, "boone-county-50243": {"city": "Boone County", "rent": 1280, "zip": "50243"}, "boone-county-50244": {"city": "Boone County", "rent": 980, "zip": "50244"}, "boone-county-50248": {"city": "Boone County", "rent": 1040, "zip": "50248"}, "boone-county-50249": {"city": "Boone County", "rent": 920, "zip": "50249"}, "boone-county-50276": {"city": "Boone County", "rent": 1030, "zip": "50276"}, "boone-county-50530": {"city": "Boone County", "rent": 920, "zip": "50530"}, "cedar-rapids-52202": {"city": "Cedar Rapids", "rent": 930, "zip": "52202"}, "cedar-rapids-52203": {"city": "Cedar Rapids", "rent": 1000, "zip": "52203"}, "cedar-rapids-52205": {"city": "Cedar Rapids", "rent": 1110, "zip": "52205"}, "cedar-rapids-52213": {"city": "Cedar Rapids", "rent": 1180, "zip": "52213"}, "cedar-rapids-52214": {"city": "Cedar Rapids", "rent": 1110, "zip": "52214"}, "cedar-rapids-52218": {"city": "Cedar Rapids", "rent": 920, "zip": "52218"}, "cedar-rapids-52219": {"city": "Cedar Rapids", "rent": 960, "zip": "52219"}, "cedar-rapids-52227": {"city": "Cedar Rapids", "rent": 1110, "zip": "52227"}, "cedar-rapids-52228": {"city": "Cedar Rapids", "rent": 1610, "zip": "52228"}, "cedar-rapids-52233": {"city": "Cedar Rapids", "rent": 970, "zip": "52233"}, "cedar-rapids-52253": {"city": "Cedar Rapids", "rent": 1000, "zip": "52253"}, "cedar-rapids-52302": {"city": "Cedar Rapids", "rent": 1040, "zip": "52302"}, "cedar-rapids-52305": {"city": "Cedar Rapids", "rent": 920, "zip": "52305"}, "cedar-rapids-52310": {"city": "Cedar Rapids", "rent": 920, "zip": "52310"}, "cedar-rapids-52314": {"city": "Cedar Rapids", "rent": 1000, "zip": "52314"}, "cedar-rapids-52324": {"city": "Cedar Rapids", "rent": 1130, "zip": "52324"}, "cedar-rapids-52328": {"city": "Cedar Rapids", "rent": 1190, "zip": "52328"}, "cedar-rapids-52332": {"city": "Cedar Rapids", "rent": 1120, "zip": "52332"}, "cedar-rapids-52333": {"city": "Cedar Rapids", "rent": 1220, "zip": "52333"}, "cedar-rapids-52336": {"city": "Cedar Rapids", "rent": 1120, "zip": "52336"}, "cedar-rapids-52338": {"city": "Cedar Rapids", "rent": 1070, "zip": "52338"}, "cedar-rapids-52341": {"city": "Cedar Rapids", "rent": 1100, "zip": "52341"}, "cedar-rapids-52344": {"city": "Cedar Rapids", "rent": 920, "zip": "52344"}, "cedar-rapids-52351": {"city": "Cedar Rapids", "rent": 1420, "zip": "52351"}, "cedar-rapids-52352": {"city": "Cedar Rapids", "rent": 920, "zip": "52352"}, "cedar-rapids-52401": {"city": "Cedar Rapids", "rent": 970, "zip": "52401"}, "cedar-rapids-52402": {"city": "Cedar Rapids", "rent": 1130, "zip": "52402"}, "cedar-rapids-52403": {"city": "Cedar Rapids", "rent": 1080, "zip": "52403"}, "cedar-rapids-52404": {"city": "Cedar Rapids", "rent": 1080, "zip": "52404"}, "cedar-rapids-52405": {"city": "Cedar Rapids", "rent": 1220, "zip": "52405"}, "cedar-rapids-52406": {"city": "Cedar Rapids", "rent": 1070, "zip": "52406"}, "cedar-rapids-52408": {"city": "Cedar Rapids", "rent": 1070, "zip": "52408"}, "cedar-rapids-52409": {"city": "Cedar Rapids", "rent": 1070, "zip": "52409"}, "cedar-rapids-52410": {"city": "Cedar Rapids", "rent": 1070, "zip": "52410"}, "cedar-rapids-52411": {"city": "Cedar Rapids", "rent": 1040, "zip": "52411"}, "cedar-rapids-52498": {"city": "Cedar Rapids", "rent": 1070, "zip": "52498"}, "benton-county-50651": {"city": "Benton County", "rent": 950, "zip": "50651"}, "benton-county-52206": {"city": "Benton County", "rent": 920, "zip": "52206"}, "benton-county-52208": {"city": "Benton County", "rent": 920, "zip": "52208"}, "benton-county-52209": {"city": "Benton County", "rent": 1000, "zip": "52209"}, "benton-county-52210": {"city": "Benton County", "rent": 1080, "zip": "52210"}, "benton-county-52213": {"city": "Benton County", "rent": 1180, "zip": "52213"}, "benton-county-52224": {"city": "Benton County", "rent": 920, "zip": "52224"}, "benton-county-52225": {"city": "Benton County", "rent": 1050, "zip": "52225"}, "benton-county-52228": {"city": "Benton County", "rent": 1610, "zip": "52228"}, "benton-county-52229": {"city": "Benton County", "rent": 1070, "zip": "52229"}, "benton-county-52249": {"city": "Benton County", "rent": 1190, "zip": "52249"}, "benton-county-52257": {"city": "Benton County", "rent": 1020, "zip": "52257"}, "benton-county-52301": {"city": "Benton County", "rent": 930, "zip": "52301"}, "benton-county-52313": {"city": "Benton County", "rent": 1140, "zip": "52313"}, "benton-county-52315": {"city": "Benton County", "rent": 920, "zip": "52315"}, "benton-county-52318": {"city": "Benton County", "rent": 1280, "zip": "52318"}, "benton-county-52324": {"city": "Benton County", "rent": 1130, "zip": "52324"}, "benton-county-52332": {"city": "Benton County", "rent": 1120, "zip": "52332"}, "benton-county-52345": {"city": "Benton County", "rent": 940, "zip": "52345"}, "benton-county-52346": {"city": "Benton County", "rent": 1200, "zip": "52346"}, "benton-county-52349": {"city": "Benton County", "rent": 920, "zip": "52349"}, "benton-county-52351": {"city": "Benton County", "rent": 1420, "zip": "52351"}, "benton-county-52352": {"city": "Benton County", "rent": 920, "zip": "52352"}, "benton-county-52354": {"city": "Benton County", "rent": 1040, "zip": "52354"}, "benton-county-52404": {"city": "Benton County", "rent": 1080, "zip": "52404"}, "benton-county-52405": {"city": "Benton County", "rent": 1220, "zip": "52405"}, "jones-county-52032": {"city": "Jones County", "rent": 920, "zip": "52032"}, "jones-county-52033": {"city": "Jones County", "rent": 970, "zip": "52033"}, "jones-county-52205": {"city": "Jones County", "rent": 1110, "zip": "52205"}, "jones-county-52212": {"city": "Jones County", "rent": 960, "zip": "52212"}, "jones-county-52216": {"city": "Jones County", "rent": 960, "zip": "52216"}, "jones-county-52218": {"city": "Jones County", "rent": 920, "zip": "52218"}, "jones-county-52237": {"city": "Jones County", "rent": 920, "zip": "52237"}, "jones-county-52252": {"city": "Jones County", "rent": 930, "zip": "52252"}, "jones-county-52253": {"city": "Jones County", "rent": 1000, "zip": "52253"}, "jones-county-52305": {"city": "Jones County", "rent": 920, "zip": "52305"}, "jones-county-52306": {"city": "Jones County", "rent": 1140, "zip": "52306"}, "jones-county-52309": {"city": "Jones County", "rent": 960, "zip": "52309"}, "jones-county-52310": {"city": "Jones County", "rent": 920, "zip": "52310"}, "jones-county-52312": {"city": "Jones County", "rent": 1110, "zip": "52312"}, "jones-county-52320": {"city": "Jones County", "rent": 1040, "zip": "52320"}, "jones-county-52321": {"city": "Jones County", "rent": 940, "zip": "52321"}, "jones-county-52323": {"city": "Jones County", "rent": 920, "zip": "52323"}, "jones-county-52336": {"city": "Jones County", "rent": 1120, "zip": "52336"}, "jones-county-52362": {"city": "Jones County", "rent": 920, "zip": "52362"}, "davenport-moline-rock-island-52722": {"city": "Davenport-Moline-Rock Island", "rent": 1370, "zip": "52722"}, "davenport-moline-rock-island-52726": {"city": "Davenport-Moline-Rock Island", "rent": 1470, "zip": "52726"}, "davenport-moline-rock-island-52728": {"city": "Davenport-Moline-Rock Island", "rent": 1010, "zip": "52728"}, "davenport-moline-rock-island-52729": {"city": "Davenport-Moline-Rock Island", "rent": 930, "zip": "52729"}, "davenport-moline-rock-island-52745": {"city": "Davenport-Moline-Rock Island", "rent": 1060, "zip": "52745"}, "davenport-moline-rock-island-52746": {"city": "Davenport-Moline-Rock Island", "rent": 1200, "zip": "52746"}, "davenport-moline-rock-island-52747": {"city": "Davenport-Moline-Rock Island", "rent": 1010, "zip": "52747"}, "davenport-moline-rock-island-52748": {"city": "Davenport-Moline-Rock Island", "rent": 1160, "zip": "52748"}, "davenport-moline-rock-island-52753": {"city": "Davenport-Moline-Rock Island", "rent": 1220, "zip": "52753"}, "davenport-moline-rock-island-52756": {"city": "Davenport-Moline-Rock Island", "rent": 1710, "zip": "52756"}, "davenport-moline-rock-island-52758": {"city": "Davenport-Moline-Rock Island", "rent": 1590, "zip": "52758"}, "davenport-moline-rock-island-52765": {"city": "Davenport-Moline-Rock Island", "rent": 1490, "zip": "52765"}, "davenport-moline-rock-island-52767": {"city": "Davenport-Moline-Rock Island", "rent": 1330, "zip": "52767"}, "davenport-moline-rock-island-52768": {"city": "Davenport-Moline-Rock Island", "rent": 1180, "zip": "52768"}, "davenport-moline-rock-island-52769": {"city": "Davenport-Moline-Rock Island", "rent": 1180, "zip": "52769"}, "davenport-moline-rock-island-52773": {"city": "Davenport-Moline-Rock Island", "rent": 1030, "zip": "52773"}, "davenport-moline-rock-island-52801": {"city": "Davenport-Moline-Rock Island", "rent": 1170, "zip": "52801"}, "davenport-moline-rock-island-52802": {"city": "Davenport-Moline-Rock Island", "rent": 1210, "zip": "52802"}, "davenport-moline-rock-island-52803": {"city": "Davenport-Moline-Rock Island", "rent": 1110, "zip": "52803"}, "davenport-moline-rock-island-52804": {"city": "Davenport-Moline-Rock Island", "rent": 1150, "zip": "52804"}, "davenport-moline-rock-island-52805": {"city": "Davenport-Moline-Rock Island", "rent": 1180, "zip": "52805"}, "davenport-moline-rock-island-52806": {"city": "Davenport-Moline-Rock Island", "rent": 1180, "zip": "52806"}, "davenport-moline-rock-island-52807": {"city": "Davenport-Moline-Rock Island", "rent": 1110, "zip": "52807"}, "davenport-moline-rock-island-52808": {"city": "Davenport-Moline-Rock Island", "rent": 1180, "zip": "52808"}, "davenport-moline-rock-island-52809": {"city": "Davenport-Moline-Rock Island", "rent": 1180, "zip": "52809"}, "davenport-moline-rock-island-61201": {"city": "Davenport-Moline-Rock Island", "rent": 1120, "zip": "61201"}, "davenport-moline-rock-island-61204": {"city": "Davenport-Moline-Rock Island", "rent": 1120, "zip": "61204"}, "davenport-moline-rock-island-61231": {"city": "Davenport-Moline-Rock Island", "rent": 1030, "zip": "61231"}, "davenport-moline-rock-island-61232": {"city": "Davenport-Moline-Rock Island", "rent": 1040, "zip": "61232"}, "davenport-moline-rock-island-61233": {"city": "Davenport-Moline-Rock Island", "rent": 1080, "zip": "61233"}, "davenport-moline-rock-island-61234": {"city": "Davenport-Moline-Rock Island", "rent": 930, "zip": "61234"}, "davenport-moline-rock-island-61235": {"city": "Davenport-Moline-Rock Island", "rent": 1180, "zip": "61235"}, "davenport-moline-rock-island-61236": {"city": "Davenport-Moline-Rock Island", "rent": 1050, "zip": "61236"}, "davenport-moline-rock-island-61237": {"city": "Davenport-Moline-Rock Island", "rent": 1120, "zip": "61237"}, "davenport-moline-rock-island-61238": {"city": "Davenport-Moline-Rock Island", "rent": 1250, "zip": "61238"}, "davenport-moline-rock-island-61239": {"city": "Davenport-Moline-Rock Island", "rent": 1210, "zip": "61239"}, "davenport-moline-rock-island-61240": {"city": "Davenport-Moline-Rock Island", "rent": 1710, "zip": "61240"}, "davenport-moline-rock-island-61241": {"city": "Davenport-Moline-Rock Island", "rent": 1110, "zip": "61241"}, "davenport-moline-rock-island-61242": {"city": "Davenport-Moline-Rock Island", "rent": 1170, "zip": "61242"}, "davenport-moline-rock-island-61244": {"city": "Davenport-Moline-Rock Island", "rent": 1030, "zip": "61244"}, "davenport-moline-rock-island-61250": {"city": "Davenport-Moline-Rock Island", "rent": 930, "zip": "61250"}, "davenport-moline-rock-island-61254": {"city": "Davenport-Moline-Rock Island", "rent": 1150, "zip": "61254"}, "davenport-moline-rock-island-61256": {"city": "Davenport-Moline-Rock Island", "rent": 1240, "zip": "61256"}, "davenport-moline-rock-island-61257": {"city": "Davenport-Moline-Rock Island", "rent": 1710, "zip": "61257"}, "davenport-moline-rock-island-61258": {"city": "Davenport-Moline-Rock Island", "rent": 930, "zip": "61258"}, "davenport-moline-rock-island-61259": {"city": "Davenport-Moline-Rock Island", "rent": 1150, "zip": "61259"}, "davenport-moline-rock-island-61260": {"city": "Davenport-Moline-Rock Island", "rent": 930, "zip": "61260"}, "davenport-moline-rock-island-61262": {"city": "Davenport-Moline-Rock Island", "rent": 980, "zip": "61262"}, "davenport-moline-rock-island-61263": {"city": "Davenport-Moline-Rock Island", "rent": 980, "zip": "61263"}, "davenport-moline-rock-island-61264": {"city": "Davenport-Moline-Rock Island", "rent": 1250, "zip": "61264"}, "davenport-moline-rock-island-61265": {"city": "Davenport-Moline-Rock Island", "rent": 1150, "zip": "61265"}, "davenport-moline-rock-island-61266": {"city": "Davenport-Moline-Rock Island", "rent": 1120, "zip": "61266"}, "davenport-moline-rock-island-61272": {"city": "Davenport-Moline-Rock Island", "rent": 1070, "zip": "61272"}, "davenport-moline-rock-island-61273": {"city": "Davenport-Moline-Rock Island", "rent": 1070, "zip": "61273"}, "davenport-moline-rock-island-61274": {"city": "Davenport-Moline-Rock Island", "rent": 1150, "zip": "61274"}, "davenport-moline-rock-island-61275": {"city": "Davenport-Moline-Rock Island", "rent": 990, "zip": "61275"}, "davenport-moline-rock-island-61276": {"city": "Davenport-Moline-Rock Island", "rent": 1040, "zip": "61276"}, "davenport-moline-rock-island-61277": {"city": "Davenport-Moline-Rock Island", "rent": 930, "zip": "61277"}, "davenport-moline-rock-island-61278": {"city": "Davenport-Moline-Rock Island", "rent": 1390, "zip": "61278"}, "davenport-moline-rock-island-61279": {"city": "Davenport-Moline-Rock Island", "rent": 1280, "zip": "61279"}, "davenport-moline-rock-island-61281": {"city": "Davenport-Moline-Rock Island", "rent": 1000, "zip": "61281"}, "davenport-moline-rock-island-61282": {"city": "Davenport-Moline-Rock Island", "rent": 1210, "zip": "61282"}, "davenport-moline-rock-island-61283": {"city": "Davenport-Moline-Rock Island", "rent": 1010, "zip": "61283"}, "davenport-moline-rock-island-61284": {"city": "Davenport-Moline-Rock Island", "rent": 1390, "zip": "61284"}, "davenport-moline-rock-island-61344": {"city": "Davenport-Moline-Rock Island", "rent": 1250, "zip": "61344"}, "davenport-moline-rock-island-61361": {"city": "Davenport-Moline-Rock Island", "rent": 1070, "zip": "61361"}, "davenport-moline-rock-island-61401": {"city": "Davenport-Moline-Rock Island", "rent": 930, "zip": "61401"}, "davenport-moline-rock-island-61412": {"city": "Davenport-Moline-Rock Island", "rent": 960, "zip": "61412"}, "davenport-moline-rock-island-61413": {"city": "Davenport-Moline-Rock Island", "rent": 1150, "zip": "61413"}, "davenport-moline-rock-island-61414": {"city": "Davenport-Moline-Rock Island", "rent": 980, "zip": "61414"}, "davenport-moline-rock-island-61419": {"city": "Davenport-Moline-Rock Island", "rent": 1080, "zip": "61419"}, "davenport-moline-rock-island-61434": {"city": "Davenport-Moline-Rock Island", "rent": 980, "zip": "61434"}, "davenport-moline-rock-island-61442": {"city": "Davenport-Moline-Rock Island", "rent": 930, "zip": "61442"}, "davenport-moline-rock-island-61443": {"city": "Davenport-Moline-Rock Island", "rent": 1050, "zip": "61443"}, "davenport-moline-rock-island-61465": {"city": "Davenport-Moline-Rock Island", "rent": 930, "zip": "61465"}, "davenport-moline-rock-island-61466": {"city": "Davenport-Moline-Rock Island", "rent": 1010, "zip": "61466"}, "davenport-moline-rock-island-61468": {"city": "Davenport-Moline-Rock Island", "rent": 990, "zip": "61468"}, "davenport-moline-rock-island-61472": {"city": "Davenport-Moline-Rock Island", "rent": 930, "zip": "61472"}, "davenport-moline-rock-island-61476": {"city": "Davenport-Moline-Rock Island", "rent": 970, "zip": "61476"}, "davenport-moline-rock-island-61486": {"city": "Davenport-Moline-Rock Island", "rent": 1060, "zip": "61486"}, "davenport-moline-rock-island-61490": {"city": "Davenport-Moline-Rock Island", "rent": 930, "zip": "61490"}, "jasper-county-50028": {"city": "Jasper County", "rent": 1040, "zip": "50028"}, "jasper-county-50054": {"city": "Jasper County", "rent": 1030, "zip": "50054"}, "jasper-county-50055": {"city": "Jasper County", "rent": 1010, "zip": "50055"}, "jasper-county-50106": {"city": "Jasper County", "rent": 920, "zip": "50106"}, "jasper-county-50112": {"city": "Jasper County", "rent": 980, "zip": "50112"}, "jasper-county-50127": {"city": "Jasper County", "rent": 980, "zip": "50127"}, "jasper-county-50135": {"city": "Jasper County", "rent": 970, "zip": "50135"}, "jasper-county-50137": {"city": "Jasper County", "rent": 1000, "zip": "50137"}, "jasper-county-50141": {"city": "Jasper County", "rent": 1040, "zip": "50141"}, "jasper-county-50153": {"city": "Jasper County", "rent": 920, "zip": "50153"}, "jasper-county-50161": {"city": "Jasper County", "rent": 980, "zip": "50161"}, "jasper-county-50162": {"city": "Jasper County", "rent": 1440, "zip": "50162"}, "jasper-county-50168": {"city": "Jasper County", "rent": 970, "zip": "50168"}, "jasper-county-50169": {"city": "Jasper County", "rent": 960, "zip": "50169"}, "jasper-county-50170": {"city": "Jasper County", "rent": 950, "zip": "50170"}, "jasper-county-50208": {"city": "Jasper County", "rent": 1010, "zip": "50208"}, "jasper-county-50214": {"city": "Jasper County", "rent": 1030, "zip": "50214"}, "jasper-county-50228": {"city": "Jasper County", "rent": 1070, "zip": "50228"}, "jasper-county-50232": {"city": "Jasper County", "rent": 1180, "zip": "50232"}, "jasper-county-50234": {"city": "Jasper County", "rent": 1070, "zip": "50234"}, "jasper-county-50237": {"city": "Jasper County", "rent": 920, "zip": "50237"}, "jasper-county-50242": {"city": "Jasper County", "rent": 980, "zip": "50242"}, "jasper-county-50251": {"city": "Jasper County", "rent": 1000, "zip": "50251"}, "des-moines-west-des-moines-50001": {"city": "Des Moines-West Des Moines", "rent": 1640, "zip": "50001"}, "des-moines-west-des-moines-50002": {"city": "Des Moines-West Des Moines", "rent": 1050, "zip": "50002"}, "des-moines-west-des-moines-50003": {"city": "Des Moines-West Des Moines", "rent": 1130, "zip": "50003"}, "des-moines-west-des-moines-50007": {"city": "Des Moines-West Des Moines", "rent": 1240, "zip": "50007"}, "des-moines-west-des-moines-50009": {"city": "Des Moines-West Des Moines", "rent": 1410, "zip": "50009"}, "des-moines-west-des-moines-50020": {"city": "Des Moines-West Des Moines", "rent": 940, "zip": "50020"}, "des-moines-west-des-moines-50021": {"city": "Des Moines-West Des Moines", "rent": 1680, "zip": "50021"}, "des-moines-west-des-moines-50023": {"city": "Des Moines-West Des Moines", "rent": 1440, "zip": "50023"}, "des-moines-west-des-moines-50025": {"city": "Des Moines-West Des Moines", "rent": 920, "zip": "50025"}, "des-moines-west-des-moines-50026": {"city": "Des Moines-West Des Moines", "rent": 980, "zip": "50026"}, "des-moines-west-des-moines-50029": {"city": "Des Moines-West Des Moines", "rent": 1000, "zip": "50029"}, "des-moines-west-des-moines-50032": {"city": "Des Moines-West Des Moines", "rent": 1390, "zip": "50032"}, "des-moines-west-des-moines-50033": {"city": "Des Moines-West Des Moines", "rent": 1060, "zip": "50033"}, "des-moines-west-des-moines-50035": {"city": "Des Moines-West Des Moines", "rent": 1340, "zip": "50035"}, "des-moines-west-des-moines-50038": {"city": "Des Moines-West Des Moines", "rent": 1200, "zip": "50038"}, "des-moines-west-des-moines-50039": {"city": "Des Moines-West Des Moines", "rent": 1030, "zip": "50039"}, "des-moines-west-des-moines-50046": {"city": "Des Moines-West Des Moines", "rent": 1220, "zip": "50046"}, "des-moines-west-des-moines-50047": {"city": "Des Moines-West Des Moines", "rent": 1460, "zip": "50047"}, "des-moines-west-des-moines-50048": {"city": "Des Moines-West Des Moines", "rent": 1050, "zip": "50048"}, "des-moines-west-des-moines-50054": {"city": "Des Moines-West Des Moines", "rent": 1030, "zip": "50054"}, "des-moines-west-des-moines-50058": {"city": "Des Moines-West Des Moines", "rent": 930, "zip": "50058"}, "des-moines-west-des-moines-50061": {"city": "Des Moines-West Des Moines", "rent": 1280, "zip": "50061"}, "des-moines-west-des-moines-50063": {"city": "Des Moines-West Des Moines", "rent": 960, "zip": "50063"}, "des-moines-west-des-moines-50066": {"city": "Des Moines-West Des Moines", "rent": 1110, "zip": "50066"}, "des-moines-west-des-moines-50069": {"city": "Des Moines-West Des Moines", "rent": 1020, "zip": "50069"}, "des-moines-west-des-moines-50070": {"city": "Des Moines-West Des Moines", "rent": 1200, "zip": "50070"}, "des-moines-west-des-moines-50072": {"city": "Des Moines-West Des Moines", "rent": 1170, "zip": "50072"}, "des-moines-west-des-moines-50073": {"city": "Des Moines-West Des Moines", "rent": 1410, "zip": "50073"}, "des-moines-west-des-moines-50076": {"city": "Des Moines-West Des Moines", "rent": 920, "zip": "50076"}, "des-moines-west-des-moines-50109": {"city": "Des Moines-West Des Moines", "rent": 1220, "zip": "50109"}, "des-moines-west-des-moines-50111": {"city": "Des Moines-West Des Moines", "rent": 1290, "zip": "50111"}, "des-moines-west-des-moines-50115": {"city": "Des Moines-West Des Moines", "rent": 950, "zip": "50115"}, "des-moines-west-des-moines-50118": {"city": "Des Moines-West Des Moines", "rent": 1380, "zip": "50118"}, "des-moines-west-des-moines-50124": {"city": "Des Moines-West Des Moines", "rent": 1300, "zip": "50124"}, "des-moines-west-des-moines-50125": {"city": "Des Moines-West Des Moines", "rent": 1150, "zip": "50125"}, "des-moines-west-des-moines-50128": {"city": "Des Moines-West Des Moines", "rent": 920, "zip": "50128"}, "des-moines-west-des-moines-50129": {"city": "Des Moines-West Des Moines", "rent": 920, "zip": "50129"}, "des-moines-west-des-moines-50131": {"city": "Des Moines-West Des Moines", "rent": 1510, "zip": "50131"}, "des-moines-west-des-moines-50139": {"city": "Des Moines-West Des Moines", "rent": 1090, "zip": "50139"}, "des-moines-west-des-moines-50145": {"city": "Des Moines-West Des Moines", "rent": 1140, "zip": "50145"}, "des-moines-west-des-moines-50146": {"city": "Des Moines-West Des Moines", "rent": 1640, "zip": "50146"}, "des-moines-west-des-moines-50149": {"city": "Des Moines-West Des Moines", "rent": 1000, "zip": "50149"}, "des-moines-west-des-moines-50151": {"city": "Des Moines-West Des Moines", "rent": 1480, "zip": "50151"}, "des-moines-west-des-moines-50155": {"city": "Des Moines-West Des Moines", "rent": 1060, "zip": "50155"}, "des-moines-west-des-moines-50156": {"city": "Des Moines-West Des Moines", "rent": 1020, "zip": "50156"}, "des-moines-west-des-moines-50160": {"city": "Des Moines-West Des Moines", "rent": 990, "zip": "50160"}, "des-moines-west-des-moines-50161": {"city": "Des Moines-West Des Moines", "rent": 980, "zip": "50161"}, "des-moines-west-des-moines-50164": {"city": "Des Moines-West Des Moines", "rent": 1030, "zip": "50164"}, "des-moines-west-des-moines-50166": {"city": "Des Moines-West Des Moines", "rent": 1090, "zip": "50166"}, "des-moines-west-des-moines-50167": {"city": "Des Moines-West Des Moines", "rent": 1080, "zip": "50167"}, "des-moines-west-des-moines-50168": {"city": "Des Moines-West Des Moines", "rent": 970, "zip": "50168"}, "des-moines-west-des-moines-50169": {"city": "Des Moines-West Des Moines", "rent": 960, "zip": "50169"}, "des-moines-west-des-moines-50174": {"city": "Des Moines-West Des Moines", "rent": 970, "zip": "50174"}, "des-moines-west-des-moines-50210": {"city": "Des Moines-West Des Moines", "rent": 1260, "zip": "50210"}, "des-moines-west-des-moines-50211": {"city": "Des Moines-West Des Moines", "rent": 1300, "zip": "50211"}, "des-moines-west-des-moines-50213": {"city": "Des Moines-West Des Moines", "rent": 920, "zip": "50213"}, "des-moines-west-des-moines-50216": {"city": "Des Moines-West Des Moines", "rent": 1190, "zip": "50216"}, "des-moines-west-des-moines-50218": {"city": "Des Moines-West Des Moines", "rent": 1240, "zip": "50218"}, "des-moines-west-des-moines-50220": {"city": "Des Moines-West Des Moines", "rent": 1090, "zip": "50220"}, "des-moines-west-des-moines-50222": {"city": "Des Moines-West Des Moines", "rent": 1120, "zip": "50222"}, "des-moines-west-des-moines-50225": {"city": "Des Moines-West Des Moines", "rent": 960, "zip": "50225"}, "des-moines-west-des-moines-50226": {"city": "Des Moines-West Des Moines", "rent": 1030, "zip": "50226"}, "des-moines-west-des-moines-50228": {"city": "Des Moines-West Des Moines", "rent": 1070, "zip": "50228"}, "des-moines-west-des-moines-50229": {"city": "Des Moines-West Des Moines", "rent": 1170, "zip": "50229"}, "des-moines-west-des-moines-50233": {"city": "Des Moines-West Des Moines", "rent": 1270, "zip": "50233"}, "des-moines-west-des-moines-50235": {"city": "Des Moines-West Des Moines", "rent": 1130, "zip": "50235"}, "des-moines-west-des-moines-50237": {"city": "Des Moines-West Des Moines", "rent": 920, "zip": "50237"}, "des-moines-west-des-moines-50240": {"city": "Des Moines-West Des Moines", "rent": 1060, "zip": "50240"}, "des-moines-west-des-moines-50241": {"city": "Des Moines-West Des Moines", "rent": 1380, "zip": "50241"}, "des-moines-west-des-moines-50243": {"city": "Des Moines-West Des Moines", "rent": 1280, "zip": "50243"}, "des-moines-west-des-moines-50244": {"city": "Des Moines-West Des Moines", "rent": 980, "zip": "50244"}, "des-moines-west-des-moines-50250": {"city": "Des Moines-West Des Moines", "rent": 1040, "zip": "50250"}, "des-moines-west-des-moines-50252": {"city": "Des Moines-West Des Moines", "rent": 1060, "zip": "50252"}, "des-moines-west-des-moines-50257": {"city": "Des Moines-West Des Moines", "rent": 1030, "zip": "50257"}, "des-moines-west-des-moines-50261": {"city": "Des Moines-West Des Moines", "rent": 1100, "zip": "50261"}, "des-moines-west-des-moines-50263": {"city": "Des Moines-West Des Moines", "rent": 1490, "zip": "50263"}, "des-moines-west-des-moines-50265": {"city": "Des Moines-West Des Moines", "rent": 1270, "zip": "50265"}, "des-moines-west-des-moines-50266": {"city": "Des Moines-West Des Moines", "rent": 1590, "zip": "50266"}, "des-moines-west-des-moines-50273": {"city": "Des Moines-West Des Moines", "rent": 1240, "zip": "50273"}, "des-moines-west-des-moines-50276": {"city": "Des Moines-West Des Moines", "rent": 1030, "zip": "50276"}, "des-moines-west-des-moines-50277": {"city": "Des Moines-West Des Moines", "rent": 1040, "zip": "50277"}, "des-moines-west-des-moines-50301": {"city": "Des Moines-West Des Moines", "rent": 1300, "zip": "50301"}, "des-moines-west-des-moines-50302": {"city": "Des Moines-West Des Moines", "rent": 1300, "zip": "50302"}, "des-moines-west-des-moines-50303": {"city": "Des Moines-West Des Moines", "rent": 1300, "zip": "50303"}, "des-moines-west-des-moines-50304": {"city": "Des Moines-West Des Moines", "rent": 1300, "zip": "50304"}, "des-moines-west-des-moines-50305": {"city": "Des Moines-West Des Moines", "rent": 1300, "zip": "50305"}, "des-moines-west-des-moines-50309": {"city": "Des Moines-West Des Moines", "rent": 1370, "zip": "50309"}, "des-moines-west-des-moines-50310": {"city": "Des Moines-West Des Moines", "rent": 1280, "zip": "50310"}, "des-moines-west-des-moines-50311": {"city": "Des Moines-West Des Moines", "rent": 1150, "zip": "50311"}, "des-moines-west-des-moines-50312": {"city": "Des Moines-West Des Moines", "rent": 1250, "zip": "50312"}, "des-moines-west-des-moines-50313": {"city": "Des Moines-West Des Moines", "rent": 1290, "zip": "50313"}, "des-moines-west-des-moines-50314": {"city": "Des Moines-West Des Moines", "rent": 1140, "zip": "50314"}, "des-moines-west-des-moines-50315": {"city": "Des Moines-West Des Moines", "rent": 1230, "zip": "50315"}, "des-moines-west-des-moines-50316": {"city": "Des Moines-West Des Moines", "rent": 1160, "zip": "50316"}, "des-moines-west-des-moines-50317": {"city": "Des Moines-West Des Moines", "rent": 1200, "zip": "50317"}, "des-moines-west-des-moines-50318": {"city": "Des Moines-West Des Moines", "rent": 1300, "zip": "50318"}, "des-moines-west-des-moines-50319": {"city": "Des Moines-West Des Moines", "rent": 1300, "zip": "50319"}, "des-moines-west-des-moines-50320": {"city": "Des Moines-West Des Moines", "rent": 1260, "zip": "50320"}, "des-moines-west-des-moines-50321": {"city": "Des Moines-West Des Moines", "rent": 1330, "zip": "50321"}, "des-moines-west-des-moines-50322": {"city": "Des Moines-West Des Moines", "rent": 1330, "zip": "50322"}, "des-moines-west-des-moines-50323": {"city": "Des Moines-West Des Moines", "rent": 1620, "zip": "50323"}, "des-moines-west-des-moines-50324": {"city": "Des Moines-West Des Moines", "rent": 1500, "zip": "50324"}, "des-moines-west-des-moines-50325": {"city": "Des Moines-West Des Moines", "rent": 1320, "zip": "50325"}, "des-moines-west-des-moines-50327": {"city": "Des Moines-West Des Moines", "rent": 1390, "zip": "50327"}, "des-moines-west-des-moines-50363": {"city": "Des Moines-West Des Moines", "rent": 1300, "zip": "50363"}, "des-moines-west-des-moines-50368": {"city": "Des Moines-West Des Moines", "rent": 1300, "zip": "50368"}, "des-moines-west-des-moines-50380": {"city": "Des Moines-West Des Moines", "rent": 1300, "zip": "50380"}, "des-moines-west-des-moines-50391": {"city": "Des Moines-West Des Moines", "rent": 1300, "zip": "50391"}, "des-moines-west-des-moines-50395": {"city": "Des Moines-West Des Moines", "rent": 1300, "zip": "50395"}, "des-moines-west-des-moines-50858": {"city": "Des Moines-West Des Moines", "rent": 920, "zip": "50858"}, "des-moines-west-des-moines-50947": {"city": "Des Moines-West Des Moines", "rent": 1300, "zip": "50947"}, "dubuque-52001": {"city": "Dubuque", "rent": 1080, "zip": "52001"}, "dubuque-52002": {"city": "Dubuque", "rent": 1170, "zip": "52002"}, "dubuque-52003": {"city": "Dubuque", "rent": 1100, "zip": "52003"}, "dubuque-52004": {"city": "Dubuque", "rent": 1080, "zip": "52004"}, "dubuque-52031": {"city": "Dubuque", "rent": 980, "zip": "52031"}, "dubuque-52032": {"city": "Dubuque", "rent": 920, "zip": "52032"}, "dubuque-52033": {"city": "Dubuque", "rent": 970, "zip": "52033"}, "dubuque-52039": {"city": "Dubuque", "rent": 1090, "zip": "52039"}, "dubuque-52040": {"city": "Dubuque", "rent": 1090, "zip": "52040"}, "dubuque-52045": {"city": "Dubuque", "rent": 990, "zip": "52045"}, "dubuque-52046": {"city": "Dubuque", "rent": 1090, "zip": "52046"}, "dubuque-52052": {"city": "Dubuque", "rent": 950, "zip": "52052"}, "dubuque-52053": {"city": "Dubuque", "rent": 920, "zip": "52053"}, "dubuque-52054": {"city": "Dubuque", "rent": 940, "zip": "52054"}, "dubuque-52056": {"city": "Dubuque", "rent": 1000, "zip": "52056"}, "dubuque-52065": {"city": "Dubuque", "rent": 1020, "zip": "52065"}, "dubuque-52068": {"city": "Dubuque", "rent": 1080, "zip": "52068"}, "dubuque-52073": {"city": "Dubuque", "rent": 1180, "zip": "52073"}, "dubuque-52078": {"city": "Dubuque", "rent": 920, "zip": "52078"}, "dubuque-52079": {"city": "Dubuque", "rent": 930, "zip": "52079"}, "dubuque-52099": {"city": "Dubuque", "rent": 1080, "zip": "52099"}, "dubuque-52237": {"city": "Dubuque", "rent": 920, "zip": "52237"}, "iowa-city-52203": {"city": "Iowa City", "rent": 1000, "zip": "52203"}, "iowa-city-52227": {"city": "Iowa City", "rent": 1110, "zip": "52227"}, "iowa-city-52228": {"city": "Iowa City", "rent": 1610, "zip": "52228"}, "iowa-city-52235": {"city": "Iowa City", "rent": 1170, "zip": "52235"}, "iowa-city-52236": {"city": "Iowa City", "rent": 1000, "zip": "52236"}, "iowa-city-52240": {"city": "Iowa City", "rent": 1210, "zip": "52240"}, "iowa-city-52241": {"city": "Iowa City", "rent": 1140, "zip": "52241"}, "iowa-city-52242": {"city": "Iowa City", "rent": 1190, "zip": "52242"}, "iowa-city-52244": {"city": "Iowa City", "rent": 1140, "zip": "52244"}, "iowa-city-52245": {"city": "Iowa City", "rent": 1290, "zip": "52245"}, "iowa-city-52246": {"city": "Iowa City", "rent": 1160, "zip": "52246"}, "iowa-city-52247": {"city": "Iowa City", "rent": 1000, "zip": "52247"}, "iowa-city-52253": {"city": "Iowa City", "rent": 1000, "zip": "52253"}, "iowa-city-52314": {"city": "Iowa City", "rent": 1000, "zip": "52314"}, "iowa-city-52317": {"city": "Iowa City", "rent": 1290, "zip": "52317"}, "iowa-city-52322": {"city": "Iowa City", "rent": 1000, "zip": "52322"}, "iowa-city-52325": {"city": "Iowa City", "rent": 1080, "zip": "52325"}, "iowa-city-52327": {"city": "Iowa City", "rent": 1130, "zip": "52327"}, "iowa-city-52333": {"city": "Iowa City", "rent": 1220, "zip": "52333"}, "iowa-city-52338": {"city": "Iowa City", "rent": 1070, "zip": "52338"}, "iowa-city-52340": {"city": "Iowa City", "rent": 1270, "zip": "52340"}, "iowa-city-52356": {"city": "Iowa City", "rent": 1000, "zip": "52356"}, "iowa-city-52358": {"city": "Iowa City", "rent": 1100, "zip": "52358"}, "iowa-city-52404": {"city": "Iowa City", "rent": 1080, "zip": "52404"}, "iowa-city-52755": {"city": "Iowa City", "rent": 1000, "zip": "52755"}, "iowa-city-52766": {"city": "Iowa City", "rent": 1000, "zip": "52766"}, "iowa-city-52776": {"city": "Iowa City", "rent": 1000, "zip": "52776"}, "washington-county-52201": {"city": "Washington County", "rent": 920, "zip": "52201"}, "washington-county-52247": {"city": "Washington County", "rent": 1000, "zip": "52247"}, "washington-county-52248": {"city": "Washington County", "rent": 920, "zip": "52248"}, "washington-county-52327": {"city": "Washington County", "rent": 1130, "zip": "52327"}, "washington-county-52353": {"city": "Washington County", "rent": 1030, "zip": "52353"}, "washington-county-52356": {"city": "Washington County", "rent": 1000, "zip": "52356"}, "washington-county-52359": {"city": "Washington County", "rent": 970, "zip": "52359"}, "washington-county-52540": {"city": "Washington County", "rent": 930, "zip": "52540"}, "washington-county-52585": {"city": "Washington County", "rent": 930, "zip": "52585"}, "washington-county-52621": {"city": "Washington County", "rent": 1040, "zip": "52621"}, "washington-county-52641": {"city": "Washington County", "rent": 960, "zip": "52641"}, "washington-county-52654": {"city": "Washington County", "rent": 930, "zip": "52654"}, "washington-county-52738": {"city": "Washington County", "rent": 920, "zip": "52738"}, "sioux-city-51001": {"city": "Sioux City", "rent": 960, "zip": "51001"}, "sioux-city-51004": {"city": "Sioux City", "rent": 1330, "zip": "51004"}, "sioux-city-51006": {"city": "Sioux City", "rent": 960, "zip": "51006"}, "sioux-city-51007": {"city": "Sioux City", "rent": 1120, "zip": "51007"}, "sioux-city-51015": {"city": "Sioux City", "rent": 1050, "zip": "51015"}, "sioux-city-51016": {"city": "Sioux City", "rent": 970, "zip": "51016"}, "sioux-city-51018": {"city": "Sioux City", "rent": 1050, "zip": "51018"}, "sioux-city-51019": {"city": "Sioux City", "rent": 1010, "zip": "51019"}, "sioux-city-51023": {"city": "Sioux City", "rent": 1000, "zip": "51023"}, "sioux-city-51026": {"city": "Sioux City", "rent": 1020, "zip": "51026"}, "sioux-city-51028": {"city": "Sioux City", "rent": 960, "zip": "51028"}, "sioux-city-51030": {"city": "Sioux City", "rent": 1000, "zip": "51030"}, "sioux-city-51034": {"city": "Sioux City", "rent": 960, "zip": "51034"}, "sioux-city-51039": {"city": "Sioux City", "rent": 1140, "zip": "51039"}, "sioux-city-51044": {"city": "Sioux City", "rent": 1140, "zip": "51044"}, "sioux-city-51048": {"city": "Sioux City", "rent": 1030, "zip": "51048"}, "sioux-city-51052": {"city": "Sioux City", "rent": 1000, "zip": "51052"}, "sioux-city-51054": {"city": "Sioux City", "rent": 1490, "zip": "51054"}, "sioux-city-51055": {"city": "Sioux City", "rent": 1120, "zip": "51055"}, "sioux-city-51056": {"city": "Sioux City", "rent": 960, "zip": "51056"}, "sioux-city-51061": {"city": "Sioux City", "rent": 960, "zip": "51061"}, "sioux-city-51063": {"city": "Sioux City", "rent": 1040, "zip": "51063"}, "sioux-city-51101": {"city": "Sioux City", "rent": 960, "zip": "51101"}, "sioux-city-51102": {"city": "Sioux City", "rent": 1130, "zip": "51102"}, "sioux-city-51103": {"city": "Sioux City", "rent": 1130, "zip": "51103"}, "sioux-city-51104": {"city": "Sioux City", "rent": 1140, "zip": "51104"}, "sioux-city-51105": {"city": "Sioux City", "rent": 1000, "zip": "51105"}, "sioux-city-51106": {"city": "Sioux City", "rent": 1220, "zip": "51106"}, "sioux-city-51108": {"city": "Sioux City", "rent": 1250, "zip": "51108"}, "sioux-city-51109": {"city": "Sioux City", "rent": 1120, "zip": "51109"}, "sioux-city-51111": {"city": "Sioux City", "rent": 1190, "zip": "51111"}, "sioux-city-57001": {"city": "Sioux City", "rent": 980, "zip": "57001"}, "sioux-city-57004": {"city": "Sioux City", "rent": 1010, "zip": "57004"}, "sioux-city-57010": {"city": "Sioux City", "rent": 960, "zip": "57010"}, "sioux-city-57025": {"city": "Sioux City", "rent": 980, "zip": "57025"}, "sioux-city-57034": {"city": "Sioux City", "rent": 960, "zip": "57034"}, "sioux-city-57038": {"city": "Sioux City", "rent": 1130, "zip": "57038"}, "sioux-city-57049": {"city": "Sioux City", "rent": 1400, "zip": "57049"}, "sioux-city-68030": {"city": "Sioux City", "rent": 1000, "zip": "68030"}, "sioux-city-68731": {"city": "Sioux City", "rent": 1290, "zip": "68731"}, "sioux-city-68733": {"city": "Sioux City", "rent": 960, "zip": "68733"}, "sioux-city-68741": {"city": "Sioux City", "rent": 1510, "zip": "68741"}, "sioux-city-68743": {"city": "Sioux City", "rent": 1380, "zip": "68743"}, "sioux-city-68770": {"city": "Sioux City", "rent": 960, "zip": "68770"}, "sioux-city-68776": {"city": "Sioux City", "rent": 1210, "zip": "68776"}, "sioux-city-68785": {"city": "Sioux City", "rent": 1020, "zip": "68785"}, "waterloo-cedar-falls-50148": {"city": "Waterloo-Cedar Falls", "rent": 930, "zip": "50148"}, "waterloo-cedar-falls-50258": {"city": "Waterloo-Cedar Falls", "rent": 920, "zip": "50258"}, "waterloo-cedar-falls-50269": {"city": "Waterloo-Cedar Falls", "rent": 920, "zip": "50269"}, "waterloo-cedar-falls-50601": {"city": "Waterloo-Cedar Falls", "rent": 920, "zip": "50601"}, "waterloo-cedar-falls-50604": {"city": "Waterloo-Cedar Falls", "rent": 920, "zip": "50604"}, "waterloo-cedar-falls-50609": {"city": "Waterloo-Cedar Falls", "rent": 920, "zip": "50609"}, "waterloo-cedar-falls-50612": {"city": "Waterloo-Cedar Falls", "rent": 1010, "zip": "50612"}, "waterloo-cedar-falls-50613": {"city": "Waterloo-Cedar Falls", "rent": 1210, "zip": "50613"}, "waterloo-cedar-falls-50621": {"city": "Waterloo-Cedar Falls", "rent": 930, "zip": "50621"}, "waterloo-cedar-falls-50622": {"city": "Waterloo-Cedar Falls", "rent": 920, "zip": "50622"}, "waterloo-cedar-falls-50623": {"city": "Waterloo-Cedar Falls", "rent": 1000, "zip": "50623"}, "waterloo-cedar-falls-50624": {"city": "Waterloo-Cedar Falls", "rent": 920, "zip": "50624"}, "waterloo-cedar-falls-50626": {"city": "Waterloo-Cedar Falls", "rent": 920, "zip": "50626"}, "waterloo-cedar-falls-50627": {"city": "Waterloo-Cedar Falls", "rent": 920, "zip": "50627"}, "waterloo-cedar-falls-50629": {"city": "Waterloo-Cedar Falls", "rent": 920, "zip": "50629"}, "waterloo-cedar-falls-50634": {"city": "Waterloo-Cedar Falls", "rent": 920, "zip": "50634"}, "waterloo-cedar-falls-50638": {"city": "Waterloo-Cedar Falls", "rent": 920, "zip": "50638"}, "waterloo-cedar-falls-50642": {"city": "Waterloo-Cedar Falls", "rent": 1230, "zip": "50642"}, "waterloo-cedar-falls-50643": {"city": "Waterloo-Cedar Falls", "rent": 1150, "zip": "50643"}, "waterloo-cedar-falls-50647": {"city": "Waterloo-Cedar Falls", "rent": 1100, "zip": "50647"}, "waterloo-cedar-falls-50648": {"city": "Waterloo-Cedar Falls", "rent": 980, "zip": "50648"}, "waterloo-cedar-falls-50651": {"city": "Waterloo-Cedar Falls", "rent": 950, "zip": "50651"}, "waterloo-cedar-falls-50657": {"city": "Waterloo-Cedar Falls", "rent": 920, "zip": "50657"}, "waterloo-cedar-falls-50660": {"city": "Waterloo-Cedar Falls", "rent": 1000, "zip": "50660"}, "waterloo-cedar-falls-50665": {"city": "Waterloo-Cedar Falls", "rent": 970, "zip": "50665"}, "waterloo-cedar-falls-50667": {"city": "Waterloo-Cedar Falls", "rent": 1020, "zip": "50667"}, "waterloo-cedar-falls-50668": {"city": "Waterloo-Cedar Falls", "rent": 920, "zip": "50668"}, "waterloo-cedar-falls-50669": {"city": "Waterloo-Cedar Falls", "rent": 920, "zip": "50669"}, "waterloo-cedar-falls-50672": {"city": "Waterloo-Cedar Falls", "rent": 920, "zip": "50672"}, "waterloo-cedar-falls-50673": {"city": "Waterloo-Cedar Falls", "rent": 1110, "zip": "50673"}, "waterloo-cedar-falls-50675": {"city": "Waterloo-Cedar Falls", "rent": 990, "zip": "50675"}, "waterloo-cedar-falls-50680": {"city": "Waterloo-Cedar Falls", "rent": 920, "zip": "50680"}, "waterloo-cedar-falls-50701": {"city": "Waterloo-Cedar Falls", "rent": 980, "zip": "50701"}, "waterloo-cedar-falls-50702": {"city": "Waterloo-Cedar Falls", "rent": 1060, "zip": "50702"}, "waterloo-cedar-falls-50703": {"city": "Waterloo-Cedar Falls", "rent": 1060, "zip": "50703"}, "waterloo-cedar-falls-50704": {"city": "Waterloo-Cedar Falls", "rent": 1060, "zip": "50704"}, "waterloo-cedar-falls-50707": {"city": "Waterloo-Cedar Falls", "rent": 1000, "zip": "50707"}, "bremer-county-50613": {"city": "Bremer County", "rent": 1210, "zip": "50613"}, "bremer-county-50622": {"city": "Bremer County", "rent": 920, "zip": "50622"}, "bremer-county-50626": {"city": "Bremer County", "rent": 920, "zip": "50626"}, "bremer-county-50629": {"city": "Bremer County", "rent": 920, "zip": "50629"}, "bremer-county-50630": {"city": "Bremer County", "rent": 950, "zip": "50630"}, "bremer-county-50631": {"city": "Bremer County", "rent": 960, "zip": "50631"}, "bremer-county-50645": {"city": "Bremer County", "rent": 920, "zip": "50645"}, "bremer-county-50647": {"city": "Bremer County", "rent": 1100, "zip": "50647"}, "bremer-county-50658": {"city": "Bremer County", "rent": 930, "zip": "50658"}, "bremer-county-50666": {"city": "Bremer County", "rent": 920, "zip": "50666"}, "bremer-county-50668": {"city": "Bremer County", "rent": 920, "zip": "50668"}, "bremer-county-50670": {"city": "Bremer County", "rent": 1020, "zip": "50670"}, "bremer-county-50674": {"city": "Bremer County", "rent": 1000, "zip": "50674"}, "bremer-county-50676": {"city": "Bremer County", "rent": 920, "zip": "50676"}, "bremer-county-50677": {"city": "Bremer County", "rent": 1060, "zip": "50677"}, "adair-county-50002": {"city": "Adair County", "rent": 1050, "zip": "50002"}, "adair-county-50020": {"city": "Adair County", "rent": 940, "zip": "50020"}, "adair-county-50048": {"city": "Adair County", "rent": 1050, "zip": "50048"}, "adair-county-50070": {"city": "Adair County", "rent": 1200, "zip": "50070"}, "adair-county-50155": {"city": "Adair County", "rent": 1060, "zip": "50155"}, "adair-county-50164": {"city": "Adair County", "rent": 1030, "zip": "50164"}, "adair-county-50250": {"city": "Adair County", "rent": 1040, "zip": "50250"}, "adair-county-50273": {"city": "Adair County", "rent": 1240, "zip": "50273"}, "adair-county-50801": {"city": "Adair County", "rent": 920, "zip": "50801"}, "adair-county-50837": {"city": "Adair County", "rent": 920, "zip": "50837"}, "adair-county-50846": {"city": "Adair County", "rent": 950, "zip": "50846"}, "adair-county-50849": {"city": "Adair County", "rent": 920, "zip": "50849"}, "adair-county-50858": {"city": "Adair County", "rent": 920, "zip": "50858"}, "adair-county-50859": {"city": "Adair County", "rent": 1110, "zip": "50859"}, "adams-county-50801": {"city": "Adams County", "rent": 920, "zip": "50801"}, "adams-county-50837": {"city": "Adams County", "rent": 920, "zip": "50837"}, "adams-county-50839": {"city": "Adams County", "rent": 920, "zip": "50839"}, "adams-county-50841": {"city": "Adams County", "rent": 920, "zip": "50841"}, "adams-county-50843": {"city": "Adams County", "rent": 920, "zip": "50843"}, "adams-county-50851": {"city": "Adams County", "rent": 980, "zip": "50851"}, "adams-county-50853": {"city": "Adams County", "rent": 920, "zip": "50853"}, "adams-county-50857": {"city": "Adams County", "rent": 920, "zip": "50857"}, "adams-county-50859": {"city": "Adams County", "rent": 1110, "zip": "50859"}, "adams-county-50864": {"city": "Adams County", "rent": 920, "zip": "50864"}, "allamakee-county-52101": {"city": "Allamakee County", "rent": 940, "zip": "52101"}, "allamakee-county-52140": {"city": "Allamakee County", "rent": 970, "zip": "52140"}, "allamakee-county-52146": {"city": "Allamakee County", "rent": 960, "zip": "52146"}, "allamakee-county-52151": {"city": "Allamakee County", "rent": 920, "zip": "52151"}, "allamakee-county-52156": {"city": "Allamakee County", "rent": 1150, "zip": "52156"}, "allamakee-county-52159": {"city": "Allamakee County", "rent": 1060, "zip": "52159"}, "allamakee-county-52160": {"city": "Allamakee County", "rent": 920, "zip": "52160"}, "allamakee-county-52162": {"city": "Allamakee County", "rent": 950, "zip": "52162"}, "allamakee-county-52170": {"city": "Allamakee County", "rent": 960, "zip": "52170"}, "allamakee-county-52172": {"city": "Allamakee County", "rent": 990, "zip": "52172"}, "appanoose-county-52544": {"city": "Appanoose County", "rent": 920, "zip": "52544"}, "appanoose-county-52549": {"city": "Appanoose County", "rent": 970, "zip": "52549"}, "appanoose-county-52555": {"city": "Appanoose County", "rent": 1170, "zip": "52555"}, "appanoose-county-52569": {"city": "Appanoose County", "rent": 1190, "zip": "52569"}, "appanoose-county-52571": {"city": "Appanoose County", "rent": 950, "zip": "52571"}, "appanoose-county-52572": {"city": "Appanoose County", "rent": 920, "zip": "52572"}, "appanoose-county-52574": {"city": "Appanoose County", "rent": 1010, "zip": "52574"}, "appanoose-county-52581": {"city": "Appanoose County", "rent": 970, "zip": "52581"}, "appanoose-county-52590": {"city": "Appanoose County", "rent": 920, "zip": "52590"}, "appanoose-county-52593": {"city": "Appanoose County", "rent": 920, "zip": "52593"}, "appanoose-county-52594": {"city": "Appanoose County", "rent": 960, "zip": "52594"}, "audubon-county-50002": {"city": "Audubon County", "rent": 1050, "zip": "50002"}, "audubon-county-50020": {"city": "Audubon County", "rent": 940, "zip": "50020"}, "audubon-county-50022": {"city": "Audubon County", "rent": 930, "zip": "50022"}, "audubon-county-50025": {"city": "Audubon County", "rent": 920, "zip": "50025"}, "audubon-county-50042": {"city": "Audubon County", "rent": 930, "zip": "50042"}, "audubon-county-50058": {"city": "Audubon County", "rent": 930, "zip": "50058"}, "audubon-county-50076": {"city": "Audubon County", "rent": 920, "zip": "50076"}, "audubon-county-50110": {"city": "Audubon County", "rent": 920, "zip": "50110"}, "audubon-county-50117": {"city": "Audubon County", "rent": 920, "zip": "50117"}, "audubon-county-51440": {"city": "Audubon County", "rent": 930, "zip": "51440"}, "audubon-county-51455": {"city": "Audubon County", "rent": 920, "zip": "51455"}, "audubon-county-51463": {"city": "Audubon County", "rent": 930, "zip": "51463"}, "audubon-county-51531": {"city": "Audubon County", "rent": 920, "zip": "51531"}, "audubon-county-51543": {"city": "Audubon County", "rent": 1240, "zip": "51543"}, "buchanan-county-50607": {"city": "Buchanan County", "rent": 1000, "zip": "50607"}, "buchanan-county-50626": {"city": "Buchanan County", "rent": 920, "zip": "50626"}, "buchanan-county-50629": {"city": "Buchanan County", "rent": 920, "zip": "50629"}, "buchanan-county-50641": {"city": "Buchanan County", "rent": 920, "zip": "50641"}, "buchanan-county-50644": {"city": "Buchanan County", "rent": 920, "zip": "50644"}, "buchanan-county-50648": {"city": "Buchanan County", "rent": 980, "zip": "50648"}, "buchanan-county-50650": {"city": "Buchanan County", "rent": 990, "zip": "50650"}, "buchanan-county-50651": {"city": "Buchanan County", "rent": 950, "zip": "50651"}, "buchanan-county-50654": {"city": "Buchanan County", "rent": 1010, "zip": "50654"}, "buchanan-county-50662": {"city": "Buchanan County", "rent": 940, "zip": "50662"}, "buchanan-county-50671": {"city": "Buchanan County", "rent": 930, "zip": "50671"}, "buchanan-county-50682": {"city": "Buchanan County", "rent": 1080, "zip": "50682"}, "buchanan-county-52210": {"city": "Buchanan County", "rent": 1080, "zip": "52210"}, "buchanan-county-52218": {"city": "Buchanan County", "rent": 920, "zip": "52218"}, "buchanan-county-52326": {"city": "Buchanan County", "rent": 920, "zip": "52326"}, "buchanan-county-52329": {"city": "Buchanan County", "rent": 1030, "zip": "52329"}, "buchanan-county-52330": {"city": "Buchanan County", "rent": 920, "zip": "52330"}, "buchanan-county-52352": {"city": "Buchanan County", "rent": 920, "zip": "52352"}, "buena-vista-county-50510": {"city": "Buena Vista County", "rent": 920, "zip": "50510"}, "buena-vista-county-50540": {"city": "Buena Vista County", "rent": 920, "zip": "50540"}, "buena-vista-county-50554": {"city": "Buena Vista County", "rent": 920, "zip": "50554"}, "buena-vista-county-50565": {"city": "Buena Vista County", "rent": 1080, "zip": "50565"}, "buena-vista-county-50567": {"city": "Buena Vista County", "rent": 1130, "zip": "50567"}, "buena-vista-county-50568": {"city": "Buena Vista County", "rent": 920, "zip": "50568"}, "buena-vista-county-50576": {"city": "Buena Vista County", "rent": 1030, "zip": "50576"}, "buena-vista-county-50585": {"city": "Buena Vista County", "rent": 950, "zip": "50585"}, "buena-vista-county-50588": {"city": "Buena Vista County", "rent": 1010, "zip": "50588"}, "buena-vista-county-50592": {"city": "Buena Vista County", "rent": 1010, "zip": "50592"}, "buena-vista-county-51002": {"city": "Buena Vista County", "rent": 1100, "zip": "51002"}, "buena-vista-county-51005": {"city": "Buena Vista County", "rent": 1000, "zip": "51005"}, "buena-vista-county-51020": {"city": "Buena Vista County", "rent": 920, "zip": "51020"}, "buena-vista-county-51033": {"city": "Buena Vista County", "rent": 1280, "zip": "51033"}, "buena-vista-county-51047": {"city": "Buena Vista County", "rent": 1070, "zip": "51047"}, "buena-vista-county-51053": {"city": "Buena Vista County", "rent": 1140, "zip": "51053"}, "buena-vista-county-51366": {"city": "Buena Vista County", "rent": 1130, "zip": "51366"}, "butler-county-50433": {"city": "Butler County", "rent": 960, "zip": "50433"}, "butler-county-50601": {"city": "Butler County", "rent": 920, "zip": "50601"}, "butler-county-50602": {"city": "Butler County", "rent": 920, "zip": "50602"}, "butler-county-50604": {"city": "Butler County", "rent": 920, "zip": "50604"}, "butler-county-50605": {"city": "Butler County", "rent": 940, "zip": "50605"}, "butler-county-50608": {"city": "Butler County", "rent": 920, "zip": "50608"}, "butler-county-50611": {"city": "Butler County", "rent": 960, "zip": "50611"}, "butler-county-50613": {"city": "Butler County", "rent": 1210, "zip": "50613"}, "butler-county-50619": {"city": "Butler County", "rent": 1000, "zip": "50619"}, "butler-county-50625": {"city": "Butler County", "rent": 920, "zip": "50625"}, "butler-county-50636": {"city": "Butler County", "rent": 1020, "zip": "50636"}, "butler-county-50649": {"city": "Butler County", "rent": 920, "zip": "50649"}, "butler-county-50658": {"city": "Butler County", "rent": 930, "zip": "50658"}, "butler-county-50660": {"city": "Butler County", "rent": 1000, "zip": "50660"}, "butler-county-50665": {"city": "Butler County", "rent": 970, "zip": "50665"}, "butler-county-50666": {"city": "Butler County", "rent": 920, "zip": "50666"}, "butler-county-50670": {"city": "Butler County", "rent": 1020, "zip": "50670"}, "butler-county-50677": {"city": "Butler County", "rent": 1060, "zip": "50677"}, "calhoun-county-50050": {"city": "Calhoun County", "rent": 940, "zip": "50050"}, "calhoun-county-50538": {"city": "Calhoun County", "rent": 1060, "zip": "50538"}, "calhoun-county-50540": {"city": "Calhoun County", "rent": 920, "zip": "50540"}, "calhoun-county-50551": {"city": "Calhoun County", "rent": 940, "zip": "50551"}, "calhoun-county-50552": {"city": "Calhoun County", "rent": 920, "zip": "50552"}, "calhoun-county-50561": {"city": "Calhoun County", "rent": 920, "zip": "50561"}, "calhoun-county-50563": {"city": "Calhoun County", "rent": 920, "zip": "50563"}, "calhoun-county-50566": {"city": "Calhoun County", "rent": 1260, "zip": "50566"}, "calhoun-county-50575": {"city": "Calhoun County", "rent": 920, "zip": "50575"}, "calhoun-county-50579": {"city": "Calhoun County", "rent": 980, "zip": "50579"}, "calhoun-county-50586": {"city": "Calhoun County", "rent": 920, "zip": "50586"}, "calhoun-county-51433": {"city": "Calhoun County", "rent": 980, "zip": "51433"}, "calhoun-county-51449": {"city": "Calhoun County", "rent": 930, "zip": "51449"}, "calhoun-county-51453": {"city": "Calhoun County", "rent": 1160, "zip": "51453"}, "carroll-county-50025": {"city": "Carroll County", "rent": 920, "zip": "50025"}, "carroll-county-50050": {"city": "Carroll County", "rent": 940, "zip": "50050"}, "carroll-county-50058": {"city": "Carroll County", "rent": 930, "zip": "50058"}, "carroll-county-51401": {"city": "Carroll County", "rent": 920, "zip": "51401"}, "carroll-county-51430": {"city": "Carroll County", "rent": 990, "zip": "51430"}, "carroll-county-51433": {"city": "Carroll County", "rent": 980, "zip": "51433"}, "carroll-county-51436": {"city": "Carroll County", "rent": 930, "zip": "51436"}, "carroll-county-51440": {"city": "Carroll County", "rent": 930, "zip": "51440"}, "carroll-county-51443": {"city": "Carroll County", "rent": 920, "zip": "51443"}, "carroll-county-51444": {"city": "Carroll County", "rent": 920, "zip": "51444"}, "carroll-county-51449": {"city": "Carroll County", "rent": 930, "zip": "51449"}, "carroll-county-51451": {"city": "Carroll County", "rent": 960, "zip": "51451"}, "carroll-county-51452": {"city": "Carroll County", "rent": 920, "zip": "51452"}, "carroll-county-51453": {"city": "Carroll County", "rent": 1160, "zip": "51453"}, "carroll-county-51455": {"city": "Carroll County", "rent": 920, "zip": "51455"}, "carroll-county-51459": {"city": "Carroll County", "rent": 940, "zip": "51459"}, "carroll-county-51462": {"city": "Carroll County", "rent": 960, "zip": "51462"}, "carroll-county-51463": {"city": "Carroll County", "rent": 930, "zip": "51463"}, "carroll-county-51466": {"city": "Carroll County", "rent": 920, "zip": "51466"}, "carroll-county-51467": {"city": "Carroll County", "rent": 920, "zip": "51467"}, "cass-county-50020": {"city": "Cass County", "rent": 940, "zip": "50020"}, "cass-county-50022": {"city": "Cass County", "rent": 930, "zip": "50022"}, "cass-county-50042": {"city": "Cass County", "rent": 930, "zip": "50042"}, "cass-county-50274": {"city": "Cass County", "rent": 930, "zip": "50274"}, "cass-county-50837": {"city": "Cass County", "rent": 920, "zip": "50837"}, "cass-county-50843": {"city": "Cass County", "rent": 920, "zip": "50843"}, "cass-county-50853": {"city": "Cass County", "rent": 920, "zip": "50853"}, "cass-county-50864": {"city": "Cass County", "rent": 920, "zip": "50864"}, "cass-county-51532": {"city": "Cass County", "rent": 960, "zip": "51532"}, "cass-county-51535": {"city": "Cass County", "rent": 1020, "zip": "51535"}, "cass-county-51544": {"city": "Cass County", "rent": 960, "zip": "51544"}, "cass-county-51552": {"city": "Cass County", "rent": 960, "zip": "51552"}, "cass-county-51577": {"city": "Cass County", "rent": 970, "zip": "51577"}, "cedar-county-52216": {"city": "Cedar County", "rent": 960, "zip": "52216"}, "cedar-county-52253": {"city": "Cedar County", "rent": 1000, "zip": "52253"}, "cedar-county-52255": {"city": "Cedar County", "rent": 1020, "zip": "52255"}, "cedar-county-52306": {"city": "Cedar County", "rent": 1140, "zip": "52306"}, "cedar-county-52320": {"city": "Cedar County", "rent": 1040, "zip": "52320"}, "cedar-county-52323": {"city": "Cedar County", "rent": 920, "zip": "52323"}, "cedar-county-52333": {"city": "Cedar County", "rent": 1220, "zip": "52333"}, "cedar-county-52337": {"city": "Cedar County", "rent": 1040, "zip": "52337"}, "cedar-county-52358": {"city": "Cedar County", "rent": 1100, "zip": "52358"}, "cedar-county-52720": {"city": "Cedar County", "rent": 950, "zip": "52720"}, "cedar-county-52721": {"city": "Cedar County", "rent": 1000, "zip": "52721"}, "cedar-county-52747": {"city": "Cedar County", "rent": 1010, "zip": "52747"}, "cedar-county-52760": {"city": "Cedar County", "rent": 960, "zip": "52760"}, "cedar-county-52765": {"city": "Cedar County", "rent": 1490, "zip": "52765"}, "cedar-county-52772": {"city": "Cedar County", "rent": 920, "zip": "52772"}, "cedar-county-52776": {"city": "Cedar County", "rent": 1000, "zip": "52776"}, "cedar-county-52777": {"city": "Cedar County", "rent": 920, "zip": "52777"}, "cedar-county-52778": {"city": "Cedar County", "rent": 930, "zip": "52778"}, "cerro-gordo-county-50401": {"city": "Cerro Gordo County", "rent": 970, "zip": "50401"}, "cerro-gordo-county-50402": {"city": "Cerro Gordo County", "rent": 950, "zip": "50402"}, "cerro-gordo-county-50428": {"city": "Cerro Gordo County", "rent": 920, "zip": "50428"}, "cerro-gordo-county-50433": {"city": "Cerro Gordo County", "rent": 960, "zip": "50433"}, "cerro-gordo-county-50434": {"city": "Cerro Gordo County", "rent": 1020, "zip": "50434"}, "cerro-gordo-county-50444": {"city": "Cerro Gordo County", "rent": 970, "zip": "50444"}, "cerro-gordo-county-50449": {"city": "Cerro Gordo County", "rent": 920, "zip": "50449"}, "cerro-gordo-county-50456": {"city": "Cerro Gordo County", "rent": 920, "zip": "50456"}, "cerro-gordo-county-50457": {"city": "Cerro Gordo County", "rent": 920, "zip": "50457"}, "cerro-gordo-county-50458": {"city": "Cerro Gordo County", "rent": 1020, "zip": "50458"}, "cerro-gordo-county-50464": {"city": "Cerro Gordo County", "rent": 1110, "zip": "50464"}, "cerro-gordo-county-50467": {"city": "Cerro Gordo County", "rent": 1030, "zip": "50467"}, "cerro-gordo-county-50468": {"city": "Cerro Gordo County", "rent": 1050, "zip": "50468"}, "cerro-gordo-county-50469": {"city": "Cerro Gordo County", "rent": 920, "zip": "50469"}, "cerro-gordo-county-50475": {"city": "Cerro Gordo County", "rent": 920, "zip": "50475"}, "cerro-gordo-county-50477": {"city": "Cerro Gordo County", "rent": 920, "zip": "50477"}, "cerro-gordo-county-50479": {"city": "Cerro Gordo County", "rent": 920, "zip": "50479"}, "cerro-gordo-county-50482": {"city": "Cerro Gordo County", "rent": 1100, "zip": "50482"}, "cherokee-county-51002": {"city": "Cherokee County", "rent": 1100, "zip": "51002"}, "cherokee-county-51005": {"city": "Cherokee County", "rent": 1000, "zip": "51005"}, "cherokee-county-51012": {"city": "Cherokee County", "rent": 920, "zip": "51012"}, "cherokee-county-51014": {"city": "Cherokee County", "rent": 1380, "zip": "51014"}, "cherokee-county-51016": {"city": "Cherokee County", "rent": 970, "zip": "51016"}, "cherokee-county-51020": {"city": "Cherokee County", "rent": 920, "zip": "51020"}, "cherokee-county-51022": {"city": "Cherokee County", "rent": 920, "zip": "51022"}, "cherokee-county-51025": {"city": "Cherokee County", "rent": 1100, "zip": "51025"}, "cherokee-county-51029": {"city": "Cherokee County", "rent": 940, "zip": "51029"}, "cherokee-county-51035": {"city": "Cherokee County", "rent": 1140, "zip": "51035"}, "cherokee-county-51037": {"city": "Cherokee County", "rent": 940, "zip": "51037"}, "cherokee-county-51046": {"city": "Cherokee County", "rent": 1000, "zip": "51046"}, "cherokee-county-51047": {"city": "Cherokee County", "rent": 1070, "zip": "51047"}, "cherokee-county-51048": {"city": "Cherokee County", "rent": 1030, "zip": "51048"}, "cherokee-county-51049": {"city": "Cherokee County", "rent": 920, "zip": "51049"}, "cherokee-county-51050": {"city": "Cherokee County", "rent": 1080, "zip": "51050"}, "cherokee-county-51058": {"city": "Cherokee County", "rent": 920, "zip": "51058"}, "cherokee-county-51061": {"city": "Cherokee County", "rent": 960, "zip": "51061"}, "chickasaw-county-50603": {"city": "Chickasaw County", "rent": 920, "zip": "50603"}, "chickasaw-county-50616": {"city": "Chickasaw County", "rent": 920, "zip": "50616"}, "chickasaw-county-50630": {"city": "Chickasaw County", "rent": 950, "zip": "50630"}, "chickasaw-county-50645": {"city": "Chickasaw County", "rent": 920, "zip": "50645"}, "chickasaw-county-50658": {"city": "Chickasaw County", "rent": 930, "zip": "50658"}, "chickasaw-county-50659": {"city": "Chickasaw County", "rent": 950, "zip": "50659"}, "chickasaw-county-50661": {"city": "Chickasaw County", "rent": 920, "zip": "50661"}, "chickasaw-county-50674": {"city": "Chickasaw County", "rent": 1000, "zip": "50674"}, "chickasaw-county-52132": {"city": "Chickasaw County", "rent": 920, "zip": "52132"}, "chickasaw-county-52144": {"city": "Chickasaw County", "rent": 1320, "zip": "52144"}, "chickasaw-county-52154": {"city": "Chickasaw County", "rent": 920, "zip": "52154"}, "chickasaw-county-52163": {"city": "Chickasaw County", "rent": 920, "zip": "52163"}, "chickasaw-county-52171": {"city": "Chickasaw County", "rent": 970, "zip": "52171"}, "clarke-county-50108": {"city": "Clarke County", "rent": 1110, "zip": "50108"}, "clarke-county-50123": {"city": "Clarke County", "rent": 920, "zip": "50123"}, "clarke-county-50149": {"city": "Clarke County", "rent": 1000, "zip": "50149"}, "clarke-county-50151": {"city": "Clarke County", "rent": 1480, "zip": "50151"}, "clarke-county-50174": {"city": "Clarke County", "rent": 970, "zip": "50174"}, "clarke-county-50210": {"city": "Clarke County", "rent": 1260, "zip": "50210"}, "clarke-county-50213": {"city": "Clarke County", "rent": 920, "zip": "50213"}, "clarke-county-50222": {"city": "Clarke County", "rent": 1120, "zip": "50222"}, "clarke-county-50254": {"city": "Clarke County", "rent": 960, "zip": "50254"}, "clarke-county-50257": {"city": "Clarke County", "rent": 1030, "zip": "50257"}, "clarke-county-50264": {"city": "Clarke County", "rent": 950, "zip": "50264"}, "clarke-county-50275": {"city": "Clarke County", "rent": 1150, "zip": "50275"}, "clay-county-50515": {"city": "Clay County", "rent": 1370, "zip": "50515"}, "clay-county-50554": {"city": "Clay County", "rent": 920, "zip": "50554"}, "clay-county-50565": {"city": "Clay County", "rent": 1080, "zip": "50565"}, "clay-county-50585": {"city": "Clay County", "rent": 950, "zip": "50585"}, "clay-county-51033": {"city": "Clay County", "rent": 1280, "zip": "51033"}, "clay-county-51047": {"city": "Clay County", "rent": 1070, "zip": "51047"}, "clay-county-51058": {"city": "Clay County", "rent": 920, "zip": "51058"}, "clay-county-51301": {"city": "Clay County", "rent": 960, "zip": "51301"}, "clay-county-51333": {"city": "Clay County", "rent": 1140, "zip": "51333"}, "clay-county-51338": {"city": "Clay County", "rent": 960, "zip": "51338"}, "clay-county-51340": {"city": "Clay County", "rent": 920, "zip": "51340"}, "clay-county-51341": {"city": "Clay County", "rent": 1140, "zip": "51341"}, "clay-county-51343": {"city": "Clay County", "rent": 1020, "zip": "51343"}, "clay-county-51346": {"city": "Clay County", "rent": 920, "zip": "51346"}, "clay-county-51351": {"city": "Clay County", "rent": 1040, "zip": "51351"}, "clay-county-51357": {"city": "Clay County", "rent": 1010, "zip": "51357"}, "clay-county-51358": {"city": "Clay County", "rent": 920, "zip": "51358"}, "clay-county-51364": {"city": "Clay County", "rent": 1030, "zip": "51364"}, "clay-county-51366": {"city": "Clay County", "rent": 1130, "zip": "51366"}, "clayton-county-50606": {"city": "Clayton County", "rent": 920, "zip": "50606"}, "clayton-county-52035": {"city": "Clayton County", "rent": 920, "zip": "52035"}, "clayton-county-52042": {"city": "Clayton County", "rent": 940, "zip": "52042"}, "clayton-county-52043": {"city": "Clayton County", "rent": 1000, "zip": "52043"}, "clayton-county-52044": {"city": "Clayton County", "rent": 920, "zip": "52044"}, "clayton-county-52047": {"city": "Clayton County", "rent": 920, "zip": "52047"}, "clayton-county-52048": {"city": "Clayton County", "rent": 950, "zip": "52048"}, "clayton-county-52049": {"city": "Clayton County", "rent": 980, "zip": "52049"}, "clayton-county-52050": {"city": "Clayton County", "rent": 960, "zip": "52050"}, "clayton-county-52052": {"city": "Clayton County", "rent": 950, "zip": "52052"}, "clayton-county-52053": {"city": "Clayton County", "rent": 920, "zip": "52053"}, "clayton-county-52066": {"city": "Clayton County", "rent": 970, "zip": "52066"}, "clayton-county-52072": {"city": "Clayton County", "rent": 920, "zip": "52072"}, "clayton-county-52073": {"city": "Clayton County", "rent": 1180, "zip": "52073"}, "clayton-county-52076": {"city": "Clayton County", "rent": 920, "zip": "52076"}, "clayton-county-52077": {"city": "Clayton County", "rent": 920, "zip": "52077"}, "clayton-county-52135": {"city": "Clayton County", "rent": 920, "zip": "52135"}, "clayton-county-52141": {"city": "Clayton County", "rent": 940, "zip": "52141"}, "clayton-county-52156": {"city": "Clayton County", "rent": 1150, "zip": "52156"}, "clayton-county-52157": {"city": "Clayton County", "rent": 920, "zip": "52157"}, "clayton-county-52158": {"city": "Clayton County", "rent": 920, "zip": "52158"}, "clayton-county-52159": {"city": "Clayton County", "rent": 1060, "zip": "52159"}, "clayton-county-52162": {"city": "Clayton County", "rent": 950, "zip": "52162"}, "clayton-county-52169": {"city": "Clayton County", "rent": 920, "zip": "52169"}, "clinton-county-52037": {"city": "Clinton County", "rent": 1020, "zip": "52037"}, "clinton-county-52060": {"city": "Clinton County", "rent": 920, "zip": "52060"}, "clinton-county-52064": {"city": "Clinton County", "rent": 920, "zip": "52064"}, "clinton-county-52069": {"city": "Clinton County", "rent": 990, "zip": "52069"}, "clinton-county-52070": {"city": "Clinton County", "rent": 1040, "zip": "52070"}, "clinton-county-52207": {"city": "Clinton County", "rent": 970, "zip": "52207"}, "clinton-county-52254": {"city": "Clinton County", "rent": 1220, "zip": "52254"}, "clinton-county-52255": {"city": "Clinton County", "rent": 1020, "zip": "52255"}, "clinton-county-52309": {"city": "Clinton County", "rent": 960, "zip": "52309"}, "clinton-county-52323": {"city": "Clinton County", "rent": 920, "zip": "52323"}, "clinton-county-52701": {"city": "Clinton County", "rent": 940, "zip": "52701"}, "clinton-county-52727": {"city": "Clinton County", "rent": 940, "zip": "52727"}, "clinton-county-52729": {"city": "Clinton County", "rent": 930, "zip": "52729"}, "clinton-county-52730": {"city": "Clinton County", "rent": 920, "zip": "52730"}, "clinton-county-52731": {"city": "Clinton County", "rent": 1080, "zip": "52731"}, "clinton-county-52732": {"city": "Clinton County", "rent": 940, "zip": "52732"}, "clinton-county-52742": {"city": "Clinton County", "rent": 1070, "zip": "52742"}, "clinton-county-52745": {"city": "Clinton County", "rent": 1060, "zip": "52745"}, "clinton-county-52750": {"city": "Clinton County", "rent": 950, "zip": "52750"}, "clinton-county-52751": {"city": "Clinton County", "rent": 1060, "zip": "52751"}, "clinton-county-52756": {"city": "Clinton County", "rent": 1710, "zip": "52756"}, "clinton-county-52757": {"city": "Clinton County", "rent": 920, "zip": "52757"}, "clinton-county-52765": {"city": "Clinton County", "rent": 1490, "zip": "52765"}, "clinton-county-52771": {"city": "Clinton County", "rent": 940, "zip": "52771"}, "clinton-county-52774": {"city": "Clinton County", "rent": 1030, "zip": "52774"}, "clinton-county-52777": {"city": "Clinton County", "rent": 920, "zip": "52777"}, "crawford-county-51006": {"city": "Crawford County", "rent": 960, "zip": "51006"}, "crawford-county-51019": {"city": "Crawford County", "rent": 1010, "zip": "51019"}, "crawford-county-51034": {"city": "Crawford County", "rent": 960, "zip": "51034"}, "crawford-county-51060": {"city": "Crawford County", "rent": 920, "zip": "51060"}, "crawford-county-51432": {"city": "Crawford County", "rent": 920, "zip": "51432"}, "crawford-county-51436": {"city": "Crawford County", "rent": 930, "zip": "51436"}, "crawford-county-51439": {"city": "Crawford County", "rent": 920, "zip": "51439"}, "crawford-county-51441": {"city": "Crawford County", "rent": 920, "zip": "51441"}, "crawford-county-51442": {"city": "Crawford County", "rent": 960, "zip": "51442"}, "crawford-county-51448": {"city": "Crawford County", "rent": 920, "zip": "51448"}, "crawford-county-51454": {"city": "Crawford County", "rent": 920, "zip": "51454"}, "crawford-county-51455": {"city": "Crawford County", "rent": 920, "zip": "51455"}, "crawford-county-51458": {"city": "Crawford County", "rent": 920, "zip": "51458"}, "crawford-county-51460": {"city": "Crawford County", "rent": 920, "zip": "51460"}, "crawford-county-51461": {"city": "Crawford County", "rent": 930, "zip": "51461"}, "crawford-county-51465": {"city": "Crawford County", "rent": 940, "zip": "51465"}, "crawford-county-51466": {"city": "Crawford County", "rent": 920, "zip": "51466"}, "crawford-county-51467": {"city": "Crawford County", "rent": 920, "zip": "51467"}, "crawford-county-51520": {"city": "Crawford County", "rent": 920, "zip": "51520"}, "crawford-county-51527": {"city": "Crawford County", "rent": 920, "zip": "51527"}, "crawford-county-51528": {"city": "Crawford County", "rent": 920, "zip": "51528"}, "crawford-county-51529": {"city": "Crawford County", "rent": 1040, "zip": "51529"}, "davis-county-52536": {"city": "Davis County", "rent": 920, "zip": "52536"}, "davis-county-52537": {"city": "Davis County", "rent": 1060, "zip": "52537"}, "davis-county-52551": {"city": "Davis County", "rent": 970, "zip": "52551"}, "davis-county-52552": {"city": "Davis County", "rent": 970, "zip": "52552"}, "davis-county-52554": {"city": "Davis County", "rent": 930, "zip": "52554"}, "davis-county-52560": {"city": "Davis County", "rent": 1020, "zip": "52560"}, "davis-county-52570": {"city": "Davis County", "rent": 920, "zip": "52570"}, "davis-county-52572": {"city": "Davis County", "rent": 920, "zip": "52572"}, "davis-county-52584": {"city": "Davis County", "rent": 1010, "zip": "52584"}, "davis-county-52588": {"city": "Davis County", "rent": 1000, "zip": "52588"}, "davis-county-52594": {"city": "Davis County", "rent": 960, "zip": "52594"}, "decatur-county-50065": {"city": "Decatur County", "rent": 1380, "zip": "50065"}, "decatur-county-50067": {"city": "Decatur County", "rent": 1040, "zip": "50067"}, "decatur-county-50103": {"city": "Decatur County", "rent": 1090, "zip": "50103"}, "decatur-county-50108": {"city": "Decatur County", "rent": 1110, "zip": "50108"}, "decatur-county-50123": {"city": "Decatur County", "rent": 920, "zip": "50123"}, "decatur-county-50133": {"city": "Decatur County", "rent": 920, "zip": "50133"}, "decatur-county-50140": {"city": "Decatur County", "rent": 1000, "zip": "50140"}, "decatur-county-50144": {"city": "Decatur County", "rent": 920, "zip": "50144"}, "decatur-county-50147": {"city": "Decatur County", "rent": 920, "zip": "50147"}, "decatur-county-50262": {"city": "Decatur County", "rent": 950, "zip": "50262"}, "decatur-county-50264": {"city": "Decatur County", "rent": 950, "zip": "50264"}, "delaware-county-50650": {"city": "Delaware County", "rent": 990, "zip": "50650"}, "delaware-county-50654": {"city": "Delaware County", "rent": 1010, "zip": "50654"}, "delaware-county-52035": {"city": "Delaware County", "rent": 920, "zip": "52035"}, "delaware-county-52036": {"city": "Delaware County", "rent": 920, "zip": "52036"}, "delaware-county-52038": {"city": "Delaware County", "rent": 920, "zip": "52038"}, "delaware-county-52040": {"city": "Delaware County", "rent": 1090, "zip": "52040"}, "delaware-county-52041": {"city": "Delaware County", "rent": 970, "zip": "52041"}, "delaware-county-52042": {"city": "Delaware County", "rent": 940, "zip": "52042"}, "delaware-county-52050": {"city": "Delaware County", "rent": 960, "zip": "52050"}, "delaware-county-52057": {"city": "Delaware County", "rent": 920, "zip": "52057"}, "delaware-county-52065": {"city": "Delaware County", "rent": 1020, "zip": "52065"}, "delaware-county-52076": {"city": "Delaware County", "rent": 920, "zip": "52076"}, "delaware-county-52078": {"city": "Delaware County", "rent": 920, "zip": "52078"}, "delaware-county-52218": {"city": "Delaware County", "rent": 920, "zip": "52218"}, "delaware-county-52223": {"city": "Delaware County", "rent": 930, "zip": "52223"}, "delaware-county-52237": {"city": "Delaware County", "rent": 920, "zip": "52237"}, "delaware-county-52310": {"city": "Delaware County", "rent": 920, "zip": "52310"}, "delaware-county-52330": {"city": "Delaware County", "rent": 920, "zip": "52330"}, "des-moines-county-52601": {"city": "Des Moines County", "rent": 1080, "zip": "52601"}, "des-moines-county-52623": {"city": "Des Moines County", "rent": 1010, "zip": "52623"}, "des-moines-county-52637": {"city": "Des Moines County", "rent": 970, "zip": "52637"}, "des-moines-county-52638": {"city": "Des Moines County", "rent": 970, "zip": "52638"}, "des-moines-county-52640": {"city": "Des Moines County", "rent": 1040, "zip": "52640"}, "des-moines-county-52644": {"city": "Des Moines County", "rent": 970, "zip": "52644"}, "des-moines-county-52645": {"city": "Des Moines County", "rent": 970, "zip": "52645"}, "des-moines-county-52646": {"city": "Des Moines County", "rent": 980, "zip": "52646"}, "des-moines-county-52650": {"city": "Des Moines County", "rent": 1380, "zip": "52650"}, "des-moines-county-52655": {"city": "Des Moines County", "rent": 1010, "zip": "52655"}, "des-moines-county-52658": {"city": "Des Moines County", "rent": 1330, "zip": "52658"}, "des-moines-county-52660": {"city": "Des Moines County", "rent": 1050, "zip": "52660"}, "dickinson-county-51301": {"city": "Dickinson County", "rent": 960, "zip": "51301"}, "dickinson-county-51331": {"city": "Dickinson County", "rent": 1070, "zip": "51331"}, "dickinson-county-51333": {"city": "Dickinson County", "rent": 1140, "zip": "51333"}, "dickinson-county-51334": {"city": "Dickinson County", "rent": 960, "zip": "51334"}, "dickinson-county-51338": {"city": "Dickinson County", "rent": 960, "zip": "51338"}, "dickinson-county-51345": {"city": "Dickinson County", "rent": 1030, "zip": "51345"}, "dickinson-county-51347": {"city": "Dickinson County", "rent": 1180, "zip": "51347"}, "dickinson-county-51351": {"city": "Dickinson County", "rent": 1040, "zip": "51351"}, "dickinson-county-51355": {"city": "Dickinson County", "rent": 1130, "zip": "51355"}, "dickinson-county-51360": {"city": "Dickinson County", "rent": 1120, "zip": "51360"}, "dickinson-county-51363": {"city": "Dickinson County", "rent": 960, "zip": "51363"}, "dickinson-county-51364": {"city": "Dickinson County", "rent": 1030, "zip": "51364"}, "emmet-county-50514": {"city": "Emmet County", "rent": 920, "zip": "50514"}, "emmet-county-50531": {"city": "Emmet County", "rent": 930, "zip": "50531"}, "emmet-county-50539": {"city": "Emmet County", "rent": 920, "zip": "50539"}, "emmet-county-50578": {"city": "Emmet County", "rent": 920, "zip": "50578"}, "emmet-county-51334": {"city": "Emmet County", "rent": 960, "zip": "51334"}, "emmet-county-51342": {"city": "Emmet County", "rent": 920, "zip": "51342"}, "emmet-county-51364": {"city": "Emmet County", "rent": 1030, "zip": "51364"}, "emmet-county-51365": {"city": "Emmet County", "rent": 920, "zip": "51365"}, "fayette-county-50606": {"city": "Fayette County", "rent": 920, "zip": "50606"}, "fayette-county-50607": {"city": "Fayette County", "rent": 1000, "zip": "50607"}, "fayette-county-50629": {"city": "Fayette County", "rent": 920, "zip": "50629"}, "fayette-county-50630": {"city": "Fayette County", "rent": 950, "zip": "50630"}, "fayette-county-50650": {"city": "Fayette County", "rent": 990, "zip": "50650"}, "fayette-county-50655": {"city": "Fayette County", "rent": 920, "zip": "50655"}, "fayette-county-50662": {"city": "Fayette County", "rent": 940, "zip": "50662"}, "fayette-county-50664": {"city": "Fayette County", "rent": 940, "zip": "50664"}, "fayette-county-50671": {"city": "Fayette County", "rent": 930, "zip": "50671"}, "fayette-county-50674": {"city": "Fayette County", "rent": 1000, "zip": "50674"}, "fayette-county-50681": {"city": "Fayette County", "rent": 960, "zip": "50681"}, "fayette-county-52076": {"city": "Fayette County", "rent": 920, "zip": "52076"}, "fayette-county-52133": {"city": "Fayette County", "rent": 920, "zip": "52133"}, "fayette-county-52135": {"city": "Fayette County", "rent": 920, "zip": "52135"}, "fayette-county-52141": {"city": "Fayette County", "rent": 940, "zip": "52141"}, "fayette-county-52142": {"city": "Fayette County", "rent": 970, "zip": "52142"}, "fayette-county-52144": {"city": "Fayette County", "rent": 1320, "zip": "52144"}, "fayette-county-52147": {"city": "Fayette County", "rent": 920, "zip": "52147"}, "fayette-county-52161": {"city": "Fayette County", "rent": 920, "zip": "52161"}, "fayette-county-52162": {"city": "Fayette County", "rent": 950, "zip": "52162"}, "fayette-county-52164": {"city": "Fayette County", "rent": 950, "zip": "52164"}, "fayette-county-52166": {"city": "Fayette County", "rent": 1090, "zip": "52166"}, "fayette-county-52169": {"city": "Fayette County", "rent": 920, "zip": "52169"}, "fayette-county-52171": {"city": "Fayette County", "rent": 970, "zip": "52171"}, "fayette-county-52175": {"city": "Fayette County", "rent": 950, "zip": "52175"}, "floyd-county-50433": {"city": "Floyd County", "rent": 960, "zip": "50433"}, "floyd-county-50435": {"city": "Floyd County", "rent": 1180, "zip": "50435"}, "floyd-county-50458": {"city": "Floyd County", "rent": 1020, "zip": "50458"}, "floyd-county-50460": {"city": "Floyd County", "rent": 970, "zip": "50460"}, "floyd-county-50461": {"city": "Floyd County", "rent": 920, "zip": "50461"}, "floyd-county-50468": {"city": "Floyd County", "rent": 1050, "zip": "50468"}, "floyd-county-50471": {"city": "Floyd County", "rent": 1160, "zip": "50471"}, "floyd-county-50603": {"city": "Floyd County", "rent": 920, "zip": "50603"}, "floyd-county-50616": {"city": "Floyd County", "rent": 920, "zip": "50616"}, "floyd-county-50619": {"city": "Floyd County", "rent": 1000, "zip": "50619"}, "floyd-county-50620": {"city": "Floyd County", "rent": 920, "zip": "50620"}, "floyd-county-50636": {"city": "Floyd County", "rent": 1020, "zip": "50636"}, "floyd-county-50645": {"city": "Floyd County", "rent": 920, "zip": "50645"}, "floyd-county-50653": {"city": "Floyd County", "rent": 940, "zip": "50653"}, "floyd-county-50658": {"city": "Floyd County", "rent": 930, "zip": "50658"}, "franklin-county-50006": {"city": "Franklin County", "rent": 920, "zip": "50006"}, "franklin-county-50041": {"city": "Franklin County", "rent": 960, "zip": "50041"}, "franklin-county-50071": {"city": "Franklin County", "rent": 920, "zip": "50071"}, "franklin-county-50126": {"city": "Franklin County", "rent": 1020, "zip": "50126"}, "franklin-county-50227": {"city": "Franklin County", "rent": 920, "zip": "50227"}, "franklin-county-50420": {"city": "Franklin County", "rent": 920, "zip": "50420"}, "franklin-county-50427": {"city": "Franklin County", "rent": 920, "zip": "50427"}, "franklin-county-50431": {"city": "Franklin County", "rent": 920, "zip": "50431"}, "franklin-county-50433": {"city": "Franklin County", "rent": 960, "zip": "50433"}, "franklin-county-50441": {"city": "Franklin County", "rent": 920, "zip": "50441"}, "franklin-county-50452": {"city": "Franklin County", "rent": 1100, "zip": "50452"}, "franklin-county-50457": {"city": "Franklin County", "rent": 920, "zip": "50457"}, "franklin-county-50470": {"city": "Franklin County", "rent": 920, "zip": "50470"}, "franklin-county-50475": {"city": "Franklin County", "rent": 920, "zip": "50475"}, "franklin-county-50479": {"city": "Franklin County", "rent": 920, "zip": "50479"}, "franklin-county-50601": {"city": "Franklin County", "rent": 920, "zip": "50601"}, "franklin-county-50605": {"city": "Franklin County", "rent": 940, "zip": "50605"}, "franklin-county-50625": {"city": "Franklin County", "rent": 920, "zip": "50625"}, "franklin-county-50633": {"city": "Franklin County", "rent": 920, "zip": "50633"}, "fremont-county-51551": {"city": "Fremont County", "rent": 1090, "zip": "51551"}, "fremont-county-51561": {"city": "Fremont County", "rent": 1320, "zip": "51561"}, "fremont-county-51601": {"city": "Fremont County", "rent": 930, "zip": "51601"}, "fremont-county-51639": {"city": "Fremont County", "rent": 920, "zip": "51639"}, "fremont-county-51640": {"city": "Fremont County", "rent": 920, "zip": "51640"}, "fremont-county-51645": {"city": "Fremont County", "rent": 1060, "zip": "51645"}, "fremont-county-51647": {"city": "Fremont County", "rent": 920, "zip": "51647"}, "fremont-county-51648": {"city": "Fremont County", "rent": 1200, "zip": "51648"}, "fremont-county-51649": {"city": "Fremont County", "rent": 1260, "zip": "51649"}, "fremont-county-51650": {"city": "Fremont County", "rent": 920, "zip": "51650"}, "fremont-county-51652": {"city": "Fremont County", "rent": 1000, "zip": "51652"}, "fremont-county-51653": {"city": "Fremont County", "rent": 1170, "zip": "51653"}, "fremont-county-51654": {"city": "Fremont County", "rent": 1380, "zip": "51654"}, "greene-county-50026": {"city": "Greene County", "rent": 980, "zip": "50026"}, "greene-county-50029": {"city": "Greene County", "rent": 1000, "zip": "50029"}, "greene-county-50050": {"city": "Greene County", "rent": 940, "zip": "50050"}, "greene-county-50058": {"city": "Greene County", "rent": 930, "zip": "50058"}, "greene-county-50059": {"city": "Greene County", "rent": 920, "zip": "50059"}, "greene-county-50064": {"city": "Greene County", "rent": 920, "zip": "50064"}, "greene-county-50107": {"city": "Greene County", "rent": 1060, "zip": "50107"}, "greene-county-50128": {"city": "Greene County", "rent": 920, "zip": "50128"}, "greene-county-50129": {"city": "Greene County", "rent": 920, "zip": "50129"}, "greene-county-50217": {"city": "Greene County", "rent": 930, "zip": "50217"}, "greene-county-50220": {"city": "Greene County", "rent": 1090, "zip": "50220"}, "greene-county-50235": {"city": "Greene County", "rent": 1130, "zip": "50235"}, "greene-county-50543": {"city": "Greene County", "rent": 920, "zip": "50543"}, "greene-county-50544": {"city": "Greene County", "rent": 920, "zip": "50544"}, "greene-county-51443": {"city": "Greene County", "rent": 920, "zip": "51443"}, "greene-county-51449": {"city": "Greene County", "rent": 930, "zip": "51449"}, "greene-county-51453": {"city": "Greene County", "rent": 1160, "zip": "51453"}, "greene-county-51462": {"city": "Greene County", "rent": 960, "zip": "51462"}, "hamilton-county-50006": {"city": "Hamilton County", "rent": 920, "zip": "50006"}, "hamilton-county-50034": {"city": "Hamilton County", "rent": 960, "zip": "50034"}, "hamilton-county-50036": {"city": "Hamilton County", "rent": 1030, "zip": "50036"}, "hamilton-county-50075": {"city": "Hamilton County", "rent": 1110, "zip": "50075"}, "hamilton-county-50130": {"city": "Hamilton County", "rent": 1020, "zip": "50130"}, "hamilton-county-50132": {"city": "Hamilton County", "rent": 1010, "zip": "50132"}, "hamilton-county-50230": {"city": "Hamilton County", "rent": 960, "zip": "50230"}, "hamilton-county-50231": {"city": "Hamilton County", "rent": 970, "zip": "50231"}, "hamilton-county-50236": {"city": "Hamilton County", "rent": 1080, "zip": "50236"}, "hamilton-county-50246": {"city": "Hamilton County", "rent": 990, "zip": "50246"}, "hamilton-county-50248": {"city": "Hamilton County", "rent": 1040, "zip": "50248"}, "hamilton-county-50249": {"city": "Hamilton County", "rent": 920, "zip": "50249"}, "hamilton-county-50271": {"city": "Hamilton County", "rent": 920, "zip": "50271"}, "hamilton-county-50532": {"city": "Hamilton County", "rent": 920, "zip": "50532"}, "hamilton-county-50595": {"city": "Hamilton County", "rent": 1000, "zip": "50595"}, "hamilton-county-50599": {"city": "Hamilton County", "rent": 1020, "zip": "50599"}, "hancock-county-50421": {"city": "Hancock County", "rent": 940, "zip": "50421"}, "hancock-county-50423": {"city": "Hancock County", "rent": 1200, "zip": "50423"}, "hancock-county-50430": {"city": "Hancock County", "rent": 1050, "zip": "50430"}, "hancock-county-50432": {"city": "Hancock County", "rent": 960, "zip": "50432"}, "hancock-county-50436": {"city": "Hancock County", "rent": 970, "zip": "50436"}, "hancock-county-50438": {"city": "Hancock County", "rent": 920, "zip": "50438"}, "hancock-county-50439": {"city": "Hancock County", "rent": 920, "zip": "50439"}, "hancock-county-50447": {"city": "Hancock County", "rent": 920, "zip": "50447"}, "hancock-county-50449": {"city": "Hancock County", "rent": 920, "zip": "50449"}, "hancock-county-50457": {"city": "Hancock County", "rent": 920, "zip": "50457"}, "hancock-county-50482": {"city": "Hancock County", "rent": 1100, "zip": "50482"}, "hancock-county-50483": {"city": "Hancock County", "rent": 1040, "zip": "50483"}, "hancock-county-50484": {"city": "Hancock County", "rent": 1020, "zip": "50484"}, "hardin-county-50006": {"city": "Hardin County", "rent": 920, "zip": "50006"}, "hardin-county-50102": {"city": "Hardin County", "rent": 920, "zip": "50102"}, "hardin-county-50122": {"city": "Hardin County", "rent": 960, "zip": "50122"}, "hardin-county-50126": {"city": "Hardin County", "rent": 1020, "zip": "50126"}, "hardin-county-50148": {"city": "Hardin County", "rent": 930, "zip": "50148"}, "hardin-county-50154": {"city": "Hardin County", "rent": 960, "zip": "50154"}, "hardin-county-50206": {"city": "Hardin County", "rent": 960, "zip": "50206"}, "hardin-county-50230": {"city": "Hardin County", "rent": 960, "zip": "50230"}, "hardin-county-50258": {"city": "Hardin County", "rent": 920, "zip": "50258"}, "hardin-county-50259": {"city": "Hardin County", "rent": 920, "zip": "50259"}, "hardin-county-50269": {"city": "Hardin County", "rent": 920, "zip": "50269"}, "hardin-county-50271": {"city": "Hardin County", "rent": 920, "zip": "50271"}, "hardin-county-50601": {"city": "Hardin County", "rent": 920, "zip": "50601"}, "hardin-county-50627": {"city": "Hardin County", "rent": 920, "zip": "50627"}, "hardin-county-50672": {"city": "Hardin County", "rent": 920, "zip": "50672"}, "hardin-county-50680": {"city": "Hardin County", "rent": 920, "zip": "50680"}, "henry-county-52540": {"city": "Henry County", "rent": 930, "zip": "52540"}, "henry-county-52620": {"city": "Henry County", "rent": 920, "zip": "52620"}, "henry-county-52621": {"city": "Henry County", "rent": 1040, "zip": "52621"}, "henry-county-52623": {"city": "Henry County", "rent": 1010, "zip": "52623"}, "henry-county-52630": {"city": "Henry County", "rent": 940, "zip": "52630"}, "henry-county-52635": {"city": "Henry County", "rent": 1270, "zip": "52635"}, "henry-county-52641": {"city": "Henry County", "rent": 960, "zip": "52641"}, "henry-county-52644": {"city": "Henry County", "rent": 970, "zip": "52644"}, "henry-county-52645": {"city": "Henry County", "rent": 970, "zip": "52645"}, "henry-county-52647": {"city": "Henry County", "rent": 920, "zip": "52647"}, "henry-county-52649": {"city": "Henry County", "rent": 950, "zip": "52649"}, "henry-county-52652": {"city": "Henry County", "rent": 960, "zip": "52652"}, "henry-county-52654": {"city": "Henry County", "rent": 930, "zip": "52654"}, "henry-county-52656": {"city": "Henry County", "rent": 920, "zip": "52656"}, "henry-county-52659": {"city": "Henry County", "rent": 920, "zip": "52659"}, "howard-county-50466": {"city": "Howard County", "rent": 1120, "zip": "50466"}, "howard-county-50603": {"city": "Howard County", "rent": 920, "zip": "50603"}, "howard-county-50628": {"city": "Howard County", "rent": 920, "zip": "50628"}, "howard-county-50659": {"city": "Howard County", "rent": 950, "zip": "50659"}, "howard-county-52132": {"city": "Howard County", "rent": 920, "zip": "52132"}, "howard-county-52134": {"city": "Howard County", "rent": 1000, "zip": "52134"}, "howard-county-52136": {"city": "Howard County", "rent": 1000, "zip": "52136"}, "howard-county-52154": {"city": "Howard County", "rent": 920, "zip": "52154"}, "howard-county-52155": {"city": "Howard County", "rent": 920, "zip": "52155"}, "howard-county-52163": {"city": "Howard County", "rent": 920, "zip": "52163"}, "howard-county-52171": {"city": "Howard County", "rent": 970, "zip": "52171"}, "humboldt-county-50430": {"city": "Humboldt County", "rent": 1050, "zip": "50430"}, "humboldt-county-50516": {"city": "Humboldt County", "rent": 920, "zip": "50516"}, "humboldt-county-50519": {"city": "Humboldt County", "rent": 920, "zip": "50519"}, "humboldt-county-50520": {"city": "Humboldt County", "rent": 920, "zip": "50520"}, "humboldt-county-50524": {"city": "Humboldt County", "rent": 940, "zip": "50524"}, "humboldt-county-50529": {"city": "Humboldt County", "rent": 1160, "zip": "50529"}, "humboldt-county-50533": {"city": "Humboldt County", "rent": 1080, "zip": "50533"}, "humboldt-county-50541": {"city": "Humboldt County", "rent": 980, "zip": "50541"}, "humboldt-county-50542": {"city": "Humboldt County", "rent": 940, "zip": "50542"}, "humboldt-county-50545": {"city": "Humboldt County", "rent": 1040, "zip": "50545"}, "humboldt-county-50548": {"city": "Humboldt County", "rent": 920, "zip": "50548"}, "humboldt-county-50558": {"city": "Humboldt County", "rent": 1360, "zip": "50558"}, "humboldt-county-50560": {"city": "Humboldt County", "rent": 920, "zip": "50560"}, "humboldt-county-50570": {"city": "Humboldt County", "rent": 920, "zip": "50570"}, "humboldt-county-50577": {"city": "Humboldt County", "rent": 920, "zip": "50577"}, "humboldt-county-50582": {"city": "Humboldt County", "rent": 920, "zip": "50582"}, "humboldt-county-50591": {"city": "Humboldt County", "rent": 1340, "zip": "50591"}, "humboldt-county-50597": {"city": "Humboldt County", "rent": 920, "zip": "50597"}, "ida-county-51006": {"city": "Ida County", "rent": 960, "zip": "51006"}, "ida-county-51016": {"city": "Ida County", "rent": 970, "zip": "51016"}, "ida-county-51018": {"city": "Ida County", "rent": 1050, "zip": "51018"}, "ida-county-51019": {"city": "Ida County", "rent": 1010, "zip": "51019"}, "ida-county-51020": {"city": "Ida County", "rent": 920, "zip": "51020"}, "ida-county-51025": {"city": "Ida County", "rent": 1100, "zip": "51025"}, "ida-county-51053": {"city": "Ida County", "rent": 1140, "zip": "51053"}, "ida-county-51061": {"city": "Ida County", "rent": 960, "zip": "51061"}, "ida-county-51431": {"city": "Ida County", "rent": 920, "zip": "51431"}, "ida-county-51445": {"city": "Ida County", "rent": 920, "zip": "51445"}, "ida-county-51448": {"city": "Ida County", "rent": 920, "zip": "51448"}, "ida-county-51461": {"city": "Ida County", "rent": 930, "zip": "51461"}, "iowa-county-50136": {"city": "Iowa County", "rent": 1070, "zip": "50136"}, "iowa-county-52203": {"city": "Iowa County", "rent": 1000, "zip": "52203"}, "iowa-county-52208": {"city": "Iowa County", "rent": 920, "zip": "52208"}, "iowa-county-52209": {"city": "Iowa County", "rent": 1000, "zip": "52209"}, "iowa-county-52220": {"city": "Iowa County", "rent": 940, "zip": "52220"}, "iowa-county-52221": {"city": "Iowa County", "rent": 930, "zip": "52221"}, "iowa-county-52222": {"city": "Iowa County", "rent": 1000, "zip": "52222"}, "iowa-county-52232": {"city": "Iowa County", "rent": 950, "zip": "52232"}, "iowa-county-52236": {"city": "Iowa County", "rent": 1000, "zip": "52236"}, "iowa-county-52251": {"city": "Iowa County", "rent": 920, "zip": "52251"}, "iowa-county-52301": {"city": "Iowa County", "rent": 930, "zip": "52301"}, "iowa-county-52307": {"city": "Iowa County", "rent": 920, "zip": "52307"}, "iowa-county-52308": {"city": "Iowa County", "rent": 920, "zip": "52308"}, "iowa-county-52316": {"city": "Iowa County", "rent": 920, "zip": "52316"}, "iowa-county-52318": {"city": "Iowa County", "rent": 1280, "zip": "52318"}, "iowa-county-52322": {"city": "Iowa County", "rent": 1000, "zip": "52322"}, "iowa-county-52325": {"city": "Iowa County", "rent": 1080, "zip": "52325"}, "iowa-county-52334": {"city": "Iowa County", "rent": 940, "zip": "52334"}, "iowa-county-52347": {"city": "Iowa County", "rent": 920, "zip": "52347"}, "iowa-county-52355": {"city": "Iowa County", "rent": 950, "zip": "52355"}, "iowa-county-52356": {"city": "Iowa County", "rent": 1000, "zip": "52356"}, "iowa-county-52361": {"city": "Iowa County", "rent": 950, "zip": "52361"}, "jackson-county-52030": {"city": "Jackson County", "rent": 1070, "zip": "52030"}, "jackson-county-52031": {"city": "Jackson County", "rent": 980, "zip": "52031"}, "jackson-county-52032": {"city": "Jackson County", "rent": 920, "zip": "52032"}, "jackson-county-52037": {"city": "Jackson County", "rent": 1020, "zip": "52037"}, "jackson-county-52054": {"city": "Jackson County", "rent": 940, "zip": "52054"}, "jackson-county-52060": {"city": "Jackson County", "rent": 920, "zip": "52060"}, "jackson-county-52064": {"city": "Jackson County", "rent": 920, "zip": "52064"}, "jackson-county-52069": {"city": "Jackson County", "rent": 990, "zip": "52069"}, "jackson-county-52070": {"city": "Jackson County", "rent": 1040, "zip": "52070"}, "jackson-county-52071": {"city": "Jackson County", "rent": 960, "zip": "52071"}, "jackson-county-52074": {"city": "Jackson County", "rent": 980, "zip": "52074"}, "jackson-county-52075": {"city": "Jackson County", "rent": 980, "zip": "52075"}, "jackson-county-52079": {"city": "Jackson County", "rent": 930, "zip": "52079"}, "jackson-county-52207": {"city": "Jackson County", "rent": 970, "zip": "52207"}, "jackson-county-52309": {"city": "Jackson County", "rent": 960, "zip": "52309"}, "jackson-county-52731": {"city": "Jackson County", "rent": 1080, "zip": "52731"}, "jefferson-county-52533": {"city": "Jefferson County", "rent": 1230, "zip": "52533"}, "jefferson-county-52535": {"city": "Jefferson County", "rent": 940, "zip": "52535"}, "jefferson-county-52540": {"city": "Jefferson County", "rent": 930, "zip": "52540"}, "jefferson-county-52554": {"city": "Jefferson County", "rent": 930, "zip": "52554"}, "jefferson-county-52556": {"city": "Jefferson County", "rent": 1090, "zip": "52556"}, "jefferson-county-52557": {"city": "Jefferson County", "rent": 1090, "zip": "52557"}, "jefferson-county-52563": {"city": "Jefferson County", "rent": 1020, "zip": "52563"}, "jefferson-county-52567": {"city": "Jefferson County", "rent": 1060, "zip": "52567"}, "jefferson-county-52576": {"city": "Jefferson County", "rent": 930, "zip": "52576"}, "jefferson-county-52580": {"city": "Jefferson County", "rent": 930, "zip": "52580"}, "jefferson-county-52585": {"city": "Jefferson County", "rent": 930, "zip": "52585"}, "jefferson-county-52588": {"city": "Jefferson County", "rent": 1000, "zip": "52588"}, "jefferson-county-52635": {"city": "Jefferson County", "rent": 1270, "zip": "52635"}, "jefferson-county-52641": {"city": "Jefferson County", "rent": 960, "zip": "52641"}, "jefferson-county-52651": {"city": "Jefferson County", "rent": 930, "zip": "52651"}, "jefferson-county-52654": {"city": "Jefferson County", "rent": 930, "zip": "52654"}, "keokuk-county-50104": {"city": "Keokuk County", "rent": 970, "zip": "50104"}, "keokuk-county-50136": {"city": "Keokuk County", "rent": 1070, "zip": "50136"}, "keokuk-county-50255": {"city": "Keokuk County", "rent": 1070, "zip": "50255"}, "keokuk-county-50268": {"city": "Keokuk County", "rent": 920, "zip": "50268"}, "keokuk-county-52231": {"city": "Keokuk County", "rent": 940, "zip": "52231"}, "keokuk-county-52248": {"city": "Keokuk County", "rent": 920, "zip": "52248"}, "keokuk-county-52316": {"city": "Keokuk County", "rent": 920, "zip": "52316"}, "keokuk-county-52335": {"city": "Keokuk County", "rent": 920, "zip": "52335"}, "keokuk-county-52355": {"city": "Keokuk County", "rent": 950, "zip": "52355"}, "keokuk-county-52356": {"city": "Keokuk County", "rent": 1000, "zip": "52356"}, "keokuk-county-52501": {"city": "Keokuk County", "rent": 1070, "zip": "52501"}, "keokuk-county-52550": {"city": "Keokuk County", "rent": 1040, "zip": "52550"}, "keokuk-county-52561": {"city": "Keokuk County", "rent": 920, "zip": "52561"}, "keokuk-county-52562": {"city": "Keokuk County", "rent": 970, "zip": "52562"}, "keokuk-county-52563": {"city": "Keokuk County", "rent": 1020, "zip": "52563"}, "keokuk-county-52568": {"city": "Keokuk County", "rent": 920, "zip": "52568"}, "keokuk-county-52576": {"city": "Keokuk County", "rent": 930, "zip": "52576"}, "keokuk-county-52580": {"city": "Keokuk County", "rent": 930, "zip": "52580"}, "keokuk-county-52585": {"city": "Keokuk County", "rent": 930, "zip": "52585"}, "keokuk-county-52586": {"city": "Keokuk County", "rent": 960, "zip": "52586"}, "keokuk-county-52591": {"city": "Keokuk County", "rent": 970, "zip": "52591"}, "kossuth-county-50424": {"city": "Kossuth County", "rent": 920, "zip": "50424"}, "kossuth-county-50430": {"city": "Kossuth County", "rent": 1050, "zip": "50430"}, "kossuth-county-50451": {"city": "Kossuth County", "rent": 920, "zip": "50451"}, "kossuth-county-50480": {"city": "Kossuth County", "rent": 920, "zip": "50480"}, "kossuth-county-50483": {"city": "Kossuth County", "rent": 1040, "zip": "50483"}, "kossuth-county-50484": {"city": "Kossuth County", "rent": 1020, "zip": "50484"}, "kossuth-county-50511": {"city": "Kossuth County", "rent": 950, "zip": "50511"}, "kossuth-county-50514": {"city": "Kossuth County", "rent": 920, "zip": "50514"}, "kossuth-county-50517": {"city": "Kossuth County", "rent": 920, "zip": "50517"}, "kossuth-county-50519": {"city": "Kossuth County", "rent": 920, "zip": "50519"}, "kossuth-county-50522": {"city": "Kossuth County", "rent": 1020, "zip": "50522"}, "kossuth-county-50539": {"city": "Kossuth County", "rent": 920, "zip": "50539"}, "kossuth-county-50556": {"city": "Kossuth County", "rent": 960, "zip": "50556"}, "kossuth-county-50558": {"city": "Kossuth County", "rent": 1360, "zip": "50558"}, "kossuth-county-50559": {"city": "Kossuth County", "rent": 920, "zip": "50559"}, "kossuth-county-50560": {"city": "Kossuth County", "rent": 920, "zip": "50560"}, "kossuth-county-50570": {"city": "Kossuth County", "rent": 920, "zip": "50570"}, "kossuth-county-50578": {"city": "Kossuth County", "rent": 920, "zip": "50578"}, "kossuth-county-50590": {"city": "Kossuth County", "rent": 920, "zip": "50590"}, "kossuth-county-50597": {"city": "Kossuth County", "rent": 920, "zip": "50597"}, "kossuth-county-50598": {"city": "Kossuth County", "rent": 920, "zip": "50598"}, "kossuth-county-56027": {"city": "Kossuth County", "rent": 1050, "zip": "56027"}, "lee-county-52619": {"city": "Lee County", "rent": 930, "zip": "52619"}, "lee-county-52624": {"city": "Lee County", "rent": 1170, "zip": "52624"}, "lee-county-52625": {"city": "Lee County", "rent": 920, "zip": "52625"}, "lee-county-52626": {"city": "Lee County", "rent": 970, "zip": "52626"}, "lee-county-52627": {"city": "Lee County", "rent": 1010, "zip": "52627"}, "lee-county-52630": {"city": "Lee County", "rent": 940, "zip": "52630"}, "lee-county-52631": {"city": "Lee County", "rent": 920, "zip": "52631"}, "lee-county-52632": {"city": "Lee County", "rent": 950, "zip": "52632"}, "lee-county-52639": {"city": "Lee County", "rent": 920, "zip": "52639"}, "lee-county-52648": {"city": "Lee County", "rent": 960, "zip": "52648"}, "lee-county-52649": {"city": "Lee County", "rent": 950, "zip": "52649"}, "lee-county-52656": {"city": "Lee County", "rent": 920, "zip": "52656"}, "lee-county-52657": {"city": "Lee County", "rent": 920, "zip": "52657"}, "lee-county-52658": {"city": "Lee County", "rent": 1330, "zip": "52658"}, "louisa-county-52201": {"city": "Louisa County", "rent": 920, "zip": "52201"}, "louisa-county-52327": {"city": "Louisa County", "rent": 1130, "zip": "52327"}, "louisa-county-52621": {"city": "Louisa County", "rent": 1040, "zip": "52621"}, "louisa-county-52637": {"city": "Louisa County", "rent": 970, "zip": "52637"}, "louisa-county-52640": {"city": "Louisa County", "rent": 1040, "zip": "52640"}, "louisa-county-52644": {"city": "Louisa County", "rent": 970, "zip": "52644"}, "louisa-county-52646": {"city": "Louisa County", "rent": 980, "zip": "52646"}, "louisa-county-52653": {"city": "Louisa County", "rent": 930, "zip": "52653"}, "louisa-county-52659": {"city": "Louisa County", "rent": 920, "zip": "52659"}, "louisa-county-52737": {"city": "Louisa County", "rent": 920, "zip": "52737"}, "louisa-county-52738": {"city": "Louisa County", "rent": 920, "zip": "52738"}, "louisa-county-52739": {"city": "Louisa County", "rent": 1020, "zip": "52739"}, "louisa-county-52752": {"city": "Louisa County", "rent": 920, "zip": "52752"}, "louisa-county-52754": {"city": "Louisa County", "rent": 1110, "zip": "52754"}, "louisa-county-52755": {"city": "Louisa County", "rent": 1000, "zip": "52755"}, "louisa-county-52761": {"city": "Louisa County", "rent": 1080, "zip": "52761"}, "lucas-county-50049": {"city": "Lucas County", "rent": 970, "zip": "50049"}, "lucas-county-50057": {"city": "Lucas County", "rent": 960, "zip": "50057"}, "lucas-county-50060": {"city": "Lucas County", "rent": 970, "zip": "50060"}, "lucas-county-50068": {"city": "Lucas County", "rent": 1030, "zip": "50068"}, "lucas-county-50123": {"city": "Lucas County", "rent": 920, "zip": "50123"}, "lucas-county-50139": {"city": "Lucas County", "rent": 1090, "zip": "50139"}, "lucas-county-50151": {"city": "Lucas County", "rent": 1480, "zip": "50151"}, "lucas-county-50238": {"city": "Lucas County", "rent": 920, "zip": "50238"}, "lucas-county-50272": {"city": "Lucas County", "rent": 970, "zip": "50272"}, "lucas-county-50275": {"city": "Lucas County", "rent": 1150, "zip": "50275"}, "lucas-county-52569": {"city": "Lucas County", "rent": 1190, "zip": "52569"}, "lyon-county-51201": {"city": "Lyon County", "rent": 920, "zip": "51201"}, "lyon-county-51230": {"city": "Lyon County", "rent": 970, "zip": "51230"}, "lyon-county-51232": {"city": "Lyon County", "rent": 1050, "zip": "51232"}, "lyon-county-51234": {"city": "Lyon County", "rent": 920, "zip": "51234"}, "lyon-county-51235": {"city": "Lyon County", "rent": 920, "zip": "51235"}, "lyon-county-51237": {"city": "Lyon County", "rent": 920, "zip": "51237"}, "lyon-county-51239": {"city": "Lyon County", "rent": 920, "zip": "51239"}, "lyon-county-51240": {"city": "Lyon County", "rent": 1150, "zip": "51240"}, "lyon-county-51241": {"city": "Lyon County", "rent": 950, "zip": "51241"}, "lyon-county-51242": {"city": "Lyon County", "rent": 940, "zip": "51242"}, "lyon-county-51243": {"city": "Lyon County", "rent": 920, "zip": "51243"}, "lyon-county-51246": {"city": "Lyon County", "rent": 920, "zip": "51246"}, "lyon-county-51247": {"city": "Lyon County", "rent": 1090, "zip": "51247"}, "lyon-county-51249": {"city": "Lyon County", "rent": 920, "zip": "51249"}, "mahaska-county-50027": {"city": "Mahaska County", "rent": 930, "zip": "50027"}, "mahaska-county-50044": {"city": "Mahaska County", "rent": 920, "zip": "50044"}, "mahaska-county-50104": {"city": "Mahaska County", "rent": 970, "zip": "50104"}, "mahaska-county-50143": {"city": "Mahaska County", "rent": 920, "zip": "50143"}, "mahaska-county-50153": {"city": "Mahaska County", "rent": 920, "zip": "50153"}, "mahaska-county-50171": {"city": "Mahaska County", "rent": 1040, "zip": "50171"}, "mahaska-county-50207": {"city": "Mahaska County", "rent": 920, "zip": "50207"}, "mahaska-county-50219": {"city": "Mahaska County", "rent": 1170, "zip": "50219"}, "mahaska-county-50251": {"city": "Mahaska County", "rent": 1000, "zip": "50251"}, "mahaska-county-50256": {"city": "Mahaska County", "rent": 960, "zip": "50256"}, "mahaska-county-50268": {"city": "Mahaska County", "rent": 920, "zip": "50268"}, "mahaska-county-52501": {"city": "Mahaska County", "rent": 1070, "zip": "52501"}, "mahaska-county-52534": {"city": "Mahaska County", "rent": 920, "zip": "52534"}, "mahaska-county-52543": {"city": "Mahaska County", "rent": 980, "zip": "52543"}, "mahaska-county-52550": {"city": "Mahaska County", "rent": 1040, "zip": "52550"}, "mahaska-county-52553": {"city": "Mahaska County", "rent": 1040, "zip": "52553"}, "mahaska-county-52561": {"city": "Mahaska County", "rent": 920, "zip": "52561"}, "mahaska-county-52577": {"city": "Mahaska County", "rent": 990, "zip": "52577"}, "mahaska-county-52586": {"city": "Mahaska County", "rent": 960, "zip": "52586"}, "mahaska-county-52595": {"city": "Mahaska County", "rent": 920, "zip": "52595"}, "marion-county-50044": {"city": "Marion County", "rent": 920, "zip": "50044"}, "marion-county-50049": {"city": "Marion County", "rent": 970, "zip": "50049"}, "marion-county-50057": {"city": "Marion County", "rent": 960, "zip": "50057"}, "marion-county-50062": {"city": "Marion County", "rent": 960, "zip": "50062"}, "marion-county-50116": {"city": "Marion County", "rent": 930, "zip": "50116"}, "marion-county-50119": {"city": "Marion County", "rent": 1020, "zip": "50119"}, "marion-county-50138": {"city": "Marion County", "rent": 960, "zip": "50138"}, "marion-county-50139": {"city": "Marion County", "rent": 1090, "zip": "50139"}, "marion-county-50143": {"city": "Marion County", "rent": 920, "zip": "50143"}, "marion-county-50150": {"city": "Marion County", "rent": 920, "zip": "50150"}, "marion-county-50163": {"city": "Marion County", "rent": 920, "zip": "50163"}, "marion-county-50170": {"city": "Marion County", "rent": 950, "zip": "50170"}, "marion-county-50214": {"city": "Marion County", "rent": 1030, "zip": "50214"}, "marion-county-50219": {"city": "Marion County", "rent": 1170, "zip": "50219"}, "marion-county-50225": {"city": "Marion County", "rent": 960, "zip": "50225"}, "marion-county-50228": {"city": "Marion County", "rent": 1070, "zip": "50228"}, "marion-county-50237": {"city": "Marion County", "rent": 920, "zip": "50237"}, "marion-county-50252": {"city": "Marion County", "rent": 1060, "zip": "50252"}, "marion-county-50256": {"city": "Marion County", "rent": 960, "zip": "50256"}, "marshall-county-50005": {"city": "Marshall County", "rent": 930, "zip": "50005"}, "marshall-county-50028": {"city": "Marshall County", "rent": 1040, "zip": "50028"}, "marshall-county-50051": {"city": "Marshall County", "rent": 930, "zip": "50051"}, "marshall-county-50055": {"city": "Marshall County", "rent": 1010, "zip": "50055"}, "marshall-county-50078": {"city": "Marshall County", "rent": 950, "zip": "50078"}, "marshall-county-50106": {"city": "Marshall County", "rent": 920, "zip": "50106"}, "marshall-county-50120": {"city": "Marshall County", "rent": 1180, "zip": "50120"}, "marshall-county-50141": {"city": "Marshall County", "rent": 1040, "zip": "50141"}, "marshall-county-50142": {"city": "Marshall County", "rent": 920, "zip": "50142"}, "marshall-county-50148": {"city": "Marshall County", "rent": 930, "zip": "50148"}, "marshall-county-50158": {"city": "Marshall County", "rent": 960, "zip": "50158"}, "marshall-county-50162": {"city": "Marshall County", "rent": 1440, "zip": "50162"}, "marshall-county-50173": {"city": "Marshall County", "rent": 1200, "zip": "50173"}, "marshall-county-50206": {"city": "Marshall County", "rent": 960, "zip": "50206"}, "marshall-county-50234": {"city": "Marshall County", "rent": 1070, "zip": "50234"}, "marshall-county-50239": {"city": "Marshall County", "rent": 1010, "zip": "50239"}, "marshall-county-50247": {"city": "Marshall County", "rent": 960, "zip": "50247"}, "marshall-county-50258": {"city": "Marshall County", "rent": 920, "zip": "50258"}, "marshall-county-50609": {"city": "Marshall County", "rent": 920, "zip": "50609"}, "marshall-county-50621": {"city": "Marshall County", "rent": 930, "zip": "50621"}, "marshall-county-50632": {"city": "Marshall County", "rent": 920, "zip": "50632"}, "marshall-county-50635": {"city": "Marshall County", "rent": 920, "zip": "50635"}, "mitchell-county-50426": {"city": "Mitchell County", "rent": 1040, "zip": "50426"}, "mitchell-county-50454": {"city": "Mitchell County", "rent": 930, "zip": "50454"}, "mitchell-county-50455": {"city": "Mitchell County", "rent": 1040, "zip": "50455"}, "mitchell-county-50458": {"city": "Mitchell County", "rent": 1020, "zip": "50458"}, "mitchell-county-50460": {"city": "Mitchell County", "rent": 970, "zip": "50460"}, "mitchell-county-50461": {"city": "Mitchell County", "rent": 920, "zip": "50461"}, "mitchell-county-50464": {"city": "Mitchell County", "rent": 1110, "zip": "50464"}, "mitchell-county-50466": {"city": "Mitchell County", "rent": 1120, "zip": "50466"}, "mitchell-county-50471": {"city": "Mitchell County", "rent": 1160, "zip": "50471"}, "mitchell-county-50472": {"city": "Mitchell County", "rent": 1040, "zip": "50472"}, "mitchell-county-50476": {"city": "Mitchell County", "rent": 920, "zip": "50476"}, "mitchell-county-50481": {"city": "Mitchell County", "rent": 920, "zip": "50481"}, "mitchell-county-50603": {"city": "Mitchell County", "rent": 920, "zip": "50603"}, "mitchell-county-50628": {"city": "Mitchell County", "rent": 920, "zip": "50628"}, "monona-county-51010": {"city": "Monona County", "rent": 920, "zip": "51010"}, "monona-county-51019": {"city": "Monona County", "rent": 1010, "zip": "51019"}, "monona-county-51026": {"city": "Monona County", "rent": 1020, "zip": "51026"}, "monona-county-51034": {"city": "Monona County", "rent": 960, "zip": "51034"}, "monona-county-51040": {"city": "Monona County", "rent": 990, "zip": "51040"}, "monona-county-51051": {"city": "Monona County", "rent": 990, "zip": "51051"}, "monona-county-51055": {"city": "Monona County", "rent": 1120, "zip": "51055"}, "monona-county-51056": {"city": "Monona County", "rent": 960, "zip": "51056"}, "monona-county-51060": {"city": "Monona County", "rent": 920, "zip": "51060"}, "monona-county-51063": {"city": "Monona County", "rent": 1040, "zip": "51063"}, "monona-county-51523": {"city": "Monona County", "rent": 980, "zip": "51523"}, "monona-county-51529": {"city": "Monona County", "rent": 1040, "zip": "51529"}, "monona-county-51545": {"city": "Monona County", "rent": 1000, "zip": "51545"}, "monona-county-51558": {"city": "Monona County", "rent": 960, "zip": "51558"}, "monona-county-51572": {"city": "Monona County", "rent": 920, "zip": "51572"}, "monroe-county-50044": {"city": "Monroe County", "rent": 920, "zip": "50044"}, "monroe-county-50057": {"city": "Monroe County", "rent": 960, "zip": "50057"}, "monroe-county-50150": {"city": "Monroe County", "rent": 920, "zip": "50150"}, "monroe-county-52531": {"city": "Monroe County", "rent": 920, "zip": "52531"}, "monroe-county-52536": {"city": "Monroe County", "rent": 920, "zip": "52536"}, "monroe-county-52553": {"city": "Monroe County", "rent": 1040, "zip": "52553"}, "monroe-county-52569": {"city": "Monroe County", "rent": 1190, "zip": "52569"}, "monroe-county-52571": {"city": "Monroe County", "rent": 950, "zip": "52571"}, "montgomery-county-50841": {"city": "Montgomery County", "rent": 920, "zip": "50841"}, "montgomery-county-50843": {"city": "Montgomery County", "rent": 920, "zip": "50843"}, "montgomery-county-50847": {"city": "Montgomery County", "rent": 930, "zip": "50847"}, "montgomery-county-50857": {"city": "Montgomery County", "rent": 920, "zip": "50857"}, "montgomery-county-50864": {"city": "Montgomery County", "rent": 920, "zip": "50864"}, "montgomery-county-51532": {"city": "Montgomery County", "rent": 960, "zip": "51532"}, "montgomery-county-51533": {"city": "Montgomery County", "rent": 1220, "zip": "51533"}, "montgomery-county-51541": {"city": "Montgomery County", "rent": 1060, "zip": "51541"}, "montgomery-county-51549": {"city": "Montgomery County", "rent": 960, "zip": "51549"}, "montgomery-county-51566": {"city": "Montgomery County", "rent": 960, "zip": "51566"}, "montgomery-county-51573": {"city": "Montgomery County", "rent": 1030, "zip": "51573"}, "montgomery-county-51638": {"city": "Montgomery County", "rent": 920, "zip": "51638"}, "montgomery-county-51645": {"city": "Montgomery County", "rent": 1060, "zip": "51645"}, "muscatine-county-52720": {"city": "Muscatine County", "rent": 950, "zip": "52720"}, "muscatine-county-52726": {"city": "Muscatine County", "rent": 1470, "zip": "52726"}, "muscatine-county-52739": {"city": "Muscatine County", "rent": 1020, "zip": "52739"}, "muscatine-county-52747": {"city": "Muscatine County", "rent": 1010, "zip": "52747"}, "muscatine-county-52749": {"city": "Muscatine County", "rent": 1080, "zip": "52749"}, "muscatine-county-52754": {"city": "Muscatine County", "rent": 1110, "zip": "52754"}, "muscatine-county-52755": {"city": "Muscatine County", "rent": 1000, "zip": "52755"}, "muscatine-county-52759": {"city": "Muscatine County", "rent": 1180, "zip": "52759"}, "muscatine-county-52760": {"city": "Muscatine County", "rent": 960, "zip": "52760"}, "muscatine-county-52761": {"city": "Muscatine County", "rent": 1080, "zip": "52761"}, "muscatine-county-52766": {"city": "Muscatine County", "rent": 1000, "zip": "52766"}, "muscatine-county-52769": {"city": "Muscatine County", "rent": 1180, "zip": "52769"}, "muscatine-county-52773": {"city": "Muscatine County", "rent": 1030, "zip": "52773"}, "muscatine-county-52776": {"city": "Muscatine County", "rent": 1000, "zip": "52776"}, "muscatine-county-52778": {"city": "Muscatine County", "rent": 930, "zip": "52778"}, "o'brien-county-51009": {"city": "O'Brien County", "rent": 920, "zip": "51009"}, "o'brien-county-51014": {"city": "O'Brien County", "rent": 1380, "zip": "51014"}, "o'brien-county-51022": {"city": "O'Brien County", "rent": 920, "zip": "51022"}, "o'brien-county-51029": {"city": "O'Brien County", "rent": 940, "zip": "51029"}, "o'brien-county-51035": {"city": "O'Brien County", "rent": 1140, "zip": "51035"}, "o'brien-county-51046": {"city": "O'Brien County", "rent": 1000, "zip": "51046"}, "o'brien-county-51047": {"city": "O'Brien County", "rent": 1070, "zip": "51047"}, "o'brien-county-51058": {"city": "O'Brien County", "rent": 920, "zip": "51058"}, "o'brien-county-51201": {"city": "O'Brien County", "rent": 920, "zip": "51201"}, "o'brien-county-51231": {"city": "O'Brien County", "rent": 980, "zip": "51231"}, "o'brien-county-51232": {"city": "O'Brien County", "rent": 1050, "zip": "51232"}, "o'brien-county-51238": {"city": "O'Brien County", "rent": 920, "zip": "51238"}, "o'brien-county-51245": {"city": "O'Brien County", "rent": 1050, "zip": "51245"}, "o'brien-county-51248": {"city": "O'Brien County", "rent": 1060, "zip": "51248"}, "o'brien-county-51346": {"city": "O'Brien County", "rent": 920, "zip": "51346"}, "o'brien-county-51350": {"city": "O'Brien County", "rent": 920, "zip": "51350"}, "osceola-county-51201": {"city": "Osceola County", "rent": 920, "zip": "51201"}, "osceola-county-51232": {"city": "Osceola County", "rent": 1050, "zip": "51232"}, "osceola-county-51243": {"city": "Osceola County", "rent": 920, "zip": "51243"}, "osceola-county-51248": {"city": "Osceola County", "rent": 1060, "zip": "51248"}, "osceola-county-51249": {"city": "Osceola County", "rent": 920, "zip": "51249"}, "osceola-county-51345": {"city": "Osceola County", "rent": 1030, "zip": "51345"}, "osceola-county-51346": {"city": "Osceola County", "rent": 920, "zip": "51346"}, "osceola-county-51347": {"city": "Osceola County", "rent": 1180, "zip": "51347"}, "osceola-county-51350": {"city": "Osceola County", "rent": 920, "zip": "51350"}, "osceola-county-51354": {"city": "Osceola County", "rent": 970, "zip": "51354"}, "page-county-50833": {"city": "Page County", "rent": 920, "zip": "50833"}, "page-county-50864": {"city": "Page County", "rent": 920, "zip": "50864"}, "page-county-51566": {"city": "Page County", "rent": 960, "zip": "51566"}, "page-county-51601": {"city": "Page County", "rent": 930, "zip": "51601"}, "page-county-51630": {"city": "Page County", "rent": 940, "zip": "51630"}, "page-county-51631": {"city": "Page County", "rent": 1080, "zip": "51631"}, "page-county-51632": {"city": "Page County", "rent": 920, "zip": "51632"}, "page-county-51636": {"city": "Page County", "rent": 920, "zip": "51636"}, "page-county-51637": {"city": "Page County", "rent": 980, "zip": "51637"}, "page-county-51638": {"city": "Page County", "rent": 920, "zip": "51638"}, "page-county-51645": {"city": "Page County", "rent": 1060, "zip": "51645"}, "page-county-51646": {"city": "Page County", "rent": 1070, "zip": "51646"}, "page-county-51647": {"city": "Page County", "rent": 920, "zip": "51647"}, "page-county-51651": {"city": "Page County", "rent": 1120, "zip": "51651"}, "page-county-51656": {"city": "Page County", "rent": 920, "zip": "51656"}, "palo-alto-county-50515": {"city": "Palo Alto County", "rent": 1370, "zip": "50515"}, "palo-alto-county-50527": {"city": "Palo Alto County", "rent": 1130, "zip": "50527"}, "palo-alto-county-50528": {"city": "Palo Alto County", "rent": 920, "zip": "50528"}, "palo-alto-county-50536": {"city": "Palo Alto County", "rent": 950, "zip": "50536"}, "palo-alto-county-50539": {"city": "Palo Alto County", "rent": 920, "zip": "50539"}, "palo-alto-county-50546": {"city": "Palo Alto County", "rent": 920, "zip": "50546"}, "palo-alto-county-50554": {"city": "Palo Alto County", "rent": 920, "zip": "50554"}, "palo-alto-county-50562": {"city": "Palo Alto County", "rent": 1380, "zip": "50562"}, "palo-alto-county-50578": {"city": "Palo Alto County", "rent": 920, "zip": "50578"}, "palo-alto-county-50581": {"city": "Palo Alto County", "rent": 1030, "zip": "50581"}, "palo-alto-county-50597": {"city": "Palo Alto County", "rent": 920, "zip": "50597"}, "palo-alto-county-50598": {"city": "Palo Alto County", "rent": 920, "zip": "50598"}, "palo-alto-county-51342": {"city": "Palo Alto County", "rent": 920, "zip": "51342"}, "palo-alto-county-51358": {"city": "Palo Alto County", "rent": 920, "zip": "51358"}, "palo-alto-county-51364": {"city": "Palo Alto County", "rent": 1030, "zip": "51364"}, "palo-alto-county-51366": {"city": "Palo Alto County", "rent": 1130, "zip": "51366"}, "plymouth-county-51001": {"city": "Plymouth County", "rent": 960, "zip": "51001"}, "plymouth-county-51003": {"city": "Plymouth County", "rent": 920, "zip": "51003"}, "plymouth-county-51008": {"city": "Plymouth County", "rent": 1010, "zip": "51008"}, "plymouth-county-51022": {"city": "Plymouth County", "rent": 920, "zip": "51022"}, "plymouth-county-51023": {"city": "Plymouth County", "rent": 1000, "zip": "51023"}, "plymouth-county-51024": {"city": "Plymouth County", "rent": 1110, "zip": "51024"}, "plymouth-county-51027": {"city": "Plymouth County", "rent": 1180, "zip": "51027"}, "plymouth-county-51028": {"city": "Plymouth County", "rent": 960, "zip": "51028"}, "plymouth-county-51031": {"city": "Plymouth County", "rent": 1010, "zip": "51031"}, "plymouth-county-51035": {"city": "Plymouth County", "rent": 1140, "zip": "51035"}, "plymouth-county-51036": {"city": "Plymouth County", "rent": 1140, "zip": "51036"}, "plymouth-county-51038": {"city": "Plymouth County", "rent": 1040, "zip": "51038"}, "plymouth-county-51041": {"city": "Plymouth County", "rent": 920, "zip": "51041"}, "plymouth-county-51045": {"city": "Plymouth County", "rent": 1010, "zip": "51045"}, "plymouth-county-51048": {"city": "Plymouth County", "rent": 1030, "zip": "51048"}, "plymouth-county-51050": {"city": "Plymouth County", "rent": 1080, "zip": "51050"}, "plymouth-county-51062": {"city": "Plymouth County", "rent": 1030, "zip": "51062"}, "plymouth-county-51103": {"city": "Plymouth County", "rent": 1130, "zip": "51103"}, "plymouth-county-51108": {"city": "Plymouth County", "rent": 1250, "zip": "51108"}, "plymouth-county-51109": {"city": "Plymouth County", "rent": 1120, "zip": "51109"}, "pocahontas-county-50510": {"city": "Pocahontas County", "rent": 920, "zip": "50510"}, "pocahontas-county-50520": {"city": "Pocahontas County", "rent": 920, "zip": "50520"}, "pocahontas-county-50524": {"city": "Pocahontas County", "rent": 940, "zip": "50524"}, "pocahontas-county-50540": {"city": "Pocahontas County", "rent": 920, "zip": "50540"}, "pocahontas-county-50541": {"city": "Pocahontas County", "rent": 980, "zip": "50541"}, "pocahontas-county-50546": {"city": "Pocahontas County", "rent": 920, "zip": "50546"}, "pocahontas-county-50554": {"city": "Pocahontas County", "rent": 920, "zip": "50554"}, "pocahontas-county-50562": {"city": "Pocahontas County", "rent": 1380, "zip": "50562"}, "pocahontas-county-50563": {"city": "Pocahontas County", "rent": 920, "zip": "50563"}, "pocahontas-county-50568": {"city": "Pocahontas County", "rent": 920, "zip": "50568"}, "pocahontas-county-50570": {"city": "Pocahontas County", "rent": 920, "zip": "50570"}, "pocahontas-county-50571": {"city": "Pocahontas County", "rent": 930, "zip": "50571"}, "pocahontas-county-50573": {"city": "Pocahontas County", "rent": 1120, "zip": "50573"}, "pocahontas-county-50574": {"city": "Pocahontas County", "rent": 930, "zip": "50574"}, "pocahontas-county-50575": {"city": "Pocahontas County", "rent": 920, "zip": "50575"}, "pocahontas-county-50581": {"city": "Pocahontas County", "rent": 1030, "zip": "50581"}, "pocahontas-county-50593": {"city": "Pocahontas County", "rent": 920, "zip": "50593"}, "pocahontas-county-50597": {"city": "Pocahontas County", "rent": 920, "zip": "50597"}, "poweshiek-county-50027": {"city": "Poweshiek County", "rent": 930, "zip": "50027"}, "poweshiek-county-50104": {"city": "Poweshiek County", "rent": 970, "zip": "50104"}, "poweshiek-county-50106": {"city": "Poweshiek County", "rent": 920, "zip": "50106"}, "poweshiek-county-50112": {"city": "Poweshiek County", "rent": 980, "zip": "50112"}, "poweshiek-county-50153": {"city": "Poweshiek County", "rent": 920, "zip": "50153"}, "poweshiek-county-50157": {"city": "Poweshiek County", "rent": 920, "zip": "50157"}, "poweshiek-county-50171": {"city": "Poweshiek County", "rent": 1040, "zip": "50171"}, "poweshiek-county-50207": {"city": "Poweshiek County", "rent": 920, "zip": "50207"}, "poweshiek-county-50242": {"city": "Poweshiek County", "rent": 980, "zip": "50242"}, "poweshiek-county-52208": {"city": "Poweshiek County", "rent": 920, "zip": "52208"}, "poweshiek-county-52211": {"city": "Poweshiek County", "rent": 1010, "zip": "52211"}, "poweshiek-county-52215": {"city": "Poweshiek County", "rent": 960, "zip": "52215"}, "poweshiek-county-52221": {"city": "Poweshiek County", "rent": 930, "zip": "52221"}, "poweshiek-county-52222": {"city": "Poweshiek County", "rent": 1000, "zip": "52222"}, "poweshiek-county-52232": {"city": "Poweshiek County", "rent": 950, "zip": "52232"}, "poweshiek-county-52339": {"city": "Poweshiek County", "rent": 920, "zip": "52339"}, "poweshiek-county-52347": {"city": "Poweshiek County", "rent": 920, "zip": "52347"}, "ringgold-county-50074": {"city": "Ringgold County", "rent": 970, "zip": "50074"}, "ringgold-county-50133": {"city": "Ringgold County", "rent": 920, "zip": "50133"}, "ringgold-county-50140": {"city": "Ringgold County", "rent": 1000, "zip": "50140"}, "ringgold-county-50835": {"city": "Ringgold County", "rent": 970, "zip": "50835"}, "ringgold-county-50836": {"city": "Ringgold County", "rent": 920, "zip": "50836"}, "ringgold-county-50840": {"city": "Ringgold County", "rent": 920, "zip": "50840"}, "ringgold-county-50845": {"city": "Ringgold County", "rent": 1050, "zip": "50845"}, "ringgold-county-50851": {"city": "Ringgold County", "rent": 980, "zip": "50851"}, "ringgold-county-50854": {"city": "Ringgold County", "rent": 920, "zip": "50854"}, "ringgold-county-50860": {"city": "Ringgold County", "rent": 920, "zip": "50860"}, "ringgold-county-50861": {"city": "Ringgold County", "rent": 1120, "zip": "50861"}, "ringgold-county-50863": {"city": "Ringgold County", "rent": 920, "zip": "50863"}, "sac-county-50535": {"city": "Sac County", "rent": 920, "zip": "50535"}, "sac-county-50540": {"city": "Sac County", "rent": 920, "zip": "50540"}, "sac-county-50561": {"city": "Sac County", "rent": 920, "zip": "50561"}, "sac-county-50567": {"city": "Sac County", "rent": 1130, "zip": "50567"}, "sac-county-50568": {"city": "Sac County", "rent": 920, "zip": "50568"}, "sac-county-50583": {"city": "Sac County", "rent": 920, "zip": "50583"}, "sac-county-50588": {"city": "Sac County", "rent": 1010, "zip": "50588"}, "sac-county-51002": {"city": "Sac County", "rent": 1100, "zip": "51002"}, "sac-county-51020": {"city": "Sac County", "rent": 920, "zip": "51020"}, "sac-county-51053": {"city": "Sac County", "rent": 1140, "zip": "51053"}, "sac-county-51431": {"city": "Sac County", "rent": 920, "zip": "51431"}, "sac-county-51433": {"city": "Sac County", "rent": 980, "zip": "51433"}, "sac-county-51436": {"city": "Sac County", "rent": 930, "zip": "51436"}, "sac-county-51448": {"city": "Sac County", "rent": 920, "zip": "51448"}, "sac-county-51450": {"city": "Sac County", "rent": 920, "zip": "51450"}, "sac-county-51458": {"city": "Sac County", "rent": 920, "zip": "51458"}, "sac-county-51466": {"city": "Sac County", "rent": 920, "zip": "51466"}, "shelby-county-50022": {"city": "Shelby County", "rent": 930, "zip": "50022"}, "shelby-county-50025": {"city": "Shelby County", "rent": 920, "zip": "50025"}, "shelby-county-50076": {"city": "Shelby County", "rent": 920, "zip": "50076"}, "shelby-county-51446": {"city": "Shelby County", "rent": 920, "zip": "51446"}, "shelby-county-51447": {"city": "Shelby County", "rent": 970, "zip": "51447"}, "shelby-county-51454": {"city": "Shelby County", "rent": 920, "zip": "51454"}, "shelby-county-51455": {"city": "Shelby County", "rent": 920, "zip": "51455"}, "shelby-county-51521": {"city": "Shelby County", "rent": 1010, "zip": "51521"}, "shelby-county-51527": {"city": "Shelby County", "rent": 920, "zip": "51527"}, "shelby-county-51528": {"city": "Shelby County", "rent": 920, "zip": "51528"}, "shelby-county-51529": {"city": "Shelby County", "rent": 1040, "zip": "51529"}, "shelby-county-51530": {"city": "Shelby County", "rent": 920, "zip": "51530"}, "shelby-county-51531": {"city": "Shelby County", "rent": 920, "zip": "51531"}, "shelby-county-51537": {"city": "Shelby County", "rent": 990, "zip": "51537"}, "shelby-county-51543": {"city": "Shelby County", "rent": 1240, "zip": "51543"}, "shelby-county-51552": {"city": "Shelby County", "rent": 960, "zip": "51552"}, "shelby-county-51562": {"city": "Shelby County", "rent": 980, "zip": "51562"}, "shelby-county-51563": {"city": "Shelby County", "rent": 1180, "zip": "51563"}, "shelby-county-51565": {"city": "Shelby County", "rent": 960, "zip": "51565"}, "shelby-county-51570": {"city": "Shelby County", "rent": 960, "zip": "51570"}, "shelby-county-51577": {"city": "Shelby County", "rent": 970, "zip": "51577"}, "shelby-county-51578": {"city": "Shelby County", "rent": 940, "zip": "51578"}, "sioux-county-51003": {"city": "Sioux County", "rent": 920, "zip": "51003"}, "sioux-county-51011": {"city": "Sioux County", "rent": 920, "zip": "51011"}, "sioux-county-51022": {"city": "Sioux County", "rent": 920, "zip": "51022"}, "sioux-county-51023": {"city": "Sioux County", "rent": 1000, "zip": "51023"}, "sioux-county-51027": {"city": "Sioux County", "rent": 1180, "zip": "51027"}, "sioux-county-51031": {"city": "Sioux County", "rent": 1010, "zip": "51031"}, "sioux-county-51036": {"city": "Sioux County", "rent": 1140, "zip": "51036"}, "sioux-county-51041": {"city": "Sioux County", "rent": 920, "zip": "51041"}, "sioux-county-51050": {"city": "Sioux County", "rent": 1080, "zip": "51050"}, "sioux-county-51201": {"city": "Sioux County", "rent": 920, "zip": "51201"}, "sioux-county-51232": {"city": "Sioux County", "rent": 1050, "zip": "51232"}, "sioux-county-51234": {"city": "Sioux County", "rent": 920, "zip": "51234"}, "sioux-county-51235": {"city": "Sioux County", "rent": 920, "zip": "51235"}, "sioux-county-51238": {"city": "Sioux County", "rent": 920, "zip": "51238"}, "sioux-county-51239": {"city": "Sioux County", "rent": 920, "zip": "51239"}, "sioux-county-51240": {"city": "Sioux County", "rent": 1150, "zip": "51240"}, "sioux-county-51244": {"city": "Sioux County", "rent": 920, "zip": "51244"}, "sioux-county-51247": {"city": "Sioux County", "rent": 1090, "zip": "51247"}, "sioux-county-51250": {"city": "Sioux County", "rent": 990, "zip": "51250"}, "sioux-county-57034": {"city": "Sioux County", "rent": 960, "zip": "57034"}, "tama-county-50106": {"city": "Tama County", "rent": 920, "zip": "50106"}, "tama-county-50158": {"city": "Tama County", "rent": 960, "zip": "50158"}, "tama-county-50173": {"city": "Tama County", "rent": 1200, "zip": "50173"}, "tama-county-50609": {"city": "Tama County", "rent": 920, "zip": "50609"}, "tama-county-50612": {"city": "Tama County", "rent": 1010, "zip": "50612"}, "tama-county-50632": {"city": "Tama County", "rent": 920, "zip": "50632"}, "tama-county-50635": {"city": "Tama County", "rent": 920, "zip": "50635"}, "tama-county-50638": {"city": "Tama County", "rent": 920, "zip": "50638"}, "tama-county-50651": {"city": "Tama County", "rent": 950, "zip": "50651"}, "tama-county-50652": {"city": "Tama County", "rent": 920, "zip": "50652"}, "tama-county-50669": {"city": "Tama County", "rent": 920, "zip": "50669"}, "tama-county-50675": {"city": "Tama County", "rent": 990, "zip": "50675"}, "tama-county-52208": {"city": "Tama County", "rent": 920, "zip": "52208"}, "tama-county-52215": {"city": "Tama County", "rent": 960, "zip": "52215"}, "tama-county-52217": {"city": "Tama County", "rent": 1040, "zip": "52217"}, "tama-county-52224": {"city": "Tama County", "rent": 920, "zip": "52224"}, "tama-county-52225": {"city": "Tama County", "rent": 1050, "zip": "52225"}, "tama-county-52339": {"city": "Tama County", "rent": 920, "zip": "52339"}, "tama-county-52342": {"city": "Tama County", "rent": 1050, "zip": "52342"}, "tama-county-52348": {"city": "Tama County", "rent": 940, "zip": "52348"}, "taylor-county-50833": {"city": "Taylor County", "rent": 920, "zip": "50833"}, "taylor-county-50836": {"city": "Taylor County", "rent": 920, "zip": "50836"}, "taylor-county-50840": {"city": "Taylor County", "rent": 920, "zip": "50840"}, "taylor-county-50841": {"city": "Taylor County", "rent": 920, "zip": "50841"}, "taylor-county-50848": {"city": "Taylor County", "rent": 940, "zip": "50848"}, "taylor-county-50851": {"city": "Taylor County", "rent": 980, "zip": "50851"}, "taylor-county-50857": {"city": "Taylor County", "rent": 920, "zip": "50857"}, "taylor-county-50862": {"city": "Taylor County", "rent": 950, "zip": "50862"}, "taylor-county-50864": {"city": "Taylor County", "rent": 920, "zip": "50864"}, "taylor-county-51632": {"city": "Taylor County", "rent": 920, "zip": "51632"}, "taylor-county-51646": {"city": "Taylor County", "rent": 1070, "zip": "51646"}, "union-county-50074": {"city": "Union County", "rent": 970, "zip": "50074"}, "union-county-50149": {"city": "Union County", "rent": 1000, "zip": "50149"}, "union-county-50155": {"city": "Union County", "rent": 1060, "zip": "50155"}, "union-county-50174": {"city": "Union County", "rent": 970, "zip": "50174"}, "union-county-50254": {"city": "Union County", "rent": 960, "zip": "50254"}, "union-county-50801": {"city": "Union County", "rent": 920, "zip": "50801"}, "union-county-50830": {"city": "Union County", "rent": 920, "zip": "50830"}, "union-county-50831": {"city": "Union County", "rent": 920, "zip": "50831"}, "union-county-50842": {"city": "Union County", "rent": 920, "zip": "50842"}, "union-county-50845": {"city": "Union County", "rent": 1050, "zip": "50845"}, "union-county-50851": {"city": "Union County", "rent": 980, "zip": "50851"}, "union-county-50861": {"city": "Union County", "rent": 1120, "zip": "50861"}, "van-buren-county-52535": {"city": "Van Buren County", "rent": 940, "zip": "52535"}, "van-buren-county-52542": {"city": "Van Buren County", "rent": 920, "zip": "52542"}, "van-buren-county-52551": {"city": "Van Buren County", "rent": 970, "zip": "52551"}, "van-buren-county-52554": {"city": "Van Buren County", "rent": 930, "zip": "52554"}, "van-buren-county-52565": {"city": "Van Buren County", "rent": 970, "zip": "52565"}, "van-buren-county-52567": {"city": "Van Buren County", "rent": 1060, "zip": "52567"}, "van-buren-county-52570": {"city": "Van Buren County", "rent": 920, "zip": "52570"}, "van-buren-county-52573": {"city": "Van Buren County", "rent": 960, "zip": "52573"}, "van-buren-county-52588": {"city": "Van Buren County", "rent": 1000, "zip": "52588"}, "van-buren-county-52620": {"city": "Van Buren County", "rent": 920, "zip": "52620"}, "van-buren-county-52626": {"city": "Van Buren County", "rent": 970, "zip": "52626"}, "van-buren-county-52630": {"city": "Van Buren County", "rent": 940, "zip": "52630"}, "van-buren-county-52651": {"city": "Van Buren County", "rent": 930, "zip": "52651"}, "wapello-county-52501": {"city": "Wapello County", "rent": 1070, "zip": "52501"}, "wapello-county-52530": {"city": "Wapello County", "rent": 1060, "zip": "52530"}, "wapello-county-52531": {"city": "Wapello County", "rent": 920, "zip": "52531"}, "wapello-county-52533": {"city": "Wapello County", "rent": 1230, "zip": "52533"}, "wapello-county-52536": {"city": "Wapello County", "rent": 920, "zip": "52536"}, "wapello-county-52537": {"city": "Wapello County", "rent": 1060, "zip": "52537"}, "wapello-county-52548": {"city": "Wapello County", "rent": 1070, "zip": "52548"}, "wapello-county-52552": {"city": "Wapello County", "rent": 970, "zip": "52552"}, "wapello-county-52553": {"city": "Wapello County", "rent": 1040, "zip": "52553"}, "wapello-county-52554": {"city": "Wapello County", "rent": 930, "zip": "52554"}, "wapello-county-52561": {"city": "Wapello County", "rent": 920, "zip": "52561"}, "wapello-county-52563": {"city": "Wapello County", "rent": 1020, "zip": "52563"}, "wapello-county-52566": {"city": "Wapello County", "rent": 1060, "zip": "52566"}, "wayne-county-50008": {"city": "Wayne County", "rent": 920, "zip": "50008"}, "wayne-county-50049": {"city": "Wayne County", "rent": 970, "zip": "50049"}, "wayne-county-50052": {"city": "Wayne County", "rent": 920, "zip": "50052"}, "wayne-county-50060": {"city": "Wayne County", "rent": 970, "zip": "50060"}, "wayne-county-50068": {"city": "Wayne County", "rent": 1030, "zip": "50068"}, "wayne-county-50103": {"city": "Wayne County", "rent": 1090, "zip": "50103"}, "wayne-county-50123": {"city": "Wayne County", "rent": 920, "zip": "50123"}, "wayne-county-50147": {"city": "Wayne County", "rent": 920, "zip": "50147"}, "wayne-county-50165": {"city": "Wayne County", "rent": 970, "zip": "50165"}, "wayne-county-50238": {"city": "Wayne County", "rent": 920, "zip": "50238"}, "wayne-county-52569": {"city": "Wayne County", "rent": 1190, "zip": "52569"}, "wayne-county-52581": {"city": "Wayne County", "rent": 970, "zip": "52581"}, "wayne-county-52583": {"city": "Wayne County", "rent": 940, "zip": "52583"}, "wayne-county-52590": {"city": "Wayne County", "rent": 920, "zip": "52590"}, "webster-county-50217": {"city": "Webster County", "rent": 930, "zip": "50217"}, "webster-county-50249": {"city": "Webster County", "rent": 920, "zip": "50249"}, "webster-county-50501": {"city": "Webster County", "rent": 940, "zip": "50501"}, "webster-county-50516": {"city": "Webster County", "rent": 920, "zip": "50516"}, "webster-county-50518": {"city": "Webster County", "rent": 1020, "zip": "50518"}, "webster-county-50521": {"city": "Webster County", "rent": 920, "zip": "50521"}, "webster-county-50523": {"city": "Webster County", "rent": 920, "zip": "50523"}, "webster-county-50524": {"city": "Webster County", "rent": 940, "zip": "50524"}, "webster-county-50530": {"city": "Webster County", "rent": 920, "zip": "50530"}, "webster-county-50532": {"city": "Webster County", "rent": 920, "zip": "50532"}, "webster-county-50533": {"city": "Webster County", "rent": 1080, "zip": "50533"}, "webster-county-50538": {"city": "Webster County", "rent": 1060, "zip": "50538"}, "webster-county-50543": {"city": "Webster County", "rent": 920, "zip": "50543"}, "webster-county-50544": {"city": "Webster County", "rent": 920, "zip": "50544"}, "webster-county-50548": {"city": "Webster County", "rent": 920, "zip": "50548"}, "webster-county-50557": {"city": "Webster County", "rent": 920, "zip": "50557"}, "webster-county-50563": {"city": "Webster County", "rent": 920, "zip": "50563"}, "webster-county-50566": {"city": "Webster County", "rent": 1260, "zip": "50566"}, "webster-county-50569": {"city": "Webster County", "rent": 920, "zip": "50569"}, "webster-county-50586": {"city": "Webster County", "rent": 920, "zip": "50586"}, "webster-county-50591": {"city": "Webster County", "rent": 1340, "zip": "50591"}, "webster-county-50594": {"city": "Webster County", "rent": 920, "zip": "50594"}, "webster-county-50595": {"city": "Webster County", "rent": 1000, "zip": "50595"}, "winnebago-county-50423": {"city": "Winnebago County", "rent": 1200, "zip": "50423"}, "winnebago-county-50424": {"city": "Winnebago County", "rent": 920, "zip": "50424"}, "winnebago-county-50434": {"city": "Winnebago County", "rent": 1020, "zip": "50434"}, "winnebago-county-50436": {"city": "Winnebago County", "rent": 970, "zip": "50436"}, "winnebago-county-50444": {"city": "Winnebago County", "rent": 970, "zip": "50444"}, "winnebago-county-50446": {"city": "Winnebago County", "rent": 920, "zip": "50446"}, "winnebago-county-50450": {"city": "Winnebago County", "rent": 920, "zip": "50450"}, "winnebago-county-50453": {"city": "Winnebago County", "rent": 1110, "zip": "50453"}, "winnebago-county-50459": {"city": "Winnebago County", "rent": 980, "zip": "50459"}, "winnebago-county-50465": {"city": "Winnebago County", "rent": 1070, "zip": "50465"}, "winnebago-county-50473": {"city": "Winnebago County", "rent": 1030, "zip": "50473"}, "winnebago-county-50478": {"city": "Winnebago County", "rent": 920, "zip": "50478"}, "winnebago-county-50480": {"city": "Winnebago County", "rent": 920, "zip": "50480"}, "winnebago-county-50484": {"city": "Winnebago County", "rent": 1020, "zip": "50484"}, "winneshiek-county-52101": {"city": "Winneshiek County", "rent": 940, "zip": "52101"}, "winneshiek-county-52132": {"city": "Winneshiek County", "rent": 920, "zip": "52132"}, "winneshiek-county-52133": {"city": "Winneshiek County", "rent": 920, "zip": "52133"}, "winneshiek-county-52136": {"city": "Winneshiek County", "rent": 1000, "zip": "52136"}, "winneshiek-county-52140": {"city": "Winneshiek County", "rent": 970, "zip": "52140"}, "winneshiek-county-52144": {"city": "Winneshiek County", "rent": 1320, "zip": "52144"}, "winneshiek-county-52161": {"city": "Winneshiek County", "rent": 920, "zip": "52161"}, "winneshiek-county-52162": {"city": "Winneshiek County", "rent": 950, "zip": "52162"}, "winneshiek-county-52165": {"city": "Winneshiek County", "rent": 920, "zip": "52165"}, "winneshiek-county-52168": {"city": "Winneshiek County", "rent": 1040, "zip": "52168"}, "winneshiek-county-52171": {"city": "Winneshiek County", "rent": 970, "zip": "52171"}, "winneshiek-county-52172": {"city": "Winneshiek County", "rent": 990, "zip": "52172"}, "worth-county-50401": {"city": "Worth County", "rent": 970, "zip": "50401"}, "worth-county-50426": {"city": "Worth County", "rent": 1040, "zip": "50426"}, "worth-county-50434": {"city": "Worth County", "rent": 1020, "zip": "50434"}, "worth-county-50440": {"city": "Worth County", "rent": 1000, "zip": "50440"}, "worth-county-50444": {"city": "Worth County", "rent": 970, "zip": "50444"}, "worth-county-50446": {"city": "Worth County", "rent": 920, "zip": "50446"}, "worth-county-50448": {"city": "Worth County", "rent": 970, "zip": "50448"}, "worth-county-50450": {"city": "Worth County", "rent": 920, "zip": "50450"}, "worth-county-50456": {"city": "Worth County", "rent": 920, "zip": "50456"}, "worth-county-50459": {"city": "Worth County", "rent": 980, "zip": "50459"}, "worth-county-50461": {"city": "Worth County", "rent": 920, "zip": "50461"}, "worth-county-50464": {"city": "Worth County", "rent": 1110, "zip": "50464"}, "worth-county-50472": {"city": "Worth County", "rent": 1040, "zip": "50472"}, "wright-county-50006": {"city": "Wright County", "rent": 920, "zip": "50006"}, "wright-county-50034": {"city": "Wright County", "rent": 960, "zip": "50034"}, "wright-county-50071": {"city": "Wright County", "rent": 920, "zip": "50071"}, "wright-county-50101": {"city": "Wright County", "rent": 920, "zip": "50101"}, "wright-county-50271": {"city": "Wright County", "rent": 920, "zip": "50271"}, "wright-county-50420": {"city": "Wright County", "rent": 920, "zip": "50420"}, "wright-county-50421": {"city": "Wright County", "rent": 940, "zip": "50421"}, "wright-county-50430": {"city": "Wright County", "rent": 1050, "zip": "50430"}, "wright-county-50447": {"city": "Wright County", "rent": 920, "zip": "50447"}, "wright-county-50457": {"city": "Wright County", "rent": 920, "zip": "50457"}, "wright-county-50470": {"city": "Wright County", "rent": 920, "zip": "50470"}, "wright-county-50525": {"city": "Wright County", "rent": 920, "zip": "50525"}, "wright-county-50532": {"city": "Wright County", "rent": 920, "zip": "50532"}, "wright-county-50533": {"city": "Wright County", "rent": 1080, "zip": "50533"}, "wright-county-50542": {"city": "Wright County", "rent": 940, "zip": "50542"}, "wright-county-50577": {"city": "Wright County", "rent": 920, "zip": "50577"}, "wright-county-50595": {"city": "Wright County", "rent": 1000, "zip": "50595"}, "wright-county-50599": {"city": "Wright County", "rent": 1020, "zip": "50599"}}