{"cherokee-county-66713": {"city": "Cherokee County", "rent": 930, "zip": "66713"}, "cherokee-county-66724": {"city": "Cherokee County", "rent": 880, "zip": "66724"}, "cherokee-county-66725": {"city": "Cherokee County", "rent": 880, "zip": "66725"}, "cherokee-county-66728": {"city": "Cherokee County", "rent": 880, "zip": "66728"}, "cherokee-county-66739": {"city": "Cherokee County", "rent": 880, "zip": "66739"}, "cherokee-county-66753": {"city": "Cherokee County", "rent": 880, "zip": "66753"}, "cherokee-county-66762": {"city": "Cherokee County", "rent": 930, "zip": "66762"}, "cherokee-county-66770": {"city": "Cherokee County", "rent": 900, "zip": "66770"}, "cherokee-county-66773": {"city": "Cherokee County", "rent": 880, "zip": "66773"}, "cherokee-county-66778": {"city": "Cherokee County", "rent": 880, "zip": "66778"}, "cherokee-county-66781": {"city": "Cherokee County", "rent": 1120, "zip": "66781"}, "cherokee-county-66782": {"city": "Cherokee County", "rent": 880, "zip": "66782"}, "cherokee-county-67336": {"city": "Cherokee County", "rent": 880, "zip": "67336"}, "cherokee-county-67356": {"city": "Cherokee County", "rent": 880, "zip": "67356"}, "lawrence-66006": {"city": "Lawrence", "rent": 1030, "zip": "66006"}, "lawrence-66021": {"city": "Lawrence", "rent": 1330, "zip": "66021"}, "lawrence-66025": {"city": "Lawrence", "rent": 1480, "zip": "66025"}, "lawrence-66044": {"city": "Lawrence", "rent": 1130, "zip": "66044"}, "lawrence-66045": {"city": "Lawrence", "rent": 1180, "zip": "66045"}, "lawrence-66046": {"city": "Lawrence", "rent": 1080, "zip": "66046"}, "lawrence-66047": {"city": "Lawrence", "rent": 1250, "zip": "66047"}, "lawrence-66049": {"city": "Lawrence", "rent": 1240, "zip": "66049"}, "lawrence-66050": {"city": "Lawrence", "rent": 1090, "zip": "66050"}, "lawrence-66092": {"city": "Lawrence", "rent": 1370, "zip": "66092"}, "lawrence-66409": {"city": "Lawrence", "rent": 1030, "zip": "66409"}, "lawrence-66524": {"city": "Lawrence", "rent": 1030, "zip": "66524"}, "lawrence-66542": {"city": "Lawrence", "rent": 1040, "zip": "66542"}, "geary-county-66401": {"city": "Geary County", "rent": 1090, "zip": "66401"}, "geary-county-66441": {"city": "Geary County", "rent": 1050, "zip": "66441"}, "geary-county-66442": {"city": "Geary County", "rent": 1320, "zip": "66442"}, "geary-county-66502": {"city": "Geary County", "rent": 1050, "zip": "66502"}, "geary-county-66514": {"city": "Geary County", "rent": 1020, "zip": "66514"}, "geary-county-66834": {"city": "Geary County", "rent": 1080, "zip": "66834"}, "geary-county-66849": {"city": "Geary County", "rent": 1040, "zip": "66849"}, "geary-county-66872": {"city": "Geary County", "rent": 1050, "zip": "66872"}, "geary-county-67487": {"city": "Geary County", "rent": 960, "zip": "67487"}, "manhattan-66407": {"city": "Manhattan", "rent": 1340, "zip": "66407"}, "manhattan-66411": {"city": "Manhattan", "rent": 1190, "zip": "66411"}, "manhattan-66422": {"city": "Manhattan", "rent": 970, "zip": "66422"}, "manhattan-66427": {"city": "Manhattan", "rent": 900, "zip": "66427"}, "manhattan-66432": {"city": "Manhattan", "rent": 900, "zip": "66432"}, "manhattan-66442": {"city": "Manhattan", "rent": 1320, "zip": "66442"}, "manhattan-66449": {"city": "Manhattan", "rent": 930, "zip": "66449"}, "manhattan-66502": {"city": "Manhattan", "rent": 1050, "zip": "66502"}, "manhattan-66503": {"city": "Manhattan", "rent": 1220, "zip": "66503"}, "manhattan-66505": {"city": "Manhattan", "rent": 1070, "zip": "66505"}, "manhattan-66506": {"city": "Manhattan", "rent": 1050, "zip": "66506"}, "manhattan-66517": {"city": "Manhattan", "rent": 1230, "zip": "66517"}, "manhattan-66520": {"city": "Manhattan", "rent": 900, "zip": "66520"}, "manhattan-66521": {"city": "Manhattan", "rent": 900, "zip": "66521"}, "manhattan-66531": {"city": "Manhattan", "rent": 1190, "zip": "66531"}, "manhattan-66535": {"city": "Manhattan", "rent": 1060, "zip": "66535"}, "manhattan-66536": {"city": "Manhattan", "rent": 900, "zip": "66536"}, "manhattan-66540": {"city": "Manhattan", "rent": 910, "zip": "66540"}, "manhattan-66547": {"city": "Manhattan", "rent": 1060, "zip": "66547"}, "manhattan-66548": {"city": "Manhattan", "rent": 920, "zip": "66548"}, "manhattan-66549": {"city": "Manhattan", "rent": 960, "zip": "66549"}, "manhattan-66554": {"city": "Manhattan", "rent": 1050, "zip": "66554"}, "manhattan-66933": {"city": "Manhattan", "rent": 1040, "zip": "66933"}, "manhattan-67432": {"city": "Manhattan", "rent": 960, "zip": "67432"}, "manhattan-67447": {"city": "Manhattan", "rent": 950, "zip": "67447"}, "topeka-66002": {"city": "Topeka", "rent": 1030, "zip": "66002"}, "topeka-66044": {"city": "Topeka", "rent": 1130, "zip": "66044"}, "topeka-66050": {"city": "Topeka", "rent": 1090, "zip": "66050"}, "topeka-66054": {"city": "Topeka", "rent": 1160, "zip": "66054"}, "topeka-66058": {"city": "Topeka", "rent": 890, "zip": "66058"}, "topeka-66060": {"city": "Topeka", "rent": 980, "zip": "66060"}, "topeka-66066": {"city": "Topeka", "rent": 940, "zip": "66066"}, "topeka-66070": {"city": "Topeka", "rent": 1090, "zip": "66070"}, "topeka-66073": {"city": "Topeka", "rent": 910, "zip": "66073"}, "topeka-66086": {"city": "Topeka", "rent": 1320, "zip": "66086"}, "topeka-66088": {"city": "Topeka", "rent": 890, "zip": "66088"}, "topeka-66095": {"city": "Topeka", "rent": 1140, "zip": "66095"}, "topeka-66097": {"city": "Topeka", "rent": 1030, "zip": "66097"}, "topeka-66401": {"city": "Topeka", "rent": 1090, "zip": "66401"}, "topeka-66402": {"city": "Topeka", "rent": 1070, "zip": "66402"}, "topeka-66407": {"city": "Topeka", "rent": 1340, "zip": "66407"}, "topeka-66409": {"city": "Topeka", "rent": 1030, "zip": "66409"}, "topeka-66413": {"city": "Topeka", "rent": 890, "zip": "66413"}, "topeka-66414": {"city": "Topeka", "rent": 890, "zip": "66414"}, "topeka-66416": {"city": "Topeka", "rent": 890, "zip": "66416"}, "topeka-66418": {"city": "Topeka", "rent": 1090, "zip": "66418"}, "topeka-66419": {"city": "Topeka", "rent": 1000, "zip": "66419"}, "topeka-66420": {"city": "Topeka", "rent": 1080, "zip": "66420"}, "topeka-66422": {"city": "Topeka", "rent": 970, "zip": "66422"}, "topeka-66423": {"city": "Topeka", "rent": 890, "zip": "66423"}, "topeka-66428": {"city": "Topeka", "rent": 910, "zip": "66428"}, "topeka-66429": {"city": "Topeka", "rent": 1060, "zip": "66429"}, "topeka-66431": {"city": "Topeka", "rent": 1380, "zip": "66431"}, "topeka-66432": {"city": "Topeka", "rent": 900, "zip": "66432"}, "topeka-66436": {"city": "Topeka", "rent": 920, "zip": "66436"}, "topeka-66439": {"city": "Topeka", "rent": 890, "zip": "66439"}, "topeka-66440": {"city": "Topeka", "rent": 1060, "zip": "66440"}, "topeka-66451": {"city": "Topeka", "rent": 890, "zip": "66451"}, "topeka-66501": {"city": "Topeka", "rent": 1090, "zip": "66501"}, "topeka-66502": {"city": "Topeka", "rent": 1050, "zip": "66502"}, "topeka-66507": {"city": "Topeka", "rent": 1060, "zip": "66507"}, "topeka-66509": {"city": "Topeka", "rent": 1150, "zip": "66509"}, "topeka-66510": {"city": "Topeka", "rent": 970, "zip": "66510"}, "topeka-66512": {"city": "Topeka", "rent": 970, "zip": "66512"}, "topeka-66516": {"city": "Topeka", "rent": 1030, "zip": "66516"}, "topeka-66523": {"city": "Topeka", "rent": 930, "zip": "66523"}, "topeka-66524": {"city": "Topeka", "rent": 1030, "zip": "66524"}, "topeka-66526": {"city": "Topeka", "rent": 1100, "zip": "66526"}, "topeka-66528": {"city": "Topeka", "rent": 890, "zip": "66528"}, "topeka-66533": {"city": "Topeka", "rent": 1090, "zip": "66533"}, "topeka-66536": {"city": "Topeka", "rent": 900, "zip": "66536"}, "topeka-66537": {"city": "Topeka", "rent": 1070, "zip": "66537"}, "topeka-66539": {"city": "Topeka", "rent": 960, "zip": "66539"}, "topeka-66540": {"city": "Topeka", "rent": 910, "zip": "66540"}, "topeka-66542": {"city": "Topeka", "rent": 1040, "zip": "66542"}, "topeka-66543": {"city": "Topeka", "rent": 1220, "zip": "66543"}, "topeka-66546": {"city": "Topeka", "rent": 1030, "zip": "66546"}, "topeka-66547": {"city": "Topeka", "rent": 1060, "zip": "66547"}, "topeka-66550": {"city": "Topeka", "rent": 980, "zip": "66550"}, "topeka-66552": {"city": "Topeka", "rent": 890, "zip": "66552"}, "topeka-66601": {"city": "Topeka", "rent": 1080, "zip": "66601"}, "topeka-66603": {"city": "Topeka", "rent": 890, "zip": "66603"}, "topeka-66604": {"city": "Topeka", "rent": 1160, "zip": "66604"}, "topeka-66605": {"city": "Topeka", "rent": 1020, "zip": "66605"}, "topeka-66606": {"city": "Topeka", "rent": 1090, "zip": "66606"}, "topeka-66607": {"city": "Topeka", "rent": 910, "zip": "66607"}, "topeka-66608": {"city": "Topeka", "rent": 980, "zip": "66608"}, "topeka-66609": {"city": "Topeka", "rent": 1110, "zip": "66609"}, "topeka-66610": {"city": "Topeka", "rent": 1580, "zip": "66610"}, "topeka-66611": {"city": "Topeka", "rent": 1040, "zip": "66611"}, "topeka-66612": {"city": "Topeka", "rent": 890, "zip": "66612"}, "topeka-66614": {"city": "Topeka", "rent": 1140, "zip": "66614"}, "topeka-66615": {"city": "Topeka", "rent": 1360, "zip": "66615"}, "topeka-66616": {"city": "Topeka", "rent": 1070, "zip": "66616"}, "topeka-66617": {"city": "Topeka", "rent": 1220, "zip": "66617"}, "topeka-66618": {"city": "Topeka", "rent": 1270, "zip": "66618"}, "topeka-66619": {"city": "Topeka", "rent": 1490, "zip": "66619"}, "topeka-66620": {"city": "Topeka", "rent": 1080, "zip": "66620"}, "topeka-66621": {"city": "Topeka", "rent": 1140, "zip": "66621"}, "topeka-66622": {"city": "Topeka", "rent": 1160, "zip": "66622"}, "topeka-66647": {"city": "Topeka", "rent": 1080, "zip": "66647"}, "topeka-66667": {"city": "Topeka", "rent": 1080, "zip": "66667"}, "topeka-66675": {"city": "Topeka", "rent": 1080, "zip": "66675"}, "topeka-66683": {"city": "Topeka", "rent": 1080, "zip": "66683"}, "topeka-66834": {"city": "Topeka", "rent": 1080, "zip": "66834"}, "topeka-66846": {"city": "Topeka", "rent": 890, "zip": "66846"}, "topeka-66856": {"city": "Topeka", "rent": 890, "zip": "66856"}, "topeka-66868": {"city": "Topeka", "rent": 1030, "zip": "66868"}, "topeka-66871": {"city": "Topeka", "rent": 980, "zip": "66871"}, "wichita-66840": {"city": "Wichita", "rent": 880, "zip": "66840"}, "wichita-66842": {"city": "Wichita", "rent": 990, "zip": "66842"}, "wichita-66866": {"city": "Wichita", "rent": 950, "zip": "66866"}, "wichita-67001": {"city": "Wichita", "rent": 1130, "zip": "67001"}, "wichita-67002": {"city": "Wichita", "rent": 1650, "zip": "67002"}, "wichita-67008": {"city": "Wichita", "rent": 970, "zip": "67008"}, "wichita-67010": {"city": "Wichita", "rent": 1180, "zip": "67010"}, "wichita-67012": {"city": "Wichita", "rent": 920, "zip": "67012"}, "wichita-67016": {"city": "Wichita", "rent": 1160, "zip": "67016"}, "wichita-67017": {"city": "Wichita", "rent": 1340, "zip": "67017"}, "wichita-67020": {"city": "Wichita", "rent": 940, "zip": "67020"}, "wichita-67025": {"city": "Wichita", "rent": 1120, "zip": "67025"}, "wichita-67026": {"city": "Wichita", "rent": 1240, "zip": "67026"}, "wichita-67030": {"city": "Wichita", "rent": 1520, "zip": "67030"}, "wichita-67031": {"city": "Wichita", "rent": 1120, "zip": "67031"}, "wichita-67037": {"city": "Wichita", "rent": 1230, "zip": "67037"}, "wichita-67039": {"city": "Wichita", "rent": 940, "zip": "67039"}, "wichita-67041": {"city": "Wichita", "rent": 1030, "zip": "67041"}, "wichita-67042": {"city": "Wichita", "rent": 1000, "zip": "67042"}, "wichita-67045": {"city": "Wichita", "rent": 880, "zip": "67045"}, "wichita-67050": {"city": "Wichita", "rent": 1200, "zip": "67050"}, "wichita-67052": {"city": "Wichita", "rent": 1550, "zip": "67052"}, "wichita-67055": {"city": "Wichita", "rent": 1360, "zip": "67055"}, "wichita-67056": {"city": "Wichita", "rent": 1050, "zip": "67056"}, "wichita-67060": {"city": "Wichita", "rent": 1100, "zip": "67060"}, "wichita-67062": {"city": "Wichita", "rent": 880, "zip": "67062"}, "wichita-67067": {"city": "Wichita", "rent": 1650, "zip": "67067"}, "wichita-67072": {"city": "Wichita", "rent": 880, "zip": "67072"}, "wichita-67074": {"city": "Wichita", "rent": 960, "zip": "67074"}, "wichita-67101": {"city": "Wichita", "rent": 1390, "zip": "67101"}, "wichita-67106": {"city": "Wichita", "rent": 1020, "zip": "67106"}, "wichita-67107": {"city": "Wichita", "rent": 880, "zip": "67107"}, "wichita-67108": {"city": "Wichita", "rent": 1000, "zip": "67108"}, "wichita-67110": {"city": "Wichita", "rent": 1360, "zip": "67110"}, "wichita-67114": {"city": "Wichita", "rent": 1030, "zip": "67114"}, "wichita-67117": {"city": "Wichita", "rent": 1030, "zip": "67117"}, "wichita-67118": {"city": "Wichita", "rent": 910, "zip": "67118"}, "wichita-67120": {"city": "Wichita", "rent": 1090, "zip": "67120"}, "wichita-67123": {"city": "Wichita", "rent": 890, "zip": "67123"}, "wichita-67131": {"city": "Wichita", "rent": 940, "zip": "67131"}, "wichita-67132": {"city": "Wichita", "rent": 1050, "zip": "67132"}, "wichita-67133": {"city": "Wichita", "rent": 1300, "zip": "67133"}, "wichita-67135": {"city": "Wichita", "rent": 1130, "zip": "67135"}, "wichita-67144": {"city": "Wichita", "rent": 1130, "zip": "67144"}, "wichita-67147": {"city": "Wichita", "rent": 1070, "zip": "67147"}, "wichita-67149": {"city": "Wichita", "rent": 1250, "zip": "67149"}, "wichita-67151": {"city": "Wichita", "rent": 1290, "zip": "67151"}, "wichita-67154": {"city": "Wichita", "rent": 1090, "zip": "67154"}, "wichita-67201": {"city": "Wichita", "rent": 1100, "zip": "67201"}, "wichita-67202": {"city": "Wichita", "rent": 1180, "zip": "67202"}, "wichita-67203": {"city": "Wichita", "rent": 1090, "zip": "67203"}, "wichita-67204": {"city": "Wichita", "rent": 1070, "zip": "67204"}, "wichita-67205": {"city": "Wichita", "rent": 1590, "zip": "67205"}, "wichita-67206": {"city": "Wichita", "rent": 1260, "zip": "67206"}, "wichita-67207": {"city": "Wichita", "rent": 1090, "zip": "67207"}, "wichita-67208": {"city": "Wichita", "rent": 1230, "zip": "67208"}, "wichita-67209": {"city": "Wichita", "rent": 1060, "zip": "67209"}, "wichita-67210": {"city": "Wichita", "rent": 1010, "zip": "67210"}, "wichita-67211": {"city": "Wichita", "rent": 1060, "zip": "67211"}, "wichita-67212": {"city": "Wichita", "rent": 1170, "zip": "67212"}, "wichita-67213": {"city": "Wichita", "rent": 1070, "zip": "67213"}, "wichita-67214": {"city": "Wichita", "rent": 880, "zip": "67214"}, "wichita-67215": {"city": "Wichita", "rent": 1650, "zip": "67215"}, "wichita-67216": {"city": "Wichita", "rent": 990, "zip": "67216"}, "wichita-67217": {"city": "Wichita", "rent": 1130, "zip": "67217"}, "wichita-67218": {"city": "Wichita", "rent": 1000, "zip": "67218"}, "wichita-67219": {"city": "Wichita", "rent": 1190, "zip": "67219"}, "wichita-67220": {"city": "Wichita", "rent": 1080, "zip": "67220"}, "wichita-67221": {"city": "Wichita", "rent": 1030, "zip": "67221"}, "wichita-67223": {"city": "Wichita", "rent": 1550, "zip": "67223"}, "wichita-67226": {"city": "Wichita", "rent": 1360, "zip": "67226"}, "wichita-67227": {"city": "Wichita", "rent": 1520, "zip": "67227"}, "wichita-67228": {"city": "Wichita", "rent": 1390, "zip": "67228"}, "wichita-67230": {"city": "Wichita", "rent": 1650, "zip": "67230"}, "wichita-67232": {"city": "Wichita", "rent": 1330, "zip": "67232"}, "wichita-67235": {"city": "Wichita", "rent": 1650, "zip": "67235"}, "wichita-67260": {"city": "Wichita", "rent": 1090, "zip": "67260"}, "wichita-67275": {"city": "Wichita", "rent": 1100, "zip": "67275"}, "wichita-67277": {"city": "Wichita", "rent": 1100, "zip": "67277"}, "wichita-67278": {"city": "Wichita", "rent": 1100, "zip": "67278"}, "wichita-67522": {"city": "Wichita", "rent": 880, "zip": "67522"}, "wichita-67543": {"city": "Wichita", "rent": 890, "zip": "67543"}, "wichita-67546": {"city": "Wichita", "rent": 960, "zip": "67546"}, "sumner-county-67004": {"city": "Sumner County", "rent": 880, "zip": "67004"}, "sumner-county-67013": {"city": "Sumner County", "rent": 950, "zip": "67013"}, "sumner-county-67018": {"city": "Sumner County", "rent": 930, "zip": "67018"}, "sumner-county-67022": {"city": "Sumner County", "rent": 880, "zip": "67022"}, "sumner-county-67026": {"city": "Sumner County", "rent": 1240, "zip": "67026"}, "sumner-county-67031": {"city": "Sumner County", "rent": 1120, "zip": "67031"}, "sumner-county-67049": {"city": "Sumner County", "rent": 920, "zip": "67049"}, "sumner-county-67051": {"city": "Sumner County", "rent": 910, "zip": "67051"}, "sumner-county-67103": {"city": "Sumner County", "rent": 1080, "zip": "67103"}, "sumner-county-67105": {"city": "Sumner County", "rent": 910, "zip": "67105"}, "sumner-county-67106": {"city": "Sumner County", "rent": 1020, "zip": "67106"}, "sumner-county-67110": {"city": "Sumner County", "rent": 1360, "zip": "67110"}, "sumner-county-67118": {"city": "Sumner County", "rent": 910, "zip": "67118"}, "sumner-county-67119": {"city": "Sumner County", "rent": 940, "zip": "67119"}, "sumner-county-67120": {"city": "Sumner County", "rent": 1090, "zip": "67120"}, "sumner-county-67140": {"city": "Sumner County", "rent": 880, "zip": "67140"}, "sumner-county-67146": {"city": "Sumner County", "rent": 980, "zip": "67146"}, "sumner-county-67152": {"city": "Sumner County", "rent": 1050, "zip": "67152"}, "allen-county-66015": {"city": "Allen County", "rent": 880, "zip": "66015"}, "allen-county-66039": {"city": "Allen County", "rent": 1030, "zip": "66039"}, "allen-county-66716": {"city": "Allen County", "rent": 1030, "zip": "66716"}, "allen-county-66720": {"city": "Allen County", "rent": 900, "zip": "66720"}, "allen-county-66732": {"city": "Allen County", "rent": 880, "zip": "66732"}, "allen-county-66742": {"city": "Allen County", "rent": 910, "zip": "66742"}, "allen-county-66748": {"city": "Allen County", "rent": 880, "zip": "66748"}, "allen-county-66749": {"city": "Allen County", "rent": 910, "zip": "66749"}, "allen-county-66751": {"city": "Allen County", "rent": 880, "zip": "66751"}, "allen-county-66755": {"city": "Allen County", "rent": 880, "zip": "66755"}, "allen-county-66758": {"city": "Allen County", "rent": 1290, "zip": "66758"}, "allen-county-66761": {"city": "Allen County", "rent": 1020, "zip": "66761"}, "allen-county-66772": {"city": "Allen County", "rent": 880, "zip": "66772"}, "anderson-county-66010": {"city": "Anderson County", "rent": 1030, "zip": "66010"}, "anderson-county-66014": {"city": "Anderson County", "rent": 1030, "zip": "66014"}, "anderson-county-66015": {"city": "Anderson County", "rent": 880, "zip": "66015"}, "anderson-county-66032": {"city": "Anderson County", "rent": 890, "zip": "66032"}, "anderson-county-66033": {"city": "Anderson County", "rent": 1030, "zip": "66033"}, "anderson-county-66039": {"city": "Anderson County", "rent": 1030, "zip": "66039"}, "anderson-county-66080": {"city": "Anderson County", "rent": 950, "zip": "66080"}, "anderson-county-66091": {"city": "Anderson County", "rent": 890, "zip": "66091"}, "anderson-county-66093": {"city": "Anderson County", "rent": 900, "zip": "66093"}, "anderson-county-66095": {"city": "Anderson County", "rent": 1140, "zip": "66095"}, "anderson-county-66758": {"city": "Anderson County", "rent": 1290, "zip": "66758"}, "atchison-county-66002": {"city": "Atchison County", "rent": 1030, "zip": "66002"}, "atchison-county-66016": {"city": "Atchison County", "rent": 910, "zip": "66016"}, "atchison-county-66023": {"city": "Atchison County", "rent": 880, "zip": "66023"}, "atchison-county-66041": {"city": "Atchison County", "rent": 940, "zip": "66041"}, "atchison-county-66058": {"city": "Atchison County", "rent": 890, "zip": "66058"}, "atchison-county-66060": {"city": "Atchison County", "rent": 980, "zip": "66060"}, "atchison-county-66088": {"city": "Atchison County", "rent": 890, "zip": "66088"}, "atchison-county-66424": {"city": "Atchison County", "rent": 880, "zip": "66424"}, "atchison-county-66436": {"city": "Atchison County", "rent": 920, "zip": "66436"}, "atchison-county-66439": {"city": "Atchison County", "rent": 890, "zip": "66439"}, "atchison-county-66552": {"city": "Atchison County", "rent": 890, "zip": "66552"}, "barber-county-67009": {"city": "Barber County", "rent": 880, "zip": "67009"}, "barber-county-67028": {"city": "Barber County", "rent": 920, "zip": "67028"}, "barber-county-67057": {"city": "Barber County", "rent": 1010, "zip": "67057"}, "barber-county-67061": {"city": "Barber County", "rent": 890, "zip": "67061"}, "barber-county-67065": {"city": "Barber County", "rent": 880, "zip": "67065"}, "barber-county-67070": {"city": "Barber County", "rent": 880, "zip": "67070"}, "barber-county-67071": {"city": "Barber County", "rent": 940, "zip": "67071"}, "barber-county-67104": {"city": "Barber County", "rent": 880, "zip": "67104"}, "barber-county-67112": {"city": "Barber County", "rent": 880, "zip": "67112"}, "barber-county-67134": {"city": "Barber County", "rent": 880, "zip": "67134"}, "barber-county-67138": {"city": "Barber County", "rent": 930, "zip": "67138"}, "barber-county-67143": {"city": "Barber County", "rent": 880, "zip": "67143"}, "barton-county-67427": {"city": "Barton County", "rent": 900, "zip": "67427"}, "barton-county-67450": {"city": "Barton County", "rent": 880, "zip": "67450"}, "barton-county-67511": {"city": "Barton County", "rent": 910, "zip": "67511"}, "barton-county-67525": {"city": "Barton County", "rent": 880, "zip": "67525"}, "barton-county-67526": {"city": "Barton County", "rent": 880, "zip": "67526"}, "barton-county-67530": {"city": "Barton County", "rent": 890, "zip": "67530"}, "barton-county-67544": {"city": "Barton County", "rent": 980, "zip": "67544"}, "barton-county-67564": {"city": "Barton County", "rent": 970, "zip": "67564"}, "barton-county-67565": {"city": "Barton County", "rent": 1020, "zip": "67565"}, "barton-county-67567": {"city": "Barton County", "rent": 920, "zip": "67567"}, "barton-county-67665": {"city": "Barton County", "rent": 900, "zip": "67665"}, "bourbon-county-66010": {"city": "Bourbon County", "rent": 1030, "zip": "66010"}, "bourbon-county-66056": {"city": "Bourbon County", "rent": 1030, "zip": "66056"}, "bourbon-county-66701": {"city": "Bourbon County", "rent": 940, "zip": "66701"}, "bourbon-county-66711": {"city": "Bourbon County", "rent": 880, "zip": "66711"}, "bourbon-county-66716": {"city": "Bourbon County", "rent": 1030, "zip": "66716"}, "bourbon-county-66738": {"city": "Bourbon County", "rent": 1030, "zip": "66738"}, "bourbon-county-66741": {"city": "Bourbon County", "rent": 910, "zip": "66741"}, "bourbon-county-66746": {"city": "Bourbon County", "rent": 920, "zip": "66746"}, "bourbon-county-66754": {"city": "Bourbon County", "rent": 1280, "zip": "66754"}, "bourbon-county-66755": {"city": "Bourbon County", "rent": 880, "zip": "66755"}, "bourbon-county-66769": {"city": "Bourbon County", "rent": 920, "zip": "66769"}, "bourbon-county-66772": {"city": "Bourbon County", "rent": 880, "zip": "66772"}, "bourbon-county-66775": {"city": "Bourbon County", "rent": 880, "zip": "66775"}, "bourbon-county-66779": {"city": "Bourbon County", "rent": 880, "zip": "66779"}, "bourbon-county-66780": {"city": "Bourbon County", "rent": 880, "zip": "66780"}, "brown-county-66017": {"city": "Brown County", "rent": 940, "zip": "66017"}, "brown-county-66041": {"city": "Brown County", "rent": 940, "zip": "66041"}, "brown-county-66094": {"city": "Brown County", "rent": 940, "zip": "66094"}, "brown-county-66424": {"city": "Brown County", "rent": 880, "zip": "66424"}, "brown-county-66425": {"city": "Brown County", "rent": 1070, "zip": "66425"}, "brown-county-66434": {"city": "Brown County", "rent": 890, "zip": "66434"}, "brown-county-66439": {"city": "Brown County", "rent": 890, "zip": "66439"}, "brown-county-66515": {"city": "Brown County", "rent": 910, "zip": "66515"}, "brown-county-66516": {"city": "Brown County", "rent": 1030, "zip": "66516"}, "brown-county-66527": {"city": "Brown County", "rent": 1140, "zip": "66527"}, "brown-county-66532": {"city": "Brown County", "rent": 940, "zip": "66532"}, "brown-county-66534": {"city": "Brown County", "rent": 880, "zip": "66534"}, "brown-county-66550": {"city": "Brown County", "rent": 980, "zip": "66550"}, "chase-county-66801": {"city": "Chase County", "rent": 890, "zip": "66801"}, "chase-county-66838": {"city": "Chase County", "rent": 880, "zip": "66838"}, "chase-county-66840": {"city": "Chase County", "rent": 880, "zip": "66840"}, "chase-county-66843": {"city": "Chase County", "rent": 900, "zip": "66843"}, "chase-county-66845": {"city": "Chase County", "rent": 880, "zip": "66845"}, "chase-county-66846": {"city": "Chase County", "rent": 890, "zip": "66846"}, "chase-county-66850": {"city": "Chase County", "rent": 980, "zip": "66850"}, "chase-county-66858": {"city": "Chase County", "rent": 880, "zip": "66858"}, "chase-county-66862": {"city": "Chase County", "rent": 880, "zip": "66862"}, "chase-county-66865": {"city": "Chase County", "rent": 1150, "zip": "66865"}, "chase-county-66869": {"city": "Chase County", "rent": 1100, "zip": "66869"}, "chautauqua-county-67024": {"city": "Chautauqua County", "rent": 880, "zip": "67024"}, "chautauqua-county-67334": {"city": "Chautauqua County", "rent": 930, "zip": "67334"}, "chautauqua-county-67344": {"city": "Chautauqua County", "rent": 1110, "zip": "67344"}, "chautauqua-county-67346": {"city": "Chautauqua County", "rent": 1110, "zip": "67346"}, "chautauqua-county-67347": {"city": "Chautauqua County", "rent": 1010, "zip": "67347"}, "chautauqua-county-67349": {"city": "Chautauqua County", "rent": 880, "zip": "67349"}, "chautauqua-county-67352": {"city": "Chautauqua County", "rent": 880, "zip": "67352"}, "chautauqua-county-67353": {"city": "Chautauqua County", "rent": 1000, "zip": "67353"}, "chautauqua-county-67355": {"city": "Chautauqua County", "rent": 880, "zip": "67355"}, "chautauqua-county-67360": {"city": "Chautauqua County", "rent": 930, "zip": "67360"}, "chautauqua-county-67361": {"city": "Chautauqua County", "rent": 930, "zip": "67361"}, "cheyenne-county-67731": {"city": "Cheyenne County", "rent": 910, "zip": "67731"}, "cheyenne-county-67741": {"city": "Cheyenne County", "rent": 990, "zip": "67741"}, "cheyenne-county-67745": {"city": "Cheyenne County", "rent": 940, "zip": "67745"}, "cheyenne-county-67756": {"city": "Cheyenne County", "rent": 890, "zip": "67756"}, "clark-county-67127": {"city": "Clark County", "rent": 880, "zip": "67127"}, "clark-county-67831": {"city": "Clark County", "rent": 880, "zip": "67831"}, "clark-county-67834": {"city": "Clark County", "rent": 880, "zip": "67834"}, "clark-county-67840": {"city": "Clark County", "rent": 880, "zip": "67840"}, "clark-county-67842": {"city": "Clark County", "rent": 880, "zip": "67842"}, "clark-county-67865": {"city": "Clark County", "rent": 1010, "zip": "67865"}, "clay-county-66937": {"city": "Clay County", "rent": 880, "zip": "66937"}, "clay-county-66938": {"city": "Clay County", "rent": 910, "zip": "66938"}, "clay-county-66962": {"city": "Clay County", "rent": 880, "zip": "66962"}, "clay-county-67410": {"city": "Clay County", "rent": 880, "zip": "67410"}, "clay-county-67432": {"city": "Clay County", "rent": 960, "zip": "67432"}, "clay-county-67447": {"city": "Clay County", "rent": 950, "zip": "67447"}, "clay-county-67458": {"city": "Clay County", "rent": 950, "zip": "67458"}, "clay-county-67466": {"city": "Clay County", "rent": 880, "zip": "67466"}, "clay-county-67468": {"city": "Clay County", "rent": 920, "zip": "67468"}, "clay-county-67487": {"city": "Clay County", "rent": 960, "zip": "67487"}, "cloud-county-66901": {"city": "Cloud County", "rent": 910, "zip": "66901"}, "cloud-county-66930": {"city": "Cloud County", "rent": 900, "zip": "66930"}, "cloud-county-66935": {"city": "Cloud County", "rent": 880, "zip": "66935"}, "cloud-county-66938": {"city": "Cloud County", "rent": 910, "zip": "66938"}, "cloud-county-66940": {"city": "Cloud County", "rent": 880, "zip": "66940"}, "cloud-county-66948": {"city": "Cloud County", "rent": 910, "zip": "66948"}, "cloud-county-66966": {"city": "Cloud County", "rent": 880, "zip": "66966"}, "cloud-county-67417": {"city": "Cloud County", "rent": 900, "zip": "67417"}, "cloud-county-67420": {"city": "Cloud County", "rent": 920, "zip": "67420"}, "cloud-county-67436": {"city": "Cloud County", "rent": 880, "zip": "67436"}, "cloud-county-67445": {"city": "Cloud County", "rent": 900, "zip": "67445"}, "cloud-county-67455": {"city": "Cloud County", "rent": 940, "zip": "67455"}, "cloud-county-67466": {"city": "Cloud County", "rent": 880, "zip": "67466"}, "coffey-county-66093": {"city": "Coffey County", "rent": 900, "zip": "66093"}, "coffey-county-66095": {"city": "Coffey County", "rent": 1140, "zip": "66095"}, "coffey-county-66758": {"city": "Coffey County", "rent": 1290, "zip": "66758"}, "coffey-county-66783": {"city": "Coffey County", "rent": 880, "zip": "66783"}, "coffey-county-66839": {"city": "Coffey County", "rent": 880, "zip": "66839"}, "coffey-county-66852": {"city": "Coffey County", "rent": 880, "zip": "66852"}, "coffey-county-66854": {"city": "Coffey County", "rent": 880, "zip": "66854"}, "coffey-county-66856": {"city": "Coffey County", "rent": 890, "zip": "66856"}, "coffey-county-66857": {"city": "Coffey County", "rent": 880, "zip": "66857"}, "coffey-county-66864": {"city": "Coffey County", "rent": 900, "zip": "66864"}, "coffey-county-66868": {"city": "Coffey County", "rent": 1030, "zip": "66868"}, "coffey-county-66871": {"city": "Coffey County", "rent": 980, "zip": "66871"}, "comanche-county-67029": {"city": "Comanche County", "rent": 950, "zip": "67029"}, "comanche-county-67127": {"city": "Comanche County", "rent": 880, "zip": "67127"}, "comanche-county-67155": {"city": "Comanche County", "rent": 880, "zip": "67155"}, "cowley-county-67005": {"city": "Cowley County", "rent": 890, "zip": "67005"}, "cowley-county-67008": {"city": "Cowley County", "rent": 970, "zip": "67008"}, "cowley-county-67019": {"city": "Cowley County", "rent": 930, "zip": "67019"}, "cowley-county-67023": {"city": "Cowley County", "rent": 950, "zip": "67023"}, "cowley-county-67024": {"city": "Cowley County", "rent": 880, "zip": "67024"}, "cowley-county-67038": {"city": "Cowley County", "rent": 880, "zip": "67038"}, "cowley-county-67039": {"city": "Cowley County", "rent": 940, "zip": "67039"}, "cowley-county-67051": {"city": "Cowley County", "rent": 910, "zip": "67051"}, "cowley-county-67072": {"city": "Cowley County", "rent": 880, "zip": "67072"}, "cowley-county-67102": {"city": "Cowley County", "rent": 900, "zip": "67102"}, "cowley-county-67110": {"city": "Cowley County", "rent": 1360, "zip": "67110"}, "cowley-county-67119": {"city": "Cowley County", "rent": 940, "zip": "67119"}, "cowley-county-67131": {"city": "Cowley County", "rent": 940, "zip": "67131"}, "cowley-county-67146": {"city": "Cowley County", "rent": 980, "zip": "67146"}, "cowley-county-67156": {"city": "Cowley County", "rent": 880, "zip": "67156"}, "crawford-county-66701": {"city": "Crawford County", "rent": 940, "zip": "66701"}, "crawford-county-66711": {"city": "Crawford County", "rent": 880, "zip": "66711"}, "crawford-county-66712": {"city": "Crawford County", "rent": 880, "zip": "66712"}, "crawford-county-66724": {"city": "Crawford County", "rent": 880, "zip": "66724"}, "crawford-county-66734": {"city": "Crawford County", "rent": 900, "zip": "66734"}, "crawford-county-66735": {"city": "Crawford County", "rent": 1010, "zip": "66735"}, "crawford-county-66743": {"city": "Crawford County", "rent": 890, "zip": "66743"}, "crawford-county-66746": {"city": "Crawford County", "rent": 920, "zip": "66746"}, "crawford-county-66753": {"city": "Crawford County", "rent": 880, "zip": "66753"}, "crawford-county-66756": {"city": "Crawford County", "rent": 880, "zip": "66756"}, "crawford-county-66760": {"city": "Crawford County", "rent": 980, "zip": "66760"}, "crawford-county-66762": {"city": "Crawford County", "rent": 930, "zip": "66762"}, "crawford-county-66763": {"city": "Crawford County", "rent": 920, "zip": "66763"}, "crawford-county-66780": {"city": "Crawford County", "rent": 880, "zip": "66780"}, "crawford-county-66781": {"city": "Crawford County", "rent": 1120, "zip": "66781"}, "decatur-county-67629": {"city": "Decatur County", "rent": 880, "zip": "67629"}, "decatur-county-67635": {"city": "Decatur County", "rent": 880, "zip": "67635"}, "decatur-county-67643": {"city": "Decatur County", "rent": 880, "zip": "67643"}, "decatur-county-67653": {"city": "Decatur County", "rent": 880, "zip": "67653"}, "decatur-county-67739": {"city": "Decatur County", "rent": 880, "zip": "67739"}, "decatur-county-67749": {"city": "Decatur County", "rent": 880, "zip": "67749"}, "decatur-county-67757": {"city": "Decatur County", "rent": 880, "zip": "67757"}, "decatur-county-69026": {"city": "Decatur County", "rent": 960, "zip": "69026"}, "dickinson-county-66441": {"city": "Dickinson County", "rent": 1050, "zip": "66441"}, "dickinson-county-67410": {"city": "Dickinson County", "rent": 880, "zip": "67410"}, "dickinson-county-67431": {"city": "Dickinson County", "rent": 970, "zip": "67431"}, "dickinson-county-67441": {"city": "Dickinson County", "rent": 1040, "zip": "67441"}, "dickinson-county-67448": {"city": "Dickinson County", "rent": 930, "zip": "67448"}, "dickinson-county-67449": {"city": "Dickinson County", "rent": 1010, "zip": "67449"}, "dickinson-county-67451": {"city": "Dickinson County", "rent": 880, "zip": "67451"}, "dickinson-county-67458": {"city": "Dickinson County", "rent": 950, "zip": "67458"}, "dickinson-county-67475": {"city": "Dickinson County", "rent": 910, "zip": "67475"}, "dickinson-county-67480": {"city": "Dickinson County", "rent": 1140, "zip": "67480"}, "dickinson-county-67482": {"city": "Dickinson County", "rent": 880, "zip": "67482"}, "dickinson-county-67487": {"city": "Dickinson County", "rent": 960, "zip": "67487"}, "dickinson-county-67492": {"city": "Dickinson County", "rent": 940, "zip": "67492"}, "edwards-county-67054": {"city": "Edwards County", "rent": 880, "zip": "67054"}, "edwards-county-67059": {"city": "Edwards County", "rent": 990, "zip": "67059"}, "edwards-county-67519": {"city": "Edwards County", "rent": 900, "zip": "67519"}, "edwards-county-67547": {"city": "Edwards County", "rent": 880, "zip": "67547"}, "edwards-county-67552": {"city": "Edwards County", "rent": 910, "zip": "67552"}, "edwards-county-67557": {"city": "Edwards County", "rent": 880, "zip": "67557"}, "edwards-county-67563": {"city": "Edwards County", "rent": 1110, "zip": "67563"}, "elk-county-66736": {"city": "Elk County", "rent": 880, "zip": "66736"}, "elk-county-67047": {"city": "Elk County", "rent": 890, "zip": "67047"}, "elk-county-67122": {"city": "Elk County", "rent": 880, "zip": "67122"}, "elk-county-67137": {"city": "Elk County", "rent": 910, "zip": "67137"}, "elk-county-67344": {"city": "Elk County", "rent": 1110, "zip": "67344"}, "elk-county-67345": {"city": "Elk County", "rent": 890, "zip": "67345"}, "elk-county-67346": {"city": "Elk County", "rent": 1110, "zip": "67346"}, "elk-county-67349": {"city": "Elk County", "rent": 880, "zip": "67349"}, "elk-county-67352": {"city": "Elk County", "rent": 880, "zip": "67352"}, "elk-county-67353": {"city": "Elk County", "rent": 1000, "zip": "67353"}, "ellis-county-67520": {"city": "Ellis County", "rent": 950, "zip": "67520"}, "ellis-county-67556": {"city": "Ellis County", "rent": 900, "zip": "67556"}, "ellis-county-67565": {"city": "Ellis County", "rent": 1020, "zip": "67565"}, "ellis-county-67601": {"city": "Ellis County", "rent": 940, "zip": "67601"}, "ellis-county-67627": {"city": "Ellis County", "rent": 940, "zip": "67627"}, "ellis-county-67637": {"city": "Ellis County", "rent": 880, "zip": "67637"}, "ellis-county-67640": {"city": "Ellis County", "rent": 920, "zip": "67640"}, "ellis-county-67651": {"city": "Ellis County", "rent": 880, "zip": "67651"}, "ellis-county-67659": {"city": "Ellis County", "rent": 880, "zip": "67659"}, "ellis-county-67660": {"city": "Ellis County", "rent": 950, "zip": "67660"}, "ellis-county-67663": {"city": "Ellis County", "rent": 930, "zip": "67663"}, "ellis-county-67667": {"city": "Ellis County", "rent": 940, "zip": "67667"}, "ellis-county-67671": {"city": "Ellis County", "rent": 970, "zip": "67671"}, "ellis-county-67674": {"city": "Ellis County", "rent": 950, "zip": "67674"}, "ellsworth-county-67423": {"city": "Ellsworth County", "rent": 930, "zip": "67423"}, "ellsworth-county-67425": {"city": "Ellsworth County", "rent": 1000, "zip": "67425"}, "ellsworth-county-67427": {"city": "Ellsworth County", "rent": 900, "zip": "67427"}, "ellsworth-county-67439": {"city": "Ellsworth County", "rent": 880, "zip": "67439"}, "ellsworth-county-67444": {"city": "Ellsworth County", "rent": 1100, "zip": "67444"}, "ellsworth-county-67450": {"city": "Ellsworth County", "rent": 880, "zip": "67450"}, "ellsworth-county-67454": {"city": "Ellsworth County", "rent": 980, "zip": "67454"}, "ellsworth-county-67459": {"city": "Ellsworth County", "rent": 920, "zip": "67459"}, "ellsworth-county-67464": {"city": "Ellsworth County", "rent": 920, "zip": "67464"}, "ellsworth-county-67490": {"city": "Ellsworth County", "rent": 990, "zip": "67490"}, "finney-county-67835": {"city": "Finney County", "rent": 930, "zip": "67835"}, "finney-county-67837": {"city": "Finney County", "rent": 930, "zip": "67837"}, "finney-county-67838": {"city": "Finney County", "rent": 1280, "zip": "67838"}, "finney-county-67839": {"city": "Finney County", "rent": 1000, "zip": "67839"}, "finney-county-67846": {"city": "Finney County", "rent": 1040, "zip": "67846"}, "finney-county-67851": {"city": "Finney County", "rent": 1170, "zip": "67851"}, "finney-county-67853": {"city": "Finney County", "rent": 1090, "zip": "67853"}, "finney-county-67868": {"city": "Finney County", "rent": 1030, "zip": "67868"}, "finney-county-67871": {"city": "Finney County", "rent": 930, "zip": "67871"}, "ford-county-67563": {"city": "Ford County", "rent": 1110, "zip": "67563"}, "ford-county-67801": {"city": "Ford County", "rent": 980, "zip": "67801"}, "ford-county-67834": {"city": "Ford County", "rent": 880, "zip": "67834"}, "ford-county-67835": {"city": "Ford County", "rent": 930, "zip": "67835"}, "ford-county-67841": {"city": "Ford County", "rent": 1000, "zip": "67841"}, "ford-county-67842": {"city": "Ford County", "rent": 880, "zip": "67842"}, "ford-county-67843": {"city": "Ford County", "rent": 930, "zip": "67843"}, "ford-county-67844": {"city": "Ford County", "rent": 990, "zip": "67844"}, "ford-county-67865": {"city": "Ford County", "rent": 1010, "zip": "67865"}, "ford-county-67876": {"city": "Ford County", "rent": 880, "zip": "67876"}, "ford-county-67882": {"city": "Ford County", "rent": 930, "zip": "67882"}, "franklin-county-66006": {"city": "Franklin County", "rent": 1030, "zip": "66006"}, "franklin-county-66033": {"city": "Franklin County", "rent": 1030, "zip": "66033"}, "franklin-county-66042": {"city": "Franklin County", "rent": 1070, "zip": "66042"}, "franklin-county-66064": {"city": "Franklin County", "rent": 1080, "zip": "66064"}, "franklin-county-66067": {"city": "Franklin County", "rent": 1000, "zip": "66067"}, "franklin-county-66076": {"city": "Franklin County", "rent": 1030, "zip": "66076"}, "franklin-county-66078": {"city": "Franklin County", "rent": 1010, "zip": "66078"}, "franklin-county-66079": {"city": "Franklin County", "rent": 1120, "zip": "66079"}, "franklin-county-66080": {"city": "Franklin County", "rent": 950, "zip": "66080"}, "franklin-county-66092": {"city": "Franklin County", "rent": 1370, "zip": "66092"}, "franklin-county-66095": {"city": "Franklin County", "rent": 1140, "zip": "66095"}, "franklin-county-66524": {"city": "Franklin County", "rent": 1030, "zip": "66524"}, "franklin-county-66528": {"city": "Franklin County", "rent": 890, "zip": "66528"}, "gove-county-67584": {"city": "Gove County", "rent": 880, "zip": "67584"}, "gove-county-67736": {"city": "Gove County", "rent": 880, "zip": "67736"}, "gove-county-67737": {"city": "Gove County", "rent": 880, "zip": "67737"}, "gove-county-67738": {"city": "Gove County", "rent": 880, "zip": "67738"}, "gove-county-67748": {"city": "Gove County", "rent": 930, "zip": "67748"}, "gove-county-67751": {"city": "Gove County", "rent": 890, "zip": "67751"}, "gove-county-67752": {"city": "Gove County", "rent": 890, "zip": "67752"}, "gove-county-67839": {"city": "Gove County", "rent": 1000, "zip": "67839"}, "gove-county-67850": {"city": "Gove County", "rent": 1060, "zip": "67850"}, "graham-county-67625": {"city": "Graham County", "rent": 880, "zip": "67625"}, "graham-county-67631": {"city": "Graham County", "rent": 890, "zip": "67631"}, "graham-county-67632": {"city": "Graham County", "rent": 880, "zip": "67632"}, "graham-county-67642": {"city": "Graham County", "rent": 880, "zip": "67642"}, "graham-county-67645": {"city": "Graham County", "rent": 890, "zip": "67645"}, "graham-county-67646": {"city": "Graham County", "rent": 880, "zip": "67646"}, "graham-county-67650": {"city": "Graham County", "rent": 880, "zip": "67650"}, "graham-county-67656": {"city": "Graham County", "rent": 880, "zip": "67656"}, "graham-county-67657": {"city": "Graham County", "rent": 880, "zip": "67657"}, "graham-county-67659": {"city": "Graham County", "rent": 880, "zip": "67659"}, "graham-county-67672": {"city": "Graham County", "rent": 890, "zip": "67672"}, "graham-county-67740": {"city": "Graham County", "rent": 890, "zip": "67740"}, "grant-county-67855": {"city": "Grant County", "rent": 880, "zip": "67855"}, "grant-county-67860": {"city": "Grant County", "rent": 1360, "zip": "67860"}, "grant-county-67870": {"city": "Grant County", "rent": 890, "zip": "67870"}, "grant-county-67880": {"city": "Grant County", "rent": 1170, "zip": "67880"}, "gray-county-67801": {"city": "Gray County", "rent": 980, "zip": "67801"}, "gray-county-67835": {"city": "Gray County", "rent": 930, "zip": "67835"}, "gray-county-67837": {"city": "Gray County", "rent": 930, "zip": "67837"}, "gray-county-67841": {"city": "Gray County", "rent": 1000, "zip": "67841"}, "gray-county-67843": {"city": "Gray County", "rent": 930, "zip": "67843"}, "gray-county-67844": {"city": "Gray County", "rent": 990, "zip": "67844"}, "gray-county-67846": {"city": "Gray County", "rent": 1040, "zip": "67846"}, "gray-county-67853": {"city": "Gray County", "rent": 1090, "zip": "67853"}, "gray-county-67867": {"city": "Gray County", "rent": 880, "zip": "67867"}, "gray-county-67868": {"city": "Gray County", "rent": 1030, "zip": "67868"}, "greeley-county-67762": {"city": "Greeley County", "rent": 880, "zip": "67762"}, "greeley-county-67879": {"city": "Greeley County", "rent": 880, "zip": "67879"}, "greenwood-county-66736": {"city": "Greenwood County", "rent": 880, "zip": "66736"}, "greenwood-county-66777": {"city": "Greenwood County", "rent": 880, "zip": "66777"}, "greenwood-county-66852": {"city": "Greenwood County", "rent": 880, "zip": "66852"}, "greenwood-county-66853": {"city": "Greenwood County", "rent": 880, "zip": "66853"}, "greenwood-county-66855": {"city": "Greenwood County", "rent": 880, "zip": "66855"}, "greenwood-county-66860": {"city": "Greenwood County", "rent": 880, "zip": "66860"}, "greenwood-county-66863": {"city": "Greenwood County", "rent": 880, "zip": "66863"}, "greenwood-county-66870": {"city": "Greenwood County", "rent": 880, "zip": "66870"}, "greenwood-county-67045": {"city": "Greenwood County", "rent": 880, "zip": "67045"}, "greenwood-county-67047": {"city": "Greenwood County", "rent": 890, "zip": "67047"}, "greenwood-county-67122": {"city": "Greenwood County", "rent": 880, "zip": "67122"}, "greenwood-county-67137": {"city": "Greenwood County", "rent": 910, "zip": "67137"}, "hamilton-county-67836": {"city": "Hamilton County", "rent": 1050, "zip": "67836"}, "hamilton-county-67857": {"city": "Hamilton County", "rent": 1170, "zip": "67857"}, "hamilton-county-67878": {"city": "Hamilton County", "rent": 1080, "zip": "67878"}, "harper-county-67003": {"city": "Harper County", "rent": 990, "zip": "67003"}, "harper-county-67004": {"city": "Harper County", "rent": 880, "zip": "67004"}, "harper-county-67009": {"city": "Harper County", "rent": 880, "zip": "67009"}, "harper-county-67018": {"city": "Harper County", "rent": 930, "zip": "67018"}, "harper-county-67036": {"city": "Harper County", "rent": 920, "zip": "67036"}, "harper-county-67049": {"city": "Harper County", "rent": 920, "zip": "67049"}, "harper-county-67058": {"city": "Harper County", "rent": 960, "zip": "67058"}, "harper-county-67061": {"city": "Harper County", "rent": 890, "zip": "67061"}, "harper-county-67138": {"city": "Harper County", "rent": 930, "zip": "67138"}, "harper-county-67150": {"city": "Harper County", "rent": 880, "zip": "67150"}, "harper-county-67159": {"city": "Harper County", "rent": 910, "zip": "67159"}, "haskell-county-67837": {"city": "Haskell County", "rent": 930, "zip": "67837"}, "haskell-county-67870": {"city": "Haskell County", "rent": 890, "zip": "67870"}, "haskell-county-67877": {"city": "Haskell County", "rent": 940, "zip": "67877"}, "haskell-county-67880": {"city": "Haskell County", "rent": 1170, "zip": "67880"}, "haskell-county-67952": {"city": "Haskell County", "rent": 920, "zip": "67952"}, "hodgeman-county-67523": {"city": "Hodgeman County", "rent": 1270, "zip": "67523"}, "hodgeman-county-67547": {"city": "Hodgeman County", "rent": 880, "zip": "67547"}, "hodgeman-county-67563": {"city": "Hodgeman County", "rent": 1110, "zip": "67563"}, "hodgeman-county-67801": {"city": "Hodgeman County", "rent": 980, "zip": "67801"}, "hodgeman-county-67835": {"city": "Hodgeman County", "rent": 930, "zip": "67835"}, "hodgeman-county-67849": {"city": "Hodgeman County", "rent": 880, "zip": "67849"}, "hodgeman-county-67854": {"city": "Hodgeman County", "rent": 910, "zip": "67854"}, "hodgeman-county-67876": {"city": "Hodgeman County", "rent": 880, "zip": "67876"}, "jewell-county-66936": {"city": "Jewell County", "rent": 1080, "zip": "66936"}, "jewell-county-66939": {"city": "Jewell County", "rent": 900, "zip": "66939"}, "jewell-county-66941": {"city": "Jewell County", "rent": 1090, "zip": "66941"}, "jewell-county-66942": {"city": "Jewell County", "rent": 1010, "zip": "66942"}, "jewell-county-66948": {"city": "Jewell County", "rent": 910, "zip": "66948"}, "jewell-county-66949": {"city": "Jewell County", "rent": 880, "zip": "66949"}, "jewell-county-66952": {"city": "Jewell County", "rent": 920, "zip": "66952"}, "jewell-county-66956": {"city": "Jewell County", "rent": 1130, "zip": "66956"}, "jewell-county-66963": {"city": "Jewell County", "rent": 900, "zip": "66963"}, "jewell-county-66970": {"city": "Jewell County", "rent": 980, "zip": "66970"}, "jewell-county-67420": {"city": "Jewell County", "rent": 920, "zip": "67420"}, "jewell-county-67430": {"city": "Jewell County", "rent": 1030, "zip": "67430"}, "jewell-county-68978": {"city": "Jewell County", "rent": 980, "zip": "68978"}, "kearny-county-67838": {"city": "Kearny County", "rent": 1280, "zip": "67838"}, "kearny-county-67851": {"city": "Kearny County", "rent": 1170, "zip": "67851"}, "kearny-county-67857": {"city": "Kearny County", "rent": 1170, "zip": "67857"}, "kearny-county-67860": {"city": "Kearny County", "rent": 1360, "zip": "67860"}, "kearny-county-67880": {"city": "Kearny County", "rent": 1170, "zip": "67880"}, "kingman-county-67004": {"city": "Kingman County", "rent": 880, "zip": "67004"}, "kingman-county-67025": {"city": "Kingman County", "rent": 1120, "zip": "67025"}, "kingman-county-67035": {"city": "Kingman County", "rent": 880, "zip": "67035"}, "kingman-county-67058": {"city": "Kingman County", "rent": 960, "zip": "67058"}, "kingman-county-67068": {"city": "Kingman County", "rent": 880, "zip": "67068"}, "kingman-county-67106": {"city": "Kingman County", "rent": 1020, "zip": "67106"}, "kingman-county-67111": {"city": "Kingman County", "rent": 1230, "zip": "67111"}, "kingman-county-67112": {"city": "Kingman County", "rent": 880, "zip": "67112"}, "kingman-county-67118": {"city": "Kingman County", "rent": 910, "zip": "67118"}, "kingman-county-67142": {"city": "Kingman County", "rent": 880, "zip": "67142"}, "kingman-county-67159": {"city": "Kingman County", "rent": 910, "zip": "67159"}, "kingman-county-67570": {"city": "Kingman County", "rent": 880, "zip": "67570"}, "kiowa-county-67028": {"city": "Kiowa County", "rent": 920, "zip": "67028"}, "kiowa-county-67054": {"city": "Kiowa County", "rent": 880, "zip": "67054"}, "kiowa-county-67059": {"city": "Kiowa County", "rent": 990, "zip": "67059"}, "kiowa-county-67109": {"city": "Kiowa County", "rent": 880, "zip": "67109"}, "kiowa-county-67155": {"city": "Kiowa County", "rent": 880, "zip": "67155"}, "kiowa-county-67834": {"city": "Kiowa County", "rent": 880, "zip": "67834"}, "labette-county-66753": {"city": "Labette County", "rent": 880, "zip": "66753"}, "labette-county-66776": {"city": "Labette County", "rent": 1300, "zip": "66776"}, "labette-county-67330": {"city": "Labette County", "rent": 1000, "zip": "67330"}, "labette-county-67332": {"city": "Labette County", "rent": 910, "zip": "67332"}, "labette-county-67335": {"city": "Labette County", "rent": 880, "zip": "67335"}, "labette-county-67336": {"city": "Labette County", "rent": 880, "zip": "67336"}, "labette-county-67337": {"city": "Labette County", "rent": 880, "zip": "67337"}, "labette-county-67341": {"city": "Labette County", "rent": 990, "zip": "67341"}, "labette-county-67342": {"city": "Labette County", "rent": 930, "zip": "67342"}, "labette-county-67351": {"city": "Labette County", "rent": 980, "zip": "67351"}, "labette-county-67354": {"city": "Labette County", "rent": 930, "zip": "67354"}, "labette-county-67356": {"city": "Labette County", "rent": 880, "zip": "67356"}, "labette-county-67357": {"city": "Labette County", "rent": 900, "zip": "67357"}, "lane-county-67518": {"city": "Lane County", "rent": 900, "zip": "67518"}, "lane-county-67839": {"city": "Lane County", "rent": 1000, "zip": "67839"}, "lane-county-67846": {"city": "Lane County", "rent": 1040, "zip": "67846"}, "lane-county-67850": {"city": "Lane County", "rent": 1060, "zip": "67850"}, "lincoln-county-67418": {"city": "Lincoln County", "rent": 920, "zip": "67418"}, "lincoln-county-67423": {"city": "Lincoln County", "rent": 930, "zip": "67423"}, "lincoln-county-67439": {"city": "Lincoln County", "rent": 880, "zip": "67439"}, "lincoln-county-67452": {"city": "Lincoln County", "rent": 900, "zip": "67452"}, "lincoln-county-67455": {"city": "Lincoln County", "rent": 940, "zip": "67455"}, "lincoln-county-67467": {"city": "Lincoln County", "rent": 890, "zip": "67467"}, "lincoln-county-67481": {"city": "Lincoln County", "rent": 880, "zip": "67481"}, "lincoln-county-67484": {"city": "Lincoln County", "rent": 900, "zip": "67484"}, "lincoln-county-67490": {"city": "Lincoln County", "rent": 990, "zip": "67490"}, "lincoln-county-67648": {"city": "Lincoln County", "rent": 880, "zip": "67648"}, "logan-county-67732": {"city": "Logan County", "rent": 980, "zip": "67732"}, "logan-county-67747": {"city": "Logan County", "rent": 920, "zip": "67747"}, "logan-county-67748": {"city": "Logan County", "rent": 930, "zip": "67748"}, "logan-county-67761": {"city": "Logan County", "rent": 900, "zip": "67761"}, "logan-county-67764": {"city": "Logan County", "rent": 910, "zip": "67764"}, "logan-county-67861": {"city": "Logan County", "rent": 880, "zip": "67861"}, "logan-county-67871": {"city": "Logan County", "rent": 930, "zip": "67871"}, "lyon-county-66413": {"city": "Lyon County", "rent": 890, "zip": "66413"}, "lyon-county-66523": {"city": "Lyon County", "rent": 930, "zip": "66523"}, "lyon-county-66801": {"city": "Lyon County", "rent": 890, "zip": "66801"}, "lyon-county-66830": {"city": "Lyon County", "rent": 970, "zip": "66830"}, "lyon-county-66833": {"city": "Lyon County", "rent": 990, "zip": "66833"}, "lyon-county-66835": {"city": "Lyon County", "rent": 1030, "zip": "66835"}, "lyon-county-66846": {"city": "Lyon County", "rent": 890, "zip": "66846"}, "lyon-county-66854": {"city": "Lyon County", "rent": 880, "zip": "66854"}, "lyon-county-66860": {"city": "Lyon County", "rent": 880, "zip": "66860"}, "lyon-county-66864": {"city": "Lyon County", "rent": 900, "zip": "66864"}, "lyon-county-66865": {"city": "Lyon County", "rent": 1150, "zip": "66865"}, "lyon-county-66868": {"city": "Lyon County", "rent": 1030, "zip": "66868"}, "mcpherson-county-67062": {"city": "McPherson County", "rent": 880, "zip": "67062"}, "mcpherson-county-67107": {"city": "McPherson County", "rent": 880, "zip": "67107"}, "mcpherson-county-67114": {"city": "McPherson County", "rent": 1030, "zip": "67114"}, "mcpherson-county-67416": {"city": "McPherson County", "rent": 1030, "zip": "67416"}, "mcpherson-county-67428": {"city": "McPherson County", "rent": 960, "zip": "67428"}, "mcpherson-county-67443": {"city": "McPherson County", "rent": 880, "zip": "67443"}, "mcpherson-county-67448": {"city": "McPherson County", "rent": 930, "zip": "67448"}, "mcpherson-county-67456": {"city": "McPherson County", "rent": 960, "zip": "67456"}, "mcpherson-county-67460": {"city": "McPherson County", "rent": 940, "zip": "67460"}, "mcpherson-county-67464": {"city": "McPherson County", "rent": 920, "zip": "67464"}, "mcpherson-county-67476": {"city": "McPherson County", "rent": 930, "zip": "67476"}, "mcpherson-county-67491": {"city": "McPherson County", "rent": 880, "zip": "67491"}, "mcpherson-county-67546": {"city": "McPherson County", "rent": 960, "zip": "67546"}, "marion-county-66838": {"city": "Marion County", "rent": 880, "zip": "66838"}, "marion-county-66840": {"city": "Marion County", "rent": 880, "zip": "66840"}, "marion-county-66843": {"city": "Marion County", "rent": 900, "zip": "66843"}, "marion-county-66851": {"city": "Marion County", "rent": 950, "zip": "66851"}, "marion-county-66858": {"city": "Marion County", "rent": 880, "zip": "66858"}, "marion-county-66859": {"city": "Marion County", "rent": 940, "zip": "66859"}, "marion-county-66861": {"city": "Marion County", "rent": 880, "zip": "66861"}, "marion-county-66866": {"city": "Marion County", "rent": 950, "zip": "66866"}, "marion-county-66869": {"city": "Marion County", "rent": 1100, "zip": "66869"}, "marion-county-67053": {"city": "Marion County", "rent": 940, "zip": "67053"}, "marion-county-67062": {"city": "Marion County", "rent": 880, "zip": "67062"}, "marion-county-67063": {"city": "Marion County", "rent": 960, "zip": "67063"}, "marion-county-67073": {"city": "Marion County", "rent": 1230, "zip": "67073"}, "marion-county-67114": {"city": "Marion County", "rent": 1030, "zip": "67114"}, "marion-county-67151": {"city": "Marion County", "rent": 1290, "zip": "67151"}, "marion-county-67428": {"city": "Marion County", "rent": 960, "zip": "67428"}, "marion-county-67438": {"city": "Marion County", "rent": 950, "zip": "67438"}, "marion-county-67449": {"city": "Marion County", "rent": 1010, "zip": "67449"}, "marion-county-67451": {"city": "Marion County", "rent": 880, "zip": "67451"}, "marion-county-67475": {"city": "Marion County", "rent": 910, "zip": "67475"}, "marion-county-67483": {"city": "Marion County", "rent": 880, "zip": "67483"}, "marshall-county-66403": {"city": "Marshall County", "rent": 1100, "zip": "66403"}, "marshall-county-66404": {"city": "Marshall County", "rent": 1000, "zip": "66404"}, "marshall-county-66406": {"city": "Marshall County", "rent": 1320, "zip": "66406"}, "marshall-county-66411": {"city": "Marshall County", "rent": 1190, "zip": "66411"}, "marshall-county-66412": {"city": "Marshall County", "rent": 890, "zip": "66412"}, "marshall-county-66427": {"city": "Marshall County", "rent": 900, "zip": "66427"}, "marshall-county-66438": {"city": "Marshall County", "rent": 980, "zip": "66438"}, "marshall-county-66508": {"city": "Marshall County", "rent": 880, "zip": "66508"}, "marshall-county-66518": {"city": "Marshall County", "rent": 960, "zip": "66518"}, "marshall-county-66521": {"city": "Marshall County", "rent": 900, "zip": "66521"}, "marshall-county-66541": {"city": "Marshall County", "rent": 1160, "zip": "66541"}, "marshall-county-66544": {"city": "Marshall County", "rent": 890, "zip": "66544"}, "marshall-county-66548": {"city": "Marshall County", "rent": 920, "zip": "66548"}, "marshall-county-66549": {"city": "Marshall County", "rent": 960, "zip": "66549"}, "marshall-county-66945": {"city": "Marshall County", "rent": 880, "zip": "66945"}, "meade-county-67837": {"city": "Meade County", "rent": 930, "zip": "67837"}, "meade-county-67841": {"city": "Meade County", "rent": 1000, "zip": "67841"}, "meade-county-67844": {"city": "Meade County", "rent": 990, "zip": "67844"}, "meade-county-67864": {"city": "Meade County", "rent": 880, "zip": "67864"}, "meade-county-67867": {"city": "Meade County", "rent": 880, "zip": "67867"}, "meade-county-67869": {"city": "Meade County", "rent": 890, "zip": "67869"}, "mitchell-county-66956": {"city": "Mitchell County", "rent": 1130, "zip": "66956"}, "mitchell-county-67418": {"city": "Mitchell County", "rent": 920, "zip": "67418"}, "mitchell-county-67420": {"city": "Mitchell County", "rent": 920, "zip": "67420"}, "mitchell-county-67430": {"city": "Mitchell County", "rent": 1030, "zip": "67430"}, "mitchell-county-67446": {"city": "Mitchell County", "rent": 880, "zip": "67446"}, "mitchell-county-67452": {"city": "Mitchell County", "rent": 900, "zip": "67452"}, "mitchell-county-67478": {"city": "Mitchell County", "rent": 920, "zip": "67478"}, "mitchell-county-67485": {"city": "Mitchell County", "rent": 880, "zip": "67485"}, "montgomery-county-66736": {"city": "Montgomery County", "rent": 880, "zip": "66736"}, "montgomery-county-66757": {"city": "Montgomery County", "rent": 880, "zip": "66757"}, "montgomery-county-67301": {"city": "Montgomery County", "rent": 940, "zip": "67301"}, "montgomery-county-67333": {"city": "Montgomery County", "rent": 950, "zip": "67333"}, "montgomery-county-67335": {"city": "Montgomery County", "rent": 880, "zip": "67335"}, "montgomery-county-67337": {"city": "Montgomery County", "rent": 880, "zip": "67337"}, "montgomery-county-67340": {"city": "Montgomery County", "rent": 880, "zip": "67340"}, "montgomery-county-67344": {"city": "Montgomery County", "rent": 1110, "zip": "67344"}, "montgomery-county-67347": {"city": "Montgomery County", "rent": 1010, "zip": "67347"}, "montgomery-county-67351": {"city": "Montgomery County", "rent": 980, "zip": "67351"}, "montgomery-county-67355": {"city": "Montgomery County", "rent": 880, "zip": "67355"}, "montgomery-county-67363": {"city": "Montgomery County", "rent": 920, "zip": "67363"}, "montgomery-county-67364": {"city": "Montgomery County", "rent": 880, "zip": "67364"}, "morris-county-66834": {"city": "Morris County", "rent": 1080, "zip": "66834"}, "morris-county-66838": {"city": "Morris County", "rent": 880, "zip": "66838"}, "morris-county-66846": {"city": "Morris County", "rent": 890, "zip": "66846"}, "morris-county-66849": {"city": "Morris County", "rent": 1040, "zip": "66849"}, "morris-county-66859": {"city": "Morris County", "rent": 940, "zip": "66859"}, "morris-county-66872": {"city": "Morris County", "rent": 1050, "zip": "66872"}, "morris-county-66873": {"city": "Morris County", "rent": 950, "zip": "66873"}, "morris-county-67449": {"city": "Morris County", "rent": 1010, "zip": "67449"}, "morton-county-67855": {"city": "Morton County", "rent": 880, "zip": "67855"}, "morton-county-67862": {"city": "Morton County", "rent": 980, "zip": "67862"}, "morton-county-67950": {"city": "Morton County", "rent": 880, "zip": "67950"}, "morton-county-67953": {"city": "Morton County", "rent": 960, "zip": "67953"}, "morton-county-67954": {"city": "Morton County", "rent": 1100, "zip": "67954"}, "nemaha-county-66403": {"city": "Nemaha County", "rent": 1100, "zip": "66403"}, "nemaha-county-66404": {"city": "Nemaha County", "rent": 1000, "zip": "66404"}, "nemaha-county-66408": {"city": "Nemaha County", "rent": 930, "zip": "66408"}, "nemaha-county-66415": {"city": "Nemaha County", "rent": 970, "zip": "66415"}, "nemaha-county-66416": {"city": "Nemaha County", "rent": 890, "zip": "66416"}, "nemaha-county-66417": {"city": "Nemaha County", "rent": 950, "zip": "66417"}, "nemaha-county-66428": {"city": "Nemaha County", "rent": 910, "zip": "66428"}, "nemaha-county-66432": {"city": "Nemaha County", "rent": 900, "zip": "66432"}, "nemaha-county-66521": {"city": "Nemaha County", "rent": 900, "zip": "66521"}, "nemaha-county-66522": {"city": "Nemaha County", "rent": 1080, "zip": "66522"}, "nemaha-county-66534": {"city": "Nemaha County", "rent": 880, "zip": "66534"}, "nemaha-county-66538": {"city": "Nemaha County", "rent": 950, "zip": "66538"}, "nemaha-county-66540": {"city": "Nemaha County", "rent": 910, "zip": "66540"}, "nemaha-county-66544": {"city": "Nemaha County", "rent": 890, "zip": "66544"}, "nemaha-county-66550": {"city": "Nemaha County", "rent": 980, "zip": "66550"}, "neosho-county-66720": {"city": "Neosho County", "rent": 900, "zip": "66720"}, "neosho-county-66733": {"city": "Neosho County", "rent": 880, "zip": "66733"}, "neosho-county-66740": {"city": "Neosho County", "rent": 1030, "zip": "66740"}, "neosho-county-66748": {"city": "Neosho County", "rent": 880, "zip": "66748"}, "neosho-county-66753": {"city": "Neosho County", "rent": 880, "zip": "66753"}, "neosho-county-66771": {"city": "Neosho County", "rent": 880, "zip": "66771"}, "neosho-county-66772": {"city": "Neosho County", "rent": 880, "zip": "66772"}, "neosho-county-66775": {"city": "Neosho County", "rent": 880, "zip": "66775"}, "neosho-county-66776": {"city": "Neosho County", "rent": 1300, "zip": "66776"}, "neosho-county-66780": {"city": "Neosho County", "rent": 880, "zip": "66780"}, "neosho-county-67341": {"city": "Neosho County", "rent": 990, "zip": "67341"}, "neosho-county-67357": {"city": "Neosho County", "rent": 900, "zip": "67357"}, "ness-county-67515": {"city": "Ness County", "rent": 890, "zip": "67515"}, "ness-county-67516": {"city": "Ness County", "rent": 970, "zip": "67516"}, "ness-county-67518": {"city": "Ness County", "rent": 900, "zip": "67518"}, "ness-county-67521": {"city": "Ness County", "rent": 880, "zip": "67521"}, "ness-county-67556": {"city": "Ness County", "rent": 900, "zip": "67556"}, "ness-county-67560": {"city": "Ness County", "rent": 900, "zip": "67560"}, "ness-county-67572": {"city": "Ness County", "rent": 880, "zip": "67572"}, "ness-county-67584": {"city": "Ness County", "rent": 880, "zip": "67584"}, "norton-county-67622": {"city": "Norton County", "rent": 880, "zip": "67622"}, "norton-county-67629": {"city": "Norton County", "rent": 880, "zip": "67629"}, "norton-county-67645": {"city": "Norton County", "rent": 890, "zip": "67645"}, "norton-county-67646": {"city": "Norton County", "rent": 880, "zip": "67646"}, "norton-county-67653": {"city": "Norton County", "rent": 880, "zip": "67653"}, "norton-county-67654": {"city": "Norton County", "rent": 910, "zip": "67654"}, "norton-county-67664": {"city": "Norton County", "rent": 880, "zip": "67664"}, "osborne-county-67430": {"city": "Osborne County", "rent": 1030, "zip": "67430"}, "osborne-county-67437": {"city": "Osborne County", "rent": 880, "zip": "67437"}, "osborne-county-67473": {"city": "Osborne County", "rent": 920, "zip": "67473"}, "osborne-county-67474": {"city": "Osborne County", "rent": 920, "zip": "67474"}, "osborne-county-67485": {"city": "Osborne County", "rent": 880, "zip": "67485"}, "osborne-county-67623": {"city": "Osborne County", "rent": 950, "zip": "67623"}, "osborne-county-67648": {"city": "Osborne County", "rent": 880, "zip": "67648"}, "osborne-county-67649": {"city": "Osborne County", "rent": 890, "zip": "67649"}, "osborne-county-67651": {"city": "Osborne County", "rent": 880, "zip": "67651"}, "osborne-county-67658": {"city": "Osborne County", "rent": 890, "zip": "67658"}, "osborne-county-67673": {"city": "Osborne County", "rent": 910, "zip": "67673"}, "osborne-county-67675": {"city": "Osborne County", "rent": 930, "zip": "67675"}, "ottawa-county-67401": {"city": "Ottawa County", "rent": 1030, "zip": "67401"}, "ottawa-county-67418": {"city": "Ottawa County", "rent": 920, "zip": "67418"}, "ottawa-county-67422": {"city": "Ottawa County", "rent": 1020, "zip": "67422"}, "ottawa-county-67432": {"city": "Ottawa County", "rent": 960, "zip": "67432"}, "ottawa-county-67436": {"city": "Ottawa County", "rent": 880, "zip": "67436"}, "ottawa-county-67445": {"city": "Ottawa County", "rent": 900, "zip": "67445"}, "ottawa-county-67455": {"city": "Ottawa County", "rent": 940, "zip": "67455"}, "ottawa-county-67458": {"city": "Ottawa County", "rent": 950, "zip": "67458"}, "ottawa-county-67466": {"city": "Ottawa County", "rent": 880, "zip": "67466"}, "ottawa-county-67467": {"city": "Ottawa County", "rent": 890, "zip": "67467"}, "ottawa-county-67470": {"city": "Ottawa County", "rent": 1240, "zip": "67470"}, "ottawa-county-67480": {"city": "Ottawa County", "rent": 1140, "zip": "67480"}, "ottawa-county-67484": {"city": "Ottawa County", "rent": 900, "zip": "67484"}, "pawnee-county-67519": {"city": "Pawnee County", "rent": 900, "zip": "67519"}, "pawnee-county-67523": {"city": "Pawnee County", "rent": 1270, "zip": "67523"}, "pawnee-county-67529": {"city": "Pawnee County", "rent": 880, "zip": "67529"}, "pawnee-county-67547": {"city": "Pawnee County", "rent": 880, "zip": "67547"}, "pawnee-county-67550": {"city": "Pawnee County", "rent": 880, "zip": "67550"}, "pawnee-county-67557": {"city": "Pawnee County", "rent": 880, "zip": "67557"}, "pawnee-county-67559": {"city": "Pawnee County", "rent": 980, "zip": "67559"}, "pawnee-county-67567": {"city": "Pawnee County", "rent": 920, "zip": "67567"}, "pawnee-county-67574": {"city": "Pawnee County", "rent": 880, "zip": "67574"}, "pawnee-county-67575": {"city": "Pawnee County", "rent": 890, "zip": "67575"}, "phillips-county-66951": {"city": "Phillips County", "rent": 1210, "zip": "66951"}, "phillips-county-67621": {"city": "Phillips County", "rent": 880, "zip": "67621"}, "phillips-county-67622": {"city": "Phillips County", "rent": 880, "zip": "67622"}, "phillips-county-67639": {"city": "Phillips County", "rent": 920, "zip": "67639"}, "phillips-county-67644": {"city": "Phillips County", "rent": 1010, "zip": "67644"}, "phillips-county-67646": {"city": "Phillips County", "rent": 880, "zip": "67646"}, "phillips-county-67647": {"city": "Phillips County", "rent": 880, "zip": "67647"}, "phillips-county-67661": {"city": "Phillips County", "rent": 920, "zip": "67661"}, "phillips-county-67664": {"city": "Phillips County", "rent": 880, "zip": "67664"}, "pratt-county-67021": {"city": "Pratt County", "rent": 920, "zip": "67021"}, "pratt-county-67028": {"city": "Pratt County", "rent": 920, "zip": "67028"}, "pratt-county-67035": {"city": "Pratt County", "rent": 880, "zip": "67035"}, "pratt-county-67059": {"city": "Pratt County", "rent": 990, "zip": "67059"}, "pratt-county-67065": {"city": "Pratt County", "rent": 880, "zip": "67065"}, "pratt-county-67066": {"city": "Pratt County", "rent": 1140, "zip": "67066"}, "pratt-county-67124": {"city": "Pratt County", "rent": 880, "zip": "67124"}, "pratt-county-67134": {"city": "Pratt County", "rent": 880, "zip": "67134"}, "pratt-county-67557": {"city": "Pratt County", "rent": 880, "zip": "67557"}, "pratt-county-67576": {"city": "Pratt County", "rent": 940, "zip": "67576"}, "pratt-county-67583": {"city": "Pratt County", "rent": 880, "zip": "67583"}, "rawlins-county-67701": {"city": "Rawlins County", "rent": 880, "zip": "67701"}, "rawlins-county-67730": {"city": "Rawlins County", "rent": 960, "zip": "67730"}, "rawlins-county-67732": {"city": "Rawlins County", "rent": 980, "zip": "67732"}, "rawlins-county-67734": {"city": "Rawlins County", "rent": 920, "zip": "67734"}, "rawlins-county-67739": {"city": "Rawlins County", "rent": 880, "zip": "67739"}, "rawlins-county-67743": {"city": "Rawlins County", "rent": 930, "zip": "67743"}, "rawlins-county-67744": {"city": "Rawlins County", "rent": 930, "zip": "67744"}, "rawlins-county-67745": {"city": "Rawlins County", "rent": 940, "zip": "67745"}, "rawlins-county-67749": {"city": "Rawlins County", "rent": 880, "zip": "67749"}, "rawlins-county-67753": {"city": "Rawlins County", "rent": 980, "zip": "67753"}, "reno-county-67020": {"city": "Reno County", "rent": 940, "zip": "67020"}, "reno-county-67025": {"city": "Reno County", "rent": 1120, "zip": "67025"}, "reno-county-67035": {"city": "Reno County", "rent": 880, "zip": "67035"}, "reno-county-67050": {"city": "Reno County", "rent": 1200, "zip": "67050"}, "reno-county-67068": {"city": "Reno County", "rent": 880, "zip": "67068"}, "reno-county-67108": {"city": "Reno County", "rent": 1000, "zip": "67108"}, "reno-county-67501": {"city": "Reno County", "rent": 960, "zip": "67501"}, "reno-county-67502": {"city": "Reno County", "rent": 1020, "zip": "67502"}, "reno-county-67505": {"city": "Reno County", "rent": 880, "zip": "67505"}, "reno-county-67510": {"city": "Reno County", "rent": 1170, "zip": "67510"}, "reno-county-67512": {"city": "Reno County", "rent": 880, "zip": "67512"}, "reno-county-67514": {"city": "Reno County", "rent": 890, "zip": "67514"}, "reno-county-67522": {"city": "Reno County", "rent": 880, "zip": "67522"}, "reno-county-67543": {"city": "Reno County", "rent": 890, "zip": "67543"}, "reno-county-67546": {"city": "Reno County", "rent": 960, "zip": "67546"}, "reno-county-67561": {"city": "Reno County", "rent": 910, "zip": "67561"}, "reno-county-67566": {"city": "Reno County", "rent": 1150, "zip": "67566"}, "reno-county-67568": {"city": "Reno County", "rent": 880, "zip": "67568"}, "reno-county-67570": {"city": "Reno County", "rent": 880, "zip": "67570"}, "reno-county-67578": {"city": "Reno County", "rent": 880, "zip": "67578"}, "reno-county-67579": {"city": "Reno County", "rent": 880, "zip": "67579"}, "reno-county-67581": {"city": "Reno County", "rent": 880, "zip": "67581"}, "reno-county-67583": {"city": "Reno County", "rent": 880, "zip": "67583"}, "reno-county-67585": {"city": "Reno County", "rent": 960, "zip": "67585"}, "republic-county-66901": {"city": "Republic County", "rent": 910, "zip": "66901"}, "republic-county-66930": {"city": "Republic County", "rent": 900, "zip": "66930"}, "republic-county-66935": {"city": "Republic County", "rent": 880, "zip": "66935"}, "republic-county-66938": {"city": "Republic County", "rent": 910, "zip": "66938"}, "republic-county-66939": {"city": "Republic County", "rent": 900, "zip": "66939"}, "republic-county-66940": {"city": "Republic County", "rent": 880, "zip": "66940"}, "republic-county-66942": {"city": "Republic County", "rent": 1010, "zip": "66942"}, "republic-county-66948": {"city": "Republic County", "rent": 910, "zip": "66948"}, "republic-county-66949": {"city": "Republic County", "rent": 880, "zip": "66949"}, "republic-county-66959": {"city": "Republic County", "rent": 880, "zip": "66959"}, "republic-county-66960": {"city": "Republic County", "rent": 880, "zip": "66960"}, "republic-county-66961": {"city": "Republic County", "rent": 890, "zip": "66961"}, "republic-county-66964": {"city": "Republic County", "rent": 920, "zip": "66964"}, "republic-county-66966": {"city": "Republic County", "rent": 880, "zip": "66966"}, "republic-county-68325": {"city": "Republic County", "rent": 960, "zip": "68325"}, "rice-county-67427": {"city": "Rice County", "rent": 900, "zip": "67427"}, "rice-county-67444": {"city": "Rice County", "rent": 1100, "zip": "67444"}, "rice-county-67457": {"city": "Rice County", "rent": 880, "zip": "67457"}, "rice-county-67459": {"city": "Rice County", "rent": 920, "zip": "67459"}, "rice-county-67491": {"city": "Rice County", "rent": 880, "zip": "67491"}, "rice-county-67502": {"city": "Rice County", "rent": 1020, "zip": "67502"}, "rice-county-67512": {"city": "Rice County", "rent": 880, "zip": "67512"}, "rice-county-67524": {"city": "Rice County", "rent": 880, "zip": "67524"}, "rice-county-67526": {"city": "Rice County", "rent": 880, "zip": "67526"}, "rice-county-67546": {"city": "Rice County", "rent": 960, "zip": "67546"}, "rice-county-67554": {"city": "Rice County", "rent": 900, "zip": "67554"}, "rice-county-67561": {"city": "Rice County", "rent": 910, "zip": "67561"}, "rice-county-67573": {"city": "Rice County", "rent": 880, "zip": "67573"}, "rice-county-67579": {"city": "Rice County", "rent": 880, "zip": "67579"}, "rooks-county-67632": {"city": "Rooks County", "rent": 880, "zip": "67632"}, "rooks-county-67639": {"city": "Rooks County", "rent": 920, "zip": "67639"}, "rooks-county-67642": {"city": "Rooks County", "rent": 880, "zip": "67642"}, "rooks-county-67646": {"city": "Rooks County", "rent": 880, "zip": "67646"}, "rooks-county-67651": {"city": "Rooks County", "rent": 880, "zip": "67651"}, "rooks-county-67657": {"city": "Rooks County", "rent": 880, "zip": "67657"}, "rooks-county-67659": {"city": "Rooks County", "rent": 880, "zip": "67659"}, "rooks-county-67661": {"city": "Rooks County", "rent": 920, "zip": "67661"}, "rooks-county-67663": {"city": "Rooks County", "rent": 930, "zip": "67663"}, "rooks-county-67669": {"city": "Rooks County", "rent": 920, "zip": "67669"}, "rooks-county-67675": {"city": "Rooks County", "rent": 930, "zip": "67675"}, "rush-county-67511": {"city": "Rush County", "rent": 910, "zip": "67511"}, "rush-county-67513": {"city": "Rush County", "rent": 880, "zip": "67513"}, "rush-county-67520": {"city": "Rush County", "rent": 950, "zip": "67520"}, "rush-county-67521": {"city": "Rush County", "rent": 880, "zip": "67521"}, "rush-county-67548": {"city": "Rush County", "rent": 880, "zip": "67548"}, "rush-county-67553": {"city": "Rush County", "rent": 1030, "zip": "67553"}, "rush-county-67556": {"city": "Rush County", "rent": 900, "zip": "67556"}, "rush-county-67559": {"city": "Rush County", "rent": 980, "zip": "67559"}, "rush-county-67565": {"city": "Rush County", "rent": 1020, "zip": "67565"}, "rush-county-67567": {"city": "Rush County", "rent": 920, "zip": "67567"}, "rush-county-67575": {"city": "Rush County", "rent": 890, "zip": "67575"}, "russell-county-67481": {"city": "Russell County", "rent": 880, "zip": "67481"}, "russell-county-67490": {"city": "Russell County", "rent": 990, "zip": "67490"}, "russell-county-67544": {"city": "Russell County", "rent": 980, "zip": "67544"}, "russell-county-67626": {"city": "Russell County", "rent": 880, "zip": "67626"}, "russell-county-67634": {"city": "Russell County", "rent": 930, "zip": "67634"}, "russell-county-67640": {"city": "Russell County", "rent": 920, "zip": "67640"}, "russell-county-67648": {"city": "Russell County", "rent": 880, "zip": "67648"}, "russell-county-67649": {"city": "Russell County", "rent": 890, "zip": "67649"}, "russell-county-67651": {"city": "Russell County", "rent": 880, "zip": "67651"}, "russell-county-67658": {"city": "Russell County", "rent": 890, "zip": "67658"}, "russell-county-67665": {"city": "Russell County", "rent": 900, "zip": "67665"}, "russell-county-67673": {"city": "Russell County", "rent": 910, "zip": "67673"}, "saline-county-67401": {"city": "Saline County", "rent": 1030, "zip": "67401"}, "saline-county-67402": {"city": "Saline County", "rent": 1010, "zip": "67402"}, "saline-county-67416": {"city": "Saline County", "rent": 1030, "zip": "67416"}, "saline-county-67425": {"city": "Saline County", "rent": 1000, "zip": "67425"}, "saline-county-67442": {"city": "Saline County", "rent": 980, "zip": "67442"}, "saline-county-67448": {"city": "Saline County", "rent": 930, "zip": "67448"}, "saline-county-67456": {"city": "Saline County", "rent": 960, "zip": "67456"}, "saline-county-67464": {"city": "Saline County", "rent": 920, "zip": "67464"}, "saline-county-67470": {"city": "Saline County", "rent": 1240, "zip": "67470"}, "saline-county-67480": {"city": "Saline County", "rent": 1140, "zip": "67480"}, "saline-county-67484": {"city": "Saline County", "rent": 900, "zip": "67484"}, "scott-county-67850": {"city": "Scott County", "rent": 1060, "zip": "67850"}, "scott-county-67851": {"city": "Scott County", "rent": 1170, "zip": "67851"}, "scott-county-67863": {"city": "Scott County", "rent": 880, "zip": "67863"}, "scott-county-67871": {"city": "Scott County", "rent": 930, "zip": "67871"}, "seward-county-67859": {"city": "Seward County", "rent": 980, "zip": "67859"}, "seward-county-67869": {"city": "Seward County", "rent": 890, "zip": "67869"}, "seward-county-67870": {"city": "Seward County", "rent": 890, "zip": "67870"}, "seward-county-67877": {"city": "Seward County", "rent": 940, "zip": "67877"}, "seward-county-67901": {"city": "Seward County", "rent": 1000, "zip": "67901"}, "seward-county-67951": {"city": "Seward County", "rent": 910, "zip": "67951"}, "seward-county-67952": {"city": "Seward County", "rent": 920, "zip": "67952"}, "seward-county-67954": {"city": "Seward County", "rent": 1100, "zip": "67954"}, "sheridan-county-67635": {"city": "Sheridan County", "rent": 880, "zip": "67635"}, "sheridan-county-67737": {"city": "Sheridan County", "rent": 880, "zip": "67737"}, "sheridan-county-67738": {"city": "Sheridan County", "rent": 880, "zip": "67738"}, "sheridan-county-67740": {"city": "Sheridan County", "rent": 890, "zip": "67740"}, "sheridan-county-67748": {"city": "Sheridan County", "rent": 930, "zip": "67748"}, "sheridan-county-67751": {"city": "Sheridan County", "rent": 890, "zip": "67751"}, "sheridan-county-67752": {"city": "Sheridan County", "rent": 890, "zip": "67752"}, "sheridan-county-67753": {"city": "Sheridan County", "rent": 980, "zip": "67753"}, "sheridan-county-67757": {"city": "Sheridan County", "rent": 880, "zip": "67757"}, "sherman-county-67732": {"city": "Sherman County", "rent": 980, "zip": "67732"}, "sherman-county-67733": {"city": "Sherman County", "rent": 950, "zip": "67733"}, "sherman-county-67735": {"city": "Sherman County", "rent": 930, "zip": "67735"}, "sherman-county-67741": {"city": "Sherman County", "rent": 990, "zip": "67741"}, "sherman-county-67756": {"city": "Sherman County", "rent": 890, "zip": "67756"}, "sherman-county-67762": {"city": "Sherman County", "rent": 880, "zip": "67762"}, "smith-county-66932": {"city": "Smith County", "rent": 1060, "zip": "66932"}, "smith-county-66941": {"city": "Smith County", "rent": 1090, "zip": "66941"}, "smith-county-66951": {"city": "Smith County", "rent": 1210, "zip": "66951"}, "smith-county-66952": {"city": "Smith County", "rent": 920, "zip": "66952"}, "smith-county-66967": {"city": "Smith County", "rent": 920, "zip": "66967"}, "smith-county-67437": {"city": "Smith County", "rent": 880, "zip": "67437"}, "smith-county-67474": {"city": "Smith County", "rent": 920, "zip": "67474"}, "smith-county-67628": {"city": "Smith County", "rent": 1020, "zip": "67628"}, "smith-county-67638": {"city": "Smith County", "rent": 880, "zip": "67638"}, "smith-county-67644": {"city": "Smith County", "rent": 1010, "zip": "67644"}, "stafford-county-67526": {"city": "Stafford County", "rent": 880, "zip": "67526"}, "stafford-county-67530": {"city": "Stafford County", "rent": 890, "zip": "67530"}, "stafford-county-67545": {"city": "Stafford County", "rent": 900, "zip": "67545"}, "stafford-county-67550": {"city": "Stafford County", "rent": 880, "zip": "67550"}, "stafford-county-67557": {"city": "Stafford County", "rent": 880, "zip": "67557"}, "stafford-county-67567": {"city": "Stafford County", "rent": 920, "zip": "67567"}, "stafford-county-67576": {"city": "Stafford County", "rent": 940, "zip": "67576"}, "stafford-county-67578": {"city": "Stafford County", "rent": 880, "zip": "67578"}, "stafford-county-67583": {"city": "Stafford County", "rent": 880, "zip": "67583"}, "stanton-county-67855": {"city": "Stanton County", "rent": 880, "zip": "67855"}, "stanton-county-67862": {"city": "Stanton County", "rent": 980, "zip": "67862"}, "stanton-county-67878": {"city": "Stanton County", "rent": 1080, "zip": "67878"}, "stanton-county-67880": {"city": "Stanton County", "rent": 1170, "zip": "67880"}, "stevens-county-67901": {"city": "Stevens County", "rent": 1000, "zip": "67901"}, "stevens-county-67951": {"city": "Stevens County", "rent": 910, "zip": "67951"}, "stevens-county-67952": {"city": "Stevens County", "rent": 920, "zip": "67952"}, "stevens-county-67953": {"city": "Stevens County", "rent": 960, "zip": "67953"}, "stevens-county-67954": {"city": "Stevens County", "rent": 1100, "zip": "67954"}, "thomas-county-67701": {"city": "Thomas County", "rent": 880, "zip": "67701"}, "thomas-county-67732": {"city": "Thomas County", "rent": 980, "zip": "67732"}, "thomas-county-67734": {"city": "Thomas County", "rent": 920, "zip": "67734"}, "thomas-county-67743": {"city": "Thomas County", "rent": 930, "zip": "67743"}, "thomas-county-67747": {"city": "Thomas County", "rent": 920, "zip": "67747"}, "thomas-county-67748": {"city": "Thomas County", "rent": 930, "zip": "67748"}, "thomas-county-67753": {"city": "Thomas County", "rent": 980, "zip": "67753"}, "thomas-county-67757": {"city": "Thomas County", "rent": 880, "zip": "67757"}, "thomas-county-67764": {"city": "Thomas County", "rent": 910, "zip": "67764"}, "trego-county-67521": {"city": "Trego County", "rent": 880, "zip": "67521"}, "trego-county-67572": {"city": "Trego County", "rent": 880, "zip": "67572"}, "trego-county-67584": {"city": "Trego County", "rent": 880, "zip": "67584"}, "trego-county-67631": {"city": "Trego County", "rent": 890, "zip": "67631"}, "trego-county-67637": {"city": "Trego County", "rent": 880, "zip": "67637"}, "trego-county-67656": {"city": "Trego County", "rent": 880, "zip": "67656"}, "trego-county-67672": {"city": "Trego County", "rent": 890, "zip": "67672"}, "trego-county-67752": {"city": "Trego County", "rent": 890, "zip": "67752"}, "wallace-county-67758": {"city": "Wallace County", "rent": 880, "zip": "67758"}, "wallace-county-67761": {"city": "Wallace County", "rent": 900, "zip": "67761"}, "wallace-county-67762": {"city": "Wallace County", "rent": 880, "zip": "67762"}, "wallace-county-67861": {"city": "Wallace County", "rent": 880, "zip": "67861"}, "washington-county-66412": {"city": "Washington County", "rent": 890, "zip": "66412"}, "washington-county-66548": {"city": "Washington County", "rent": 920, "zip": "66548"}, "washington-county-66933": {"city": "Washington County", "rent": 1040, "zip": "66933"}, "washington-county-66937": {"city": "Washington County", "rent": 880, "zip": "66937"}, "washington-county-66938": {"city": "Washington County", "rent": 910, "zip": "66938"}, "washington-county-66943": {"city": "Washington County", "rent": 910, "zip": "66943"}, "washington-county-66944": {"city": "Washington County", "rent": 880, "zip": "66944"}, "washington-county-66945": {"city": "Washington County", "rent": 880, "zip": "66945"}, "washington-county-66946": {"city": "Washington County", "rent": 880, "zip": "66946"}, "washington-county-66953": {"city": "Washington County", "rent": 1060, "zip": "66953"}, "washington-county-66955": {"city": "Washington County", "rent": 880, "zip": "66955"}, "washington-county-66958": {"city": "Washington County", "rent": 890, "zip": "66958"}, "washington-county-66960": {"city": "Washington County", "rent": 880, "zip": "66960"}, "washington-county-66962": {"city": "Washington County", "rent": 880, "zip": "66962"}, "washington-county-66968": {"city": "Washington County", "rent": 880, "zip": "66968"}, "wichita-county-67758": {"city": "Wichita County", "rent": 880, "zip": "67758"}, "wichita-county-67861": {"city": "Wichita County", "rent": 880, "zip": "67861"}, "wichita-county-67863": {"city": "Wichita County", "rent": 880, "zip": "67863"}, "wichita-county-67879": {"city": "Wichita County", "rent": 880, "zip": "67879"}, "wilson-county-66710": {"city": "Wilson County", "rent": 880, "zip": "66710"}, "wilson-county-66714": {"city": "Wilson County", "rent": 880, "zip": "66714"}, "wilson-county-66717": {"city": "Wilson County", "rent": 880, "zip": "66717"}, "wilson-county-66720": {"city": "Wilson County", "rent": 900, "zip": "66720"}, "wilson-county-66736": {"city": "Wilson County", "rent": 880, "zip": "66736"}, "wilson-county-66757": {"city": "Wilson County", "rent": 880, "zip": "66757"}, "wilson-county-66776": {"city": "Wilson County", "rent": 1300, "zip": "66776"}, "wilson-county-66777": {"city": "Wilson County", "rent": 880, "zip": "66777"}, "wilson-county-67047": {"city": "Wilson County", "rent": 890, "zip": "67047"}, "wilson-county-67335": {"city": "Wilson County", "rent": 880, "zip": "67335"}, "wilson-county-67344": {"city": "Wilson County", "rent": 1110, "zip": "67344"}, "woodson-county-66717": {"city": "Woodson County", "rent": 880, "zip": "66717"}, "woodson-county-66720": {"city": "Woodson County", "rent": 900, "zip": "66720"}, "woodson-county-66736": {"city": "Woodson County", "rent": 880, "zip": "66736"}, "woodson-county-66748": {"city": "Woodson County", "rent": 880, "zip": "66748"}, "woodson-county-66749": {"city": "Woodson County", "rent": 910, "zip": "66749"}, "woodson-county-66758": {"city": "Woodson County", "rent": 1290, "zip": "66758"}, "woodson-county-66761": {"city": "Woodson County", "rent": 1020, "zip": "66761"}, "woodson-county-66777": {"city": "Woodson County", "rent": 880, "zip": "66777"}, "woodson-county-66783": {"city": "Woodson County", "rent": 880, "zip": "66783"}, "woodson-county-66852": {"city": "Woodson County", "rent": 880, "zip": "66852"}, "woodson-county-66870": {"city": "Woodson County", "rent": 880, "zip": "66870"}}