{"bowling-green-42101": {"city": "Bowling Green", "rent": 1120, "zip": "42101"}, "bowling-green-42102": {"city": "Bowling Green", "rent": 1160, "zip": "42102"}, "bowling-green-42103": {"city": "Bowling Green", "rent": 1280, "zip": "42103"}, "bowling-green-42104": {"city": "Bowling Green", "rent": 1190, "zip": "42104"}, "bowling-green-42122": {"city": "Bowling Green", "rent": 1540, "zip": "42122"}, "bowling-green-42159": {"city": "Bowling Green", "rent": 1330, "zip": "42159"}, "bowling-green-42160": {"city": "Bowling Green", "rent": 1060, "zip": "42160"}, "bowling-green-42163": {"city": "Bowling Green", "rent": 1060, "zip": "42163"}, "bowling-green-42170": {"city": "Bowling Green", "rent": 1270, "zip": "42170"}, "bowling-green-42171": {"city": "Bowling Green", "rent": 1060, "zip": "42171"}, "bowling-green-42206": {"city": "Bowling Green", "rent": 1060, "zip": "42206"}, "bowling-green-42207": {"city": "Bowling Green", "rent": 1060, "zip": "42207"}, "bowling-green-42210": {"city": "Bowling Green", "rent": 1060, "zip": "42210"}, "bowling-green-42259": {"city": "Bowling Green", "rent": 1060, "zip": "42259"}, "bowling-green-42274": {"city": "Bowling Green", "rent": 1060, "zip": "42274"}, "bowling-green-42275": {"city": "Bowling Green", "rent": 1060, "zip": "42275"}, "bowling-green-42285": {"city": "Bowling Green", "rent": 1060, "zip": "42285"}, "bowling-green-42721": {"city": "Bowling Green", "rent": 1060, "zip": "42721"}, "bowling-green-42729": {"city": "Bowling Green", "rent": 1060, "zip": "42729"}, "bowling-green-42754": {"city": "Bowling Green", "rent": 1060, "zip": "42754"}, "allen-county-42120": {"city": "Allen County", "rent": 1070, "zip": "42120"}, "allen-county-42122": {"city": "Allen County", "rent": 1540, "zip": "42122"}, "allen-county-42133": {"city": "Allen County", "rent": 890, "zip": "42133"}, "allen-county-42134": {"city": "Allen County", "rent": 1050, "zip": "42134"}, "allen-county-42153": {"city": "Allen County", "rent": 1000, "zip": "42153"}, "allen-county-42164": {"city": "Allen County", "rent": 1000, "zip": "42164"}, "butler-county-42101": {"city": "Butler County", "rent": 1120, "zip": "42101"}, "butler-county-42201": {"city": "Butler County", "rent": 870, "zip": "42201"}, "butler-county-42219": {"city": "Butler County", "rent": 870, "zip": "42219"}, "butler-county-42252": {"city": "Butler County", "rent": 870, "zip": "42252"}, "butler-county-42256": {"city": "Butler County", "rent": 880, "zip": "42256"}, "butler-county-42261": {"city": "Butler County", "rent": 870, "zip": "42261"}, "butler-county-42273": {"city": "Butler County", "rent": 870, "zip": "42273"}, "butler-county-42275": {"city": "Butler County", "rent": 1060, "zip": "42275"}, "butler-county-42276": {"city": "Butler County", "rent": 920, "zip": "42276"}, "butler-county-42288": {"city": "Butler County", "rent": 870, "zip": "42288"}, "butler-county-42320": {"city": "Butler County", "rent": 880, "zip": "42320"}, "butler-county-42333": {"city": "Butler County", "rent": 870, "zip": "42333"}, "butler-county-42339": {"city": "Butler County", "rent": 890, "zip": "42339"}, "butler-county-42721": {"city": "Butler County", "rent": 1060, "zip": "42721"}, "grant-county-41003": {"city": "Grant County", "rent": 980, "zip": "41003"}, "grant-county-41010": {"city": "Grant County", "rent": 1050, "zip": "41010"}, "grant-county-41030": {"city": "Grant County", "rent": 1200, "zip": "41030"}, "grant-county-41035": {"city": "Grant County", "rent": 1160, "zip": "41035"}, "grant-county-41046": {"city": "Grant County", "rent": 1360, "zip": "41046"}, "grant-county-41052": {"city": "Grant County", "rent": 1190, "zip": "41052"}, "grant-county-41092": {"city": "Grant County", "rent": 1270, "zip": "41092"}, "grant-county-41097": {"city": "Grant County", "rent": 1090, "zip": "41097"}, "elizabethtown-40051": {"city": "Elizabethtown", "rent": 970, "zip": "40051"}, "elizabethtown-40052": {"city": "Elizabethtown", "rent": 970, "zip": "40052"}, "elizabethtown-40060": {"city": "Elizabethtown", "rent": 970, "zip": "40060"}, "elizabethtown-40115": {"city": "Elizabethtown", "rent": 1100, "zip": "40115"}, "elizabethtown-40121": {"city": "Elizabethtown", "rent": 1180, "zip": "40121"}, "elizabethtown-40122": {"city": "Elizabethtown", "rent": 1060, "zip": "40122"}, "elizabethtown-40140": {"city": "Elizabethtown", "rent": 1050, "zip": "40140"}, "elizabethtown-40150": {"city": "Elizabethtown", "rent": 1070, "zip": "40150"}, "elizabethtown-40159": {"city": "Elizabethtown", "rent": 1060, "zip": "40159"}, "elizabethtown-40160": {"city": "Elizabethtown", "rent": 980, "zip": "40160"}, "elizabethtown-40162": {"city": "Elizabethtown", "rent": 1170, "zip": "40162"}, "elizabethtown-40175": {"city": "Elizabethtown", "rent": 1380, "zip": "40175"}, "elizabethtown-40177": {"city": "Elizabethtown", "rent": 1070, "zip": "40177"}, "elizabethtown-42701": {"city": "Elizabethtown", "rent": 1160, "zip": "42701"}, "elizabethtown-42702": {"city": "Elizabethtown", "rent": 1060, "zip": "42702"}, "elizabethtown-42712": {"city": "Elizabethtown", "rent": 970, "zip": "42712"}, "elizabethtown-42716": {"city": "Elizabethtown", "rent": 970, "zip": "42716"}, "elizabethtown-42718": {"city": "Elizabethtown", "rent": 970, "zip": "42718"}, "elizabethtown-42724": {"city": "Elizabethtown", "rent": 970, "zip": "42724"}, "elizabethtown-42732": {"city": "Elizabethtown", "rent": 970, "zip": "42732"}, "elizabethtown-42740": {"city": "Elizabethtown", "rent": 970, "zip": "42740"}, "elizabethtown-42748": {"city": "Elizabethtown", "rent": 970, "zip": "42748"}, "elizabethtown-42757": {"city": "Elizabethtown", "rent": 970, "zip": "42757"}, "elizabethtown-42764": {"city": "Elizabethtown", "rent": 970, "zip": "42764"}, "elizabethtown-42776": {"city": "Elizabethtown", "rent": 970, "zip": "42776"}, "elizabethtown-42784": {"city": "Elizabethtown", "rent": 970, "zip": "42784"}, "elizabethtown-42788": {"city": "Elizabethtown", "rent": 970, "zip": "42788"}, "carter-county-40351": {"city": "Carter County", "rent": 890, "zip": "40351"}, "carter-county-41132": {"city": "Carter County", "rent": 970, "zip": "41132"}, "carter-county-41141": {"city": "Carter County", "rent": 1100, "zip": "41141"}, "carter-county-41142": {"city": "Carter County", "rent": 870, "zip": "41142"}, "carter-county-41143": {"city": "Carter County", "rent": 970, "zip": "41143"}, "carter-county-41146": {"city": "Carter County", "rent": 970, "zip": "41146"}, "carter-county-41164": {"city": "Carter County", "rent": 870, "zip": "41164"}, "carter-county-41168": {"city": "Carter County", "rent": 990, "zip": "41168"}, "carter-county-41173": {"city": "Carter County", "rent": 870, "zip": "41173"}, "carter-county-41179": {"city": "Carter County", "rent": 970, "zip": "41179"}, "carter-county-41180": {"city": "Carter County", "rent": 920, "zip": "41180"}, "carter-county-41181": {"city": "Carter County", "rent": 970, "zip": "41181"}, "lawrence-county-41124": {"city": "Lawrence County", "rent": 870, "zip": "41124"}, "lawrence-county-41129": {"city": "Lawrence County", "rent": 970, "zip": "41129"}, "lawrence-county-41132": {"city": "Lawrence County", "rent": 970, "zip": "41132"}, "lawrence-county-41159": {"city": "Lawrence County", "rent": 880, "zip": "41159"}, "lawrence-county-41160": {"city": "Lawrence County", "rent": 930, "zip": "41160"}, "lawrence-county-41180": {"city": "Lawrence County", "rent": 920, "zip": "41180"}, "lawrence-county-41181": {"city": "Lawrence County", "rent": 970, "zip": "41181"}, "lawrence-county-41201": {"city": "Lawrence County", "rent": 910, "zip": "41201"}, "lawrence-county-41230": {"city": "Lawrence County", "rent": 930, "zip": "41230"}, "lawrence-county-41232": {"city": "Lawrence County", "rent": 920, "zip": "41232"}, "lawrence-county-41254": {"city": "Lawrence County", "rent": 870, "zip": "41254"}, "lawrence-county-41262": {"city": "Lawrence County", "rent": 910, "zip": "41262"}, "lawrence-county-41264": {"city": "Lawrence County", "rent": 930, "zip": "41264"}, "lexington-fayette-40311": {"city": "Lexington-Fayette", "rent": 1050, "zip": "40311"}, "lexington-fayette-40312": {"city": "Lexington-Fayette", "rent": 1050, "zip": "40312"}, "lexington-fayette-40324": {"city": "Lexington-Fayette", "rent": 1310, "zip": "40324"}, "lexington-fayette-40339": {"city": "Lexington-Fayette", "rent": 1180, "zip": "40339"}, "lexington-fayette-40340": {"city": "Lexington-Fayette", "rent": 1160, "zip": "40340"}, "lexington-fayette-40347": {"city": "Lexington-Fayette", "rent": 1150, "zip": "40347"}, "lexington-fayette-40348": {"city": "Lexington-Fayette", "rent": 1050, "zip": "40348"}, "lexington-fayette-40353": {"city": "Lexington-Fayette", "rent": 1050, "zip": "40353"}, "lexington-fayette-40356": {"city": "Lexington-Fayette", "rent": 1180, "zip": "40356"}, "lexington-fayette-40357": {"city": "Lexington-Fayette", "rent": 1050, "zip": "40357"}, "lexington-fayette-40361": {"city": "Lexington-Fayette", "rent": 1050, "zip": "40361"}, "lexington-fayette-40370": {"city": "Lexington-Fayette", "rent": 1380, "zip": "40370"}, "lexington-fayette-40374": {"city": "Lexington-Fayette", "rent": 1050, "zip": "40374"}, "lexington-fayette-40379": {"city": "Lexington-Fayette", "rent": 1190, "zip": "40379"}, "lexington-fayette-40383": {"city": "Lexington-Fayette", "rent": 1170, "zip": "40383"}, "lexington-fayette-40390": {"city": "Lexington-Fayette", "rent": 1050, "zip": "40390"}, "lexington-fayette-40391": {"city": "Lexington-Fayette", "rent": 1070, "zip": "40391"}, "lexington-fayette-40392": {"city": "Lexington-Fayette", "rent": 1070, "zip": "40392"}, "lexington-fayette-40502": {"city": "Lexington-Fayette", "rent": 1260, "zip": "40502"}, "lexington-fayette-40503": {"city": "Lexington-Fayette", "rent": 1460, "zip": "40503"}, "lexington-fayette-40504": {"city": "Lexington-Fayette", "rent": 1210, "zip": "40504"}, "lexington-fayette-40505": {"city": "Lexington-Fayette", "rent": 1110, "zip": "40505"}, "lexington-fayette-40506": {"city": "Lexington-Fayette", "rent": 1310, "zip": "40506"}, "lexington-fayette-40507": {"city": "Lexington-Fayette", "rent": 1150, "zip": "40507"}, "lexington-fayette-40508": {"city": "Lexington-Fayette", "rent": 1250, "zip": "40508"}, "lexington-fayette-40509": {"city": "Lexington-Fayette", "rent": 1610, "zip": "40509"}, "lexington-fayette-40510": {"city": "Lexington-Fayette", "rent": 1430, "zip": "40510"}, "lexington-fayette-40511": {"city": "Lexington-Fayette", "rent": 1390, "zip": "40511"}, "lexington-fayette-40512": {"city": "Lexington-Fayette", "rent": 1310, "zip": "40512"}, "lexington-fayette-40513": {"city": "Lexington-Fayette", "rent": 1650, "zip": "40513"}, "lexington-fayette-40514": {"city": "Lexington-Fayette", "rent": 1770, "zip": "40514"}, "lexington-fayette-40515": {"city": "Lexington-Fayette", "rent": 1540, "zip": "40515"}, "lexington-fayette-40516": {"city": "Lexington-Fayette", "rent": 1300, "zip": "40516"}, "lexington-fayette-40517": {"city": "Lexington-Fayette", "rent": 1390, "zip": "40517"}, "lexington-fayette-40522": {"city": "Lexington-Fayette", "rent": 1310, "zip": "40522"}, "lexington-fayette-40523": {"city": "Lexington-Fayette", "rent": 1310, "zip": "40523"}, "lexington-fayette-40524": {"city": "Lexington-Fayette", "rent": 1310, "zip": "40524"}, "lexington-fayette-40526": {"city": "Lexington-Fayette", "rent": 1250, "zip": "40526"}, "lexington-fayette-40533": {"city": "Lexington-Fayette", "rent": 1310, "zip": "40533"}, "lexington-fayette-40536": {"city": "Lexington-Fayette", "rent": 1310, "zip": "40536"}, "lexington-fayette-40544": {"city": "Lexington-Fayette", "rent": 1310, "zip": "40544"}, "lexington-fayette-40555": {"city": "Lexington-Fayette", "rent": 1310, "zip": "40555"}, "lexington-fayette-40574": {"city": "Lexington-Fayette", "rent": 1310, "zip": "40574"}, "lexington-fayette-40575": {"city": "Lexington-Fayette", "rent": 1310, "zip": "40575"}, "lexington-fayette-40576": {"city": "Lexington-Fayette", "rent": 1310, "zip": "40576"}, "lexington-fayette-40577": {"city": "Lexington-Fayette", "rent": 1310, "zip": "40577"}, "lexington-fayette-40578": {"city": "Lexington-Fayette", "rent": 1310, "zip": "40578"}, "lexington-fayette-40579": {"city": "Lexington-Fayette", "rent": 1310, "zip": "40579"}, "lexington-fayette-40580": {"city": "Lexington-Fayette", "rent": 1310, "zip": "40580"}, "lexington-fayette-40581": {"city": "Lexington-Fayette", "rent": 1310, "zip": "40581"}, "lexington-fayette-40582": {"city": "Lexington-Fayette", "rent": 1310, "zip": "40582"}, "lexington-fayette-40583": {"city": "Lexington-Fayette", "rent": 1310, "zip": "40583"}, "lexington-fayette-40588": {"city": "Lexington-Fayette", "rent": 1310, "zip": "40588"}, "lexington-fayette-40591": {"city": "Lexington-Fayette", "rent": 1310, "zip": "40591"}, "lexington-fayette-40601": {"city": "Lexington-Fayette", "rent": 1090, "zip": "40601"}, "lexington-fayette-41010": {"city": "Lexington-Fayette", "rent": 1050, "zip": "41010"}, "lexington-fayette-41031": {"city": "Lexington-Fayette", "rent": 1050, "zip": "41031"}, "meade-county-40104": {"city": "Meade County", "rent": 1000, "zip": "40104"}, "meade-county-40108": {"city": "Meade County", "rent": 1000, "zip": "40108"}, "meade-county-40117": {"city": "Meade County", "rent": 1170, "zip": "40117"}, "meade-county-40121": {"city": "Meade County", "rent": 1180, "zip": "40121"}, "meade-county-40142": {"city": "Meade County", "rent": 1080, "zip": "40142"}, "meade-county-40146": {"city": "Meade County", "rent": 1000, "zip": "40146"}, "meade-county-40155": {"city": "Meade County", "rent": 1000, "zip": "40155"}, "meade-county-40157": {"city": "Meade County", "rent": 1060, "zip": "40157"}, "meade-county-40161": {"city": "Meade County", "rent": 1080, "zip": "40161"}, "meade-county-40171": {"city": "Meade County", "rent": 1000, "zip": "40171"}, "meade-county-40175": {"city": "Meade County", "rent": 1380, "zip": "40175"}, "meade-county-40176": {"city": "Meade County", "rent": 1000, "zip": "40176"}, "louisville-40006": {"city": "Louisville", "rent": 1070, "zip": "40006"}, "louisville-40007": {"city": "Louisville", "rent": 1330, "zip": "40007"}, "louisville-40008": {"city": "Louisville", "rent": 1080, "zip": "40008"}, "louisville-40010": {"city": "Louisville", "rent": 1350, "zip": "40010"}, "louisville-40011": {"city": "Louisville", "rent": 1070, "zip": "40011"}, "louisville-40013": {"city": "Louisville", "rent": 1180, "zip": "40013"}, "louisville-40014": {"city": "Louisville", "rent": 1390, "zip": "40014"}, "louisville-40018": {"city": "Louisville", "rent": 1290, "zip": "40018"}, "louisville-40019": {"city": "Louisville", "rent": 1070, "zip": "40019"}, "louisville-40023": {"city": "Louisville", "rent": 1710, "zip": "40023"}, "louisville-40025": {"city": "Louisville", "rent": 1490, "zip": "40025"}, "louisville-40026": {"city": "Louisville", "rent": 1800, "zip": "40026"}, "louisville-40027": {"city": "Louisville", "rent": 1290, "zip": "40027"}, "louisville-40031": {"city": "Louisville", "rent": 1320, "zip": "40031"}, "louisville-40036": {"city": "Louisville", "rent": 1080, "zip": "40036"}, "louisville-40041": {"city": "Louisville", "rent": 1170, "zip": "40041"}, "louisville-40046": {"city": "Louisville", "rent": 1080, "zip": "40046"}, "louisville-40047": {"city": "Louisville", "rent": 1120, "zip": "40047"}, "louisville-40050": {"city": "Louisville", "rent": 1070, "zip": "40050"}, "louisville-40055": {"city": "Louisville", "rent": 1310, "zip": "40055"}, "louisville-40056": {"city": "Louisville", "rent": 1440, "zip": "40056"}, "louisville-40057": {"city": "Louisville", "rent": 1330, "zip": "40057"}, "louisville-40058": {"city": "Louisville", "rent": 1070, "zip": "40058"}, "louisville-40059": {"city": "Louisville", "rent": 1910, "zip": "40059"}, "louisville-40065": {"city": "Louisville", "rent": 1150, "zip": "40065"}, "louisville-40068": {"city": "Louisville", "rent": 1300, "zip": "40068"}, "louisville-40070": {"city": "Louisville", "rent": 1100, "zip": "40070"}, "louisville-40071": {"city": "Louisville", "rent": 1120, "zip": "40071"}, "louisville-40075": {"city": "Louisville", "rent": 1070, "zip": "40075"}, "louisville-40076": {"city": "Louisville", "rent": 1100, "zip": "40076"}, "louisville-40077": {"city": "Louisville", "rent": 1220, "zip": "40077"}, "louisville-40109": {"city": "Louisville", "rent": 1250, "zip": "40109"}, "louisville-40110": {"city": "Louisville", "rent": 1140, "zip": "40110"}, "louisville-40118": {"city": "Louisville", "rent": 1320, "zip": "40118"}, "louisville-40129": {"city": "Louisville", "rent": 1210, "zip": "40129"}, "louisville-40150": {"city": "Louisville", "rent": 1070, "zip": "40150"}, "louisville-40165": {"city": "Louisville", "rent": 1160, "zip": "40165"}, "louisville-40166": {"city": "Louisville", "rent": 1210, "zip": "40166"}, "louisville-40177": {"city": "Louisville", "rent": 1070, "zip": "40177"}, "louisville-40201": {"city": "Louisville", "rent": 1290, "zip": "40201"}, "louisville-40202": {"city": "Louisville", "rent": 1390, "zip": "40202"}, "louisville-40203": {"city": "Louisville", "rent": 1100, "zip": "40203"}, "louisville-40204": {"city": "Louisville", "rent": 1430, "zip": "40204"}, "louisville-40205": {"city": "Louisville", "rent": 1340, "zip": "40205"}, "louisville-40206": {"city": "Louisville", "rent": 1400, "zip": "40206"}, "louisville-40207": {"city": "Louisville", "rent": 1570, "zip": "40207"}, "louisville-40208": {"city": "Louisville", "rent": 1080, "zip": "40208"}, "louisville-40209": {"city": "Louisville", "rent": 1150, "zip": "40209"}, "louisville-40210": {"city": "Louisville", "rent": 1150, "zip": "40210"}, "louisville-40211": {"city": "Louisville", "rent": 1110, "zip": "40211"}, "louisville-40212": {"city": "Louisville", "rent": 1080, "zip": "40212"}, "louisville-40213": {"city": "Louisville", "rent": 1140, "zip": "40213"}, "louisville-40214": {"city": "Louisville", "rent": 1180, "zip": "40214"}, "louisville-40215": {"city": "Louisville", "rent": 1220, "zip": "40215"}, "louisville-40216": {"city": "Louisville", "rent": 1080, "zip": "40216"}, "louisville-40217": {"city": "Louisville", "rent": 1360, "zip": "40217"}, "louisville-40218": {"city": "Louisville", "rent": 1300, "zip": "40218"}, "louisville-40219": {"city": "Louisville", "rent": 1230, "zip": "40219"}, "louisville-40220": {"city": "Louisville", "rent": 1460, "zip": "40220"}, "louisville-40221": {"city": "Louisville", "rent": 1290, "zip": "40221"}, "louisville-40222": {"city": "Louisville", "rent": 1490, "zip": "40222"}, "louisville-40223": {"city": "Louisville", "rent": 1640, "zip": "40223"}, "louisville-40228": {"city": "Louisville", "rent": 1600, "zip": "40228"}, "louisville-40229": {"city": "Louisville", "rent": 1490, "zip": "40229"}, "louisville-40231": {"city": "Louisville", "rent": 1290, "zip": "40231"}, "louisville-40232": {"city": "Louisville", "rent": 1290, "zip": "40232"}, "louisville-40233": {"city": "Louisville", "rent": 1290, "zip": "40233"}, "louisville-40241": {"city": "Louisville", "rent": 1670, "zip": "40241"}, "louisville-40242": {"city": "Louisville", "rent": 1470, "zip": "40242"}, "louisville-40243": {"city": "Louisville", "rent": 1490, "zip": "40243"}, "louisville-40245": {"city": "Louisville", "rent": 1800, "zip": "40245"}, "louisville-40250": {"city": "Louisville", "rent": 1290, "zip": "40250"}, "louisville-40251": {"city": "Louisville", "rent": 1290, "zip": "40251"}, "louisville-40252": {"city": "Louisville", "rent": 1290, "zip": "40252"}, "louisville-40253": {"city": "Louisville", "rent": 1290, "zip": "40253"}, "louisville-40255": {"city": "Louisville", "rent": 1290, "zip": "40255"}, "louisville-40256": {"city": "Louisville", "rent": 1290, "zip": "40256"}, "louisville-40257": {"city": "Louisville", "rent": 1290, "zip": "40257"}, "louisville-40258": {"city": "Louisville", "rent": 1290, "zip": "40258"}, "louisville-40259": {"city": "Louisville", "rent": 1290, "zip": "40259"}, "louisville-40261": {"city": "Louisville", "rent": 1290, "zip": "40261"}, "louisville-40268": {"city": "Louisville", "rent": 1290, "zip": "40268"}, "louisville-40269": {"city": "Louisville", "rent": 1290, "zip": "40269"}, "louisville-40270": {"city": "Louisville", "rent": 1290, "zip": "40270"}, "louisville-40272": {"city": "Louisville", "rent": 1380, "zip": "40272"}, "louisville-40280": {"city": "Louisville", "rent": 1400, "zip": "40280"}, "louisville-40285": {"city": "Louisville", "rent": 1290, "zip": "40285"}, "louisville-40291": {"city": "Louisville", "rent": 1350, "zip": "40291"}, "louisville-40299": {"city": "Louisville", "rent": 1470, "zip": "40299"}, "louisville-40601": {"city": "Louisville", "rent": 1090, "zip": "40601"}, "louisville-47104": {"city": "Louisville", "rent": 1130, "zip": "47104"}, "louisville-47106": {"city": "Louisville", "rent": 1070, "zip": "47106"}, "louisville-47107": {"city": "Louisville", "rent": 1080, "zip": "47107"}, "louisville-47110": {"city": "Louisville", "rent": 1110, "zip": "47110"}, "louisville-47111": {"city": "Louisville", "rent": 1130, "zip": "47111"}, "louisville-47112": {"city": "Louisville", "rent": 1110, "zip": "47112"}, "louisville-47114": {"city": "Louisville", "rent": 1300, "zip": "47114"}, "louisville-47115": {"city": "Louisville", "rent": 1070, "zip": "47115"}, "louisville-47117": {"city": "Louisville", "rent": 1070, "zip": "47117"}, "louisville-47119": {"city": "Louisville", "rent": 1430, "zip": "47119"}, "louisville-47120": {"city": "Louisville", "rent": 1070, "zip": "47120"}, "louisville-47122": {"city": "Louisville", "rent": 1140, "zip": "47122"}, "louisville-47124": {"city": "Louisville", "rent": 1380, "zip": "47124"}, "louisville-47125": {"city": "Louisville", "rent": 1190, "zip": "47125"}, "louisville-47126": {"city": "Louisville", "rent": 1070, "zip": "47126"}, "louisville-47129": {"city": "Louisville", "rent": 1180, "zip": "47129"}, "louisville-47130": {"city": "Louisville", "rent": 1340, "zip": "47130"}, "louisville-47131": {"city": "Louisville", "rent": 1240, "zip": "47131"}, "louisville-47135": {"city": "Louisville", "rent": 1070, "zip": "47135"}, "louisville-47136": {"city": "Louisville", "rent": 1180, "zip": "47136"}, "louisville-47137": {"city": "Louisville", "rent": 1070, "zip": "47137"}, "louisville-47138": {"city": "Louisville", "rent": 1430, "zip": "47138"}, "louisville-47141": {"city": "Louisville", "rent": 1170, "zip": "47141"}, "louisville-47142": {"city": "Louisville", "rent": 1080, "zip": "47142"}, "louisville-47143": {"city": "Louisville", "rent": 1910, "zip": "47143"}, "louisville-47146": {"city": "Louisville", "rent": 1190, "zip": "47146"}, "louisville-47147": {"city": "Louisville", "rent": 1130, "zip": "47147"}, "louisville-47150": {"city": "Louisville", "rent": 1250, "zip": "47150"}, "louisville-47151": {"city": "Louisville", "rent": 1190, "zip": "47151"}, "louisville-47160": {"city": "Louisville", "rent": 1070, "zip": "47160"}, "louisville-47161": {"city": "Louisville", "rent": 1530, "zip": "47161"}, "louisville-47162": {"city": "Louisville", "rent": 1240, "zip": "47162"}, "louisville-47163": {"city": "Louisville", "rent": 1080, "zip": "47163"}, "louisville-47164": {"city": "Louisville", "rent": 1070, "zip": "47164"}, "louisville-47165": {"city": "Louisville", "rent": 1070, "zip": "47165"}, "louisville-47166": {"city": "Louisville", "rent": 1460, "zip": "47166"}, "louisville-47172": {"city": "Louisville", "rent": 1340, "zip": "47172"}, "louisville-47177": {"city": "Louisville", "rent": 1070, "zip": "47177"}, "louisville-47190": {"city": "Louisville", "rent": 1240, "zip": "47190"}, "louisville-47243": {"city": "Louisville", "rent": 1070, "zip": "47243"}, "nelson-county-40004": {"city": "Nelson County", "rent": 1030, "zip": "40004"}, "nelson-county-40008": {"city": "Nelson County", "rent": 1080, "zip": "40008"}, "nelson-county-40012": {"city": "Nelson County", "rent": 900, "zip": "40012"}, "nelson-county-40013": {"city": "Nelson County", "rent": 1180, "zip": "40013"}, "nelson-county-40020": {"city": "Nelson County", "rent": 1160, "zip": "40020"}, "nelson-county-40037": {"city": "Nelson County", "rent": 870, "zip": "40037"}, "nelson-county-40048": {"city": "Nelson County", "rent": 1020, "zip": "40048"}, "nelson-county-40051": {"city": "Nelson County", "rent": 970, "zip": "40051"}, "nelson-county-40052": {"city": "Nelson County", "rent": 970, "zip": "40052"}, "nelson-county-40069": {"city": "Nelson County", "rent": 900, "zip": "40069"}, "nelson-county-40071": {"city": "Nelson County", "rent": 1120, "zip": "40071"}, "nelson-county-40107": {"city": "Nelson County", "rent": 980, "zip": "40107"}, "nelson-county-42748": {"city": "Nelson County", "rent": 970, "zip": "42748"}, "shelby-county-40003": {"city": "Shelby County", "rent": 1260, "zip": "40003"}, "shelby-county-40014": {"city": "Shelby County", "rent": 1390, "zip": "40014"}, "shelby-county-40019": {"city": "Shelby County", "rent": 1070, "zip": "40019"}, "shelby-county-40022": {"city": "Shelby County", "rent": 1140, "zip": "40022"}, "shelby-county-40023": {"city": "Shelby County", "rent": 1710, "zip": "40023"}, "shelby-county-40046": {"city": "Shelby County", "rent": 1080, "zip": "40046"}, "shelby-county-40056": {"city": "Shelby County", "rent": 1440, "zip": "40056"}, "shelby-county-40057": {"city": "Shelby County", "rent": 1330, "zip": "40057"}, "shelby-county-40065": {"city": "Shelby County", "rent": 1150, "zip": "40065"}, "shelby-county-40066": {"city": "Shelby County", "rent": 1140, "zip": "40066"}, "shelby-county-40067": {"city": "Shelby County", "rent": 1380, "zip": "40067"}, "shelby-county-40068": {"city": "Shelby County", "rent": 1300, "zip": "40068"}, "shelby-county-40071": {"city": "Shelby County", "rent": 1120, "zip": "40071"}, "shelby-county-40076": {"city": "Shelby County", "rent": 1100, "zip": "40076"}, "shelby-county-40245": {"city": "Shelby County", "rent": 1800, "zip": "40245"}, "shelby-county-40342": {"city": "Shelby County", "rent": 1040, "zip": "40342"}, "shelby-county-40601": {"city": "Shelby County", "rent": 1090, "zip": "40601"}, "owensboro-42301": {"city": "Owensboro", "rent": 1170, "zip": "42301"}, "owensboro-42302": {"city": "Owensboro", "rent": 1120, "zip": "42302"}, "owensboro-42303": {"city": "Owensboro", "rent": 1180, "zip": "42303"}, "owensboro-42304": {"city": "Owensboro", "rent": 1120, "zip": "42304"}, "owensboro-42322": {"city": "Owensboro", "rent": 1020, "zip": "42322"}, "owensboro-42327": {"city": "Owensboro", "rent": 1020, "zip": "42327"}, "owensboro-42330": {"city": "Owensboro", "rent": 1020, "zip": "42330"}, "owensboro-42348": {"city": "Owensboro", "rent": 1020, "zip": "42348"}, "owensboro-42350": {"city": "Owensboro", "rent": 1110, "zip": "42350"}, "owensboro-42351": {"city": "Owensboro", "rent": 1020, "zip": "42351"}, "owensboro-42352": {"city": "Owensboro", "rent": 1020, "zip": "42352"}, "owensboro-42355": {"city": "Owensboro", "rent": 1020, "zip": "42355"}, "owensboro-42356": {"city": "Owensboro", "rent": 1170, "zip": "42356"}, "owensboro-42366": {"city": "Owensboro", "rent": 1110, "zip": "42366"}, "owensboro-42371": {"city": "Owensboro", "rent": 1020, "zip": "42371"}, "owensboro-42372": {"city": "Owensboro", "rent": 1020, "zip": "42372"}, "owensboro-42376": {"city": "Owensboro", "rent": 1040, "zip": "42376"}, "owensboro-42378": {"city": "Owensboro", "rent": 1020, "zip": "42378"}, "ballard-county-42022": {"city": "Ballard County", "rent": 1200, "zip": "42022"}, "ballard-county-42024": {"city": "Ballard County", "rent": 900, "zip": "42024"}, "ballard-county-42053": {"city": "Ballard County", "rent": 1110, "zip": "42053"}, "ballard-county-42056": {"city": "Ballard County", "rent": 1240, "zip": "42056"}, "ballard-county-42060": {"city": "Ballard County", "rent": 1090, "zip": "42060"}, "ballard-county-42087": {"city": "Ballard County", "rent": 950, "zip": "42087"}, "carlisle-county-42021": {"city": "Carlisle County", "rent": 990, "zip": "42021"}, "carlisle-county-42023": {"city": "Carlisle County", "rent": 870, "zip": "42023"}, "carlisle-county-42035": {"city": "Carlisle County", "rent": 910, "zip": "42035"}, "carlisle-county-42039": {"city": "Carlisle County", "rent": 920, "zip": "42039"}, "carlisle-county-42069": {"city": "Carlisle County", "rent": 1060, "zip": "42069"}, "livingston-county-42028": {"city": "Livingston County", "rent": 990, "zip": "42028"}, "livingston-county-42045": {"city": "Livingston County", "rent": 1100, "zip": "42045"}, "livingston-county-42047": {"city": "Livingston County", "rent": 1110, "zip": "42047"}, "livingston-county-42058": {"city": "Livingston County", "rent": 1570, "zip": "42058"}, "livingston-county-42064": {"city": "Livingston County", "rent": 870, "zip": "42064"}, "livingston-county-42078": {"city": "Livingston County", "rent": 900, "zip": "42078"}, "livingston-county-42081": {"city": "Livingston County", "rent": 1180, "zip": "42081"}, "livingston-county-42083": {"city": "Livingston County", "rent": 1070, "zip": "42083"}, "mccracken-county-42001": {"city": "McCracken County", "rent": 1150, "zip": "42001"}, "mccracken-county-42002": {"city": "McCracken County", "rent": 1060, "zip": "42002"}, "mccracken-county-42003": {"city": "McCracken County", "rent": 910, "zip": "42003"}, "mccracken-county-42027": {"city": "McCracken County", "rent": 990, "zip": "42027"}, "mccracken-county-42029": {"city": "McCracken County", "rent": 940, "zip": "42029"}, "mccracken-county-42053": {"city": "McCracken County", "rent": 1110, "zip": "42053"}, "mccracken-county-42069": {"city": "McCracken County", "rent": 1060, "zip": "42069"}, "mccracken-county-42082": {"city": "McCracken County", "rent": 910, "zip": "42082"}, "mccracken-county-42086": {"city": "McCracken County", "rent": 1160, "zip": "42086"}, "adair-county-42129": {"city": "Adair County", "rent": 870, "zip": "42129"}, "adair-county-42528": {"city": "Adair County", "rent": 920, "zip": "42528"}, "adair-county-42539": {"city": "Adair County", "rent": 870, "zip": "42539"}, "adair-county-42642": {"city": "Adair County", "rent": 890, "zip": "42642"}, "adair-county-42715": {"city": "Adair County", "rent": 870, "zip": "42715"}, "adair-county-42720": {"city": "Adair County", "rent": 870, "zip": "42720"}, "adair-county-42728": {"city": "Adair County", "rent": 870, "zip": "42728"}, "adair-county-42733": {"city": "Adair County", "rent": 870, "zip": "42733"}, "adair-county-42741": {"city": "Adair County", "rent": 870, "zip": "42741"}, "adair-county-42742": {"city": "Adair County", "rent": 870, "zip": "42742"}, "adair-county-42743": {"city": "Adair County", "rent": 880, "zip": "42743"}, "adair-county-42753": {"city": "Adair County", "rent": 890, "zip": "42753"}, "anderson-county-40012": {"city": "Anderson County", "rent": 900, "zip": "40012"}, "anderson-county-40046": {"city": "Anderson County", "rent": 1080, "zip": "40046"}, "anderson-county-40076": {"city": "Anderson County", "rent": 1100, "zip": "40076"}, "anderson-county-40078": {"city": "Anderson County", "rent": 1170, "zip": "40078"}, "anderson-county-40342": {"city": "Anderson County", "rent": 1040, "zip": "40342"}, "anderson-county-40372": {"city": "Anderson County", "rent": 900, "zip": "40372"}, "anderson-county-40601": {"city": "Anderson County", "rent": 1090, "zip": "40601"}, "barren-county-42123": {"city": "Barren County", "rent": 930, "zip": "42123"}, "barren-county-42127": {"city": "Barren County", "rent": 870, "zip": "42127"}, "barren-county-42130": {"city": "Barren County", "rent": 890, "zip": "42130"}, "barren-county-42131": {"city": "Barren County", "rent": 920, "zip": "42131"}, "barren-county-42133": {"city": "Barren County", "rent": 890, "zip": "42133"}, "barren-county-42141": {"city": "Barren County", "rent": 920, "zip": "42141"}, "barren-county-42152": {"city": "Barren County", "rent": 870, "zip": "42152"}, "barren-county-42154": {"city": "Barren County", "rent": 900, "zip": "42154"}, "barren-county-42156": {"city": "Barren County", "rent": 930, "zip": "42156"}, "barren-county-42160": {"city": "Barren County", "rent": 1060, "zip": "42160"}, "barren-county-42166": {"city": "Barren County", "rent": 870, "zip": "42166"}, "barren-county-42171": {"city": "Barren County", "rent": 1060, "zip": "42171"}, "barren-county-42746": {"city": "Barren County", "rent": 870, "zip": "42746"}, "barren-county-42749": {"city": "Barren County", "rent": 950, "zip": "42749"}, "bath-county-40311": {"city": "Bath County", "rent": 1050, "zip": "40311"}, "bath-county-40322": {"city": "Bath County", "rent": 870, "zip": "40322"}, "bath-county-40334": {"city": "Bath County", "rent": 900, "zip": "40334"}, "bath-county-40346": {"city": "Bath County", "rent": 900, "zip": "40346"}, "bath-county-40351": {"city": "Bath County", "rent": 890, "zip": "40351"}, "bath-county-40353": {"city": "Bath County", "rent": 1050, "zip": "40353"}, "bath-county-40358": {"city": "Bath County", "rent": 920, "zip": "40358"}, "bath-county-40360": {"city": "Bath County", "rent": 870, "zip": "40360"}, "bath-county-40371": {"city": "Bath County", "rent": 950, "zip": "40371"}, "bath-county-40374": {"city": "Bath County", "rent": 1050, "zip": "40374"}, "bell-county-40813": {"city": "Bell County", "rent": 870, "zip": "40813"}, "bell-county-40845": {"city": "Bell County", "rent": 980, "zip": "40845"}, "bell-county-40856": {"city": "Bell County", "rent": 880, "zip": "40856"}, "bell-county-40902": {"city": "Bell County", "rent": 870, "zip": "40902"}, "bell-county-40913": {"city": "Bell County", "rent": 880, "zip": "40913"}, "bell-county-40930": {"city": "Bell County", "rent": 870, "zip": "40930"}, "bell-county-40939": {"city": "Bell County", "rent": 870, "zip": "40939"}, "bell-county-40940": {"city": "Bell County", "rent": 900, "zip": "40940"}, "bell-county-40955": {"city": "Bell County", "rent": 870, "zip": "40955"}, "bell-county-40958": {"city": "Bell County", "rent": 870, "zip": "40958"}, "bell-county-40965": {"city": "Bell County", "rent": 930, "zip": "40965"}, "bell-county-40977": {"city": "Bell County", "rent": 870, "zip": "40977"}, "bell-county-40988": {"city": "Bell County", "rent": 870, "zip": "40988"}, "boyle-county-40328": {"city": "Boyle County", "rent": 870, "zip": "40328"}, "boyle-county-40330": {"city": "Boyle County", "rent": 870, "zip": "40330"}, "boyle-county-40422": {"city": "Boyle County", "rent": 940, "zip": "40422"}, "boyle-county-40440": {"city": "Boyle County", "rent": 870, "zip": "40440"}, "boyle-county-40452": {"city": "Boyle County", "rent": 910, "zip": "40452"}, "boyle-county-40464": {"city": "Boyle County", "rent": 910, "zip": "40464"}, "boyle-county-40468": {"city": "Boyle County", "rent": 1050, "zip": "40468"}, "breathitt-county-41301": {"city": "Breathitt County", "rent": 870, "zip": "41301"}, "breathitt-county-41310": {"city": "Breathitt County", "rent": 870, "zip": "41310"}, "breathitt-county-41311": {"city": "Breathitt County", "rent": 930, "zip": "41311"}, "breathitt-county-41314": {"city": "Breathitt County", "rent": 880, "zip": "41314"}, "breathitt-county-41317": {"city": "Breathitt County", "rent": 890, "zip": "41317"}, "breathitt-county-41339": {"city": "Breathitt County", "rent": 880, "zip": "41339"}, "breathitt-county-41348": {"city": "Breathitt County", "rent": 870, "zip": "41348"}, "breathitt-county-41364": {"city": "Breathitt County", "rent": 870, "zip": "41364"}, "breathitt-county-41366": {"city": "Breathitt County", "rent": 880, "zip": "41366"}, "breathitt-county-41367": {"city": "Breathitt County", "rent": 930, "zip": "41367"}, "breathitt-county-41385": {"city": "Breathitt County", "rent": 870, "zip": "41385"}, "breathitt-county-41390": {"city": "Breathitt County", "rent": 880, "zip": "41390"}, "breathitt-county-41721": {"city": "Breathitt County", "rent": 960, "zip": "41721"}, "breathitt-county-41727": {"city": "Breathitt County", "rent": 940, "zip": "41727"}, "breathitt-county-41745": {"city": "Breathitt County", "rent": 960, "zip": "41745"}, "breckinridge-county-40111": {"city": "Breckinridge County", "rent": 870, "zip": "40111"}, "breckinridge-county-40115": {"city": "Breckinridge County", "rent": 1100, "zip": "40115"}, "breckinridge-county-40119": {"city": "Breckinridge County", "rent": 870, "zip": "40119"}, "breckinridge-county-40140": {"city": "Breckinridge County", "rent": 1050, "zip": "40140"}, "breckinridge-county-40142": {"city": "Breckinridge County", "rent": 1080, "zip": "40142"}, "breckinridge-county-40143": {"city": "Breckinridge County", "rent": 870, "zip": "40143"}, "breckinridge-county-40144": {"city": "Breckinridge County", "rent": 940, "zip": "40144"}, "breckinridge-county-40145": {"city": "Breckinridge County", "rent": 910, "zip": "40145"}, "breckinridge-county-40146": {"city": "Breckinridge County", "rent": 1000, "zip": "40146"}, "breckinridge-county-40152": {"city": "Breckinridge County", "rent": 870, "zip": "40152"}, "breckinridge-county-40153": {"city": "Breckinridge County", "rent": 870, "zip": "40153"}, "breckinridge-county-40157": {"city": "Breckinridge County", "rent": 1060, "zip": "40157"}, "breckinridge-county-40161": {"city": "Breckinridge County", "rent": 1080, "zip": "40161"}, "breckinridge-county-40170": {"city": "Breckinridge County", "rent": 870, "zip": "40170"}, "breckinridge-county-40171": {"city": "Breckinridge County", "rent": 1000, "zip": "40171"}, "breckinridge-county-40175": {"city": "Breckinridge County", "rent": 1380, "zip": "40175"}, "breckinridge-county-40176": {"city": "Breckinridge County", "rent": 1000, "zip": "40176"}, "breckinridge-county-40178": {"city": "Breckinridge County", "rent": 870, "zip": "40178"}, "breckinridge-county-42343": {"city": "Breckinridge County", "rent": 1020, "zip": "42343"}, "breckinridge-county-42712": {"city": "Breckinridge County", "rent": 970, "zip": "42712"}, "breckinridge-county-42754": {"city": "Breckinridge County", "rent": 1060, "zip": "42754"}, "caldwell-county-42064": {"city": "Caldwell County", "rent": 870, "zip": "42064"}, "caldwell-county-42211": {"city": "Caldwell County", "rent": 1110, "zip": "42211"}, "caldwell-county-42408": {"city": "Caldwell County", "rent": 1110, "zip": "42408"}, "caldwell-county-42411": {"city": "Caldwell County", "rent": 870, "zip": "42411"}, "caldwell-county-42445": {"city": "Caldwell County", "rent": 1110, "zip": "42445"}, "calloway-county-42020": {"city": "Calloway County", "rent": 1100, "zip": "42020"}, "calloway-county-42025": {"city": "Calloway County", "rent": 970, "zip": "42025"}, "calloway-county-42036": {"city": "Calloway County", "rent": 980, "zip": "42036"}, "calloway-county-42040": {"city": "Calloway County", "rent": 990, "zip": "42040"}, "calloway-county-42048": {"city": "Calloway County", "rent": 970, "zip": "42048"}, "calloway-county-42049": {"city": "Calloway County", "rent": 980, "zip": "42049"}, "calloway-county-42054": {"city": "Calloway County", "rent": 1470, "zip": "42054"}, "calloway-county-42066": {"city": "Calloway County", "rent": 970, "zip": "42066"}, "calloway-county-42071": {"city": "Calloway County", "rent": 1110, "zip": "42071"}, "calloway-county-42076": {"city": "Calloway County", "rent": 1070, "zip": "42076"}, "carroll-county-40006": {"city": "Carroll County", "rent": 1070, "zip": "40006"}, "carroll-county-40011": {"city": "Carroll County", "rent": 1070, "zip": "40011"}, "carroll-county-40045": {"city": "Carroll County", "rent": 940, "zip": "40045"}, "carroll-county-40075": {"city": "Carroll County", "rent": 1070, "zip": "40075"}, "carroll-county-41008": {"city": "Carroll County", "rent": 970, "zip": "41008"}, "carroll-county-41045": {"city": "Carroll County", "rent": 1130, "zip": "41045"}, "carroll-county-41083": {"city": "Carroll County", "rent": 1140, "zip": "41083"}, "carroll-county-41098": {"city": "Carroll County", "rent": 1050, "zip": "41098"}, "casey-county-40009": {"city": "Casey County", "rent": 870, "zip": "40009"}, "casey-county-40328": {"city": "Casey County", "rent": 870, "zip": "40328"}, "casey-county-40437": {"city": "Casey County", "rent": 970, "zip": "40437"}, "casey-county-40440": {"city": "Casey County", "rent": 870, "zip": "40440"}, "casey-county-40442": {"city": "Casey County", "rent": 900, "zip": "40442"}, "casey-county-40464": {"city": "Casey County", "rent": 910, "zip": "40464"}, "casey-county-40484": {"city": "Casey County", "rent": 870, "zip": "40484"}, "casey-county-40489": {"city": "Casey County", "rent": 890, "zip": "40489"}, "casey-county-42516": {"city": "Casey County", "rent": 870, "zip": "42516"}, "casey-county-42528": {"city": "Casey County", "rent": 920, "zip": "42528"}, "casey-county-42539": {"city": "Casey County", "rent": 870, "zip": "42539"}, "casey-county-42541": {"city": "Casey County", "rent": 920, "zip": "42541"}, "casey-county-42544": {"city": "Casey County", "rent": 870, "zip": "42544"}, "casey-county-42553": {"city": "Casey County", "rent": 880, "zip": "42553"}, "casey-county-42565": {"city": "Casey County", "rent": 910, "zip": "42565"}, "casey-county-42566": {"city": "Casey County", "rent": 880, "zip": "42566"}, "casey-county-42642": {"city": "Casey County", "rent": 890, "zip": "42642"}, "casey-county-42728": {"city": "Casey County", "rent": 870, "zip": "42728"}, "casey-county-42733": {"city": "Casey County", "rent": 870, "zip": "42733"}, "clay-county-40402": {"city": "Clay County", "rent": 880, "zip": "40402"}, "clay-county-40741": {"city": "Clay County", "rent": 900, "zip": "40741"}, "clay-county-40744": {"city": "Clay County", "rent": 880, "zip": "40744"}, "clay-county-40906": {"city": "Clay County", "rent": 920, "zip": "40906"}, "clay-county-40913": {"city": "Clay County", "rent": 880, "zip": "40913"}, "clay-county-40914": {"city": "Clay County", "rent": 870, "zip": "40914"}, "clay-county-40932": {"city": "Clay County", "rent": 870, "zip": "40932"}, "clay-county-40941": {"city": "Clay County", "rent": 890, "zip": "40941"}, "clay-county-40944": {"city": "Clay County", "rent": 870, "zip": "40944"}, "clay-county-40951": {"city": "Clay County", "rent": 870, "zip": "40951"}, "clay-county-40962": {"city": "Clay County", "rent": 890, "zip": "40962"}, "clay-county-40972": {"city": "Clay County", "rent": 870, "zip": "40972"}, "clay-county-40983": {"city": "Clay County", "rent": 880, "zip": "40983"}, "clay-county-41721": {"city": "Clay County", "rent": 960, "zip": "41721"}, "clinton-county-38549": {"city": "Clinton County", "rent": 960, "zip": "38549"}, "clinton-county-42602": {"city": "Clinton County", "rent": 930, "zip": "42602"}, "clinton-county-42603": {"city": "Clinton County", "rent": 870, "zip": "42603"}, "clinton-county-42633": {"city": "Clinton County", "rent": 870, "zip": "42633"}, "clinton-county-42717": {"city": "Clinton County", "rent": 870, "zip": "42717"}, "crittenden-county-42033": {"city": "Crittenden County", "rent": 870, "zip": "42033"}, "crittenden-county-42037": {"city": "Crittenden County", "rent": 870, "zip": "42037"}, "crittenden-county-42038": {"city": "Crittenden County", "rent": 1110, "zip": "42038"}, "crittenden-county-42055": {"city": "Crittenden County", "rent": 870, "zip": "42055"}, "crittenden-county-42064": {"city": "Crittenden County", "rent": 870, "zip": "42064"}, "crittenden-county-42078": {"city": "Crittenden County", "rent": 900, "zip": "42078"}, "crittenden-county-42411": {"city": "Crittenden County", "rent": 870, "zip": "42411"}, "crittenden-county-42450": {"city": "Crittenden County", "rent": 870, "zip": "42450"}, "crittenden-county-42459": {"city": "Crittenden County", "rent": 870, "zip": "42459"}, "cumberland-county-42129": {"city": "Cumberland County", "rent": 870, "zip": "42129"}, "cumberland-county-42167": {"city": "Cumberland County", "rent": 870, "zip": "42167"}, "cumberland-county-42602": {"city": "Cumberland County", "rent": 930, "zip": "42602"}, "cumberland-county-42715": {"city": "Cumberland County", "rent": 870, "zip": "42715"}, "cumberland-county-42717": {"city": "Cumberland County", "rent": 870, "zip": "42717"}, "cumberland-county-42759": {"city": "Cumberland County", "rent": 870, "zip": "42759"}, "elliott-county-40351": {"city": "Elliott County", "rent": 890, "zip": "40351"}, "elliott-county-41149": {"city": "Elliott County", "rent": 900, "zip": "41149"}, "elliott-county-41164": {"city": "Elliott County", "rent": 870, "zip": "41164"}, "elliott-county-41171": {"city": "Elliott County", "rent": 910, "zip": "41171"}, "elliott-county-41180": {"city": "Elliott County", "rent": 920, "zip": "41180"}, "elliott-county-41472": {"city": "Elliott County", "rent": 870, "zip": "41472"}, "estill-county-40312": {"city": "Estill County", "rent": 1050, "zip": "40312"}, "estill-county-40336": {"city": "Estill County", "rent": 870, "zip": "40336"}, "estill-county-40380": {"city": "Estill County", "rent": 870, "zip": "40380"}, "estill-county-40385": {"city": "Estill County", "rent": 920, "zip": "40385"}, "estill-county-40447": {"city": "Estill County", "rent": 870, "zip": "40447"}, "estill-county-40472": {"city": "Estill County", "rent": 980, "zip": "40472"}, "fleming-county-40351": {"city": "Fleming County", "rent": 890, "zip": "40351"}, "fleming-county-41037": {"city": "Fleming County", "rent": 870, "zip": "41037"}, "fleming-county-41039": {"city": "Fleming County", "rent": 940, "zip": "41039"}, "fleming-county-41041": {"city": "Fleming County", "rent": 870, "zip": "41041"}, "fleming-county-41049": {"city": "Fleming County", "rent": 920, "zip": "41049"}, "fleming-county-41055": {"city": "Fleming County", "rent": 920, "zip": "41055"}, "fleming-county-41056": {"city": "Fleming County", "rent": 910, "zip": "41056"}, "fleming-county-41064": {"city": "Fleming County", "rent": 980, "zip": "41064"}, "fleming-county-41081": {"city": "Fleming County", "rent": 870, "zip": "41081"}, "fleming-county-41093": {"city": "Fleming County", "rent": 990, "zip": "41093"}, "floyd-county-41216": {"city": "Floyd County", "rent": 1030, "zip": "41216"}, "floyd-county-41230": {"city": "Floyd County", "rent": 930, "zip": "41230"}, "floyd-county-41265": {"city": "Floyd County", "rent": 870, "zip": "41265"}, "floyd-county-41501": {"city": "Floyd County", "rent": 1020, "zip": "41501"}, "floyd-county-41601": {"city": "Floyd County", "rent": 870, "zip": "41601"}, "floyd-county-41602": {"city": "Floyd County", "rent": 880, "zip": "41602"}, "floyd-county-41603": {"city": "Floyd County", "rent": 1050, "zip": "41603"}, "floyd-county-41604": {"city": "Floyd County", "rent": 900, "zip": "41604"}, "floyd-county-41605": {"city": "Floyd County", "rent": 1040, "zip": "41605"}, "floyd-county-41606": {"city": "Floyd County", "rent": 900, "zip": "41606"}, "floyd-county-41607": {"city": "Floyd County", "rent": 910, "zip": "41607"}, "floyd-county-41612": {"city": "Floyd County", "rent": 900, "zip": "41612"}, "floyd-county-41615": {"city": "Floyd County", "rent": 900, "zip": "41615"}, "floyd-county-41616": {"city": "Floyd County", "rent": 1050, "zip": "41616"}, "floyd-county-41619": {"city": "Floyd County", "rent": 1120, "zip": "41619"}, "floyd-county-41621": {"city": "Floyd County", "rent": 870, "zip": "41621"}, "floyd-county-41622": {"city": "Floyd County", "rent": 900, "zip": "41622"}, "floyd-county-41630": {"city": "Floyd County", "rent": 1040, "zip": "41630"}, "floyd-county-41631": {"city": "Floyd County", "rent": 900, "zip": "41631"}, "floyd-county-41635": {"city": "Floyd County", "rent": 1050, "zip": "41635"}, "floyd-county-41636": {"city": "Floyd County", "rent": 900, "zip": "41636"}, "floyd-county-41640": {"city": "Floyd County", "rent": 880, "zip": "41640"}, "floyd-county-41642": {"city": "Floyd County", "rent": 1070, "zip": "41642"}, "floyd-county-41643": {"city": "Floyd County", "rent": 1050, "zip": "41643"}, "floyd-county-41645": {"city": "Floyd County", "rent": 1020, "zip": "41645"}, "floyd-county-41647": {"city": "Floyd County", "rent": 900, "zip": "41647"}, "floyd-county-41649": {"city": "Floyd County", "rent": 970, "zip": "41649"}, "floyd-county-41650": {"city": "Floyd County", "rent": 900, "zip": "41650"}, "floyd-county-41651": {"city": "Floyd County", "rent": 870, "zip": "41651"}, "floyd-county-41653": {"city": "Floyd County", "rent": 890, "zip": "41653"}, "floyd-county-41655": {"city": "Floyd County", "rent": 900, "zip": "41655"}, "floyd-county-41659": {"city": "Floyd County", "rent": 1020, "zip": "41659"}, "floyd-county-41660": {"city": "Floyd County", "rent": 900, "zip": "41660"}, "floyd-county-41663": {"city": "Floyd County", "rent": 1070, "zip": "41663"}, "floyd-county-41666": {"city": "Floyd County", "rent": 1070, "zip": "41666"}, "floyd-county-41667": {"city": "Floyd County", "rent": 910, "zip": "41667"}, "floyd-county-41669": {"city": "Floyd County", "rent": 870, "zip": "41669"}, "floyd-county-41862": {"city": "Floyd County", "rent": 870, "zip": "41862"}, "franklin-county-40003": {"city": "Franklin County", "rent": 1260, "zip": "40003"}, "franklin-county-40076": {"city": "Franklin County", "rent": 1100, "zip": "40076"}, "franklin-county-40347": {"city": "Franklin County", "rent": 1150, "zip": "40347"}, "franklin-county-40379": {"city": "Franklin County", "rent": 1190, "zip": "40379"}, "franklin-county-40601": {"city": "Franklin County", "rent": 1090, "zip": "40601"}, "franklin-county-40602": {"city": "Franklin County", "rent": 1080, "zip": "40602"}, "franklin-county-40604": {"city": "Franklin County", "rent": 1080, "zip": "40604"}, "franklin-county-40621": {"city": "Franklin County", "rent": 1080, "zip": "40621"}, "fulton-county-42041": {"city": "Fulton County", "rent": 870, "zip": "42041"}, "fulton-county-42050": {"city": "Fulton County", "rent": 870, "zip": "42050"}, "garrard-county-40403": {"city": "Garrard County", "rent": 880, "zip": "40403"}, "garrard-county-40410": {"city": "Garrard County", "rent": 900, "zip": "40410"}, "garrard-county-40419": {"city": "Garrard County", "rent": 870, "zip": "40419"}, "garrard-county-40444": {"city": "Garrard County", "rent": 900, "zip": "40444"}, "garrard-county-40461": {"city": "Garrard County", "rent": 870, "zip": "40461"}, "garrard-county-40484": {"city": "Garrard County", "rent": 870, "zip": "40484"}, "graves-county-42003": {"city": "Graves County", "rent": 910, "zip": "42003"}, "graves-county-42025": {"city": "Graves County", "rent": 970, "zip": "42025"}, "graves-county-42027": {"city": "Graves County", "rent": 990, "zip": "42027"}, "graves-county-42035": {"city": "Graves County", "rent": 910, "zip": "42035"}, "graves-county-42039": {"city": "Graves County", "rent": 920, "zip": "42039"}, "graves-county-42040": {"city": "Graves County", "rent": 990, "zip": "42040"}, "graves-county-42041": {"city": "Graves County", "rent": 870, "zip": "42041"}, "graves-county-42049": {"city": "Graves County", "rent": 980, "zip": "42049"}, "graves-county-42051": {"city": "Graves County", "rent": 1110, "zip": "42051"}, "graves-county-42054": {"city": "Graves County", "rent": 1470, "zip": "42054"}, "graves-county-42061": {"city": "Graves County", "rent": 1040, "zip": "42061"}, "graves-county-42063": {"city": "Graves County", "rent": 870, "zip": "42063"}, "graves-county-42066": {"city": "Graves County", "rent": 970, "zip": "42066"}, "graves-county-42069": {"city": "Graves County", "rent": 1060, "zip": "42069"}, "graves-county-42071": {"city": "Graves County", "rent": 1110, "zip": "42071"}, "graves-county-42079": {"city": "Graves County", "rent": 890, "zip": "42079"}, "graves-county-42082": {"city": "Graves County", "rent": 910, "zip": "42082"}, "graves-county-42085": {"city": "Graves County", "rent": 870, "zip": "42085"}, "graves-county-42088": {"city": "Graves County", "rent": 870, "zip": "42088"}, "grayson-county-40119": {"city": "Grayson County", "rent": 870, "zip": "40119"}, "grayson-county-42207": {"city": "Grayson County", "rent": 1060, "zip": "42207"}, "grayson-county-42210": {"city": "Grayson County", "rent": 1060, "zip": "42210"}, "grayson-county-42275": {"city": "Grayson County", "rent": 1060, "zip": "42275"}, "grayson-county-42349": {"city": "Grayson County", "rent": 870, "zip": "42349"}, "grayson-county-42361": {"city": "Grayson County", "rent": 870, "zip": "42361"}, "grayson-county-42712": {"city": "Grayson County", "rent": 970, "zip": "42712"}, "grayson-county-42721": {"city": "Grayson County", "rent": 1060, "zip": "42721"}, "grayson-county-42726": {"city": "Grayson County", "rent": 1010, "zip": "42726"}, "grayson-county-42754": {"city": "Grayson County", "rent": 1060, "zip": "42754"}, "grayson-county-42762": {"city": "Grayson County", "rent": 870, "zip": "42762"}, "green-county-42129": {"city": "Green County", "rent": 870, "zip": "42129"}, "green-county-42214": {"city": "Green County", "rent": 900, "zip": "42214"}, "green-county-42716": {"city": "Green County", "rent": 970, "zip": "42716"}, "green-county-42718": {"city": "Green County", "rent": 970, "zip": "42718"}, "green-county-42722": {"city": "Green County", "rent": 900, "zip": "42722"}, "green-county-42728": {"city": "Green County", "rent": 870, "zip": "42728"}, "green-county-42743": {"city": "Green County", "rent": 880, "zip": "42743"}, "green-county-42746": {"city": "Green County", "rent": 870, "zip": "42746"}, "green-county-42757": {"city": "Green County", "rent": 970, "zip": "42757"}, "green-county-42764": {"city": "Green County", "rent": 970, "zip": "42764"}, "green-county-42782": {"city": "Green County", "rent": 910, "zip": "42782"}, "hancock-county-42343": {"city": "Hancock County", "rent": 1020, "zip": "42343"}, "hancock-county-42348": {"city": "Hancock County", "rent": 1020, "zip": "42348"}, "hancock-county-42351": {"city": "Hancock County", "rent": 1020, "zip": "42351"}, "hancock-county-42364": {"city": "Hancock County", "rent": 1020, "zip": "42364"}, "hancock-county-42366": {"city": "Hancock County", "rent": 1110, "zip": "42366"}, "hancock-county-42368": {"city": "Hancock County", "rent": 1020, "zip": "42368"}, "harlan-county-40801": {"city": "Harlan County", "rent": 870, "zip": "40801"}, "harlan-county-40806": {"city": "Harlan County", "rent": 920, "zip": "40806"}, "harlan-county-40807": {"city": "Harlan County", "rent": 870, "zip": "40807"}, "harlan-county-40808": {"city": "Harlan County", "rent": 870, "zip": "40808"}, "harlan-county-40810": {"city": "Harlan County", "rent": 870, "zip": "40810"}, "harlan-county-40815": {"city": "Harlan County", "rent": 870, "zip": "40815"}, "harlan-county-40818": {"city": "Harlan County", "rent": 1000, "zip": "40818"}, "harlan-county-40819": {"city": "Harlan County", "rent": 870, "zip": "40819"}, "harlan-county-40820": {"city": "Harlan County", "rent": 950, "zip": "40820"}, "harlan-county-40823": {"city": "Harlan County", "rent": 870, "zip": "40823"}, "harlan-county-40824": {"city": "Harlan County", "rent": 870, "zip": "40824"}, "harlan-county-40828": {"city": "Harlan County", "rent": 1090, "zip": "40828"}, "harlan-county-40829": {"city": "Harlan County", "rent": 870, "zip": "40829"}, "harlan-county-40830": {"city": "Harlan County", "rent": 870, "zip": "40830"}, "harlan-county-40831": {"city": "Harlan County", "rent": 870, "zip": "40831"}, "harlan-county-40840": {"city": "Harlan County", "rent": 870, "zip": "40840"}, "harlan-county-40843": {"city": "Harlan County", "rent": 900, "zip": "40843"}, "harlan-county-40847": {"city": "Harlan County", "rent": 1090, "zip": "40847"}, "harlan-county-40849": {"city": "Harlan County", "rent": 1090, "zip": "40849"}, "harlan-county-40854": {"city": "Harlan County", "rent": 870, "zip": "40854"}, "harlan-county-40855": {"city": "Harlan County", "rent": 990, "zip": "40855"}, "harlan-county-40863": {"city": "Harlan County", "rent": 910, "zip": "40863"}, "harlan-county-40865": {"city": "Harlan County", "rent": 910, "zip": "40865"}, "harlan-county-40870": {"city": "Harlan County", "rent": 870, "zip": "40870"}, "harlan-county-40873": {"city": "Harlan County", "rent": 1020, "zip": "40873"}, "harlan-county-40927": {"city": "Harlan County", "rent": 870, "zip": "40927"}, "harlan-county-40962": {"city": "Harlan County", "rent": 890, "zip": "40962"}, "harlan-county-40964": {"city": "Harlan County", "rent": 870, "zip": "40964"}, "harlan-county-40988": {"city": "Harlan County", "rent": 870, "zip": "40988"}, "harrison-county-40361": {"city": "Harrison County", "rent": 1050, "zip": "40361"}, "harrison-county-40370": {"city": "Harrison County", "rent": 1380, "zip": "40370"}, "harrison-county-41003": {"city": "Harrison County", "rent": 980, "zip": "41003"}, "harrison-county-41010": {"city": "Harrison County", "rent": 1050, "zip": "41010"}, "harrison-county-41031": {"city": "Harrison County", "rent": 1050, "zip": "41031"}, "harrison-county-41064": {"city": "Harrison County", "rent": 980, "zip": "41064"}, "hart-county-42127": {"city": "Hart County", "rent": 870, "zip": "42127"}, "hart-county-42713": {"city": "Hart County", "rent": 870, "zip": "42713"}, "hart-county-42722": {"city": "Hart County", "rent": 900, "zip": "42722"}, "hart-county-42729": {"city": "Hart County", "rent": 1060, "zip": "42729"}, "hart-county-42746": {"city": "Hart County", "rent": 870, "zip": "42746"}, "hart-county-42749": {"city": "Hart County", "rent": 950, "zip": "42749"}, "hart-county-42757": {"city": "Hart County", "rent": 970, "zip": "42757"}, "hart-county-42765": {"city": "Hart County", "rent": 870, "zip": "42765"}, "hart-county-42782": {"city": "Hart County", "rent": 910, "zip": "42782"}, "hart-county-42784": {"city": "Hart County", "rent": 970, "zip": "42784"}, "henderson-county-42301": {"city": "Henderson County", "rent": 1170, "zip": "42301"}, "henderson-county-42402": {"city": "Henderson County", "rent": 950, "zip": "42402"}, "henderson-county-42406": {"city": "Henderson County", "rent": 950, "zip": "42406"}, "henderson-county-42419": {"city": "Henderson County", "rent": 950, "zip": "42419"}, "henderson-county-42420": {"city": "Henderson County", "rent": 950, "zip": "42420"}, "henderson-county-42451": {"city": "Henderson County", "rent": 1070, "zip": "42451"}, "henderson-county-42452": {"city": "Henderson County", "rent": 950, "zip": "42452"}, "henderson-county-42457": {"city": "Henderson County", "rent": 950, "zip": "42457"}, "henderson-county-42458": {"city": "Henderson County", "rent": 950, "zip": "42458"}, "henderson-county-42461": {"city": "Henderson County", "rent": 950, "zip": "42461"}, "henderson-county-42462": {"city": "Henderson County", "rent": 1070, "zip": "42462"}, "hickman-county-42021": {"city": "Hickman County", "rent": 990, "zip": "42021"}, "hickman-county-42031": {"city": "Hickman County", "rent": 870, "zip": "42031"}, "hickman-county-42032": {"city": "Hickman County", "rent": 920, "zip": "42032"}, "hickman-county-42039": {"city": "Hickman County", "rent": 920, "zip": "42039"}, "hickman-county-42041": {"city": "Hickman County", "rent": 870, "zip": "42041"}, "hickman-county-42066": {"city": "Hickman County", "rent": 970, "zip": "42066"}, "hickman-county-42085": {"city": "Hickman County", "rent": 870, "zip": "42085"}, "hickman-county-42088": {"city": "Hickman County", "rent": 870, "zip": "42088"}, "hopkins-county-42408": {"city": "Hopkins County", "rent": 1110, "zip": "42408"}, "hopkins-county-42410": {"city": "Hopkins County", "rent": 870, "zip": "42410"}, "hopkins-county-42413": {"city": "Hopkins County", "rent": 1070, "zip": "42413"}, "hopkins-county-42431": {"city": "Hopkins County", "rent": 920, "zip": "42431"}, "hopkins-county-42436": {"city": "Hopkins County", "rent": 980, "zip": "42436"}, "hopkins-county-42440": {"city": "Hopkins County", "rent": 870, "zip": "42440"}, "hopkins-county-42441": {"city": "Hopkins County", "rent": 910, "zip": "42441"}, "hopkins-county-42442": {"city": "Hopkins County", "rent": 1110, "zip": "42442"}, "hopkins-county-42445": {"city": "Hopkins County", "rent": 1110, "zip": "42445"}, "hopkins-county-42450": {"city": "Hopkins County", "rent": 870, "zip": "42450"}, "hopkins-county-42453": {"city": "Hopkins County", "rent": 1110, "zip": "42453"}, "hopkins-county-42456": {"city": "Hopkins County", "rent": 1070, "zip": "42456"}, "hopkins-county-42464": {"city": "Hopkins County", "rent": 1110, "zip": "42464"}, "jackson-county-40402": {"city": "Jackson County", "rent": 880, "zip": "40402"}, "jackson-county-40434": {"city": "Jackson County", "rent": 870, "zip": "40434"}, "jackson-county-40445": {"city": "Jackson County", "rent": 870, "zip": "40445"}, "jackson-county-40447": {"city": "Jackson County", "rent": 870, "zip": "40447"}, "jackson-county-40456": {"city": "Jackson County", "rent": 870, "zip": "40456"}, "jackson-county-40481": {"city": "Jackson County", "rent": 870, "zip": "40481"}, "jackson-county-40486": {"city": "Jackson County", "rent": 880, "zip": "40486"}, "jackson-county-40962": {"city": "Jackson County", "rent": 890, "zip": "40962"}, "johnson-county-41159": {"city": "Johnson County", "rent": 880, "zip": "41159"}, "johnson-county-41204": {"city": "Johnson County", "rent": 870, "zip": "41204"}, "johnson-county-41216": {"city": "Johnson County", "rent": 1030, "zip": "41216"}, "johnson-county-41219": {"city": "Johnson County", "rent": 870, "zip": "41219"}, "johnson-county-41222": {"city": "Johnson County", "rent": 940, "zip": "41222"}, "johnson-county-41226": {"city": "Johnson County", "rent": 870, "zip": "41226"}, "johnson-county-41232": {"city": "Johnson County", "rent": 920, "zip": "41232"}, "johnson-county-41234": {"city": "Johnson County", "rent": 870, "zip": "41234"}, "johnson-county-41238": {"city": "Johnson County", "rent": 940, "zip": "41238"}, "johnson-county-41240": {"city": "Johnson County", "rent": 870, "zip": "41240"}, "johnson-county-41254": {"city": "Johnson County", "rent": 870, "zip": "41254"}, "johnson-county-41255": {"city": "Johnson County", "rent": 910, "zip": "41255"}, "johnson-county-41256": {"city": "Johnson County", "rent": 950, "zip": "41256"}, "johnson-county-41257": {"city": "Johnson County", "rent": 920, "zip": "41257"}, "johnson-county-41260": {"city": "Johnson County", "rent": 870, "zip": "41260"}, "johnson-county-41263": {"city": "Johnson County", "rent": 870, "zip": "41263"}, "johnson-county-41265": {"city": "Johnson County", "rent": 870, "zip": "41265"}, "johnson-county-41268": {"city": "Johnson County", "rent": 870, "zip": "41268"}, "johnson-county-41271": {"city": "Johnson County", "rent": 870, "zip": "41271"}, "johnson-county-41274": {"city": "Johnson County", "rent": 870, "zip": "41274"}, "johnson-county-41465": {"city": "Johnson County", "rent": 870, "zip": "41465"}, "johnson-county-41653": {"city": "Johnson County", "rent": 890, "zip": "41653"}, "knott-county-41339": {"city": "Knott County", "rent": 880, "zip": "41339"}, "knott-county-41630": {"city": "Knott County", "rent": 1040, "zip": "41630"}, "knott-county-41640": {"city": "Knott County", "rent": 880, "zip": "41640"}, "knott-county-41643": {"city": "Knott County", "rent": 1050, "zip": "41643"}, "knott-county-41701": {"city": "Knott County", "rent": 960, "zip": "41701"}, "knott-county-41722": {"city": "Knott County", "rent": 870, "zip": "41722"}, "knott-county-41725": {"city": "Knott County", "rent": 910, "zip": "41725"}, "knott-county-41740": {"city": "Knott County", "rent": 910, "zip": "41740"}, "knott-county-41743": {"city": "Knott County", "rent": 870, "zip": "41743"}, "knott-county-41759": {"city": "Knott County", "rent": 900, "zip": "41759"}, "knott-county-41772": {"city": "Knott County", "rent": 870, "zip": "41772"}, "knott-county-41773": {"city": "Knott County", "rent": 870, "zip": "41773"}, "knott-county-41804": {"city": "Knott County", "rent": 870, "zip": "41804"}, "knott-county-41817": {"city": "Knott County", "rent": 900, "zip": "41817"}, "knott-county-41822": {"city": "Knott County", "rent": 870, "zip": "41822"}, "knott-county-41828": {"city": "Knott County", "rent": 870, "zip": "41828"}, "knott-county-41831": {"city": "Knott County", "rent": 870, "zip": "41831"}, "knott-county-41834": {"city": "Knott County", "rent": 990, "zip": "41834"}, "knott-county-41836": {"city": "Knott County", "rent": 1120, "zip": "41836"}, "knott-county-41839": {"city": "Knott County", "rent": 1040, "zip": "41839"}, "knott-county-41843": {"city": "Knott County", "rent": 930, "zip": "41843"}, "knott-county-41844": {"city": "Knott County", "rent": 870, "zip": "41844"}, "knott-county-41847": {"city": "Knott County", "rent": 870, "zip": "41847"}, "knott-county-41859": {"city": "Knott County", "rent": 870, "zip": "41859"}, "knott-county-41861": {"city": "Knott County", "rent": 960, "zip": "41861"}, "knott-county-41862": {"city": "Knott County", "rent": 870, "zip": "41862"}, "knox-county-40701": {"city": "Knox County", "rent": 900, "zip": "40701"}, "knox-county-40734": {"city": "Knox County", "rent": 910, "zip": "40734"}, "knox-county-40759": {"city": "Knox County", "rent": 870, "zip": "40759"}, "knox-county-40763": {"city": "Knox County", "rent": 990, "zip": "40763"}, "knox-county-40771": {"city": "Knox County", "rent": 870, "zip": "40771"}, "knox-county-40903": {"city": "Knox County", "rent": 910, "zip": "40903"}, "knox-county-40906": {"city": "Knox County", "rent": 920, "zip": "40906"}, "knox-county-40915": {"city": "Knox County", "rent": 870, "zip": "40915"}, "knox-county-40921": {"city": "Knox County", "rent": 920, "zip": "40921"}, "knox-county-40923": {"city": "Knox County", "rent": 870, "zip": "40923"}, "knox-county-40935": {"city": "Knox County", "rent": 870, "zip": "40935"}, "knox-county-40939": {"city": "Knox County", "rent": 870, "zip": "40939"}, "knox-county-40943": {"city": "Knox County", "rent": 870, "zip": "40943"}, "knox-county-40946": {"city": "Knox County", "rent": 870, "zip": "40946"}, "knox-county-40949": {"city": "Knox County", "rent": 870, "zip": "40949"}, "knox-county-40953": {"city": "Knox County", "rent": 870, "zip": "40953"}, "knox-county-40962": {"city": "Knox County", "rent": 890, "zip": "40962"}, "knox-county-40982": {"city": "Knox County", "rent": 870, "zip": "40982"}, "knox-county-40995": {"city": "Knox County", "rent": 890, "zip": "40995"}, "knox-county-40997": {"city": "Knox County", "rent": 870, "zip": "40997"}, "laurel-county-40402": {"city": "Laurel County", "rent": 880, "zip": "40402"}, "laurel-county-40701": {"city": "Laurel County", "rent": 900, "zip": "40701"}, "laurel-county-40724": {"city": "Laurel County", "rent": 880, "zip": "40724"}, "laurel-county-40729": {"city": "Laurel County", "rent": 880, "zip": "40729"}, "laurel-county-40734": {"city": "Laurel County", "rent": 910, "zip": "40734"}, "laurel-county-40737": {"city": "Laurel County", "rent": 870, "zip": "40737"}, "laurel-county-40740": {"city": "Laurel County", "rent": 870, "zip": "40740"}, "laurel-county-40741": {"city": "Laurel County", "rent": 900, "zip": "40741"}, "laurel-county-40744": {"city": "Laurel County", "rent": 880, "zip": "40744"}, "laurel-county-40750": {"city": "Laurel County", "rent": 880, "zip": "40750"}, "laurel-county-40755": {"city": "Laurel County", "rent": 880, "zip": "40755"}, "laurel-county-40962": {"city": "Laurel County", "rent": 890, "zip": "40962"}, "lee-county-40336": {"city": "Lee County", "rent": 870, "zip": "40336"}, "lee-county-40447": {"city": "Lee County", "rent": 870, "zip": "40447"}, "lee-county-41301": {"city": "Lee County", "rent": 870, "zip": "41301"}, "lee-county-41311": {"city": "Lee County", "rent": 930, "zip": "41311"}, "lee-county-41314": {"city": "Lee County", "rent": 880, "zip": "41314"}, "lee-county-41339": {"city": "Lee County", "rent": 880, "zip": "41339"}, "lee-county-41347": {"city": "Lee County", "rent": 940, "zip": "41347"}, "lee-county-41365": {"city": "Lee County", "rent": 880, "zip": "41365"}, "lee-county-41368": {"city": "Lee County", "rent": 940, "zip": "41368"}, "lee-county-41386": {"city": "Lee County", "rent": 890, "zip": "41386"}, "lee-county-41397": {"city": "Lee County", "rent": 910, "zip": "41397"}, "leslie-county-40803": {"city": "Leslie County", "rent": 870, "zip": "40803"}, "leslie-county-40808": {"city": "Leslie County", "rent": 870, "zip": "40808"}, "leslie-county-40810": {"city": "Leslie County", "rent": 870, "zip": "40810"}, "leslie-county-40816": {"city": "Leslie County", "rent": 870, "zip": "40816"}, "leslie-county-40827": {"city": "Leslie County", "rent": 870, "zip": "40827"}, "leslie-county-40840": {"city": "Leslie County", "rent": 870, "zip": "40840"}, "leslie-county-40844": {"city": "Leslie County", "rent": 870, "zip": "40844"}, "leslie-county-40858": {"city": "Leslie County", "rent": 870, "zip": "40858"}, "leslie-county-40868": {"city": "Leslie County", "rent": 870, "zip": "40868"}, "leslie-county-40874": {"city": "Leslie County", "rent": 870, "zip": "40874"}, "leslie-county-40914": {"city": "Leslie County", "rent": 870, "zip": "40914"}, "leslie-county-40962": {"city": "Leslie County", "rent": 890, "zip": "40962"}, "leslie-county-40972": {"city": "Leslie County", "rent": 870, "zip": "40972"}, "leslie-county-40979": {"city": "Leslie County", "rent": 870, "zip": "40979"}, "leslie-county-41714": {"city": "Leslie County", "rent": 870, "zip": "41714"}, "leslie-county-41723": {"city": "Leslie County", "rent": 930, "zip": "41723"}, "leslie-county-41749": {"city": "Leslie County", "rent": 1010, "zip": "41749"}, "leslie-county-41754": {"city": "Leslie County", "rent": 970, "zip": "41754"}, "leslie-county-41762": {"city": "Leslie County", "rent": 870, "zip": "41762"}, "leslie-county-41764": {"city": "Leslie County", "rent": 870, "zip": "41764"}, "leslie-county-41766": {"city": "Leslie County", "rent": 1010, "zip": "41766"}, "leslie-county-41775": {"city": "Leslie County", "rent": 870, "zip": "41775"}, "leslie-county-41776": {"city": "Leslie County", "rent": 870, "zip": "41776"}, "leslie-county-41777": {"city": "Leslie County", "rent": 870, "zip": "41777"}, "letcher-county-40823": {"city": "Letcher County", "rent": 870, "zip": "40823"}, "letcher-county-40826": {"city": "Letcher County", "rent": 910, "zip": "40826"}, "letcher-county-40862": {"city": "Letcher County", "rent": 870, "zip": "40862"}, "letcher-county-41517": {"city": "Letcher County", "rent": 870, "zip": "41517"}, "letcher-county-41537": {"city": "Letcher County", "rent": 890, "zip": "41537"}, "letcher-county-41731": {"city": "Letcher County", "rent": 930, "zip": "41731"}, "letcher-county-41804": {"city": "Letcher County", "rent": 870, "zip": "41804"}, "letcher-county-41810": {"city": "Letcher County", "rent": 870, "zip": "41810"}, "letcher-county-41812": {"city": "Letcher County", "rent": 890, "zip": "41812"}, "letcher-county-41815": {"city": "Letcher County", "rent": 870, "zip": "41815"}, "letcher-county-41819": {"city": "Letcher County", "rent": 870, "zip": "41819"}, "letcher-county-41821": {"city": "Letcher County", "rent": 870, "zip": "41821"}, "letcher-county-41824": {"city": "Letcher County", "rent": 870, "zip": "41824"}, "letcher-county-41825": {"city": "Letcher County", "rent": 910, "zip": "41825"}, "letcher-county-41826": {"city": "Letcher County", "rent": 870, "zip": "41826"}, "letcher-county-41832": {"city": "Letcher County", "rent": 870, "zip": "41832"}, "letcher-county-41833": {"city": "Letcher County", "rent": 870, "zip": "41833"}, "letcher-county-41835": {"city": "Letcher County", "rent": 890, "zip": "41835"}, "letcher-county-41837": {"city": "Letcher County", "rent": 870, "zip": "41837"}, "letcher-county-41838": {"city": "Letcher County", "rent": 870, "zip": "41838"}, "letcher-county-41840": {"city": "Letcher County", "rent": 870, "zip": "41840"}, "letcher-county-41843": {"city": "Letcher County", "rent": 930, "zip": "41843"}, "letcher-county-41845": {"city": "Letcher County", "rent": 870, "zip": "41845"}, "letcher-county-41848": {"city": "Letcher County", "rent": 870, "zip": "41848"}, "letcher-county-41849": {"city": "Letcher County", "rent": 870, "zip": "41849"}, "letcher-county-41855": {"city": "Letcher County", "rent": 870, "zip": "41855"}, "letcher-county-41858": {"city": "Letcher County", "rent": 870, "zip": "41858"}, "lewis-county-41056": {"city": "Lewis County", "rent": 910, "zip": "41056"}, "lewis-county-41093": {"city": "Lewis County", "rent": 990, "zip": "41093"}, "lewis-county-41135": {"city": "Lewis County", "rent": 960, "zip": "41135"}, "lewis-county-41141": {"city": "Lewis County", "rent": 1100, "zip": "41141"}, "lewis-county-41164": {"city": "Lewis County", "rent": 870, "zip": "41164"}, "lewis-county-41166": {"city": "Lewis County", "rent": 1030, "zip": "41166"}, "lewis-county-41174": {"city": "Lewis County", "rent": 970, "zip": "41174"}, "lewis-county-41179": {"city": "Lewis County", "rent": 970, "zip": "41179"}, "lewis-county-41189": {"city": "Lewis County", "rent": 940, "zip": "41189"}, "lincoln-county-40409": {"city": "Lincoln County", "rent": 960, "zip": "40409"}, "lincoln-county-40419": {"city": "Lincoln County", "rent": 870, "zip": "40419"}, "lincoln-county-40422": {"city": "Lincoln County", "rent": 940, "zip": "40422"}, "lincoln-county-40437": {"city": "Lincoln County", "rent": 970, "zip": "40437"}, "lincoln-county-40440": {"city": "Lincoln County", "rent": 870, "zip": "40440"}, "lincoln-county-40442": {"city": "Lincoln County", "rent": 900, "zip": "40442"}, "lincoln-county-40444": {"city": "Lincoln County", "rent": 900, "zip": "40444"}, "lincoln-county-40448": {"city": "Lincoln County", "rent": 870, "zip": "40448"}, "lincoln-county-40484": {"city": "Lincoln County", "rent": 870, "zip": "40484"}, "lincoln-county-40489": {"city": "Lincoln County", "rent": 890, "zip": "40489"}, "lincoln-county-42567": {"city": "Lincoln County", "rent": 940, "zip": "42567"}, "logan-county-42170": {"city": "Logan County", "rent": 1270, "zip": "42170"}, "logan-county-42202": {"city": "Logan County", "rent": 1040, "zip": "42202"}, "logan-county-42204": {"city": "Logan County", "rent": 870, "zip": "42204"}, "logan-county-42206": {"city": "Logan County", "rent": 1060, "zip": "42206"}, "logan-county-42256": {"city": "Logan County", "rent": 880, "zip": "42256"}, "logan-county-42265": {"city": "Logan County", "rent": 930, "zip": "42265"}, "logan-county-42274": {"city": "Logan County", "rent": 1060, "zip": "42274"}, "logan-county-42276": {"city": "Logan County", "rent": 920, "zip": "42276"}, "logan-county-42339": {"city": "Logan County", "rent": 890, "zip": "42339"}, "lyon-county-42038": {"city": "Lyon County", "rent": 1110, "zip": "42038"}, "lyon-county-42055": {"city": "Lyon County", "rent": 870, "zip": "42055"}, "lyon-county-42211": {"city": "Lyon County", "rent": 1110, "zip": "42211"}, "lyon-county-42411": {"city": "Lyon County", "rent": 870, "zip": "42411"}, "lyon-county-42445": {"city": "Lyon County", "rent": 1110, "zip": "42445"}, "mccreary-county-40769": {"city": "McCreary County", "rent": 870, "zip": "40769"}, "mccreary-county-42631": {"city": "McCreary County", "rent": 960, "zip": "42631"}, "mccreary-county-42634": {"city": "McCreary County", "rent": 920, "zip": "42634"}, "mccreary-county-42635": {"city": "McCreary County", "rent": 870, "zip": "42635"}, "mccreary-county-42638": {"city": "McCreary County", "rent": 920, "zip": "42638"}, "mccreary-county-42647": {"city": "McCreary County", "rent": 970, "zip": "42647"}, "mccreary-county-42649": {"city": "McCreary County", "rent": 920, "zip": "42649"}, "mccreary-county-42653": {"city": "McCreary County", "rent": 960, "zip": "42653"}, "madison-county-40385": {"city": "Madison County", "rent": 920, "zip": "40385"}, "madison-county-40403": {"city": "Madison County", "rent": 880, "zip": "40403"}, "madison-county-40404": {"city": "Madison County", "rent": 880, "zip": "40404"}, "madison-county-40405": {"city": "Madison County", "rent": 900, "zip": "40405"}, "madison-county-40456": {"city": "Madison County", "rent": 870, "zip": "40456"}, "madison-county-40461": {"city": "Madison County", "rent": 870, "zip": "40461"}, "madison-county-40475": {"city": "Madison County", "rent": 950, "zip": "40475"}, "madison-county-40476": {"city": "Madison County", "rent": 900, "zip": "40476"}, "magoffin-county-41332": {"city": "Magoffin County", "rent": 870, "zip": "41332"}, "magoffin-county-41339": {"city": "Magoffin County", "rent": 880, "zip": "41339"}, "magoffin-county-41426": {"city": "Magoffin County", "rent": 870, "zip": "41426"}, "magoffin-county-41464": {"city": "Magoffin County", "rent": 870, "zip": "41464"}, "magoffin-county-41465": {"city": "Magoffin County", "rent": 870, "zip": "41465"}, "magoffin-county-41472": {"city": "Magoffin County", "rent": 870, "zip": "41472"}, "magoffin-county-41632": {"city": "Magoffin County", "rent": 910, "zip": "41632"}, "magoffin-county-41640": {"city": "Magoffin County", "rent": 880, "zip": "41640"}, "marion-county-40009": {"city": "Marion County", "rent": 870, "zip": "40009"}, "marion-county-40033": {"city": "Marion County", "rent": 890, "zip": "40033"}, "marion-county-40037": {"city": "Marion County", "rent": 870, "zip": "40037"}, "marion-county-40049": {"city": "Marion County", "rent": 870, "zip": "40049"}, "marion-county-40052": {"city": "Marion County", "rent": 970, "zip": "40052"}, "marion-county-40060": {"city": "Marion County", "rent": 970, "zip": "40060"}, "marion-county-40062": {"city": "Marion County", "rent": 870, "zip": "40062"}, "marion-county-40063": {"city": "Marion County", "rent": 890, "zip": "40063"}, "marion-county-40069": {"city": "Marion County", "rent": 900, "zip": "40069"}, "marion-county-40328": {"city": "Marion County", "rent": 870, "zip": "40328"}, "marion-county-42718": {"city": "Marion County", "rent": 970, "zip": "42718"}, "marion-county-42743": {"city": "Marion County", "rent": 880, "zip": "42743"}, "marshall-county-42003": {"city": "Marshall County", "rent": 910, "zip": "42003"}, "marshall-county-42025": {"city": "Marshall County", "rent": 970, "zip": "42025"}, "marshall-county-42029": {"city": "Marshall County", "rent": 940, "zip": "42029"}, "marshall-county-42036": {"city": "Marshall County", "rent": 980, "zip": "42036"}, "marshall-county-42044": {"city": "Marshall County", "rent": 870, "zip": "42044"}, "marshall-county-42048": {"city": "Marshall County", "rent": 970, "zip": "42048"}, "marshall-county-42054": {"city": "Marshall County", "rent": 1470, "zip": "42054"}, "marshall-county-42066": {"city": "Marshall County", "rent": 970, "zip": "42066"}, "marshall-county-42082": {"city": "Marshall County", "rent": 910, "zip": "42082"}, "martin-county-41203": {"city": "Martin County", "rent": 870, "zip": "41203"}, "martin-county-41214": {"city": "Martin County", "rent": 920, "zip": "41214"}, "martin-county-41224": {"city": "Martin County", "rent": 920, "zip": "41224"}, "martin-county-41230": {"city": "Martin County", "rent": 930, "zip": "41230"}, "martin-county-41231": {"city": "Martin County", "rent": 870, "zip": "41231"}, "martin-county-41250": {"city": "Martin County", "rent": 950, "zip": "41250"}, "martin-county-41262": {"city": "Martin County", "rent": 910, "zip": "41262"}, "martin-county-41267": {"city": "Martin County", "rent": 870, "zip": "41267"}, "martin-county-41514": {"city": "Martin County", "rent": 980, "zip": "41514"}, "mason-county-41002": {"city": "Mason County", "rent": 980, "zip": "41002"}, "mason-county-41034": {"city": "Mason County", "rent": 980, "zip": "41034"}, "mason-county-41039": {"city": "Mason County", "rent": 940, "zip": "41039"}, "mason-county-41041": {"city": "Mason County", "rent": 870, "zip": "41041"}, "mason-county-41044": {"city": "Mason County", "rent": 980, "zip": "41044"}, "mason-county-41055": {"city": "Mason County", "rent": 920, "zip": "41055"}, "mason-county-41056": {"city": "Mason County", "rent": 910, "zip": "41056"}, "mason-county-41062": {"city": "Mason County", "rent": 910, "zip": "41062"}, "mason-county-41064": {"city": "Mason County", "rent": 980, "zip": "41064"}, "mason-county-41096": {"city": "Mason County", "rent": 910, "zip": "41096"}, "mason-county-41179": {"city": "Mason County", "rent": 970, "zip": "41179"}, "menifee-county-40316": {"city": "Menifee County", "rent": 870, "zip": "40316"}, "menifee-county-40322": {"city": "Menifee County", "rent": 870, "zip": "40322"}, "menifee-county-40346": {"city": "Menifee County", "rent": 900, "zip": "40346"}, "menifee-county-40351": {"city": "Menifee County", "rent": 890, "zip": "40351"}, "menifee-county-40371": {"city": "Menifee County", "rent": 950, "zip": "40371"}, "menifee-county-40380": {"city": "Menifee County", "rent": 870, "zip": "40380"}, "menifee-county-40387": {"city": "Menifee County", "rent": 870, "zip": "40387"}, "menifee-county-41425": {"city": "Menifee County", "rent": 1170, "zip": "41425"}, "menifee-county-41472": {"city": "Menifee County", "rent": 870, "zip": "41472"}, "mercer-county-40078": {"city": "Mercer County", "rent": 1170, "zip": "40078"}, "mercer-county-40310": {"city": "Mercer County", "rent": 950, "zip": "40310"}, "mercer-county-40330": {"city": "Mercer County", "rent": 870, "zip": "40330"}, "mercer-county-40342": {"city": "Mercer County", "rent": 1040, "zip": "40342"}, "mercer-county-40372": {"city": "Mercer County", "rent": 900, "zip": "40372"}, "mercer-county-40422": {"city": "Mercer County", "rent": 940, "zip": "40422"}, "mercer-county-40468": {"city": "Mercer County", "rent": 1050, "zip": "40468"}, "metcalfe-county-42124": {"city": "Metcalfe County", "rent": 870, "zip": "42124"}, "metcalfe-county-42127": {"city": "Metcalfe County", "rent": 870, "zip": "42127"}, "metcalfe-county-42129": {"city": "Metcalfe County", "rent": 870, "zip": "42129"}, "metcalfe-county-42141": {"city": "Metcalfe County", "rent": 920, "zip": "42141"}, "metcalfe-county-42154": {"city": "Metcalfe County", "rent": 900, "zip": "42154"}, "metcalfe-county-42166": {"city": "Metcalfe County", "rent": 870, "zip": "42166"}, "metcalfe-county-42167": {"city": "Metcalfe County", "rent": 870, "zip": "42167"}, "metcalfe-county-42214": {"city": "Metcalfe County", "rent": 900, "zip": "42214"}, "metcalfe-county-42715": {"city": "Metcalfe County", "rent": 870, "zip": "42715"}, "metcalfe-county-42717": {"city": "Metcalfe County", "rent": 870, "zip": "42717"}, "metcalfe-county-42746": {"city": "Metcalfe County", "rent": 870, "zip": "42746"}, "metcalfe-county-42749": {"city": "Metcalfe County", "rent": 950, "zip": "42749"}, "monroe-county-42133": {"city": "Monroe County", "rent": 890, "zip": "42133"}, "monroe-county-42140": {"city": "Monroe County", "rent": 930, "zip": "42140"}, "monroe-county-42151": {"city": "Monroe County", "rent": 880, "zip": "42151"}, "monroe-county-42157": {"city": "Monroe County", "rent": 880, "zip": "42157"}, "monroe-county-42164": {"city": "Monroe County", "rent": 1000, "zip": "42164"}, "monroe-county-42166": {"city": "Monroe County", "rent": 870, "zip": "42166"}, "monroe-county-42167": {"city": "Monroe County", "rent": 870, "zip": "42167"}, "montgomery-county-40334": {"city": "Montgomery County", "rent": 900, "zip": "40334"}, "montgomery-county-40337": {"city": "Montgomery County", "rent": 880, "zip": "40337"}, "montgomery-county-40346": {"city": "Montgomery County", "rent": 900, "zip": "40346"}, "montgomery-county-40353": {"city": "Montgomery County", "rent": 1050, "zip": "40353"}, "montgomery-county-40360": {"city": "Montgomery County", "rent": 870, "zip": "40360"}, "montgomery-county-40361": {"city": "Montgomery County", "rent": 1050, "zip": "40361"}, "montgomery-county-40391": {"city": "Montgomery County", "rent": 1070, "zip": "40391"}, "morgan-county-40387": {"city": "Morgan County", "rent": 870, "zip": "40387"}, "morgan-county-41171": {"city": "Morgan County", "rent": 910, "zip": "41171"}, "morgan-county-41301": {"city": "Morgan County", "rent": 870, "zip": "41301"}, "morgan-county-41332": {"city": "Morgan County", "rent": 870, "zip": "41332"}, "morgan-county-41352": {"city": "Morgan County", "rent": 920, "zip": "41352"}, "morgan-county-41408": {"city": "Morgan County", "rent": 870, "zip": "41408"}, "morgan-county-41413": {"city": "Morgan County", "rent": 870, "zip": "41413"}, "morgan-county-41421": {"city": "Morgan County", "rent": 880, "zip": "41421"}, "morgan-county-41425": {"city": "Morgan County", "rent": 1170, "zip": "41425"}, "morgan-county-41451": {"city": "Morgan County", "rent": 870, "zip": "41451"}, "morgan-county-41465": {"city": "Morgan County", "rent": 870, "zip": "41465"}, "morgan-county-41472": {"city": "Morgan County", "rent": 870, "zip": "41472"}, "muhlenberg-county-42220": {"city": "Muhlenberg County", "rent": 1110, "zip": "42220"}, "muhlenberg-county-42256": {"city": "Muhlenberg County", "rent": 880, "zip": "42256"}, "muhlenberg-county-42321": {"city": "Muhlenberg County", "rent": 1050, "zip": "42321"}, "muhlenberg-county-42323": {"city": "Muhlenberg County", "rent": 1020, "zip": "42323"}, "muhlenberg-county-42324": {"city": "Muhlenberg County", "rent": 1000, "zip": "42324"}, "muhlenberg-county-42325": {"city": "Muhlenberg County", "rent": 870, "zip": "42325"}, "muhlenberg-county-42326": {"city": "Muhlenberg County", "rent": 1150, "zip": "42326"}, "muhlenberg-county-42330": {"city": "Muhlenberg County", "rent": 1020, "zip": "42330"}, "muhlenberg-county-42332": {"city": "Muhlenberg County", "rent": 930, "zip": "42332"}, "muhlenberg-county-42337": {"city": "Muhlenberg County", "rent": 1220, "zip": "42337"}, "muhlenberg-county-42339": {"city": "Muhlenberg County", "rent": 890, "zip": "42339"}, "muhlenberg-county-42344": {"city": "Muhlenberg County", "rent": 890, "zip": "42344"}, "muhlenberg-county-42345": {"city": "Muhlenberg County", "rent": 880, "zip": "42345"}, "muhlenberg-county-42367": {"city": "Muhlenberg County", "rent": 890, "zip": "42367"}, "muhlenberg-county-42372": {"city": "Muhlenberg County", "rent": 1020, "zip": "42372"}, "muhlenberg-county-42374": {"city": "Muhlenberg County", "rent": 870, "zip": "42374"}, "muhlenberg-county-42464": {"city": "Muhlenberg County", "rent": 1110, "zip": "42464"}, "nicholas-county-40311": {"city": "Nicholas County", "rent": 1050, "zip": "40311"}, "nicholas-county-40348": {"city": "Nicholas County", "rent": 1050, "zip": "40348"}, "nicholas-county-40350": {"city": "Nicholas County", "rent": 880, "zip": "40350"}, "nicholas-county-40361": {"city": "Nicholas County", "rent": 1050, "zip": "40361"}, "nicholas-county-40374": {"city": "Nicholas County", "rent": 1050, "zip": "40374"}, "nicholas-county-41031": {"city": "Nicholas County", "rent": 1050, "zip": "41031"}, "nicholas-county-41039": {"city": "Nicholas County", "rent": 940, "zip": "41039"}, "ohio-county-40119": {"city": "Ohio County", "rent": 870, "zip": "40119"}, "ohio-county-42320": {"city": "Ohio County", "rent": 880, "zip": "42320"}, "ohio-county-42328": {"city": "Ohio County", "rent": 980, "zip": "42328"}, "ohio-county-42333": {"city": "Ohio County", "rent": 870, "zip": "42333"}, "ohio-county-42338": {"city": "Ohio County", "rent": 870, "zip": "42338"}, "ohio-county-42343": {"city": "Ohio County", "rent": 1020, "zip": "42343"}, "ohio-county-42347": {"city": "Ohio County", "rent": 870, "zip": "42347"}, "ohio-county-42349": {"city": "Ohio County", "rent": 870, "zip": "42349"}, "ohio-county-42352": {"city": "Ohio County", "rent": 1020, "zip": "42352"}, "ohio-county-42354": {"city": "Ohio County", "rent": 870, "zip": "42354"}, "ohio-county-42361": {"city": "Ohio County", "rent": 870, "zip": "42361"}, "ohio-county-42366": {"city": "Ohio County", "rent": 1110, "zip": "42366"}, "ohio-county-42368": {"city": "Ohio County", "rent": 1020, "zip": "42368"}, "ohio-county-42369": {"city": "Ohio County", "rent": 930, "zip": "42369"}, "ohio-county-42370": {"city": "Ohio County", "rent": 870, "zip": "42370"}, "ohio-county-42376": {"city": "Ohio County", "rent": 1040, "zip": "42376"}, "ohio-county-42378": {"city": "Ohio County", "rent": 1020, "zip": "42378"}, "ohio-county-42721": {"city": "Ohio County", "rent": 1060, "zip": "42721"}, "owen-county-40355": {"city": "Owen County", "rent": 970, "zip": "40355"}, "owen-county-40359": {"city": "Owen County", "rent": 870, "zip": "40359"}, "owen-county-40363": {"city": "Owen County", "rent": 950, "zip": "40363"}, "owen-county-40370": {"city": "Owen County", "rent": 1380, "zip": "40370"}, "owen-county-40379": {"city": "Owen County", "rent": 1190, "zip": "40379"}, "owen-county-40601": {"city": "Owen County", "rent": 1090, "zip": "40601"}, "owen-county-41010": {"city": "Owen County", "rent": 1050, "zip": "41010"}, "owen-county-41035": {"city": "Owen County", "rent": 1160, "zip": "41035"}, "owen-county-41046": {"city": "Owen County", "rent": 1360, "zip": "41046"}, "owen-county-41052": {"city": "Owen County", "rent": 1190, "zip": "41052"}, "owen-county-41083": {"city": "Owen County", "rent": 1140, "zip": "41083"}, "owen-county-41086": {"city": "Owen County", "rent": 1070, "zip": "41086"}, "owen-county-41098": {"city": "Owen County", "rent": 1050, "zip": "41098"}, "owsley-county-40447": {"city": "Owsley County", "rent": 870, "zip": "40447"}, "owsley-county-40486": {"city": "Owsley County", "rent": 880, "zip": "40486"}, "owsley-county-40983": {"city": "Owsley County", "rent": 880, "zip": "40983"}, "owsley-county-41311": {"city": "Owsley County", "rent": 930, "zip": "41311"}, "owsley-county-41314": {"city": "Owsley County", "rent": 880, "zip": "41314"}, "owsley-county-41351": {"city": "Owsley County", "rent": 870, "zip": "41351"}, "owsley-county-41364": {"city": "Owsley County", "rent": 870, "zip": "41364"}, "owsley-county-41386": {"city": "Owsley County", "rent": 890, "zip": "41386"}, "perry-county-40972": {"city": "Perry County", "rent": 870, "zip": "40972"}, "perry-county-40981": {"city": "Perry County", "rent": 960, "zip": "40981"}, "perry-county-41348": {"city": "Perry County", "rent": 870, "zip": "41348"}, "perry-county-41367": {"city": "Perry County", "rent": 930, "zip": "41367"}, "perry-county-41701": {"city": "Perry County", "rent": 960, "zip": "41701"}, "perry-county-41712": {"city": "Perry County", "rent": 950, "zip": "41712"}, "perry-county-41713": {"city": "Perry County", "rent": 960, "zip": "41713"}, "perry-county-41719": {"city": "Perry County", "rent": 960, "zip": "41719"}, "perry-county-41721": {"city": "Perry County", "rent": 960, "zip": "41721"}, "perry-county-41722": {"city": "Perry County", "rent": 870, "zip": "41722"}, "perry-county-41723": {"city": "Perry County", "rent": 930, "zip": "41723"}, "perry-county-41727": {"city": "Perry County", "rent": 940, "zip": "41727"}, "perry-county-41729": {"city": "Perry County", "rent": 960, "zip": "41729"}, "perry-county-41731": {"city": "Perry County", "rent": 930, "zip": "41731"}, "perry-county-41735": {"city": "Perry County", "rent": 960, "zip": "41735"}, "perry-county-41736": {"city": "Perry County", "rent": 960, "zip": "41736"}, "perry-county-41739": {"city": "Perry County", "rent": 910, "zip": "41739"}, "perry-county-41745": {"city": "Perry County", "rent": 960, "zip": "41745"}, "perry-county-41746": {"city": "Perry County", "rent": 900, "zip": "41746"}, "perry-county-41751": {"city": "Perry County", "rent": 990, "zip": "41751"}, "perry-county-41754": {"city": "Perry County", "rent": 970, "zip": "41754"}, "perry-county-41760": {"city": "Perry County", "rent": 980, "zip": "41760"}, "perry-county-41763": {"city": "Perry County", "rent": 960, "zip": "41763"}, "perry-county-41773": {"city": "Perry County", "rent": 870, "zip": "41773"}, "perry-county-41774": {"city": "Perry County", "rent": 1020, "zip": "41774"}, "perry-county-41778": {"city": "Perry County", "rent": 960, "zip": "41778"}, "pike-county-41501": {"city": "Pike County", "rent": 1020, "zip": "41501"}, "pike-county-41502": {"city": "Pike County", "rent": 980, "zip": "41502"}, "pike-county-41503": {"city": "Pike County", "rent": 980, "zip": "41503"}, "pike-county-41512": {"city": "Pike County", "rent": 910, "zip": "41512"}, "pike-county-41513": {"city": "Pike County", "rent": 900, "zip": "41513"}, "pike-county-41514": {"city": "Pike County", "rent": 980, "zip": "41514"}, "pike-county-41519": {"city": "Pike County", "rent": 980, "zip": "41519"}, "pike-county-41520": {"city": "Pike County", "rent": 980, "zip": "41520"}, "pike-county-41522": {"city": "Pike County", "rent": 900, "zip": "41522"}, "pike-county-41524": {"city": "Pike County", "rent": 980, "zip": "41524"}, "pike-county-41526": {"city": "Pike County", "rent": 980, "zip": "41526"}, "pike-county-41527": {"city": "Pike County", "rent": 980, "zip": "41527"}, "pike-county-41528": {"city": "Pike County", "rent": 980, "zip": "41528"}, "pike-county-41531": {"city": "Pike County", "rent": 890, "zip": "41531"}, "pike-county-41534": {"city": "Pike County", "rent": 900, "zip": "41534"}, "pike-county-41535": {"city": "Pike County", "rent": 980, "zip": "41535"}, "pike-county-41537": {"city": "Pike County", "rent": 890, "zip": "41537"}, "pike-county-41538": {"city": "Pike County", "rent": 900, "zip": "41538"}, "pike-county-41539": {"city": "Pike County", "rent": 1010, "zip": "41539"}, "pike-county-41540": {"city": "Pike County", "rent": 980, "zip": "41540"}, "pike-county-41542": {"city": "Pike County", "rent": 980, "zip": "41542"}, "pike-county-41543": {"city": "Pike County", "rent": 970, "zip": "41543"}, "pike-county-41544": {"city": "Pike County", "rent": 980, "zip": "41544"}, "pike-county-41547": {"city": "Pike County", "rent": 980, "zip": "41547"}, "pike-county-41548": {"city": "Pike County", "rent": 980, "zip": "41548"}, "pike-county-41549": {"city": "Pike County", "rent": 980, "zip": "41549"}, "pike-county-41553": {"city": "Pike County", "rent": 980, "zip": "41553"}, "pike-county-41554": {"city": "Pike County", "rent": 980, "zip": "41554"}, "pike-county-41555": {"city": "Pike County", "rent": 910, "zip": "41555"}, "pike-county-41557": {"city": "Pike County", "rent": 980, "zip": "41557"}, "pike-county-41558": {"city": "Pike County", "rent": 890, "zip": "41558"}, "pike-county-41559": {"city": "Pike County", "rent": 960, "zip": "41559"}, "pike-county-41560": {"city": "Pike County", "rent": 1000, "zip": "41560"}, "pike-county-41561": {"city": "Pike County", "rent": 980, "zip": "41561"}, "pike-county-41562": {"city": "Pike County", "rent": 1000, "zip": "41562"}, "pike-county-41563": {"city": "Pike County", "rent": 890, "zip": "41563"}, "pike-county-41564": {"city": "Pike County", "rent": 980, "zip": "41564"}, "pike-county-41566": {"city": "Pike County", "rent": 980, "zip": "41566"}, "pike-county-41567": {"city": "Pike County", "rent": 980, "zip": "41567"}, "pike-county-41568": {"city": "Pike County", "rent": 980, "zip": "41568"}, "pike-county-41571": {"city": "Pike County", "rent": 980, "zip": "41571"}, "pike-county-41572": {"city": "Pike County", "rent": 950, "zip": "41572"}, "pike-county-41605": {"city": "Pike County", "rent": 1040, "zip": "41605"}, "pike-county-41653": {"city": "Pike County", "rent": 890, "zip": "41653"}, "pike-county-41659": {"city": "Pike County", "rent": 1020, "zip": "41659"}, "powell-county-40312": {"city": "Powell County", "rent": 1050, "zip": "40312"}, "powell-county-40337": {"city": "Powell County", "rent": 880, "zip": "40337"}, "powell-county-40376": {"city": "Powell County", "rent": 870, "zip": "40376"}, "powell-county-40380": {"city": "Powell County", "rent": 870, "zip": "40380"}, "powell-county-40472": {"city": "Powell County", "rent": 980, "zip": "40472"}, "powell-county-41301": {"city": "Powell County", "rent": 870, "zip": "41301"}, "powell-county-41360": {"city": "Powell County", "rent": 870, "zip": "41360"}, "pulaski-county-40409": {"city": "Pulaski County", "rent": 960, "zip": "40409"}, "pulaski-county-40419": {"city": "Pulaski County", "rent": 870, "zip": "40419"}, "pulaski-county-40456": {"city": "Pulaski County", "rent": 870, "zip": "40456"}, "pulaski-county-40489": {"city": "Pulaski County", "rent": 890, "zip": "40489"}, "pulaski-county-42501": {"city": "Pulaski County", "rent": 890, "zip": "42501"}, "pulaski-county-42502": {"city": "Pulaski County", "rent": 930, "zip": "42502"}, "pulaski-county-42503": {"city": "Pulaski County", "rent": 970, "zip": "42503"}, "pulaski-county-42516": {"city": "Pulaski County", "rent": 870, "zip": "42516"}, "pulaski-county-42518": {"city": "Pulaski County", "rent": 950, "zip": "42518"}, "pulaski-county-42519": {"city": "Pulaski County", "rent": 890, "zip": "42519"}, "pulaski-county-42533": {"city": "Pulaski County", "rent": 870, "zip": "42533"}, "pulaski-county-42544": {"city": "Pulaski County", "rent": 870, "zip": "42544"}, "pulaski-county-42553": {"city": "Pulaski County", "rent": 880, "zip": "42553"}, "pulaski-county-42558": {"city": "Pulaski County", "rent": 930, "zip": "42558"}, "pulaski-county-42564": {"city": "Pulaski County", "rent": 930, "zip": "42564"}, "pulaski-county-42567": {"city": "Pulaski County", "rent": 940, "zip": "42567"}, "pulaski-county-42633": {"city": "Pulaski County", "rent": 870, "zip": "42633"}, "pulaski-county-42642": {"city": "Pulaski County", "rent": 890, "zip": "42642"}, "robertson-county-41004": {"city": "Robertson County", "rent": 1020, "zip": "41004"}, "robertson-county-41031": {"city": "Robertson County", "rent": 1050, "zip": "41031"}, "robertson-county-41039": {"city": "Robertson County", "rent": 940, "zip": "41039"}, "robertson-county-41044": {"city": "Robertson County", "rent": 980, "zip": "41044"}, "robertson-county-41055": {"city": "Robertson County", "rent": 920, "zip": "41055"}, "robertson-county-41064": {"city": "Robertson County", "rent": 980, "zip": "41064"}, "rockcastle-county-40403": {"city": "Rockcastle County", "rent": 880, "zip": "40403"}, "rockcastle-county-40409": {"city": "Rockcastle County", "rent": 960, "zip": "40409"}, "rockcastle-county-40419": {"city": "Rockcastle County", "rent": 870, "zip": "40419"}, "rockcastle-county-40445": {"city": "Rockcastle County", "rent": 870, "zip": "40445"}, "rockcastle-county-40447": {"city": "Rockcastle County", "rent": 870, "zip": "40447"}, "rockcastle-county-40456": {"city": "Rockcastle County", "rent": 870, "zip": "40456"}, "rockcastle-county-40460": {"city": "Rockcastle County", "rent": 870, "zip": "40460"}, "rockcastle-county-40473": {"city": "Rockcastle County", "rent": 870, "zip": "40473"}, "rockcastle-county-40492": {"city": "Rockcastle County", "rent": 870, "zip": "40492"}, "rowan-county-40313": {"city": "Rowan County", "rent": 1020, "zip": "40313"}, "rowan-county-40317": {"city": "Rowan County", "rent": 910, "zip": "40317"}, "rowan-county-40319": {"city": "Rowan County", "rent": 910, "zip": "40319"}, "rowan-county-40351": {"city": "Rowan County", "rent": 890, "zip": "40351"}, "rowan-county-40371": {"city": "Rowan County", "rent": 950, "zip": "40371"}, "rowan-county-41049": {"city": "Rowan County", "rent": 920, "zip": "41049"}, "rowan-county-41164": {"city": "Rowan County", "rent": 870, "zip": "41164"}, "rowan-county-41472": {"city": "Rowan County", "rent": 870, "zip": "41472"}, "russell-county-42528": {"city": "Russell County", "rent": 920, "zip": "42528"}, "russell-county-42539": {"city": "Russell County", "rent": 870, "zip": "42539"}, "russell-county-42544": {"city": "Russell County", "rent": 870, "zip": "42544"}, "russell-county-42602": {"city": "Russell County", "rent": 930, "zip": "42602"}, "russell-county-42629": {"city": "Russell County", "rent": 870, "zip": "42629"}, "russell-county-42642": {"city": "Russell County", "rent": 890, "zip": "42642"}, "russell-county-42741": {"city": "Russell County", "rent": 870, "zip": "42741"}, "simpson-county-42104": {"city": "Simpson County", "rent": 1190, "zip": "42104"}, "simpson-county-42134": {"city": "Simpson County", "rent": 1050, "zip": "42134"}, "simpson-county-42170": {"city": "Simpson County", "rent": 1270, "zip": "42170"}, "simpson-county-42202": {"city": "Simpson County", "rent": 1040, "zip": "42202"}, "simpson-county-42206": {"city": "Simpson County", "rent": 1060, "zip": "42206"}, "simpson-county-42276": {"city": "Simpson County", "rent": 920, "zip": "42276"}, "taylor-county-40009": {"city": "Taylor County", "rent": 870, "zip": "40009"}, "taylor-county-40033": {"city": "Taylor County", "rent": 890, "zip": "40033"}, "taylor-county-42716": {"city": "Taylor County", "rent": 970, "zip": "42716"}, "taylor-county-42718": {"city": "Taylor County", "rent": 970, "zip": "42718"}, "taylor-county-42728": {"city": "Taylor County", "rent": 870, "zip": "42728"}, "taylor-county-42733": {"city": "Taylor County", "rent": 870, "zip": "42733"}, "taylor-county-42743": {"city": "Taylor County", "rent": 880, "zip": "42743"}, "taylor-county-42758": {"city": "Taylor County", "rent": 870, "zip": "42758"}, "todd-county-42204": {"city": "Todd County", "rent": 870, "zip": "42204"}, "todd-county-42216": {"city": "Todd County", "rent": 920, "zip": "42216"}, "todd-county-42220": {"city": "Todd County", "rent": 1110, "zip": "42220"}, "todd-county-42221": {"city": "Todd County", "rent": 920, "zip": "42221"}, "todd-county-42234": {"city": "Todd County", "rent": 900, "zip": "42234"}, "todd-county-42240": {"city": "Todd County", "rent": 1190, "zip": "42240"}, "todd-county-42256": {"city": "Todd County", "rent": 880, "zip": "42256"}, "todd-county-42265": {"city": "Todd County", "rent": 930, "zip": "42265"}, "todd-county-42266": {"city": "Todd County", "rent": 1110, "zip": "42266"}, "todd-county-42276": {"city": "Todd County", "rent": 920, "zip": "42276"}, "todd-county-42280": {"city": "Todd County", "rent": 900, "zip": "42280"}, "todd-county-42286": {"city": "Todd County", "rent": 1110, "zip": "42286"}, "todd-county-42345": {"city": "Todd County", "rent": 880, "zip": "42345"}, "trimble-county-40006": {"city": "Trimble County", "rent": 1070, "zip": "40006"}, "trimble-county-40011": {"city": "Trimble County", "rent": 1070, "zip": "40011"}, "trimble-county-40045": {"city": "Trimble County", "rent": 940, "zip": "40045"}, "trimble-county-40055": {"city": "Trimble County", "rent": 1310, "zip": "40055"}, "trimble-county-40070": {"city": "Trimble County", "rent": 1100, "zip": "40070"}, "union-county-42404": {"city": "Union County", "rent": 870, "zip": "42404"}, "union-county-42437": {"city": "Union County", "rent": 940, "zip": "42437"}, "union-county-42459": {"city": "Union County", "rent": 870, "zip": "42459"}, "union-county-42460": {"city": "Union County", "rent": 910, "zip": "42460"}, "union-county-42461": {"city": "Union County", "rent": 950, "zip": "42461"}, "union-county-42462": {"city": "Union County", "rent": 1070, "zip": "42462"}, "washington-county-40008": {"city": "Washington County", "rent": 1080, "zip": "40008"}, "washington-county-40033": {"city": "Washington County", "rent": 890, "zip": "40033"}, "washington-county-40037": {"city": "Washington County", "rent": 870, "zip": "40037"}, "washington-county-40040": {"city": "Washington County", "rent": 1370, "zip": "40040"}, "washington-county-40061": {"city": "Washington County", "rent": 900, "zip": "40061"}, "washington-county-40069": {"city": "Washington County", "rent": 900, "zip": "40069"}, "washington-county-40078": {"city": "Washington County", "rent": 1170, "zip": "40078"}, "washington-county-40328": {"city": "Washington County", "rent": 870, "zip": "40328"}, "washington-county-40330": {"city": "Washington County", "rent": 870, "zip": "40330"}, "washington-county-40342": {"city": "Washington County", "rent": 1040, "zip": "40342"}, "washington-county-40468": {"city": "Washington County", "rent": 1050, "zip": "40468"}, "wayne-county-42518": {"city": "Wayne County", "rent": 950, "zip": "42518"}, "wayne-county-42544": {"city": "Wayne County", "rent": 870, "zip": "42544"}, "wayne-county-42602": {"city": "Wayne County", "rent": 930, "zip": "42602"}, "wayne-county-42603": {"city": "Wayne County", "rent": 870, "zip": "42603"}, "wayne-county-42633": {"city": "Wayne County", "rent": 870, "zip": "42633"}, "webster-county-42404": {"city": "Webster County", "rent": 870, "zip": "42404"}, "webster-county-42406": {"city": "Webster County", "rent": 950, "zip": "42406"}, "webster-county-42409": {"city": "Webster County", "rent": 870, "zip": "42409"}, "webster-county-42437": {"city": "Webster County", "rent": 940, "zip": "42437"}, "webster-county-42441": {"city": "Webster County", "rent": 910, "zip": "42441"}, "webster-county-42444": {"city": "Webster County", "rent": 870, "zip": "42444"}, "webster-county-42450": {"city": "Webster County", "rent": 870, "zip": "42450"}, "webster-county-42452": {"city": "Webster County", "rent": 950, "zip": "42452"}, "webster-county-42455": {"city": "Webster County", "rent": 960, "zip": "42455"}, "webster-county-42456": {"city": "Webster County", "rent": 1070, "zip": "42456"}, "webster-county-42463": {"city": "Webster County", "rent": 870, "zip": "42463"}, "whitley-county-40701": {"city": "Whitley County", "rent": 900, "zip": "40701"}, "whitley-county-40730": {"city": "Whitley County", "rent": 870, "zip": "40730"}, "whitley-county-40759": {"city": "Whitley County", "rent": 870, "zip": "40759"}, "whitley-county-40763": {"city": "Whitley County", "rent": 990, "zip": "40763"}, "whitley-county-40769": {"city": "Whitley County", "rent": 870, "zip": "40769"}, "whitley-county-40771": {"city": "Whitley County", "rent": 870, "zip": "40771"}, "whitley-county-40906": {"city": "Whitley County", "rent": 920, "zip": "40906"}, "whitley-county-40940": {"city": "Whitley County", "rent": 900, "zip": "40940"}, "wolfe-county-41301": {"city": "Wolfe County", "rent": 870, "zip": "41301"}, "wolfe-county-41332": {"city": "Wolfe County", "rent": 870, "zip": "41332"}, "wolfe-county-41360": {"city": "Wolfe County", "rent": 870, "zip": "41360"}, "wolfe-county-41365": {"city": "Wolfe County", "rent": 880, "zip": "41365"}, "wolfe-county-41425": {"city": "Wolfe County", "rent": 1170, "zip": "41425"}}