{"bangor-04401": {"city": "Bangor", "rent": 1680, "zip": "04401"}, "bangor-04402": {"city": "Bangor", "rent": 1610, "zip": "04402"}, "bangor-04412": {"city": "Bangor", "rent": 1600, "zip": "04412"}, "bangor-04418": {"city": "Bangor", "rent": 1320, "zip": "04418"}, "bangor-04428": {"city": "Bangor", "rent": 1720, "zip": "04428"}, "bangor-04429": {"city": "Bangor", "rent": 1840, "zip": "04429"}, "bangor-04444": {"city": "Bangor", "rent": 1570, "zip": "04444"}, "bangor-04448": {"city": "Bangor", "rent": 1430, "zip": "04448"}, "bangor-04450": {"city": "Bangor", "rent": 1620, "zip": "04450"}, "bangor-04457": {"city": "Bangor", "rent": 1290, "zip": "04457"}, "bangor-04460": {"city": "Bangor", "rent": 1290, "zip": "04460"}, "bangor-04461": {"city": "Bangor", "rent": 1610, "zip": "04461"}, "bangor-04468": {"city": "Bangor", "rent": 1670, "zip": "04468"}, "bangor-04469": {"city": "Bangor", "rent": 1740, "zip": "04469"}, "bangor-04473": {"city": "Bangor", "rent": 1780, "zip": "04473"}, "bangor-04474": {"city": "Bangor", "rent": 1780, "zip": "04474"}, "bangor-04489": {"city": "Bangor", "rent": 2270, "zip": "04489"}, "penobscot-county-04410": {"city": "Penobscot County", "rent": 1420, "zip": "04410"}, "penobscot-county-04411": {"city": "Penobscot County", "rent": 1660, "zip": "04411"}, "penobscot-county-04417": {"city": "Penobscot County", "rent": 1160, "zip": "04417"}, "penobscot-county-04418": {"city": "Penobscot County", "rent": 1320, "zip": "04418"}, "penobscot-county-04419": {"city": "Penobscot County", "rent": 1870, "zip": "04419"}, "penobscot-county-04422": {"city": "Penobscot County", "rent": 1770, "zip": "04422"}, "penobscot-county-04427": {"city": "Penobscot County", "rent": 1390, "zip": "04427"}, "penobscot-county-04428": {"city": "Penobscot County", "rent": 1720, "zip": "04428"}, "penobscot-county-04430": {"city": "Penobscot County", "rent": 1140, "zip": "04430"}, "penobscot-county-04434": {"city": "Penobscot County", "rent": 1670, "zip": "04434"}, "penobscot-county-04435": {"city": "Penobscot County", "rent": 1980, "zip": "04435"}, "penobscot-county-04444": {"city": "Penobscot County", "rent": 1570, "zip": "04444"}, "penobscot-county-04448": {"city": "Penobscot County", "rent": 1430, "zip": "04448"}, "penobscot-county-04449": {"city": "Penobscot County", "rent": 1840, "zip": "04449"}, "penobscot-county-04450": {"city": "Penobscot County", "rent": 1620, "zip": "04450"}, "penobscot-county-04451": {"city": "Penobscot County", "rent": 1510, "zip": "04451"}, "penobscot-county-04453": {"city": "Penobscot County", "rent": 1320, "zip": "04453"}, "penobscot-county-04455": {"city": "Penobscot County", "rent": 1630, "zip": "04455"}, "penobscot-county-04456": {"city": "Penobscot County", "rent": 1890, "zip": "04456"}, "penobscot-county-04457": {"city": "Penobscot County", "rent": 1290, "zip": "04457"}, "penobscot-county-04459": {"city": "Penobscot County", "rent": 1590, "zip": "04459"}, "penobscot-county-04460": {"city": "Penobscot County", "rent": 1290, "zip": "04460"}, "penobscot-county-04462": {"city": "Penobscot County", "rent": 1040, "zip": "04462"}, "penobscot-county-04468": {"city": "Penobscot County", "rent": 1670, "zip": "04468"}, "penobscot-county-04475": {"city": "Penobscot County", "rent": 1360, "zip": "04475"}, "penobscot-county-04487": {"city": "Penobscot County", "rent": 1630, "zip": "04487"}, "penobscot-county-04488": {"city": "Penobscot County", "rent": 1580, "zip": "04488"}, "penobscot-county-04493": {"city": "Penobscot County", "rent": 1160, "zip": "04493"}, "penobscot-county-04495": {"city": "Penobscot County", "rent": 1630, "zip": "04495"}, "penobscot-county-04497": {"city": "Penobscot County", "rent": 1230, "zip": "04497"}, "penobscot-county-04733": {"city": "Penobscot County", "rent": 1220, "zip": "04733"}, "penobscot-county-04765": {"city": "Penobscot County", "rent": 1110, "zip": "04765"}, "penobscot-county-04777": {"city": "Penobscot County", "rent": 1630, "zip": "04777"}, "penobscot-county-04921": {"city": "Penobscot County", "rent": 1410, "zip": "04921"}, "penobscot-county-04928": {"city": "Penobscot County", "rent": 1570, "zip": "04928"}, "penobscot-county-04930": {"city": "Penobscot County", "rent": 1420, "zip": "04930"}, "penobscot-county-04932": {"city": "Penobscot County", "rent": 1930, "zip": "04932"}, "penobscot-county-04933": {"city": "Penobscot County", "rent": 1630, "zip": "04933"}, "penobscot-county-04939": {"city": "Penobscot County", "rent": 1530, "zip": "04939"}, "penobscot-county-04953": {"city": "Penobscot County", "rent": 1400, "zip": "04953"}, "penobscot-county-04969": {"city": "Penobscot County", "rent": 1420, "zip": "04969"}, "lewiston-auburn-04210": {"city": "Lewiston-Auburn", "rent": 1560, "zip": "04210"}, "lewiston-auburn-04211": {"city": "Lewiston-Auburn", "rent": 1590, "zip": "04211"}, "lewiston-auburn-04212": {"city": "Lewiston-Auburn", "rent": 1590, "zip": "04212"}, "lewiston-auburn-04220": {"city": "Lewiston-Auburn", "rent": 1440, "zip": "04220"}, "lewiston-auburn-04222": {"city": "Lewiston-Auburn", "rent": 1920, "zip": "04222"}, "lewiston-auburn-04223": {"city": "Lewiston-Auburn", "rent": 1590, "zip": "04223"}, "lewiston-auburn-04228": {"city": "Lewiston-Auburn", "rent": 1590, "zip": "04228"}, "lewiston-auburn-04230": {"city": "Lewiston-Auburn", "rent": 1590, "zip": "04230"}, "lewiston-auburn-04236": {"city": "Lewiston-Auburn", "rent": 1640, "zip": "04236"}, "lewiston-auburn-04238": {"city": "Lewiston-Auburn", "rent": 1530, "zip": "04238"}, "lewiston-auburn-04239": {"city": "Lewiston-Auburn", "rent": 1150, "zip": "04239"}, "lewiston-auburn-04240": {"city": "Lewiston-Auburn", "rent": 1570, "zip": "04240"}, "lewiston-auburn-04241": {"city": "Lewiston-Auburn", "rent": 1590, "zip": "04241"}, "lewiston-auburn-04243": {"city": "Lewiston-Auburn", "rent": 1590, "zip": "04243"}, "lewiston-auburn-04250": {"city": "Lewiston-Auburn", "rent": 1550, "zip": "04250"}, "lewiston-auburn-04252": {"city": "Lewiston-Auburn", "rent": 1910, "zip": "04252"}, "lewiston-auburn-04253": {"city": "Lewiston-Auburn", "rent": 1480, "zip": "04253"}, "lewiston-auburn-04254": {"city": "Lewiston-Auburn", "rent": 1340, "zip": "04254"}, "lewiston-auburn-04256": {"city": "Lewiston-Auburn", "rent": 1880, "zip": "04256"}, "lewiston-auburn-04258": {"city": "Lewiston-Auburn", "rent": 1530, "zip": "04258"}, "lewiston-auburn-04260": {"city": "Lewiston-Auburn", "rent": 1770, "zip": "04260"}, "lewiston-auburn-04263": {"city": "Lewiston-Auburn", "rent": 1690, "zip": "04263"}, "lewiston-auburn-04266": {"city": "Lewiston-Auburn", "rent": 1590, "zip": "04266"}, "lewiston-auburn-04270": {"city": "Lewiston-Auburn", "rent": 1670, "zip": "04270"}, "lewiston-auburn-04274": {"city": "Lewiston-Auburn", "rent": 1810, "zip": "04274"}, "lewiston-auburn-04280": {"city": "Lewiston-Auburn", "rent": 1600, "zip": "04280"}, "lewiston-auburn-04282": {"city": "Lewiston-Auburn", "rent": 1800, "zip": "04282"}, "lewiston-auburn-04288": {"city": "Lewiston-Auburn", "rent": 1590, "zip": "04288"}, "lewiston-auburn-04291": {"city": "Lewiston-Auburn", "rent": 1590, "zip": "04291"}, "portland-04004": {"city": "Portland", "rent": 1810, "zip": "04004"}, "portland-04005": {"city": "Portland", "rent": 1810, "zip": "04005"}, "portland-04013": {"city": "Portland", "rent": 2120, "zip": "04013"}, "portland-04015": {"city": "Portland", "rent": 1810, "zip": "04015"}, "portland-04017": {"city": "Portland", "rent": 2860, "zip": "04017"}, "portland-04019": {"city": "Portland", "rent": 2990, "zip": "04019"}, "portland-04021": {"city": "Portland", "rent": 2190, "zip": "04021"}, "portland-04032": {"city": "Portland", "rent": 2210, "zip": "04032"}, "portland-04033": {"city": "Portland", "rent": 2120, "zip": "04033"}, "portland-04038": {"city": "Portland", "rent": 1960, "zip": "04038"}, "portland-04039": {"city": "Portland", "rent": 1960, "zip": "04039"}, "portland-04042": {"city": "Portland", "rent": 1810, "zip": "04042"}, "portland-04048": {"city": "Portland", "rent": 1810, "zip": "04048"}, "portland-04049": {"city": "Portland", "rent": 1810, "zip": "04049"}, "portland-04050": {"city": "Portland", "rent": 3200, "zip": "04050"}, "portland-04062": {"city": "Portland", "rent": 1810, "zip": "04062"}, "portland-04063": {"city": "Portland", "rent": 1810, "zip": "04063"}, "portland-04064": {"city": "Portland", "rent": 1810, "zip": "04064"}, "portland-04070": {"city": "Portland", "rent": 2120, "zip": "04070"}, "portland-04071": {"city": "Portland", "rent": 2040, "zip": "04071"}, "portland-04072": {"city": "Portland", "rent": 1960, "zip": "04072"}, "portland-04074": {"city": "Portland", "rent": 2450, "zip": "04074"}, "portland-04077": {"city": "Portland", "rent": 2120, "zip": "04077"}, "portland-04078": {"city": "Portland", "rent": 2120, "zip": "04078"}, "portland-04082": {"city": "Portland", "rent": 2120, "zip": "04082"}, "portland-04084": {"city": "Portland", "rent": 2020, "zip": "04084"}, "portland-04085": {"city": "Portland", "rent": 2220, "zip": "04085"}, "portland-04092": {"city": "Portland", "rent": 1960, "zip": "04092"}, "portland-04093": {"city": "Portland", "rent": 2080, "zip": "04093"}, "portland-04096": {"city": "Portland", "rent": 2390, "zip": "04096"}, "portland-04097": {"city": "Portland", "rent": 2250, "zip": "04097"}, "portland-04098": {"city": "Portland", "rent": 2120, "zip": "04098"}, "portland-04101": {"city": "Portland", "rent": 2190, "zip": "04101"}, "portland-04102": {"city": "Portland", "rent": 2280, "zip": "04102"}, "portland-04103": {"city": "Portland", "rent": 2150, "zip": "04103"}, "portland-04104": {"city": "Portland", "rent": 2120, "zip": "04104"}, "portland-04105": {"city": "Portland", "rent": 2940, "zip": "04105"}, "portland-04106": {"city": "Portland", "rent": 2370, "zip": "04106"}, "portland-04107": {"city": "Portland", "rent": 3200, "zip": "04107"}, "portland-04108": {"city": "Portland", "rent": 1980, "zip": "04108"}, "portland-04109": {"city": "Portland", "rent": 2380, "zip": "04109"}, "portland-04110": {"city": "Portland", "rent": 2560, "zip": "04110"}, "portland-04112": {"city": "Portland", "rent": 2120, "zip": "04112"}, "portland-04116": {"city": "Portland", "rent": 2120, "zip": "04116"}, "portland-04274": {"city": "Portland", "rent": 1810, "zip": "04274"}, "york-kittery-south-berwick-03804": {"city": "York-Kittery-South Berwick", "rent": 1900, "zip": "03804"}, "york-kittery-south-berwick-03901": {"city": "York-Kittery-South Berwick", "rent": 2070, "zip": "03901"}, "york-kittery-south-berwick-03902": {"city": "York-Kittery-South Berwick", "rent": 2230, "zip": "03902"}, "york-kittery-south-berwick-03903": {"city": "York-Kittery-South Berwick", "rent": 2470, "zip": "03903"}, "york-kittery-south-berwick-03904": {"city": "York-Kittery-South Berwick", "rent": 2200, "zip": "03904"}, "york-kittery-south-berwick-03905": {"city": "York-Kittery-South Berwick", "rent": 2920, "zip": "03905"}, "york-kittery-south-berwick-03906": {"city": "York-Kittery-South Berwick", "rent": 1780, "zip": "03906"}, "york-kittery-south-berwick-03907": {"city": "York-Kittery-South Berwick", "rent": 2510, "zip": "03907"}, "york-kittery-south-berwick-03908": {"city": "York-Kittery-South Berwick", "rent": 2020, "zip": "03908"}, "york-kittery-south-berwick-03909": {"city": "York-Kittery-South Berwick", "rent": 2190, "zip": "03909"}, "york-kittery-south-berwick-03910": {"city": "York-Kittery-South Berwick", "rent": 2190, "zip": "03910"}, "york-kittery-south-berwick-03911": {"city": "York-Kittery-South Berwick", "rent": 2190, "zip": "03911"}, "cumberland-county-04003": {"city": "Cumberland County", "rent": 2000, "zip": "04003"}, "cumberland-county-04009": {"city": "Cumberland County", "rent": 1620, "zip": "04009"}, "cumberland-county-04011": {"city": "Cumberland County", "rent": 1910, "zip": "04011"}, "cumberland-county-04022": {"city": "Cumberland County", "rent": 1600, "zip": "04022"}, "cumberland-county-04024": {"city": "Cumberland County", "rent": 1740, "zip": "04024"}, "cumberland-county-04029": {"city": "Cumberland County", "rent": 1800, "zip": "04029"}, "cumberland-county-04032": {"city": "Cumberland County", "rent": 2210, "zip": "04032"}, "cumberland-county-04039": {"city": "Cumberland County", "rent": 1960, "zip": "04039"}, "cumberland-county-04040": {"city": "Cumberland County", "rent": 1580, "zip": "04040"}, "cumberland-county-04055": {"city": "Cumberland County", "rent": 2230, "zip": "04055"}, "cumberland-county-04057": {"city": "Cumberland County", "rent": 1620, "zip": "04057"}, "cumberland-county-04066": {"city": "Cumberland County", "rent": 1770, "zip": "04066"}, "cumberland-county-04069": {"city": "Cumberland County", "rent": 2070, "zip": "04069"}, "cumberland-county-04071": {"city": "Cumberland County", "rent": 2040, "zip": "04071"}, "cumberland-county-04079": {"city": "Cumberland County", "rent": 1860, "zip": "04079"}, "cumberland-county-04091": {"city": "Cumberland County", "rent": 1740, "zip": "04091"}, "cumberland-county-04097": {"city": "Cumberland County", "rent": 2250, "zip": "04097"}, "cumberland-county-04222": {"city": "Cumberland County", "rent": 1920, "zip": "04222"}, "cumberland-county-04260": {"city": "Cumberland County", "rent": 1770, "zip": "04260"}, "sagadahoc-county-04008": {"city": "Sagadahoc County", "rent": 1660, "zip": "04008"}, "sagadahoc-county-04011": {"city": "Sagadahoc County", "rent": 1910, "zip": "04011"}, "sagadahoc-county-04086": {"city": "Sagadahoc County", "rent": 1820, "zip": "04086"}, "sagadahoc-county-04252": {"city": "Sagadahoc County", "rent": 1910, "zip": "04252"}, "sagadahoc-county-04280": {"city": "Sagadahoc County", "rent": 1600, "zip": "04280"}, "sagadahoc-county-04287": {"city": "Sagadahoc County", "rent": 1680, "zip": "04287"}, "sagadahoc-county-04345": {"city": "Sagadahoc County", "rent": 1420, "zip": "04345"}, "sagadahoc-county-04357": {"city": "Sagadahoc County", "rent": 1520, "zip": "04357"}, "sagadahoc-county-04530": {"city": "Sagadahoc County", "rent": 1470, "zip": "04530"}, "sagadahoc-county-04548": {"city": "Sagadahoc County", "rent": 1480, "zip": "04548"}, "sagadahoc-county-04562": {"city": "Sagadahoc County", "rent": 1400, "zip": "04562"}, "sagadahoc-county-04565": {"city": "Sagadahoc County", "rent": 1580, "zip": "04565"}, "sagadahoc-county-04579": {"city": "Sagadahoc County", "rent": 2020, "zip": "04579"}, "york-county-03901": {"city": "York County", "rent": 2070, "zip": "03901"}, "york-county-03906": {"city": "York County", "rent": 1780, "zip": "03906"}, "york-county-03907": {"city": "York County", "rent": 2510, "zip": "03907"}, "york-county-03908": {"city": "York County", "rent": 2020, "zip": "03908"}, "york-county-04001": {"city": "York County", "rent": 1520, "zip": "04001"}, "york-county-04002": {"city": "York County", "rent": 1460, "zip": "04002"}, "york-county-04005": {"city": "York County", "rent": 1810, "zip": "04005"}, "york-county-04006": {"city": "York County", "rent": 1660, "zip": "04006"}, "york-county-04014": {"city": "York County", "rent": 1770, "zip": "04014"}, "york-county-04020": {"city": "York County", "rent": 1710, "zip": "04020"}, "york-county-04027": {"city": "York County", "rent": 1900, "zip": "04027"}, "york-county-04028": {"city": "York County", "rent": 1770, "zip": "04028"}, "york-county-04030": {"city": "York County", "rent": 1860, "zip": "04030"}, "york-county-04043": {"city": "York County", "rent": 1930, "zip": "04043"}, "york-county-04046": {"city": "York County", "rent": 1770, "zip": "04046"}, "york-county-04047": {"city": "York County", "rent": 1740, "zip": "04047"}, "york-county-04048": {"city": "York County", "rent": 1810, "zip": "04048"}, "york-county-04049": {"city": "York County", "rent": 1810, "zip": "04049"}, "york-county-04054": {"city": "York County", "rent": 1770, "zip": "04054"}, "york-county-04056": {"city": "York County", "rent": 1670, "zip": "04056"}, "york-county-04061": {"city": "York County", "rent": 1730, "zip": "04061"}, "york-county-04064": {"city": "York County", "rent": 1810, "zip": "04064"}, "york-county-04072": {"city": "York County", "rent": 1960, "zip": "04072"}, "york-county-04073": {"city": "York County", "rent": 1630, "zip": "04073"}, "york-county-04076": {"city": "York County", "rent": 1870, "zip": "04076"}, "york-county-04083": {"city": "York County", "rent": 1700, "zip": "04083"}, "york-county-04087": {"city": "York County", "rent": 1810, "zip": "04087"}, "york-county-04090": {"city": "York County", "rent": 1730, "zip": "04090"}, "york-county-04093": {"city": "York County", "rent": 2080, "zip": "04093"}, "york-county-04094": {"city": "York County", "rent": 1770, "zip": "04094"}, "york-county-04095": {"city": "York County", "rent": 1730, "zip": "04095"}, "aroostook-county-04424": {"city": "Aroostook County", "rent": 970, "zip": "04424"}, "aroostook-county-04451": {"city": "Aroostook County", "rent": 1510, "zip": "04451"}, "aroostook-county-04459": {"city": "Aroostook County", "rent": 1590, "zip": "04459"}, "aroostook-county-04471": {"city": "Aroostook County", "rent": 1160, "zip": "04471"}, "aroostook-county-04487": {"city": "Aroostook County", "rent": 1630, "zip": "04487"}, "aroostook-county-04497": {"city": "Aroostook County", "rent": 1230, "zip": "04497"}, "aroostook-county-04730": {"city": "Aroostook County", "rent": 1190, "zip": "04730"}, "aroostook-county-04732": {"city": "Aroostook County", "rent": 1440, "zip": "04732"}, "aroostook-county-04733": {"city": "Aroostook County", "rent": 1220, "zip": "04733"}, "aroostook-county-04734": {"city": "Aroostook County", "rent": 1150, "zip": "04734"}, "aroostook-county-04735": {"city": "Aroostook County", "rent": 1090, "zip": "04735"}, "aroostook-county-04736": {"city": "Aroostook County", "rent": 1140, "zip": "04736"}, "aroostook-county-04737": {"city": "Aroostook County", "rent": 1220, "zip": "04737"}, "aroostook-county-04738": {"city": "Aroostook County", "rent": 1220, "zip": "04738"}, "aroostook-county-04739": {"city": "Aroostook County", "rent": 1220, "zip": "04739"}, "aroostook-county-04740": {"city": "Aroostook County", "rent": 1110, "zip": "04740"}, "aroostook-county-04742": {"city": "Aroostook County", "rent": 1430, "zip": "04742"}, "aroostook-county-04743": {"city": "Aroostook County", "rent": 1320, "zip": "04743"}, "aroostook-county-04744": {"city": "Aroostook County", "rent": 1220, "zip": "04744"}, "aroostook-county-04745": {"city": "Aroostook County", "rent": 1420, "zip": "04745"}, "aroostook-county-04746": {"city": "Aroostook County", "rent": 970, "zip": "04746"}, "aroostook-county-04747": {"city": "Aroostook County", "rent": 1350, "zip": "04747"}, "aroostook-county-04750": {"city": "Aroostook County", "rent": 1410, "zip": "04750"}, "aroostook-county-04756": {"city": "Aroostook County", "rent": 970, "zip": "04756"}, "aroostook-county-04757": {"city": "Aroostook County", "rent": 1500, "zip": "04757"}, "aroostook-county-04758": {"city": "Aroostook County", "rent": 1130, "zip": "04758"}, "aroostook-county-04760": {"city": "Aroostook County", "rent": 1260, "zip": "04760"}, "aroostook-county-04761": {"city": "Aroostook County", "rent": 1280, "zip": "04761"}, "aroostook-county-04762": {"city": "Aroostook County", "rent": 1340, "zip": "04762"}, "aroostook-county-04763": {"city": "Aroostook County", "rent": 970, "zip": "04763"}, "aroostook-county-04764": {"city": "Aroostook County", "rent": 1430, "zip": "04764"}, "aroostook-county-04766": {"city": "Aroostook County", "rent": 1130, "zip": "04766"}, "aroostook-county-04768": {"city": "Aroostook County", "rent": 1600, "zip": "04768"}, "aroostook-county-04769": {"city": "Aroostook County", "rent": 1320, "zip": "04769"}, "aroostook-county-04772": {"city": "Aroostook County", "rent": 1320, "zip": "04772"}, "aroostook-county-04773": {"city": "Aroostook County", "rent": 1090, "zip": "04773"}, "aroostook-county-04774": {"city": "Aroostook County", "rent": 1440, "zip": "04774"}, "aroostook-county-04775": {"city": "Aroostook County", "rent": 1220, "zip": "04775"}, "aroostook-county-04776": {"city": "Aroostook County", "rent": 1220, "zip": "04776"}, "aroostook-county-04779": {"city": "Aroostook County", "rent": 1280, "zip": "04779"}, "aroostook-county-04780": {"city": "Aroostook County", "rent": 1580, "zip": "04780"}, "aroostook-county-04781": {"city": "Aroostook County", "rent": 1320, "zip": "04781"}, "aroostook-county-04783": {"city": "Aroostook County", "rent": 1310, "zip": "04783"}, "aroostook-county-04785": {"city": "Aroostook County", "rent": 980, "zip": "04785"}, "aroostook-county-04786": {"city": "Aroostook County", "rent": 990, "zip": "04786"}, "aroostook-county-04787": {"city": "Aroostook County", "rent": 1240, "zip": "04787"}, "franklin-county-04224": {"city": "Franklin County", "rent": 1030, "zip": "04224"}, "franklin-county-04225": {"city": "Franklin County", "rent": 1320, "zip": "04225"}, "franklin-county-04227": {"city": "Franklin County", "rent": 1070, "zip": "04227"}, "franklin-county-04234": {"city": "Franklin County", "rent": 1320, "zip": "04234"}, "franklin-county-04239": {"city": "Franklin County", "rent": 1150, "zip": "04239"}, "franklin-county-04262": {"city": "Franklin County", "rent": 1320, "zip": "04262"}, "franklin-county-04285": {"city": "Franklin County", "rent": 1150, "zip": "04285"}, "franklin-county-04294": {"city": "Franklin County", "rent": 1370, "zip": "04294"}, "franklin-county-04936": {"city": "Franklin County", "rent": 1380, "zip": "04936"}, "franklin-county-04938": {"city": "Franklin County", "rent": 1360, "zip": "04938"}, "franklin-county-04940": {"city": "Franklin County", "rent": 1320, "zip": "04940"}, "franklin-county-04947": {"city": "Franklin County", "rent": 1570, "zip": "04947"}, "franklin-county-04955": {"city": "Franklin County", "rent": 1520, "zip": "04955"}, "franklin-county-04956": {"city": "Franklin County", "rent": 1290, "zip": "04956"}, "franklin-county-04961": {"city": "Franklin County", "rent": 1460, "zip": "04961"}, "franklin-county-04964": {"city": "Franklin County", "rent": 1100, "zip": "04964"}, "franklin-county-04966": {"city": "Franklin County", "rent": 1170, "zip": "04966"}, "franklin-county-04970": {"city": "Franklin County", "rent": 1070, "zip": "04970"}, "franklin-county-04982": {"city": "Franklin County", "rent": 1350, "zip": "04982"}, "franklin-county-04983": {"city": "Franklin County", "rent": 1230, "zip": "04983"}, "franklin-county-04984": {"city": "Franklin County", "rent": 1200, "zip": "04984"}, "franklin-county-04992": {"city": "Franklin County", "rent": 1320, "zip": "04992"}, "hancock-county-04408": {"city": "Hancock County", "rent": 1270, "zip": "04408"}, "hancock-county-04416": {"city": "Hancock County", "rent": 1360, "zip": "04416"}, "hancock-county-04420": {"city": "Hancock County", "rent": 1500, "zip": "04420"}, "hancock-county-04421": {"city": "Hancock County", "rent": 1580, "zip": "04421"}, "hancock-county-04428": {"city": "Hancock County", "rent": 1720, "zip": "04428"}, "hancock-county-04429": {"city": "Hancock County", "rent": 1840, "zip": "04429"}, "hancock-county-04431": {"city": "Hancock County", "rent": 1750, "zip": "04431"}, "hancock-county-04472": {"city": "Hancock County", "rent": 1750, "zip": "04472"}, "hancock-county-04476": {"city": "Hancock County", "rent": 1520, "zip": "04476"}, "hancock-county-04605": {"city": "Hancock County", "rent": 1450, "zip": "04605"}, "hancock-county-04607": {"city": "Hancock County", "rent": 1500, "zip": "04607"}, "hancock-county-04609": {"city": "Hancock County", "rent": 1730, "zip": "04609"}, "hancock-county-04612": {"city": "Hancock County", "rent": 1500, "zip": "04612"}, "hancock-county-04613": {"city": "Hancock County", "rent": 1500, "zip": "04613"}, "hancock-county-04614": {"city": "Hancock County", "rent": 1620, "zip": "04614"}, "hancock-county-04616": {"city": "Hancock County", "rent": 1840, "zip": "04616"}, "hancock-county-04617": {"city": "Hancock County", "rent": 1500, "zip": "04617"}, "hancock-county-04622": {"city": "Hancock County", "rent": 1090, "zip": "04622"}, "hancock-county-04624": {"city": "Hancock County", "rent": 1500, "zip": "04624"}, "hancock-county-04625": {"city": "Hancock County", "rent": 1470, "zip": "04625"}, "hancock-county-04627": {"city": "Hancock County", "rent": 1590, "zip": "04627"}, "hancock-county-04629": {"city": "Hancock County", "rent": 1500, "zip": "04629"}, "hancock-county-04634": {"city": "Hancock County", "rent": 1540, "zip": "04634"}, "hancock-county-04635": {"city": "Hancock County", "rent": 1500, "zip": "04635"}, "hancock-county-04640": {"city": "Hancock County", "rent": 1520, "zip": "04640"}, "hancock-county-04642": {"city": "Hancock County", "rent": 1790, "zip": "04642"}, "hancock-county-04644": {"city": "Hancock County", "rent": 1500, "zip": "04644"}, "hancock-county-04646": {"city": "Hancock County", "rent": 1500, "zip": "04646"}, "hancock-county-04650": {"city": "Hancock County", "rent": 1500, "zip": "04650"}, "hancock-county-04653": {"city": "Hancock County", "rent": 2180, "zip": "04653"}, "hancock-county-04660": {"city": "Hancock County", "rent": 1570, "zip": "04660"}, "hancock-county-04662": {"city": "Hancock County", "rent": 1820, "zip": "04662"}, "hancock-county-04664": {"city": "Hancock County", "rent": 1550, "zip": "04664"}, "hancock-county-04669": {"city": "Hancock County", "rent": 1500, "zip": "04669"}, "hancock-county-04672": {"city": "Hancock County", "rent": 1500, "zip": "04672"}, "hancock-county-04673": {"city": "Hancock County", "rent": 1500, "zip": "04673"}, "hancock-county-04674": {"city": "Hancock County", "rent": 1590, "zip": "04674"}, "hancock-county-04675": {"city": "Hancock County", "rent": 1660, "zip": "04675"}, "hancock-county-04676": {"city": "Hancock County", "rent": 1500, "zip": "04676"}, "hancock-county-04677": {"city": "Hancock County", "rent": 2250, "zip": "04677"}, "hancock-county-04679": {"city": "Hancock County", "rent": 1330, "zip": "04679"}, "hancock-county-04681": {"city": "Hancock County", "rent": 1330, "zip": "04681"}, "hancock-county-04683": {"city": "Hancock County", "rent": 1590, "zip": "04683"}, "hancock-county-04684": {"city": "Hancock County", "rent": 1490, "zip": "04684"}, "hancock-county-04685": {"city": "Hancock County", "rent": 1880, "zip": "04685"}, "hancock-county-04693": {"city": "Hancock County", "rent": 1500, "zip": "04693"}, "kennebec-county-04254": {"city": "Kennebec County", "rent": 1340, "zip": "04254"}, "kennebec-county-04259": {"city": "Kennebec County", "rent": 1510, "zip": "04259"}, "kennebec-county-04265": {"city": "Kennebec County", "rent": 1750, "zip": "04265"}, "kennebec-county-04284": {"city": "Kennebec County", "rent": 1690, "zip": "04284"}, "kennebec-county-04330": {"city": "Kennebec County", "rent": 1380, "zip": "04330"}, "kennebec-county-04332": {"city": "Kennebec County", "rent": 1420, "zip": "04332"}, "kennebec-county-04333": {"city": "Kennebec County", "rent": 1420, "zip": "04333"}, "kennebec-county-04338": {"city": "Kennebec County", "rent": 1420, "zip": "04338"}, "kennebec-county-04343": {"city": "Kennebec County", "rent": 1420, "zip": "04343"}, "kennebec-county-04344": {"city": "Kennebec County", "rent": 1220, "zip": "04344"}, "kennebec-county-04345": {"city": "Kennebec County", "rent": 1420, "zip": "04345"}, "kennebec-county-04346": {"city": "Kennebec County", "rent": 1500, "zip": "04346"}, "kennebec-county-04347": {"city": "Kennebec County", "rent": 1330, "zip": "04347"}, "kennebec-county-04349": {"city": "Kennebec County", "rent": 2020, "zip": "04349"}, "kennebec-county-04350": {"city": "Kennebec County", "rent": 1470, "zip": "04350"}, "kennebec-county-04351": {"city": "Kennebec County", "rent": 1440, "zip": "04351"}, "kennebec-county-04352": {"city": "Kennebec County", "rent": 1310, "zip": "04352"}, "kennebec-county-04353": {"city": "Kennebec County", "rent": 1250, "zip": "04353"}, "kennebec-county-04355": {"city": "Kennebec County", "rent": 1470, "zip": "04355"}, "kennebec-county-04357": {"city": "Kennebec County", "rent": 1520, "zip": "04357"}, "kennebec-county-04358": {"city": "Kennebec County", "rent": 1450, "zip": "04358"}, "kennebec-county-04359": {"city": "Kennebec County", "rent": 1420, "zip": "04359"}, "kennebec-county-04360": {"city": "Kennebec County", "rent": 1390, "zip": "04360"}, "kennebec-county-04363": {"city": "Kennebec County", "rent": 1530, "zip": "04363"}, "kennebec-county-04364": {"city": "Kennebec County", "rent": 1510, "zip": "04364"}, "kennebec-county-04901": {"city": "Kennebec County", "rent": 1410, "zip": "04901"}, "kennebec-county-04903": {"city": "Kennebec County", "rent": 1420, "zip": "04903"}, "kennebec-county-04910": {"city": "Kennebec County", "rent": 1790, "zip": "04910"}, "kennebec-county-04917": {"city": "Kennebec County", "rent": 1220, "zip": "04917"}, "kennebec-county-04918": {"city": "Kennebec County", "rent": 1220, "zip": "04918"}, "kennebec-county-04926": {"city": "Kennebec County", "rent": 1420, "zip": "04926"}, "kennebec-county-04927": {"city": "Kennebec County", "rent": 1550, "zip": "04927"}, "kennebec-county-04935": {"city": "Kennebec County", "rent": 1420, "zip": "04935"}, "kennebec-county-04937": {"city": "Kennebec County", "rent": 1230, "zip": "04937"}, "kennebec-county-04962": {"city": "Kennebec County", "rent": 1420, "zip": "04962"}, "kennebec-county-04963": {"city": "Kennebec County", "rent": 1420, "zip": "04963"}, "kennebec-county-04988": {"city": "Kennebec County", "rent": 1390, "zip": "04988"}, "kennebec-county-04989": {"city": "Kennebec County", "rent": 1500, "zip": "04989"}, "knox-county-04547": {"city": "Knox County", "rent": 1790, "zip": "04547"}, "knox-county-04563": {"city": "Knox County", "rent": 1840, "zip": "04563"}, "knox-county-04572": {"city": "Knox County", "rent": 1270, "zip": "04572"}, "knox-county-04574": {"city": "Knox County", "rent": 1600, "zip": "04574"}, "knox-county-04645": {"city": "Knox County", "rent": 1330, "zip": "04645"}, "knox-county-04841": {"city": "Knox County", "rent": 1390, "zip": "04841"}, "knox-county-04843": {"city": "Knox County", "rent": 1670, "zip": "04843"}, "knox-county-04847": {"city": "Knox County", "rent": 1530, "zip": "04847"}, "knox-county-04851": {"city": "Knox County", "rent": 1530, "zip": "04851"}, "knox-county-04853": {"city": "Knox County", "rent": 1780, "zip": "04853"}, "knox-county-04854": {"city": "Knox County", "rent": 1730, "zip": "04854"}, "knox-county-04855": {"city": "Knox County", "rent": 2110, "zip": "04855"}, "knox-county-04856": {"city": "Knox County", "rent": 1750, "zip": "04856"}, "knox-county-04858": {"city": "Knox County", "rent": 1990, "zip": "04858"}, "knox-county-04859": {"city": "Knox County", "rent": 2090, "zip": "04859"}, "knox-county-04860": {"city": "Knox County", "rent": 2160, "zip": "04860"}, "knox-county-04861": {"city": "Knox County", "rent": 1380, "zip": "04861"}, "knox-county-04862": {"city": "Knox County", "rent": 1360, "zip": "04862"}, "knox-county-04863": {"city": "Knox County", "rent": 1460, "zip": "04863"}, "knox-county-04864": {"city": "Knox County", "rent": 1440, "zip": "04864"}, "knox-county-04865": {"city": "Knox County", "rent": 1530, "zip": "04865"}, "knox-county-04949": {"city": "Knox County", "rent": 1230, "zip": "04949"}, "lincoln-county-04330": {"city": "Lincoln County", "rent": 1380, "zip": "04330"}, "lincoln-county-04341": {"city": "Lincoln County", "rent": 1260, "zip": "04341"}, "lincoln-county-04342": {"city": "Lincoln County", "rent": 1610, "zip": "04342"}, "lincoln-county-04348": {"city": "Lincoln County", "rent": 1420, "zip": "04348"}, "lincoln-county-04353": {"city": "Lincoln County", "rent": 1250, "zip": "04353"}, "lincoln-county-04354": {"city": "Lincoln County", "rent": 1410, "zip": "04354"}, "lincoln-county-04363": {"city": "Lincoln County", "rent": 1530, "zip": "04363"}, "lincoln-county-04535": {"city": "Lincoln County", "rent": 1430, "zip": "04535"}, "lincoln-county-04537": {"city": "Lincoln County", "rent": 1330, "zip": "04537"}, "lincoln-county-04538": {"city": "Lincoln County", "rent": 1440, "zip": "04538"}, "lincoln-county-04539": {"city": "Lincoln County", "rent": 1400, "zip": "04539"}, "lincoln-county-04541": {"city": "Lincoln County", "rent": 1400, "zip": "04541"}, "lincoln-county-04543": {"city": "Lincoln County", "rent": 1270, "zip": "04543"}, "lincoln-county-04544": {"city": "Lincoln County", "rent": 1500, "zip": "04544"}, "lincoln-county-04551": {"city": "Lincoln County", "rent": 1530, "zip": "04551"}, "lincoln-county-04553": {"city": "Lincoln County", "rent": 1490, "zip": "04553"}, "lincoln-county-04554": {"city": "Lincoln County", "rent": 1400, "zip": "04554"}, "lincoln-county-04555": {"city": "Lincoln County", "rent": 1320, "zip": "04555"}, "lincoln-county-04556": {"city": "Lincoln County", "rent": 1470, "zip": "04556"}, "lincoln-county-04558": {"city": "Lincoln County", "rent": 1400, "zip": "04558"}, "lincoln-county-04564": {"city": "Lincoln County", "rent": 1400, "zip": "04564"}, "lincoln-county-04568": {"city": "Lincoln County", "rent": 1640, "zip": "04568"}, "lincoln-county-04570": {"city": "Lincoln County", "rent": 1400, "zip": "04570"}, "lincoln-county-04571": {"city": "Lincoln County", "rent": 1400, "zip": "04571"}, "lincoln-county-04572": {"city": "Lincoln County", "rent": 1270, "zip": "04572"}, "lincoln-county-04573": {"city": "Lincoln County", "rent": 1400, "zip": "04573"}, "lincoln-county-04575": {"city": "Lincoln County", "rent": 1410, "zip": "04575"}, "lincoln-county-04576": {"city": "Lincoln County", "rent": 1400, "zip": "04576"}, "lincoln-county-04578": {"city": "Lincoln County", "rent": 1780, "zip": "04578"}, "lincoln-county-04852": {"city": "Lincoln County", "rent": 1400, "zip": "04852"}, "lincoln-county-04862": {"city": "Lincoln County", "rent": 1360, "zip": "04862"}, "lincoln-county-04864": {"city": "Lincoln County", "rent": 1440, "zip": "04864"}, "oxford-county-03579": {"city": "Oxford County", "rent": 1430, "zip": "03579"}, "oxford-county-04010": {"city": "Oxford County", "rent": 1940, "zip": "04010"}, "oxford-county-04016": {"city": "Oxford County", "rent": 1300, "zip": "04016"}, "oxford-county-04022": {"city": "Oxford County", "rent": 1600, "zip": "04022"}, "oxford-county-04037": {"city": "Oxford County", "rent": 1400, "zip": "04037"}, "oxford-county-04040": {"city": "Oxford County", "rent": 1580, "zip": "04040"}, "oxford-county-04041": {"city": "Oxford County", "rent": 1760, "zip": "04041"}, "oxford-county-04051": {"city": "Oxford County", "rent": 1820, "zip": "04051"}, "oxford-county-04068": {"city": "Oxford County", "rent": 1590, "zip": "04068"}, "oxford-county-04088": {"city": "Oxford County", "rent": 1530, "zip": "04088"}, "oxford-county-04216": {"city": "Oxford County", "rent": 1150, "zip": "04216"}, "oxford-county-04217": {"city": "Oxford County", "rent": 1270, "zip": "04217"}, "oxford-county-04219": {"city": "Oxford County", "rent": 1410, "zip": "04219"}, "oxford-county-04220": {"city": "Oxford County", "rent": 1440, "zip": "04220"}, "oxford-county-04221": {"city": "Oxford County", "rent": 1190, "zip": "04221"}, "oxford-county-04224": {"city": "Oxford County", "rent": 1030, "zip": "04224"}, "oxford-county-04226": {"city": "Oxford County", "rent": 1150, "zip": "04226"}, "oxford-county-04227": {"city": "Oxford County", "rent": 1070, "zip": "04227"}, "oxford-county-04231": {"city": "Oxford County", "rent": 1490, "zip": "04231"}, "oxford-county-04237": {"city": "Oxford County", "rent": 1380, "zip": "04237"}, "oxford-county-04238": {"city": "Oxford County", "rent": 1530, "zip": "04238"}, "oxford-county-04239": {"city": "Oxford County", "rent": 1150, "zip": "04239"}, "oxford-county-04255": {"city": "Oxford County", "rent": 1700, "zip": "04255"}, "oxford-county-04257": {"city": "Oxford County", "rent": 1280, "zip": "04257"}, "oxford-county-04258": {"city": "Oxford County", "rent": 1530, "zip": "04258"}, "oxford-county-04261": {"city": "Oxford County", "rent": 1630, "zip": "04261"}, "oxford-county-04267": {"city": "Oxford County", "rent": 1530, "zip": "04267"}, "oxford-county-04268": {"city": "Oxford County", "rent": 1090, "zip": "04268"}, "oxford-county-04270": {"city": "Oxford County", "rent": 1670, "zip": "04270"}, "oxford-county-04271": {"city": "Oxford County", "rent": 1300, "zip": "04271"}, "oxford-county-04275": {"city": "Oxford County", "rent": 1120, "zip": "04275"}, "oxford-county-04276": {"city": "Oxford County", "rent": 1030, "zip": "04276"}, "oxford-county-04281": {"city": "Oxford County", "rent": 1390, "zip": "04281"}, "oxford-county-04286": {"city": "Oxford County", "rent": 1300, "zip": "04286"}, "oxford-county-04289": {"city": "Oxford County", "rent": 1220, "zip": "04289"}, "oxford-county-04290": {"city": "Oxford County", "rent": 1210, "zip": "04290"}, "oxford-county-04292": {"city": "Oxford County", "rent": 1400, "zip": "04292"}, "oxford-county-04964": {"city": "Oxford County", "rent": 1100, "zip": "04964"}, "piscataquis-county-04406": {"city": "Piscataquis County", "rent": 1520, "zip": "04406"}, "piscataquis-county-04414": {"city": "Piscataquis County", "rent": 1310, "zip": "04414"}, "piscataquis-county-04415": {"city": "Piscataquis County", "rent": 1170, "zip": "04415"}, "piscataquis-county-04426": {"city": "Piscataquis County", "rent": 1480, "zip": "04426"}, "piscataquis-county-04441": {"city": "Piscataquis County", "rent": 1020, "zip": "04441"}, "piscataquis-county-04442": {"city": "Piscataquis County", "rent": 1420, "zip": "04442"}, "piscataquis-county-04443": {"city": "Piscataquis County", "rent": 1250, "zip": "04443"}, "piscataquis-county-04462": {"city": "Piscataquis County", "rent": 1040, "zip": "04462"}, "piscataquis-county-04463": {"city": "Piscataquis County", "rent": 1520, "zip": "04463"}, "piscataquis-county-04464": {"city": "Piscataquis County", "rent": 1140, "zip": "04464"}, "piscataquis-county-04478": {"city": "Piscataquis County", "rent": 1270, "zip": "04478"}, "piscataquis-county-04479": {"city": "Piscataquis County", "rent": 1160, "zip": "04479"}, "piscataquis-county-04481": {"city": "Piscataquis County", "rent": 1450, "zip": "04481"}, "piscataquis-county-04485": {"city": "Piscataquis County", "rent": 1350, "zip": "04485"}, "piscataquis-county-04732": {"city": "Piscataquis County", "rent": 1440, "zip": "04732"}, "piscataquis-county-04930": {"city": "Piscataquis County", "rent": 1420, "zip": "04930"}, "piscataquis-county-04942": {"city": "Piscataquis County", "rent": 1290, "zip": "04942"}, "somerset-county-04478": {"city": "Somerset County", "rent": 1270, "zip": "04478"}, "somerset-county-04911": {"city": "Somerset County", "rent": 1220, "zip": "04911"}, "somerset-county-04912": {"city": "Somerset County", "rent": 1160, "zip": "04912"}, "somerset-county-04920": {"city": "Somerset County", "rent": 1090, "zip": "04920"}, "somerset-county-04923": {"city": "Somerset County", "rent": 1270, "zip": "04923"}, "somerset-county-04924": {"city": "Somerset County", "rent": 1670, "zip": "04924"}, "somerset-county-04925": {"city": "Somerset County", "rent": 1270, "zip": "04925"}, "somerset-county-04927": {"city": "Somerset County", "rent": 1550, "zip": "04927"}, "somerset-county-04929": {"city": "Somerset County", "rent": 1280, "zip": "04929"}, "somerset-county-04930": {"city": "Somerset County", "rent": 1420, "zip": "04930"}, "somerset-county-04937": {"city": "Somerset County", "rent": 1230, "zip": "04937"}, "somerset-county-04942": {"city": "Somerset County", "rent": 1290, "zip": "04942"}, "somerset-county-04943": {"city": "Somerset County", "rent": 1150, "zip": "04943"}, "somerset-county-04944": {"city": "Somerset County", "rent": 1270, "zip": "04944"}, "somerset-county-04945": {"city": "Somerset County", "rent": 1700, "zip": "04945"}, "somerset-county-04950": {"city": "Somerset County", "rent": 1520, "zip": "04950"}, "somerset-county-04954": {"city": "Somerset County", "rent": 1270, "zip": "04954"}, "somerset-county-04955": {"city": "Somerset County", "rent": 1520, "zip": "04955"}, "somerset-county-04957": {"city": "Somerset County", "rent": 1410, "zip": "04957"}, "somerset-county-04958": {"city": "Somerset County", "rent": 1250, "zip": "04958"}, "somerset-county-04961": {"city": "Somerset County", "rent": 1460, "zip": "04961"}, "somerset-county-04963": {"city": "Somerset County", "rent": 1420, "zip": "04963"}, "somerset-county-04965": {"city": "Somerset County", "rent": 1500, "zip": "04965"}, "somerset-county-04967": {"city": "Somerset County", "rent": 1440, "zip": "04967"}, "somerset-county-04971": {"city": "Somerset County", "rent": 1280, "zip": "04971"}, "somerset-county-04975": {"city": "Somerset County", "rent": 1230, "zip": "04975"}, "somerset-county-04976": {"city": "Somerset County", "rent": 1210, "zip": "04976"}, "somerset-county-04978": {"city": "Somerset County", "rent": 1230, "zip": "04978"}, "somerset-county-04979": {"city": "Somerset County", "rent": 1130, "zip": "04979"}, "somerset-county-04985": {"city": "Somerset County", "rent": 1270, "zip": "04985"}, "waldo-county-04354": {"city": "Waldo County", "rent": 1410, "zip": "04354"}, "waldo-county-04358": {"city": "Waldo County", "rent": 1450, "zip": "04358"}, "waldo-county-04438": {"city": "Waldo County", "rent": 1480, "zip": "04438"}, "waldo-county-04496": {"city": "Waldo County", "rent": 1290, "zip": "04496"}, "waldo-county-04848": {"city": "Waldo County", "rent": 1360, "zip": "04848"}, "waldo-county-04849": {"city": "Waldo County", "rent": 1900, "zip": "04849"}, "waldo-county-04850": {"city": "Waldo County", "rent": 1440, "zip": "04850"}, "waldo-county-04915": {"city": "Waldo County", "rent": 1460, "zip": "04915"}, "waldo-county-04921": {"city": "Waldo County", "rent": 1410, "zip": "04921"}, "waldo-county-04922": {"city": "Waldo County", "rent": 1410, "zip": "04922"}, "waldo-county-04932": {"city": "Waldo County", "rent": 1930, "zip": "04932"}, "waldo-county-04941": {"city": "Waldo County", "rent": 1120, "zip": "04941"}, "waldo-county-04949": {"city": "Waldo County", "rent": 1230, "zip": "04949"}, "waldo-county-04951": {"city": "Waldo County", "rent": 1680, "zip": "04951"}, "waldo-county-04952": {"city": "Waldo County", "rent": 1460, "zip": "04952"}, "waldo-county-04973": {"city": "Waldo County", "rent": 1330, "zip": "04973"}, "waldo-county-04974": {"city": "Waldo County", "rent": 1290, "zip": "04974"}, "waldo-county-04981": {"city": "Waldo County", "rent": 1660, "zip": "04981"}, "waldo-county-04986": {"city": "Waldo County", "rent": 1420, "zip": "04986"}, "waldo-county-04987": {"city": "Waldo County", "rent": 1880, "zip": "04987"}, "waldo-county-04988": {"city": "Waldo County", "rent": 1390, "zip": "04988"}, "washington-county-04413": {"city": "Washington County", "rent": 1250, "zip": "04413"}, "washington-county-04424": {"city": "Washington County", "rent": 970, "zip": "04424"}, "washington-county-04454": {"city": "Washington County", "rent": 1250, "zip": "04454"}, "washington-county-04490": {"city": "Washington County", "rent": 1250, "zip": "04490"}, "washington-county-04491": {"city": "Washington County", "rent": 1250, "zip": "04491"}, "washington-county-04492": {"city": "Washington County", "rent": 1320, "zip": "04492"}, "washington-county-04606": {"city": "Washington County", "rent": 1490, "zip": "04606"}, "washington-county-04611": {"city": "Washington County", "rent": 1090, "zip": "04611"}, "washington-county-04619": {"city": "Washington County", "rent": 1140, "zip": "04619"}, "washington-county-04622": {"city": "Washington County", "rent": 1090, "zip": "04622"}, "washington-county-04623": {"city": "Washington County", "rent": 1260, "zip": "04623"}, "washington-county-04626": {"city": "Washington County", "rent": 1250, "zip": "04626"}, "washington-county-04628": {"city": "Washington County", "rent": 1420, "zip": "04628"}, "washington-county-04630": {"city": "Washington County", "rent": 1760, "zip": "04630"}, "washington-county-04631": {"city": "Washington County", "rent": 1210, "zip": "04631"}, "washington-county-04637": {"city": "Washington County", "rent": 1250, "zip": "04637"}, "washington-county-04643": {"city": "Washington County", "rent": 1650, "zip": "04643"}, "washington-county-04648": {"city": "Washington County", "rent": 1560, "zip": "04648"}, "washington-county-04649": {"city": "Washington County", "rent": 1340, "zip": "04649"}, "washington-county-04652": {"city": "Washington County", "rent": 1370, "zip": "04652"}, "washington-county-04654": {"city": "Washington County", "rent": 1080, "zip": "04654"}, "washington-county-04655": {"city": "Washington County", "rent": 1480, "zip": "04655"}, "washington-county-04657": {"city": "Washington County", "rent": 1540, "zip": "04657"}, "washington-county-04658": {"city": "Washington County", "rent": 1220, "zip": "04658"}, "washington-county-04666": {"city": "Washington County", "rent": 1430, "zip": "04666"}, "washington-county-04667": {"city": "Washington County", "rent": 1550, "zip": "04667"}, "washington-county-04668": {"city": "Washington County", "rent": 1320, "zip": "04668"}, "washington-county-04671": {"city": "Washington County", "rent": 1880, "zip": "04671"}, "washington-county-04680": {"city": "Washington County", "rent": 1150, "zip": "04680"}, "washington-county-04686": {"city": "Washington County", "rent": 1320, "zip": "04686"}, "washington-county-04691": {"city": "Washington County", "rent": 1490, "zip": "04691"}, "washington-county-04694": {"city": "Washington County", "rent": 1580, "zip": "04694"}}