{"baltimore-columbia-towson-20701": {"city": "Baltimore-Columbia-Towson", "rent": 2700, "zip": "20701"}, "baltimore-columbia-towson-20711": {"city": "Baltimore-Columbia-Towson", "rent": 1770, "zip": "20711"}, "baltimore-columbia-towson-20714": {"city": "Baltimore-Columbia-Towson", "rent": 2110, "zip": "20714"}, "baltimore-columbia-towson-20723": {"city": "Baltimore-Columbia-Towson", "rent": 2320, "zip": "20723"}, "baltimore-columbia-towson-20724": {"city": "Baltimore-Columbia-Towson", "rent": 2610, "zip": "20724"}, "baltimore-columbia-towson-20733": {"city": "Baltimore-Columbia-Towson", "rent": 2330, "zip": "20733"}, "baltimore-columbia-towson-20736": {"city": "Baltimore-Columbia-Towson", "rent": 1780, "zip": "20736"}, "baltimore-columbia-towson-20751": {"city": "Baltimore-Columbia-Towson", "rent": 2330, "zip": "20751"}, "baltimore-columbia-towson-20754": {"city": "Baltimore-Columbia-Towson", "rent": 2530, "zip": "20754"}, "baltimore-columbia-towson-20755": {"city": "Baltimore-Columbia-Towson", "rent": 2530, "zip": "20755"}, "baltimore-columbia-towson-20758": {"city": "Baltimore-Columbia-Towson", "rent": 1990, "zip": "20758"}, "baltimore-columbia-towson-20759": {"city": "Baltimore-Columbia-Towson", "rent": 2570, "zip": "20759"}, "baltimore-columbia-towson-20763": {"city": "Baltimore-Columbia-Towson", "rent": 2300, "zip": "20763"}, "baltimore-columbia-towson-20764": {"city": "Baltimore-Columbia-Towson", "rent": 2680, "zip": "20764"}, "baltimore-columbia-towson-20765": {"city": "Baltimore-Columbia-Towson", "rent": 1770, "zip": "20765"}, "baltimore-columbia-towson-20776": {"city": "Baltimore-Columbia-Towson", "rent": 2140, "zip": "20776"}, "baltimore-columbia-towson-20777": {"city": "Baltimore-Columbia-Towson", "rent": 2720, "zip": "20777"}, "baltimore-columbia-towson-20778": {"city": "Baltimore-Columbia-Towson", "rent": 2420, "zip": "20778"}, "baltimore-columbia-towson-20779": {"city": "Baltimore-Columbia-Towson", "rent": 2050, "zip": "20779"}, "baltimore-columbia-towson-20794": {"city": "Baltimore-Columbia-Towson", "rent": 2300, "zip": "20794"}, "baltimore-columbia-towson-20833": {"city": "Baltimore-Columbia-Towson", "rent": 2530, "zip": "20833"}, "baltimore-columbia-towson-21001": {"city": "Baltimore-Columbia-Towson", "rent": 1770, "zip": "21001"}, "baltimore-columbia-towson-21005": {"city": "Baltimore-Columbia-Towson", "rent": 2280, "zip": "21005"}, "baltimore-columbia-towson-21009": {"city": "Baltimore-Columbia-Towson", "rent": 1900, "zip": "21009"}, "baltimore-columbia-towson-21010": {"city": "Baltimore-Columbia-Towson", "rent": 2790, "zip": "21010"}, "baltimore-columbia-towson-21012": {"city": "Baltimore-Columbia-Towson", "rent": 2490, "zip": "21012"}, "baltimore-columbia-towson-21013": {"city": "Baltimore-Columbia-Towson", "rent": 1770, "zip": "21013"}, "baltimore-columbia-towson-21014": {"city": "Baltimore-Columbia-Towson", "rent": 1790, "zip": "21014"}, "baltimore-columbia-towson-21015": {"city": "Baltimore-Columbia-Towson", "rent": 1990, "zip": "21015"}, "baltimore-columbia-towson-21017": {"city": "Baltimore-Columbia-Towson", "rent": 2070, "zip": "21017"}, "baltimore-columbia-towson-21020": {"city": "Baltimore-Columbia-Towson", "rent": 1800, "zip": "21020"}, "baltimore-columbia-towson-21022": {"city": "Baltimore-Columbia-Towson", "rent": 1800, "zip": "21022"}, "baltimore-columbia-towson-21023": {"city": "Baltimore-Columbia-Towson", "rent": 1860, "zip": "21023"}, "baltimore-columbia-towson-21028": {"city": "Baltimore-Columbia-Towson", "rent": 2080, "zip": "21028"}, "baltimore-columbia-towson-21029": {"city": "Baltimore-Columbia-Towson", "rent": 2790, "zip": "21029"}, "baltimore-columbia-towson-21030": {"city": "Baltimore-Columbia-Towson", "rent": 1960, "zip": "21030"}, "baltimore-columbia-towson-21031": {"city": "Baltimore-Columbia-Towson", "rent": 1960, "zip": "21031"}, "baltimore-columbia-towson-21032": {"city": "Baltimore-Columbia-Towson", "rent": 2620, "zip": "21032"}, "baltimore-columbia-towson-21034": {"city": "Baltimore-Columbia-Towson", "rent": 1770, "zip": "21034"}, "baltimore-columbia-towson-21035": {"city": "Baltimore-Columbia-Towson", "rent": 2590, "zip": "21035"}, "baltimore-columbia-towson-21036": {"city": "Baltimore-Columbia-Towson", "rent": 2690, "zip": "21036"}, "baltimore-columbia-towson-21037": {"city": "Baltimore-Columbia-Towson", "rent": 2520, "zip": "21037"}, "baltimore-columbia-towson-21040": {"city": "Baltimore-Columbia-Towson", "rent": 1770, "zip": "21040"}, "baltimore-columbia-towson-21041": {"city": "Baltimore-Columbia-Towson", "rent": 2350, "zip": "21041"}, "baltimore-columbia-towson-21042": {"city": "Baltimore-Columbia-Towson", "rent": 2480, "zip": "21042"}, "baltimore-columbia-towson-21043": {"city": "Baltimore-Columbia-Towson", "rent": 2280, "zip": "21043"}, "baltimore-columbia-towson-21044": {"city": "Baltimore-Columbia-Towson", "rent": 2480, "zip": "21044"}, "baltimore-columbia-towson-21045": {"city": "Baltimore-Columbia-Towson", "rent": 2050, "zip": "21045"}, "baltimore-columbia-towson-21046": {"city": "Baltimore-Columbia-Towson", "rent": 2490, "zip": "21046"}, "baltimore-columbia-towson-21047": {"city": "Baltimore-Columbia-Towson", "rent": 2790, "zip": "21047"}, "baltimore-columbia-towson-21048": {"city": "Baltimore-Columbia-Towson", "rent": 1770, "zip": "21048"}, "baltimore-columbia-towson-21050": {"city": "Baltimore-Columbia-Towson", "rent": 1960, "zip": "21050"}, "baltimore-columbia-towson-21051": {"city": "Baltimore-Columbia-Towson", "rent": 1770, "zip": "21051"}, "baltimore-columbia-towson-21052": {"city": "Baltimore-Columbia-Towson", "rent": 1770, "zip": "21052"}, "baltimore-columbia-towson-21053": {"city": "Baltimore-Columbia-Towson", "rent": 2660, "zip": "21053"}, "baltimore-columbia-towson-21054": {"city": "Baltimore-Columbia-Towson", "rent": 2790, "zip": "21054"}, "baltimore-columbia-towson-21056": {"city": "Baltimore-Columbia-Towson", "rent": 2350, "zip": "21056"}, "baltimore-columbia-towson-21057": {"city": "Baltimore-Columbia-Towson", "rent": 2110, "zip": "21057"}, "baltimore-columbia-towson-21060": {"city": "Baltimore-Columbia-Towson", "rent": 1920, "zip": "21060"}, "baltimore-columbia-towson-21061": {"city": "Baltimore-Columbia-Towson", "rent": 2070, "zip": "21061"}, "baltimore-columbia-towson-21062": {"city": "Baltimore-Columbia-Towson", "rent": 2330, "zip": "21062"}, "baltimore-columbia-towson-21071": {"city": "Baltimore-Columbia-Towson", "rent": 1780, "zip": "21071"}, "baltimore-columbia-towson-21074": {"city": "Baltimore-Columbia-Towson", "rent": 1770, "zip": "21074"}, "baltimore-columbia-towson-21075": {"city": "Baltimore-Columbia-Towson", "rent": 2390, "zip": "21075"}, "baltimore-columbia-towson-21076": {"city": "Baltimore-Columbia-Towson", "rent": 2700, "zip": "21076"}, "baltimore-columbia-towson-21077": {"city": "Baltimore-Columbia-Towson", "rent": 2700, "zip": "21077"}, "baltimore-columbia-towson-21078": {"city": "Baltimore-Columbia-Towson", "rent": 1770, "zip": "21078"}, "baltimore-columbia-towson-21082": {"city": "Baltimore-Columbia-Towson", "rent": 1800, "zip": "21082"}, "baltimore-columbia-towson-21084": {"city": "Baltimore-Columbia-Towson", "rent": 1840, "zip": "21084"}, "baltimore-columbia-towson-21085": {"city": "Baltimore-Columbia-Towson", "rent": 1810, "zip": "21085"}, "baltimore-columbia-towson-21087": {"city": "Baltimore-Columbia-Towson", "rent": 1930, "zip": "21087"}, "baltimore-columbia-towson-21090": {"city": "Baltimore-Columbia-Towson", "rent": 2170, "zip": "21090"}, "baltimore-columbia-towson-21092": {"city": "Baltimore-Columbia-Towson", "rent": 1800, "zip": "21092"}, "baltimore-columbia-towson-21093": {"city": "Baltimore-Columbia-Towson", "rent": 1830, "zip": "21093"}, "baltimore-columbia-towson-21094": {"city": "Baltimore-Columbia-Towson", "rent": 1800, "zip": "21094"}, "baltimore-columbia-towson-21102": {"city": "Baltimore-Columbia-Towson", "rent": 1770, "zip": "21102"}, "baltimore-columbia-towson-21104": {"city": "Baltimore-Columbia-Towson", "rent": 2360, "zip": "21104"}, "baltimore-columbia-towson-21105": {"city": "Baltimore-Columbia-Towson", "rent": 1800, "zip": "21105"}, "baltimore-columbia-towson-21108": {"city": "Baltimore-Columbia-Towson", "rent": 2310, "zip": "21108"}, "baltimore-columbia-towson-21111": {"city": "Baltimore-Columbia-Towson", "rent": 1870, "zip": "21111"}, "baltimore-columbia-towson-21113": {"city": "Baltimore-Columbia-Towson", "rent": 2570, "zip": "21113"}, "baltimore-columbia-towson-21114": {"city": "Baltimore-Columbia-Towson", "rent": 2440, "zip": "21114"}, "baltimore-columbia-towson-21117": {"city": "Baltimore-Columbia-Towson", "rent": 2190, "zip": "21117"}, "baltimore-columbia-towson-21120": {"city": "Baltimore-Columbia-Towson", "rent": 2160, "zip": "21120"}, "baltimore-columbia-towson-21122": {"city": "Baltimore-Columbia-Towson", "rent": 2350, "zip": "21122"}, "baltimore-columbia-towson-21123": {"city": "Baltimore-Columbia-Towson", "rent": 2330, "zip": "21123"}, "baltimore-columbia-towson-21128": {"city": "Baltimore-Columbia-Towson", "rent": 1950, "zip": "21128"}, "baltimore-columbia-towson-21130": {"city": "Baltimore-Columbia-Towson", "rent": 1950, "zip": "21130"}, "baltimore-columbia-towson-21131": {"city": "Baltimore-Columbia-Towson", "rent": 2660, "zip": "21131"}, "baltimore-columbia-towson-21132": {"city": "Baltimore-Columbia-Towson", "rent": 1770, "zip": "21132"}, "baltimore-columbia-towson-21133": {"city": "Baltimore-Columbia-Towson", "rent": 1820, "zip": "21133"}, "baltimore-columbia-towson-21136": {"city": "Baltimore-Columbia-Towson", "rent": 1780, "zip": "21136"}, "baltimore-columbia-towson-21139": {"city": "Baltimore-Columbia-Towson", "rent": 1800, "zip": "21139"}, "baltimore-columbia-towson-21140": {"city": "Baltimore-Columbia-Towson", "rent": 2500, "zip": "21140"}, "baltimore-columbia-towson-21144": {"city": "Baltimore-Columbia-Towson", "rent": 2240, "zip": "21144"}, "baltimore-columbia-towson-21146": {"city": "Baltimore-Columbia-Towson", "rent": 2250, "zip": "21146"}, "baltimore-columbia-towson-21150": {"city": "Baltimore-Columbia-Towson", "rent": 2350, "zip": "21150"}, "baltimore-columbia-towson-21152": {"city": "Baltimore-Columbia-Towson", "rent": 1930, "zip": "21152"}, "baltimore-columbia-towson-21153": {"city": "Baltimore-Columbia-Towson", "rent": 2060, "zip": "21153"}, "baltimore-columbia-towson-21154": {"city": "Baltimore-Columbia-Towson", "rent": 1770, "zip": "21154"}, "baltimore-columbia-towson-21155": {"city": "Baltimore-Columbia-Towson", "rent": 1770, "zip": "21155"}, "baltimore-columbia-towson-21156": {"city": "Baltimore-Columbia-Towson", "rent": 1800, "zip": "21156"}, "baltimore-columbia-towson-21157": {"city": "Baltimore-Columbia-Towson", "rent": 1770, "zip": "21157"}, "baltimore-columbia-towson-21158": {"city": "Baltimore-Columbia-Towson", "rent": 2010, "zip": "21158"}, "baltimore-columbia-towson-21160": {"city": "Baltimore-Columbia-Towson", "rent": 1770, "zip": "21160"}, "baltimore-columbia-towson-21161": {"city": "Baltimore-Columbia-Towson", "rent": 1770, "zip": "21161"}, "baltimore-columbia-towson-21162": {"city": "Baltimore-Columbia-Towson", "rent": 1870, "zip": "21162"}, "baltimore-columbia-towson-21163": {"city": "Baltimore-Columbia-Towson", "rent": 1770, "zip": "21163"}, "baltimore-columbia-towson-21201": {"city": "Baltimore-Columbia-Towson", "rent": 1950, "zip": "21201"}, "baltimore-columbia-towson-21202": {"city": "Baltimore-Columbia-Towson", "rent": 2190, "zip": "21202"}, "baltimore-columbia-towson-21203": {"city": "Baltimore-Columbia-Towson", "rent": 1770, "zip": "21203"}, "baltimore-columbia-towson-21204": {"city": "Baltimore-Columbia-Towson", "rent": 2200, "zip": "21204"}, "baltimore-columbia-towson-21205": {"city": "Baltimore-Columbia-Towson", "rent": 1770, "zip": "21205"}, "baltimore-columbia-towson-21206": {"city": "Baltimore-Columbia-Towson", "rent": 1770, "zip": "21206"}, "baltimore-columbia-towson-21207": {"city": "Baltimore-Columbia-Towson", "rent": 1770, "zip": "21207"}, "baltimore-columbia-towson-21208": {"city": "Baltimore-Columbia-Towson", "rent": 2100, "zip": "21208"}, "baltimore-columbia-towson-21209": {"city": "Baltimore-Columbia-Towson", "rent": 2060, "zip": "21209"}, "baltimore-columbia-towson-21210": {"city": "Baltimore-Columbia-Towson", "rent": 1770, "zip": "21210"}, "baltimore-columbia-towson-21211": {"city": "Baltimore-Columbia-Towson", "rent": 1900, "zip": "21211"}, "baltimore-columbia-towson-21212": {"city": "Baltimore-Columbia-Towson", "rent": 1770, "zip": "21212"}, "baltimore-columbia-towson-21213": {"city": "Baltimore-Columbia-Towson", "rent": 1770, "zip": "21213"}, "baltimore-columbia-towson-21214": {"city": "Baltimore-Columbia-Towson", "rent": 1770, "zip": "21214"}, "baltimore-columbia-towson-21215": {"city": "Baltimore-Columbia-Towson", "rent": 1770, "zip": "21215"}, "baltimore-columbia-towson-21216": {"city": "Baltimore-Columbia-Towson", "rent": 1770, "zip": "21216"}, "baltimore-columbia-towson-21217": {"city": "Baltimore-Columbia-Towson", "rent": 1770, "zip": "21217"}, "baltimore-columbia-towson-21218": {"city": "Baltimore-Columbia-Towson", "rent": 1770, "zip": "21218"}, "baltimore-columbia-towson-21219": {"city": "Baltimore-Columbia-Towson", "rent": 1770, "zip": "21219"}, "baltimore-columbia-towson-21220": {"city": "Baltimore-Columbia-Towson", "rent": 1870, "zip": "21220"}, "baltimore-columbia-towson-21221": {"city": "Baltimore-Columbia-Towson", "rent": 1770, "zip": "21221"}, "baltimore-columbia-towson-21222": {"city": "Baltimore-Columbia-Towson", "rent": 1770, "zip": "21222"}, "baltimore-columbia-towson-21223": {"city": "Baltimore-Columbia-Towson", "rent": 1770, "zip": "21223"}, "baltimore-columbia-towson-21224": {"city": "Baltimore-Columbia-Towson", "rent": 2150, "zip": "21224"}, "baltimore-columbia-towson-21225": {"city": "Baltimore-Columbia-Towson", "rent": 1770, "zip": "21225"}, "baltimore-columbia-towson-21226": {"city": "Baltimore-Columbia-Towson", "rent": 1770, "zip": "21226"}, "baltimore-columbia-towson-21227": {"city": "Baltimore-Columbia-Towson", "rent": 1770, "zip": "21227"}, "baltimore-columbia-towson-21228": {"city": "Baltimore-Columbia-Towson", "rent": 1770, "zip": "21228"}, "baltimore-columbia-towson-21229": {"city": "Baltimore-Columbia-Towson", "rent": 1770, "zip": "21229"}, "baltimore-columbia-towson-21230": {"city": "Baltimore-Columbia-Towson", "rent": 2150, "zip": "21230"}, "baltimore-columbia-towson-21231": {"city": "Baltimore-Columbia-Towson", "rent": 2200, "zip": "21231"}, "baltimore-columbia-towson-21233": {"city": "Baltimore-Columbia-Towson", "rent": 1770, "zip": "21233"}, "baltimore-columbia-towson-21234": {"city": "Baltimore-Columbia-Towson", "rent": 1830, "zip": "21234"}, "baltimore-columbia-towson-21236": {"city": "Baltimore-Columbia-Towson", "rent": 1830, "zip": "21236"}, "baltimore-columbia-towson-21237": {"city": "Baltimore-Columbia-Towson", "rent": 1770, "zip": "21237"}, "baltimore-columbia-towson-21239": {"city": "Baltimore-Columbia-Towson", "rent": 1770, "zip": "21239"}, "baltimore-columbia-towson-21240": {"city": "Baltimore-Columbia-Towson", "rent": 2330, "zip": "21240"}, "baltimore-columbia-towson-21244": {"city": "Baltimore-Columbia-Towson", "rent": 1870, "zip": "21244"}, "baltimore-columbia-towson-21250": {"city": "Baltimore-Columbia-Towson", "rent": 1770, "zip": "21250"}, "baltimore-columbia-towson-21251": {"city": "Baltimore-Columbia-Towson", "rent": 1770, "zip": "21251"}, "baltimore-columbia-towson-21252": {"city": "Baltimore-Columbia-Towson", "rent": 2180, "zip": "21252"}, "baltimore-columbia-towson-21263": {"city": "Baltimore-Columbia-Towson", "rent": 1770, "zip": "21263"}, "baltimore-columbia-towson-21270": {"city": "Baltimore-Columbia-Towson", "rent": 1770, "zip": "21270"}, "baltimore-columbia-towson-21282": {"city": "Baltimore-Columbia-Towson", "rent": 1800, "zip": "21282"}, "baltimore-columbia-towson-21284": {"city": "Baltimore-Columbia-Towson", "rent": 1800, "zip": "21284"}, "baltimore-columbia-towson-21285": {"city": "Baltimore-Columbia-Towson", "rent": 2020, "zip": "21285"}, "baltimore-columbia-towson-21286": {"city": "Baltimore-Columbia-Towson", "rent": 1900, "zip": "21286"}, "baltimore-columbia-towson-21287": {"city": "Baltimore-Columbia-Towson", "rent": 1770, "zip": "21287"}, "baltimore-columbia-towson-21401": {"city": "Baltimore-Columbia-Towson", "rent": 2480, "zip": "21401"}, "baltimore-columbia-towson-21402": {"city": "Baltimore-Columbia-Towson", "rent": 2790, "zip": "21402"}, "baltimore-columbia-towson-21403": {"city": "Baltimore-Columbia-Towson", "rent": 2230, "zip": "21403"}, "baltimore-columbia-towson-21404": {"city": "Baltimore-Columbia-Towson", "rent": 2330, "zip": "21404"}, "baltimore-columbia-towson-21405": {"city": "Baltimore-Columbia-Towson", "rent": 2520, "zip": "21405"}, "baltimore-columbia-towson-21409": {"city": "Baltimore-Columbia-Towson", "rent": 2620, "zip": "21409"}, "baltimore-columbia-towson-21412": {"city": "Baltimore-Columbia-Towson", "rent": 2330, "zip": "21412"}, "baltimore-columbia-towson-21607": {"city": "Baltimore-Columbia-Towson", "rent": 1770, "zip": "21607"}, "baltimore-columbia-towson-21617": {"city": "Baltimore-Columbia-Towson", "rent": 1770, "zip": "21617"}, "baltimore-columbia-towson-21619": {"city": "Baltimore-Columbia-Towson", "rent": 2200, "zip": "21619"}, "baltimore-columbia-towson-21620": {"city": "Baltimore-Columbia-Towson", "rent": 1770, "zip": "21620"}, "baltimore-columbia-towson-21623": {"city": "Baltimore-Columbia-Towson", "rent": 1770, "zip": "21623"}, "baltimore-columbia-towson-21628": {"city": "Baltimore-Columbia-Towson", "rent": 1770, "zip": "21628"}, "baltimore-columbia-towson-21638": {"city": "Baltimore-Columbia-Towson", "rent": 2080, "zip": "21638"}, "baltimore-columbia-towson-21640": {"city": "Baltimore-Columbia-Towson", "rent": 1840, "zip": "21640"}, "baltimore-columbia-towson-21644": {"city": "Baltimore-Columbia-Towson", "rent": 1770, "zip": "21644"}, "baltimore-columbia-towson-21649": {"city": "Baltimore-Columbia-Towson", "rent": 1990, "zip": "21649"}, "baltimore-columbia-towson-21651": {"city": "Baltimore-Columbia-Towson", "rent": 1770, "zip": "21651"}, "baltimore-columbia-towson-21657": {"city": "Baltimore-Columbia-Towson", "rent": 2040, "zip": "21657"}, "baltimore-columbia-towson-21658": {"city": "Baltimore-Columbia-Towson", "rent": 1970, "zip": "21658"}, "baltimore-columbia-towson-21666": {"city": "Baltimore-Columbia-Towson", "rent": 2270, "zip": "21666"}, "baltimore-columbia-towson-21668": {"city": "Baltimore-Columbia-Towson", "rent": 1770, "zip": "21668"}, "baltimore-columbia-towson-21679": {"city": "Baltimore-Columbia-Towson", "rent": 1800, "zip": "21679"}, "baltimore-columbia-towson-21723": {"city": "Baltimore-Columbia-Towson", "rent": 2350, "zip": "21723"}, "baltimore-columbia-towson-21737": {"city": "Baltimore-Columbia-Towson", "rent": 2350, "zip": "21737"}, "baltimore-columbia-towson-21738": {"city": "Baltimore-Columbia-Towson", "rent": 2350, "zip": "21738"}, "baltimore-columbia-towson-21757": {"city": "Baltimore-Columbia-Towson", "rent": 1480, "zip": "21757"}, "baltimore-columbia-towson-21765": {"city": "Baltimore-Columbia-Towson", "rent": 2350, "zip": "21765"}, "baltimore-columbia-towson-21771": {"city": "Baltimore-Columbia-Towson", "rent": 2220, "zip": "21771"}, "baltimore-columbia-towson-21776": {"city": "Baltimore-Columbia-Towson", "rent": 1540, "zip": "21776"}, "baltimore-columbia-towson-21784": {"city": "Baltimore-Columbia-Towson", "rent": 1970, "zip": "21784"}, "baltimore-columbia-towson-21787": {"city": "Baltimore-Columbia-Towson", "rent": 1170, "zip": "21787"}, "baltimore-columbia-towson-21791": {"city": "Baltimore-Columbia-Towson", "rent": 1490, "zip": "21791"}, "baltimore-columbia-towson-21794": {"city": "Baltimore-Columbia-Towson", "rent": 2350, "zip": "21794"}, "baltimore-columbia-towson-21797": {"city": "Baltimore-Columbia-Towson", "rent": 2150, "zip": "21797"}, "hagerstown-21711": {"city": "Hagerstown", "rent": 1160, "zip": "21711"}, "hagerstown-21713": {"city": "Hagerstown", "rent": 1500, "zip": "21713"}, "hagerstown-21715": {"city": "Hagerstown", "rent": 1920, "zip": "21715"}, "hagerstown-21719": {"city": "Hagerstown", "rent": 1320, "zip": "21719"}, "hagerstown-21720": {"city": "Hagerstown", "rent": 1260, "zip": "21720"}, "hagerstown-21722": {"city": "Hagerstown", "rent": 1120, "zip": "21722"}, "hagerstown-21733": {"city": "Hagerstown", "rent": 1380, "zip": "21733"}, "hagerstown-21734": {"city": "Hagerstown", "rent": 1120, "zip": "21734"}, "hagerstown-21740": {"city": "Hagerstown", "rent": 1240, "zip": "21740"}, "hagerstown-21742": {"city": "Hagerstown", "rent": 1440, "zip": "21742"}, "hagerstown-21746": {"city": "Hagerstown", "rent": 1240, "zip": "21746"}, "hagerstown-21750": {"city": "Hagerstown", "rent": 1150, "zip": "21750"}, "hagerstown-21755": {"city": "Hagerstown", "rent": 1340, "zip": "21755"}, "hagerstown-21756": {"city": "Hagerstown", "rent": 1600, "zip": "21756"}, "hagerstown-21758": {"city": "Hagerstown", "rent": 1920, "zip": "21758"}, "hagerstown-21767": {"city": "Hagerstown", "rent": 1120, "zip": "21767"}, "hagerstown-21769": {"city": "Hagerstown", "rent": 1770, "zip": "21769"}, "hagerstown-21779": {"city": "Hagerstown", "rent": 1660, "zip": "21779"}, "hagerstown-21780": {"city": "Hagerstown", "rent": 1340, "zip": "21780"}, "hagerstown-21781": {"city": "Hagerstown", "rent": 1240, "zip": "21781"}, "hagerstown-21782": {"city": "Hagerstown", "rent": 1310, "zip": "21782"}, "hagerstown-21783": {"city": "Hagerstown", "rent": 1300, "zip": "21783"}, "hagerstown-21795": {"city": "Hagerstown", "rent": 1270, "zip": "21795"}, "calvert-county-20610": {"city": "Calvert County", "rent": 1840, "zip": "20610"}, "calvert-county-20615": {"city": "Calvert County", "rent": 1860, "zip": "20615"}, "calvert-county-20629": {"city": "Calvert County", "rent": 2540, "zip": "20629"}, "calvert-county-20639": {"city": "Calvert County", "rent": 1520, "zip": "20639"}, "calvert-county-20657": {"city": "Calvert County", "rent": 1860, "zip": "20657"}, "calvert-county-20676": {"city": "Calvert County", "rent": 1970, "zip": "20676"}, "calvert-county-20678": {"city": "Calvert County", "rent": 1470, "zip": "20678"}, "calvert-county-20685": {"city": "Calvert County", "rent": 1860, "zip": "20685"}, "calvert-county-20688": {"city": "Calvert County", "rent": 3000, "zip": "20688"}, "calvert-county-20689": {"city": "Calvert County", "rent": 1790, "zip": "20689"}, "calvert-county-20714": {"city": "Calvert County", "rent": 2110, "zip": "20714"}, "calvert-county-20732": {"city": "Calvert County", "rent": 1980, "zip": "20732"}, "calvert-county-20736": {"city": "Calvert County", "rent": 1780, "zip": "20736"}, "calvert-county-20754": {"city": "Calvert County", "rent": 2530, "zip": "20754"}, "calvert-county-20758": {"city": "Calvert County", "rent": 1990, "zip": "20758"}, "st.-mary's-county-20606": {"city": "St. Mary's County", "rent": 1830, "zip": "20606"}, "st.-mary's-county-20609": {"city": "St. Mary's County", "rent": 1830, "zip": "20609"}, "st.-mary's-county-20618": {"city": "St. Mary's County", "rent": 1650, "zip": "20618"}, "st.-mary's-county-20619": {"city": "St. Mary's County", "rent": 2050, "zip": "20619"}, "st.-mary's-county-20620": {"city": "St. Mary's County", "rent": 1650, "zip": "20620"}, "st.-mary's-county-20621": {"city": "St. Mary's County", "rent": 1800, "zip": "20621"}, "st.-mary's-county-20622": {"city": "St. Mary's County", "rent": 1790, "zip": "20622"}, "st.-mary's-county-20624": {"city": "St. Mary's County", "rent": 1830, "zip": "20624"}, "st.-mary's-county-20626": {"city": "St. Mary's County", "rent": 1650, "zip": "20626"}, "st.-mary's-county-20627": {"city": "St. Mary's County", "rent": 1830, "zip": "20627"}, "st.-mary's-county-20628": {"city": "St. Mary's County", "rent": 1830, "zip": "20628"}, "st.-mary's-county-20630": {"city": "St. Mary's County", "rent": 1830, "zip": "20630"}, "st.-mary's-county-20634": {"city": "St. Mary's County", "rent": 1680, "zip": "20634"}, "st.-mary's-county-20636": {"city": "St. Mary's County", "rent": 1650, "zip": "20636"}, "st.-mary's-county-20650": {"city": "St. Mary's County", "rent": 1950, "zip": "20650"}, "st.-mary's-county-20653": {"city": "St. Mary's County", "rent": 1770, "zip": "20653"}, "st.-mary's-county-20656": {"city": "St. Mary's County", "rent": 1950, "zip": "20656"}, "st.-mary's-county-20659": {"city": "St. Mary's County", "rent": 1890, "zip": "20659"}, "st.-mary's-county-20660": {"city": "St. Mary's County", "rent": 1920, "zip": "20660"}, "st.-mary's-county-20667": {"city": "St. Mary's County", "rent": 1770, "zip": "20667"}, "st.-mary's-county-20670": {"city": "St. Mary's County", "rent": 2250, "zip": "20670"}, "st.-mary's-county-20674": {"city": "St. Mary's County", "rent": 1860, "zip": "20674"}, "st.-mary's-county-20680": {"city": "St. Mary's County", "rent": 1830, "zip": "20680"}, "st.-mary's-county-20684": {"city": "St. Mary's County", "rent": 1830, "zip": "20684"}, "st.-mary's-county-20686": {"city": "St. Mary's County", "rent": 1830, "zip": "20686"}, "st.-mary's-county-20687": {"city": "St. Mary's County", "rent": 1830, "zip": "20687"}, "st.-mary's-county-20690": {"city": "St. Mary's County", "rent": 1860, "zip": "20690"}, "st.-mary's-county-20692": {"city": "St. Mary's County", "rent": 1820, "zip": "20692"}, "salisbury-21801": {"city": "Salisbury", "rent": 1350, "zip": "21801"}, "salisbury-21802": {"city": "Salisbury", "rent": 1380, "zip": "21802"}, "salisbury-21803": {"city": "Salisbury", "rent": 1380, "zip": "21803"}, "salisbury-21804": {"city": "Salisbury", "rent": 1490, "zip": "21804"}, "salisbury-21810": {"city": "Salisbury", "rent": 1380, "zip": "21810"}, "salisbury-21814": {"city": "Salisbury", "rent": 1620, "zip": "21814"}, "salisbury-21822": {"city": "Salisbury", "rent": 1350, "zip": "21822"}, "salisbury-21826": {"city": "Salisbury", "rent": 1600, "zip": "21826"}, "salisbury-21830": {"city": "Salisbury", "rent": 1380, "zip": "21830"}, "salisbury-21837": {"city": "Salisbury", "rent": 1410, "zip": "21837"}, "salisbury-21840": {"city": "Salisbury", "rent": 1380, "zip": "21840"}, "salisbury-21849": {"city": "Salisbury", "rent": 1350, "zip": "21849"}, "salisbury-21850": {"city": "Salisbury", "rent": 1380, "zip": "21850"}, "salisbury-21856": {"city": "Salisbury", "rent": 1400, "zip": "21856"}, "salisbury-21861": {"city": "Salisbury", "rent": 1350, "zip": "21861"}, "salisbury-21865": {"city": "Salisbury", "rent": 1350, "zip": "21865"}, "salisbury-21874": {"city": "Salisbury", "rent": 1570, "zip": "21874"}, "salisbury-21875": {"city": "Salisbury", "rent": 1490, "zip": "21875"}, "somerset-county-21817": {"city": "Somerset County", "rent": 1130, "zip": "21817"}, "somerset-county-21821": {"city": "Somerset County", "rent": 1440, "zip": "21821"}, "somerset-county-21822": {"city": "Somerset County", "rent": 1350, "zip": "21822"}, "somerset-county-21824": {"city": "Somerset County", "rent": 1170, "zip": "21824"}, "somerset-county-21838": {"city": "Somerset County", "rent": 1730, "zip": "21838"}, "somerset-county-21851": {"city": "Somerset County", "rent": 1150, "zip": "21851"}, "somerset-county-21853": {"city": "Somerset County", "rent": 1170, "zip": "21853"}, "somerset-county-21866": {"city": "Somerset County", "rent": 1170, "zip": "21866"}, "somerset-county-21867": {"city": "Somerset County", "rent": 1170, "zip": "21867"}, "somerset-county-21871": {"city": "Somerset County", "rent": 1350, "zip": "21871"}, "somerset-county-21890": {"city": "Somerset County", "rent": 1170, "zip": "21890"}, "allegany-county-21501": {"city": "Allegany County", "rent": 980, "zip": "21501"}, "allegany-county-21502": {"city": "Allegany County", "rent": 1010, "zip": "21502"}, "allegany-county-21503": {"city": "Allegany County", "rent": 980, "zip": "21503"}, "allegany-county-21505": {"city": "Allegany County", "rent": 980, "zip": "21505"}, "allegany-county-21521": {"city": "Allegany County", "rent": 1080, "zip": "21521"}, "allegany-county-21524": {"city": "Allegany County", "rent": 1020, "zip": "21524"}, "allegany-county-21528": {"city": "Allegany County", "rent": 980, "zip": "21528"}, "allegany-county-21529": {"city": "Allegany County", "rent": 1130, "zip": "21529"}, "allegany-county-21530": {"city": "Allegany County", "rent": 1420, "zip": "21530"}, "allegany-county-21532": {"city": "Allegany County", "rent": 1030, "zip": "21532"}, "allegany-county-21539": {"city": "Allegany County", "rent": 970, "zip": "21539"}, "allegany-county-21540": {"city": "Allegany County", "rent": 970, "zip": "21540"}, "allegany-county-21542": {"city": "Allegany County", "rent": 970, "zip": "21542"}, "allegany-county-21543": {"city": "Allegany County", "rent": 1030, "zip": "21543"}, "allegany-county-21545": {"city": "Allegany County", "rent": 970, "zip": "21545"}, "allegany-county-21555": {"city": "Allegany County", "rent": 1110, "zip": "21555"}, "allegany-county-21557": {"city": "Allegany County", "rent": 1040, "zip": "21557"}, "allegany-county-21560": {"city": "Allegany County", "rent": 980, "zip": "21560"}, "allegany-county-21562": {"city": "Allegany County", "rent": 970, "zip": "21562"}, "allegany-county-21750": {"city": "Allegany County", "rent": 1150, "zip": "21750"}, "allegany-county-21766": {"city": "Allegany County", "rent": 970, "zip": "21766"}, "caroline-county-21607": {"city": "Caroline County", "rent": 1770, "zip": "21607"}, "caroline-county-21629": {"city": "Caroline County", "rent": 1400, "zip": "21629"}, "caroline-county-21632": {"city": "Caroline County", "rent": 1210, "zip": "21632"}, "caroline-county-21636": {"city": "Caroline County", "rent": 1530, "zip": "21636"}, "caroline-county-21639": {"city": "Caroline County", "rent": 1310, "zip": "21639"}, "caroline-county-21640": {"city": "Caroline County", "rent": 1840, "zip": "21640"}, "caroline-county-21641": {"city": "Caroline County", "rent": 1170, "zip": "21641"}, "caroline-county-21643": {"city": "Caroline County", "rent": 1240, "zip": "21643"}, "caroline-county-21649": {"city": "Caroline County", "rent": 1990, "zip": "21649"}, "caroline-county-21655": {"city": "Caroline County", "rent": 1430, "zip": "21655"}, "caroline-county-21657": {"city": "Caroline County", "rent": 2040, "zip": "21657"}, "caroline-county-21660": {"city": "Caroline County", "rent": 1250, "zip": "21660"}, "dorchester-county-19973": {"city": "Dorchester County", "rent": 1260, "zip": "19973"}, "dorchester-county-21613": {"city": "Dorchester County", "rent": 1120, "zip": "21613"}, "dorchester-county-21622": {"city": "Dorchester County", "rent": 1140, "zip": "21622"}, "dorchester-county-21626": {"city": "Dorchester County", "rent": 1140, "zip": "21626"}, "dorchester-county-21627": {"city": "Dorchester County", "rent": 1140, "zip": "21627"}, "dorchester-county-21631": {"city": "Dorchester County", "rent": 1720, "zip": "21631"}, "dorchester-county-21632": {"city": "Dorchester County", "rent": 1210, "zip": "21632"}, "dorchester-county-21634": {"city": "Dorchester County", "rent": 1140, "zip": "21634"}, "dorchester-county-21643": {"city": "Dorchester County", "rent": 1240, "zip": "21643"}, "dorchester-county-21648": {"city": "Dorchester County", "rent": 1490, "zip": "21648"}, "dorchester-county-21655": {"city": "Dorchester County", "rent": 1430, "zip": "21655"}, "dorchester-county-21659": {"city": "Dorchester County", "rent": 1040, "zip": "21659"}, "dorchester-county-21664": {"city": "Dorchester County", "rent": 1310, "zip": "21664"}, "dorchester-county-21669": {"city": "Dorchester County", "rent": 1140, "zip": "21669"}, "dorchester-county-21672": {"city": "Dorchester County", "rent": 1140, "zip": "21672"}, "dorchester-county-21675": {"city": "Dorchester County", "rent": 1140, "zip": "21675"}, "dorchester-county-21677": {"city": "Dorchester County", "rent": 1680, "zip": "21677"}, "dorchester-county-21835": {"city": "Dorchester County", "rent": 1330, "zip": "21835"}, "dorchester-county-21869": {"city": "Dorchester County", "rent": 1660, "zip": "21869"}, "garrett-county-21520": {"city": "Garrett County", "rent": 1160, "zip": "21520"}, "garrett-county-21521": {"city": "Garrett County", "rent": 1080, "zip": "21521"}, "garrett-county-21523": {"city": "Garrett County", "rent": 970, "zip": "21523"}, "garrett-county-21531": {"city": "Garrett County", "rent": 970, "zip": "21531"}, "garrett-county-21532": {"city": "Garrett County", "rent": 1030, "zip": "21532"}, "garrett-county-21536": {"city": "Garrett County", "rent": 970, "zip": "21536"}, "garrett-county-21538": {"city": "Garrett County", "rent": 970, "zip": "21538"}, "garrett-county-21539": {"city": "Garrett County", "rent": 970, "zip": "21539"}, "garrett-county-21541": {"city": "Garrett County", "rent": 1040, "zip": "21541"}, "garrett-county-21550": {"city": "Garrett County", "rent": 1010, "zip": "21550"}, "garrett-county-21561": {"city": "Garrett County", "rent": 990, "zip": "21561"}, "garrett-county-21562": {"city": "Garrett County", "rent": 970, "zip": "21562"}, "kent-county-21610": {"city": "Kent County", "rent": 1150, "zip": "21610"}, "kent-county-21620": {"city": "Kent County", "rent": 1770, "zip": "21620"}, "kent-county-21635": {"city": "Kent County", "rent": 1710, "zip": "21635"}, "kent-county-21645": {"city": "Kent County", "rent": 1550, "zip": "21645"}, "kent-county-21650": {"city": "Kent County", "rent": 1350, "zip": "21650"}, "kent-county-21651": {"city": "Kent County", "rent": 1770, "zip": "21651"}, "kent-county-21661": {"city": "Kent County", "rent": 1360, "zip": "21661"}, "kent-county-21667": {"city": "Kent County", "rent": 1250, "zip": "21667"}, "kent-county-21678": {"city": "Kent County", "rent": 1240, "zip": "21678"}, "kent-county-21930": {"city": "Kent County", "rent": 2150, "zip": "21930"}, "talbot-county-21601": {"city": "Talbot County", "rent": 1380, "zip": "21601"}, "talbot-county-21612": {"city": "Talbot County", "rent": 1410, "zip": "21612"}, "talbot-county-21624": {"city": "Talbot County", "rent": 1410, "zip": "21624"}, "talbot-county-21625": {"city": "Talbot County", "rent": 1690, "zip": "21625"}, "talbot-county-21647": {"city": "Talbot County", "rent": 1410, "zip": "21647"}, "talbot-county-21652": {"city": "Talbot County", "rent": 1410, "zip": "21652"}, "talbot-county-21653": {"city": "Talbot County", "rent": 1420, "zip": "21653"}, "talbot-county-21654": {"city": "Talbot County", "rent": 1420, "zip": "21654"}, "talbot-county-21657": {"city": "Talbot County", "rent": 2040, "zip": "21657"}, "talbot-county-21662": {"city": "Talbot County", "rent": 1960, "zip": "21662"}, "talbot-county-21663": {"city": "Talbot County", "rent": 1260, "zip": "21663"}, "talbot-county-21665": {"city": "Talbot County", "rent": 1410, "zip": "21665"}, "talbot-county-21671": {"city": "Talbot County", "rent": 1410, "zip": "21671"}, "talbot-county-21673": {"city": "Talbot County", "rent": 1440, "zip": "21673"}, "talbot-county-21676": {"city": "Talbot County", "rent": 1410, "zip": "21676"}, "talbot-county-21679": {"city": "Talbot County", "rent": 1800, "zip": "21679"}, "worcester-county-21804": {"city": "Worcester County", "rent": 1490, "zip": "21804"}, "worcester-county-21811": {"city": "Worcester County", "rent": 1410, "zip": "21811"}, "worcester-county-21813": {"city": "Worcester County", "rent": 1260, "zip": "21813"}, "worcester-county-21822": {"city": "Worcester County", "rent": 1350, "zip": "21822"}, "worcester-county-21829": {"city": "Worcester County", "rent": 1150, "zip": "21829"}, "worcester-county-21841": {"city": "Worcester County", "rent": 1530, "zip": "21841"}, "worcester-county-21842": {"city": "Worcester County", "rent": 1210, "zip": "21842"}, "worcester-county-21843": {"city": "Worcester County", "rent": 1190, "zip": "21843"}, "worcester-county-21851": {"city": "Worcester County", "rent": 1150, "zip": "21851"}, "worcester-county-21862": {"city": "Worcester County", "rent": 1340, "zip": "21862"}, "worcester-county-21863": {"city": "Worcester County", "rent": 1150, "zip": "21863"}, "worcester-county-21864": {"city": "Worcester County", "rent": 1150, "zip": "21864"}, "worcester-county-21872": {"city": "Worcester County", "rent": 1390, "zip": "21872"}}