{"ann-arbor-48103": {"city": "Ann Arbor", "rent": 2080, "zip": "48103"}, "ann-arbor-48104": {"city": "Ann Arbor", "rent": 1970, "zip": "48104"}, "ann-arbor-48105": {"city": "Ann Arbor", "rent": 1920, "zip": "48105"}, "ann-arbor-48106": {"city": "Ann Arbor", "rent": 1660, "zip": "48106"}, "ann-arbor-48107": {"city": "Ann Arbor", "rent": 1660, "zip": "48107"}, "ann-arbor-48108": {"city": "Ann Arbor", "rent": 1570, "zip": "48108"}, "ann-arbor-48109": {"city": "Ann Arbor", "rent": 1610, "zip": "48109"}, "ann-arbor-48111": {"city": "Ann Arbor", "rent": 1470, "zip": "48111"}, "ann-arbor-48113": {"city": "Ann Arbor", "rent": 1660, "zip": "48113"}, "ann-arbor-48118": {"city": "Ann Arbor", "rent": 1960, "zip": "48118"}, "ann-arbor-48130": {"city": "Ann Arbor", "rent": 1880, "zip": "48130"}, "ann-arbor-48137": {"city": "Ann Arbor", "rent": 1620, "zip": "48137"}, "ann-arbor-48158": {"city": "Ann Arbor", "rent": 1450, "zip": "48158"}, "ann-arbor-48160": {"city": "Ann Arbor", "rent": 1500, "zip": "48160"}, "ann-arbor-48167": {"city": "Ann Arbor", "rent": 1860, "zip": "48167"}, "ann-arbor-48168": {"city": "Ann Arbor", "rent": 1620, "zip": "48168"}, "ann-arbor-48169": {"city": "Ann Arbor", "rent": 1600, "zip": "48169"}, "ann-arbor-48170": {"city": "Ann Arbor", "rent": 1460, "zip": "48170"}, "ann-arbor-48175": {"city": "Ann Arbor", "rent": 1660, "zip": "48175"}, "ann-arbor-48176": {"city": "Ann Arbor", "rent": 1450, "zip": "48176"}, "ann-arbor-48178": {"city": "Ann Arbor", "rent": 1450, "zip": "48178"}, "ann-arbor-48187": {"city": "Ann Arbor", "rent": 1720, "zip": "48187"}, "ann-arbor-48189": {"city": "Ann Arbor", "rent": 1460, "zip": "48189"}, "ann-arbor-48190": {"city": "Ann Arbor", "rent": 1580, "zip": "48190"}, "ann-arbor-48191": {"city": "Ann Arbor", "rent": 1750, "zip": "48191"}, "ann-arbor-48197": {"city": "Ann Arbor", "rent": 1480, "zip": "48197"}, "ann-arbor-48198": {"city": "Ann Arbor", "rent": 1340, "zip": "48198"}, "ann-arbor-49229": {"city": "Ann Arbor", "rent": 1450, "zip": "49229"}, "ann-arbor-49230": {"city": "Ann Arbor", "rent": 1450, "zip": "49230"}, "ann-arbor-49236": {"city": "Ann Arbor", "rent": 1450, "zip": "49236"}, "ann-arbor-49240": {"city": "Ann Arbor", "rent": 1460, "zip": "49240"}, "ann-arbor-49285": {"city": "Ann Arbor", "rent": 1450, "zip": "49285"}, "ann-arbor-49287": {"city": "Ann Arbor", "rent": 1450, "zip": "49287"}, "battle-creek-48813": {"city": "Battle Creek", "rent": 1100, "zip": "48813"}, "battle-creek-49011": {"city": "Battle Creek", "rent": 1110, "zip": "49011"}, "battle-creek-49012": {"city": "Battle Creek", "rent": 1170, "zip": "49012"}, "battle-creek-49014": {"city": "Battle Creek", "rent": 1250, "zip": "49014"}, "battle-creek-49015": {"city": "Battle Creek", "rent": 1210, "zip": "49015"}, "battle-creek-49016": {"city": "Battle Creek", "rent": 1180, "zip": "49016"}, "battle-creek-49017": {"city": "Battle Creek", "rent": 1150, "zip": "49017"}, "battle-creek-49021": {"city": "Battle Creek", "rent": 1260, "zip": "49021"}, "battle-creek-49029": {"city": "Battle Creek", "rent": 990, "zip": "49029"}, "battle-creek-49033": {"city": "Battle Creek", "rent": 1170, "zip": "49033"}, "battle-creek-49034": {"city": "Battle Creek", "rent": 1070, "zip": "49034"}, "battle-creek-49037": {"city": "Battle Creek", "rent": 1090, "zip": "49037"}, "battle-creek-49051": {"city": "Battle Creek", "rent": 1150, "zip": "49051"}, "battle-creek-49052": {"city": "Battle Creek", "rent": 1070, "zip": "49052"}, "battle-creek-49068": {"city": "Battle Creek", "rent": 1150, "zip": "49068"}, "battle-creek-49076": {"city": "Battle Creek", "rent": 1090, "zip": "49076"}, "battle-creek-49092": {"city": "Battle Creek", "rent": 1380, "zip": "49092"}, "battle-creek-49094": {"city": "Battle Creek", "rent": 990, "zip": "49094"}, "battle-creek-49224": {"city": "Battle Creek", "rent": 1060, "zip": "49224"}, "battle-creek-49237": {"city": "Battle Creek", "rent": 1040, "zip": "49237"}, "battle-creek-49245": {"city": "Battle Creek", "rent": 1130, "zip": "49245"}, "battle-creek-49252": {"city": "Battle Creek", "rent": 1000, "zip": "49252"}, "battle-creek-49284": {"city": "Battle Creek", "rent": 1170, "zip": "49284"}, "bay-city-48604": {"city": "Bay City", "rent": 1190, "zip": "48604"}, "bay-city-48611": {"city": "Bay City", "rent": 1020, "zip": "48611"}, "bay-city-48613": {"city": "Bay City", "rent": 1300, "zip": "48613"}, "bay-city-48623": {"city": "Bay City", "rent": 1330, "zip": "48623"}, "bay-city-48631": {"city": "Bay City", "rent": 990, "zip": "48631"}, "bay-city-48634": {"city": "Bay City", "rent": 1030, "zip": "48634"}, "bay-city-48642": {"city": "Bay City", "rent": 1340, "zip": "48642"}, "bay-city-48650": {"city": "Bay City", "rent": 1010, "zip": "48650"}, "bay-city-48652": {"city": "Bay City", "rent": 1330, "zip": "48652"}, "bay-city-48658": {"city": "Bay City", "rent": 970, "zip": "48658"}, "bay-city-48659": {"city": "Bay City", "rent": 1050, "zip": "48659"}, "bay-city-48706": {"city": "Bay City", "rent": 1070, "zip": "48706"}, "bay-city-48707": {"city": "Bay City", "rent": 1030, "zip": "48707"}, "bay-city-48708": {"city": "Bay City", "rent": 970, "zip": "48708"}, "bay-city-48710": {"city": "Bay City", "rent": 1030, "zip": "48710"}, "bay-city-48732": {"city": "Bay City", "rent": 990, "zip": "48732"}, "bay-city-48747": {"city": "Bay City", "rent": 1130, "zip": "48747"}, "bay-city-48757": {"city": "Bay City", "rent": 1030, "zip": "48757"}, "detroit-warren-livonia-48001": {"city": "Detroit-Warren-Livonia", "rent": 1150, "zip": "48001"}, "detroit-warren-livonia-48002": {"city": "Detroit-Warren-Livonia", "rent": 1440, "zip": "48002"}, "detroit-warren-livonia-48003": {"city": "Detroit-Warren-Livonia", "rent": 1240, "zip": "48003"}, "detroit-warren-livonia-48004": {"city": "Detroit-Warren-Livonia", "rent": 1240, "zip": "48004"}, "detroit-warren-livonia-48005": {"city": "Detroit-Warren-Livonia", "rent": 1330, "zip": "48005"}, "detroit-warren-livonia-48006": {"city": "Detroit-Warren-Livonia", "rent": 1240, "zip": "48006"}, "detroit-warren-livonia-48009": {"city": "Detroit-Warren-Livonia", "rent": 2120, "zip": "48009"}, "detroit-warren-livonia-48012": {"city": "Detroit-Warren-Livonia", "rent": 1580, "zip": "48012"}, "detroit-warren-livonia-48014": {"city": "Detroit-Warren-Livonia", "rent": 1060, "zip": "48014"}, "detroit-warren-livonia-48015": {"city": "Detroit-Warren-Livonia", "rent": 1060, "zip": "48015"}, "detroit-warren-livonia-48017": {"city": "Detroit-Warren-Livonia", "rent": 1410, "zip": "48017"}, "detroit-warren-livonia-48021": {"city": "Detroit-Warren-Livonia", "rent": 1580, "zip": "48021"}, "detroit-warren-livonia-48022": {"city": "Detroit-Warren-Livonia", "rent": 1160, "zip": "48022"}, "detroit-warren-livonia-48023": {"city": "Detroit-Warren-Livonia", "rent": 1520, "zip": "48023"}, "detroit-warren-livonia-48025": {"city": "Detroit-Warren-Livonia", "rent": 2120, "zip": "48025"}, "detroit-warren-livonia-48026": {"city": "Detroit-Warren-Livonia", "rent": 1060, "zip": "48026"}, "detroit-warren-livonia-48027": {"city": "Detroit-Warren-Livonia", "rent": 1140, "zip": "48027"}, "detroit-warren-livonia-48028": {"city": "Detroit-Warren-Livonia", "rent": 1150, "zip": "48028"}, "detroit-warren-livonia-48030": {"city": "Detroit-Warren-Livonia", "rent": 1500, "zip": "48030"}, "detroit-warren-livonia-48032": {"city": "Detroit-Warren-Livonia", "rent": 1200, "zip": "48032"}, "detroit-warren-livonia-48033": {"city": "Detroit-Warren-Livonia", "rent": 1540, "zip": "48033"}, "detroit-warren-livonia-48034": {"city": "Detroit-Warren-Livonia", "rent": 1620, "zip": "48034"}, "detroit-warren-livonia-48035": {"city": "Detroit-Warren-Livonia", "rent": 1360, "zip": "48035"}, "detroit-warren-livonia-48036": {"city": "Detroit-Warren-Livonia", "rent": 1220, "zip": "48036"}, "detroit-warren-livonia-48037": {"city": "Detroit-Warren-Livonia", "rent": 1580, "zip": "48037"}, "detroit-warren-livonia-48038": {"city": "Detroit-Warren-Livonia", "rent": 1650, "zip": "48038"}, "detroit-warren-livonia-48039": {"city": "Detroit-Warren-Livonia", "rent": 1100, "zip": "48039"}, "detroit-warren-livonia-48040": {"city": "Detroit-Warren-Livonia", "rent": 1170, "zip": "48040"}, "detroit-warren-livonia-48041": {"city": "Detroit-Warren-Livonia", "rent": 1060, "zip": "48041"}, "detroit-warren-livonia-48042": {"city": "Detroit-Warren-Livonia", "rent": 1760, "zip": "48042"}, "detroit-warren-livonia-48043": {"city": "Detroit-Warren-Livonia", "rent": 1130, "zip": "48043"}, "detroit-warren-livonia-48044": {"city": "Detroit-Warren-Livonia", "rent": 1610, "zip": "48044"}, "detroit-warren-livonia-48045": {"city": "Detroit-Warren-Livonia", "rent": 1280, "zip": "48045"}, "detroit-warren-livonia-48046": {"city": "Detroit-Warren-Livonia", "rent": 1410, "zip": "48046"}, "detroit-warren-livonia-48047": {"city": "Detroit-Warren-Livonia", "rent": 1300, "zip": "48047"}, "detroit-warren-livonia-48048": {"city": "Detroit-Warren-Livonia", "rent": 1570, "zip": "48048"}, "detroit-warren-livonia-48049": {"city": "Detroit-Warren-Livonia", "rent": 1290, "zip": "48049"}, "detroit-warren-livonia-48050": {"city": "Detroit-Warren-Livonia", "rent": 1460, "zip": "48050"}, "detroit-warren-livonia-48051": {"city": "Detroit-Warren-Livonia", "rent": 1320, "zip": "48051"}, "detroit-warren-livonia-48054": {"city": "Detroit-Warren-Livonia", "rent": 1330, "zip": "48054"}, "detroit-warren-livonia-48059": {"city": "Detroit-Warren-Livonia", "rent": 1190, "zip": "48059"}, "detroit-warren-livonia-48060": {"city": "Detroit-Warren-Livonia", "rent": 1170, "zip": "48060"}, "detroit-warren-livonia-48061": {"city": "Detroit-Warren-Livonia", "rent": 1240, "zip": "48061"}, "detroit-warren-livonia-48062": {"city": "Detroit-Warren-Livonia", "rent": 1060, "zip": "48062"}, "detroit-warren-livonia-48063": {"city": "Detroit-Warren-Livonia", "rent": 1320, "zip": "48063"}, "detroit-warren-livonia-48064": {"city": "Detroit-Warren-Livonia", "rent": 1060, "zip": "48064"}, "detroit-warren-livonia-48065": {"city": "Detroit-Warren-Livonia", "rent": 1300, "zip": "48065"}, "detroit-warren-livonia-48066": {"city": "Detroit-Warren-Livonia", "rent": 1430, "zip": "48066"}, "detroit-warren-livonia-48067": {"city": "Detroit-Warren-Livonia", "rent": 1770, "zip": "48067"}, "detroit-warren-livonia-48068": {"city": "Detroit-Warren-Livonia", "rent": 1580, "zip": "48068"}, "detroit-warren-livonia-48069": {"city": "Detroit-Warren-Livonia", "rent": 2120, "zip": "48069"}, "detroit-warren-livonia-48070": {"city": "Detroit-Warren-Livonia", "rent": 2120, "zip": "48070"}, "detroit-warren-livonia-48071": {"city": "Detroit-Warren-Livonia", "rent": 1380, "zip": "48071"}, "detroit-warren-livonia-48072": {"city": "Detroit-Warren-Livonia", "rent": 1700, "zip": "48072"}, "detroit-warren-livonia-48073": {"city": "Detroit-Warren-Livonia", "rent": 1620, "zip": "48073"}, "detroit-warren-livonia-48074": {"city": "Detroit-Warren-Livonia", "rent": 1370, "zip": "48074"}, "detroit-warren-livonia-48075": {"city": "Detroit-Warren-Livonia", "rent": 1600, "zip": "48075"}, "detroit-warren-livonia-48076": {"city": "Detroit-Warren-Livonia", "rent": 1700, "zip": "48076"}, "detroit-warren-livonia-48079": {"city": "Detroit-Warren-Livonia", "rent": 1400, "zip": "48079"}, "detroit-warren-livonia-48080": {"city": "Detroit-Warren-Livonia", "rent": 1360, "zip": "48080"}, "detroit-warren-livonia-48081": {"city": "Detroit-Warren-Livonia", "rent": 1460, "zip": "48081"}, "detroit-warren-livonia-48082": {"city": "Detroit-Warren-Livonia", "rent": 1550, "zip": "48082"}, "detroit-warren-livonia-48083": {"city": "Detroit-Warren-Livonia", "rent": 1750, "zip": "48083"}, "detroit-warren-livonia-48084": {"city": "Detroit-Warren-Livonia", "rent": 2000, "zip": "48084"}, "detroit-warren-livonia-48085": {"city": "Detroit-Warren-Livonia", "rent": 2120, "zip": "48085"}, "detroit-warren-livonia-48088": {"city": "Detroit-Warren-Livonia", "rent": 1350, "zip": "48088"}, "detroit-warren-livonia-48089": {"city": "Detroit-Warren-Livonia", "rent": 1390, "zip": "48089"}, "detroit-warren-livonia-48090": {"city": "Detroit-Warren-Livonia", "rent": 1410, "zip": "48090"}, "detroit-warren-livonia-48091": {"city": "Detroit-Warren-Livonia", "rent": 1470, "zip": "48091"}, "detroit-warren-livonia-48092": {"city": "Detroit-Warren-Livonia", "rent": 1460, "zip": "48092"}, "detroit-warren-livonia-48093": {"city": "Detroit-Warren-Livonia", "rent": 1330, "zip": "48093"}, "detroit-warren-livonia-48094": {"city": "Detroit-Warren-Livonia", "rent": 1550, "zip": "48094"}, "detroit-warren-livonia-48095": {"city": "Detroit-Warren-Livonia", "rent": 1060, "zip": "48095"}, "detroit-warren-livonia-48096": {"city": "Detroit-Warren-Livonia", "rent": 1480, "zip": "48096"}, "detroit-warren-livonia-48097": {"city": "Detroit-Warren-Livonia", "rent": 1060, "zip": "48097"}, "detroit-warren-livonia-48098": {"city": "Detroit-Warren-Livonia", "rent": 1940, "zip": "48098"}, "detroit-warren-livonia-48099": {"city": "Detroit-Warren-Livonia", "rent": 1580, "zip": "48099"}, "detroit-warren-livonia-48101": {"city": "Detroit-Warren-Livonia", "rent": 1400, "zip": "48101"}, "detroit-warren-livonia-48111": {"city": "Detroit-Warren-Livonia", "rent": 1470, "zip": "48111"}, "detroit-warren-livonia-48112": {"city": "Detroit-Warren-Livonia", "rent": 1340, "zip": "48112"}, "detroit-warren-livonia-48117": {"city": "Detroit-Warren-Livonia", "rent": 1340, "zip": "48117"}, "detroit-warren-livonia-48120": {"city": "Detroit-Warren-Livonia", "rent": 1800, "zip": "48120"}, "detroit-warren-livonia-48121": {"city": "Detroit-Warren-Livonia", "rent": 1340, "zip": "48121"}, "detroit-warren-livonia-48122": {"city": "Detroit-Warren-Livonia", "rent": 1400, "zip": "48122"}, "detroit-warren-livonia-48123": {"city": "Detroit-Warren-Livonia", "rent": 1340, "zip": "48123"}, "detroit-warren-livonia-48124": {"city": "Detroit-Warren-Livonia", "rent": 1550, "zip": "48124"}, "detroit-warren-livonia-48125": {"city": "Detroit-Warren-Livonia", "rent": 1570, "zip": "48125"}, "detroit-warren-livonia-48126": {"city": "Detroit-Warren-Livonia", "rent": 1380, "zip": "48126"}, "detroit-warren-livonia-48127": {"city": "Detroit-Warren-Livonia", "rent": 1470, "zip": "48127"}, "detroit-warren-livonia-48128": {"city": "Detroit-Warren-Livonia", "rent": 2030, "zip": "48128"}, "detroit-warren-livonia-48134": {"city": "Detroit-Warren-Livonia", "rent": 1380, "zip": "48134"}, "detroit-warren-livonia-48135": {"city": "Detroit-Warren-Livonia", "rent": 1270, "zip": "48135"}, "detroit-warren-livonia-48136": {"city": "Detroit-Warren-Livonia", "rent": 1340, "zip": "48136"}, "detroit-warren-livonia-48138": {"city": "Detroit-Warren-Livonia", "rent": 1670, "zip": "48138"}, "detroit-warren-livonia-48141": {"city": "Detroit-Warren-Livonia", "rent": 1410, "zip": "48141"}, "detroit-warren-livonia-48146": {"city": "Detroit-Warren-Livonia", "rent": 1190, "zip": "48146"}, "detroit-warren-livonia-48150": {"city": "Detroit-Warren-Livonia", "rent": 1600, "zip": "48150"}, "detroit-warren-livonia-48151": {"city": "Detroit-Warren-Livonia", "rent": 1340, "zip": "48151"}, "detroit-warren-livonia-48152": {"city": "Detroit-Warren-Livonia", "rent": 1600, "zip": "48152"}, "detroit-warren-livonia-48153": {"city": "Detroit-Warren-Livonia", "rent": 1340, "zip": "48153"}, "detroit-warren-livonia-48154": {"city": "Detroit-Warren-Livonia", "rent": 1490, "zip": "48154"}, "detroit-warren-livonia-48164": {"city": "Detroit-Warren-Livonia", "rent": 1880, "zip": "48164"}, "detroit-warren-livonia-48165": {"city": "Detroit-Warren-Livonia", "rent": 1700, "zip": "48165"}, "detroit-warren-livonia-48167": {"city": "Detroit-Warren-Livonia", "rent": 1860, "zip": "48167"}, "detroit-warren-livonia-48168": {"city": "Detroit-Warren-Livonia", "rent": 1620, "zip": "48168"}, "detroit-warren-livonia-48170": {"city": "Detroit-Warren-Livonia", "rent": 1460, "zip": "48170"}, "detroit-warren-livonia-48173": {"city": "Detroit-Warren-Livonia", "rent": 1340, "zip": "48173"}, "detroit-warren-livonia-48174": {"city": "Detroit-Warren-Livonia", "rent": 1340, "zip": "48174"}, "detroit-warren-livonia-48178": {"city": "Detroit-Warren-Livonia", "rent": 1450, "zip": "48178"}, "detroit-warren-livonia-48180": {"city": "Detroit-Warren-Livonia", "rent": 1210, "zip": "48180"}, "detroit-warren-livonia-48183": {"city": "Detroit-Warren-Livonia", "rent": 1220, "zip": "48183"}, "detroit-warren-livonia-48184": {"city": "Detroit-Warren-Livonia", "rent": 1140, "zip": "48184"}, "detroit-warren-livonia-48185": {"city": "Detroit-Warren-Livonia", "rent": 1420, "zip": "48185"}, "detroit-warren-livonia-48186": {"city": "Detroit-Warren-Livonia", "rent": 1340, "zip": "48186"}, "detroit-warren-livonia-48187": {"city": "Detroit-Warren-Livonia", "rent": 1720, "zip": "48187"}, "detroit-warren-livonia-48188": {"city": "Detroit-Warren-Livonia", "rent": 1880, "zip": "48188"}, "detroit-warren-livonia-48192": {"city": "Detroit-Warren-Livonia", "rent": 1170, "zip": "48192"}, "detroit-warren-livonia-48193": {"city": "Detroit-Warren-Livonia", "rent": 1270, "zip": "48193"}, "detroit-warren-livonia-48195": {"city": "Detroit-Warren-Livonia", "rent": 1330, "zip": "48195"}, "detroit-warren-livonia-48198": {"city": "Detroit-Warren-Livonia", "rent": 1340, "zip": "48198"}, "detroit-warren-livonia-48201": {"city": "Detroit-Warren-Livonia", "rent": 1250, "zip": "48201"}, "detroit-warren-livonia-48202": {"city": "Detroit-Warren-Livonia", "rent": 1290, "zip": "48202"}, "detroit-warren-livonia-48203": {"city": "Detroit-Warren-Livonia", "rent": 1070, "zip": "48203"}, "detroit-warren-livonia-48204": {"city": "Detroit-Warren-Livonia", "rent": 1200, "zip": "48204"}, "detroit-warren-livonia-48205": {"city": "Detroit-Warren-Livonia", "rent": 1300, "zip": "48205"}, "detroit-warren-livonia-48206": {"city": "Detroit-Warren-Livonia", "rent": 1110, "zip": "48206"}, "detroit-warren-livonia-48207": {"city": "Detroit-Warren-Livonia", "rent": 1330, "zip": "48207"}, "detroit-warren-livonia-48208": {"city": "Detroit-Warren-Livonia", "rent": 1110, "zip": "48208"}, "detroit-warren-livonia-48209": {"city": "Detroit-Warren-Livonia", "rent": 1060, "zip": "48209"}, "detroit-warren-livonia-48210": {"city": "Detroit-Warren-Livonia", "rent": 1160, "zip": "48210"}, "detroit-warren-livonia-48211": {"city": "Detroit-Warren-Livonia", "rent": 1170, "zip": "48211"}, "detroit-warren-livonia-48212": {"city": "Detroit-Warren-Livonia", "rent": 1090, "zip": "48212"}, "detroit-warren-livonia-48213": {"city": "Detroit-Warren-Livonia", "rent": 1090, "zip": "48213"}, "detroit-warren-livonia-48214": {"city": "Detroit-Warren-Livonia", "rent": 1070, "zip": "48214"}, "detroit-warren-livonia-48215": {"city": "Detroit-Warren-Livonia", "rent": 1190, "zip": "48215"}, "detroit-warren-livonia-48216": {"city": "Detroit-Warren-Livonia", "rent": 1130, "zip": "48216"}, "detroit-warren-livonia-48217": {"city": "Detroit-Warren-Livonia", "rent": 1370, "zip": "48217"}, "detroit-warren-livonia-48218": {"city": "Detroit-Warren-Livonia", "rent": 1060, "zip": "48218"}, "detroit-warren-livonia-48219": {"city": "Detroit-Warren-Livonia", "rent": 1370, "zip": "48219"}, "detroit-warren-livonia-48220": {"city": "Detroit-Warren-Livonia", "rent": 1540, "zip": "48220"}, "detroit-warren-livonia-48221": {"city": "Detroit-Warren-Livonia", "rent": 1380, "zip": "48221"}, "detroit-warren-livonia-48223": {"city": "Detroit-Warren-Livonia", "rent": 1230, "zip": "48223"}, "detroit-warren-livonia-48224": {"city": "Detroit-Warren-Livonia", "rent": 1360, "zip": "48224"}, "detroit-warren-livonia-48225": {"city": "Detroit-Warren-Livonia", "rent": 1620, "zip": "48225"}, "detroit-warren-livonia-48226": {"city": "Detroit-Warren-Livonia", "rent": 2120, "zip": "48226"}, "detroit-warren-livonia-48227": {"city": "Detroit-Warren-Livonia", "rent": 1220, "zip": "48227"}, "detroit-warren-livonia-48228": {"city": "Detroit-Warren-Livonia", "rent": 1230, "zip": "48228"}, "detroit-warren-livonia-48229": {"city": "Detroit-Warren-Livonia", "rent": 1150, "zip": "48229"}, "detroit-warren-livonia-48230": {"city": "Detroit-Warren-Livonia", "rent": 1770, "zip": "48230"}, "detroit-warren-livonia-48231": {"city": "Detroit-Warren-Livonia", "rent": 1340, "zip": "48231"}, "detroit-warren-livonia-48232": {"city": "Detroit-Warren-Livonia", "rent": 1340, "zip": "48232"}, "detroit-warren-livonia-48233": {"city": "Detroit-Warren-Livonia", "rent": 1340, "zip": "48233"}, "detroit-warren-livonia-48234": {"city": "Detroit-Warren-Livonia", "rent": 1170, "zip": "48234"}, "detroit-warren-livonia-48235": {"city": "Detroit-Warren-Livonia", "rent": 1330, "zip": "48235"}, "detroit-warren-livonia-48236": {"city": "Detroit-Warren-Livonia", "rent": 1910, "zip": "48236"}, "detroit-warren-livonia-48237": {"city": "Detroit-Warren-Livonia", "rent": 1660, "zip": "48237"}, "detroit-warren-livonia-48238": {"city": "Detroit-Warren-Livonia", "rent": 1160, "zip": "48238"}, "detroit-warren-livonia-48239": {"city": "Detroit-Warren-Livonia", "rent": 1650, "zip": "48239"}, "detroit-warren-livonia-48240": {"city": "Detroit-Warren-Livonia", "rent": 1600, "zip": "48240"}, "detroit-warren-livonia-48242": {"city": "Detroit-Warren-Livonia", "rent": 1340, "zip": "48242"}, "detroit-warren-livonia-48243": {"city": "Detroit-Warren-Livonia", "rent": 1340, "zip": "48243"}, "detroit-warren-livonia-48244": {"city": "Detroit-Warren-Livonia", "rent": 1340, "zip": "48244"}, "detroit-warren-livonia-48301": {"city": "Detroit-Warren-Livonia", "rent": 2120, "zip": "48301"}, "detroit-warren-livonia-48302": {"city": "Detroit-Warren-Livonia", "rent": 2060, "zip": "48302"}, "detroit-warren-livonia-48303": {"city": "Detroit-Warren-Livonia", "rent": 1580, "zip": "48303"}, "detroit-warren-livonia-48304": {"city": "Detroit-Warren-Livonia", "rent": 1880, "zip": "48304"}, "detroit-warren-livonia-48306": {"city": "Detroit-Warren-Livonia", "rent": 1670, "zip": "48306"}, "detroit-warren-livonia-48307": {"city": "Detroit-Warren-Livonia", "rent": 1810, "zip": "48307"}, "detroit-warren-livonia-48308": {"city": "Detroit-Warren-Livonia", "rent": 1580, "zip": "48308"}, "detroit-warren-livonia-48309": {"city": "Detroit-Warren-Livonia", "rent": 1810, "zip": "48309"}, "detroit-warren-livonia-48310": {"city": "Detroit-Warren-Livonia", "rent": 1610, "zip": "48310"}, "detroit-warren-livonia-48311": {"city": "Detroit-Warren-Livonia", "rent": 1410, "zip": "48311"}, "detroit-warren-livonia-48312": {"city": "Detroit-Warren-Livonia", "rent": 1370, "zip": "48312"}, "detroit-warren-livonia-48313": {"city": "Detroit-Warren-Livonia", "rent": 1420, "zip": "48313"}, "detroit-warren-livonia-48314": {"city": "Detroit-Warren-Livonia", "rent": 1590, "zip": "48314"}, "detroit-warren-livonia-48315": {"city": "Detroit-Warren-Livonia", "rent": 1390, "zip": "48315"}, "detroit-warren-livonia-48316": {"city": "Detroit-Warren-Livonia", "rent": 1590, "zip": "48316"}, "detroit-warren-livonia-48317": {"city": "Detroit-Warren-Livonia", "rent": 1520, "zip": "48317"}, "detroit-warren-livonia-48318": {"city": "Detroit-Warren-Livonia", "rent": 1410, "zip": "48318"}, "detroit-warren-livonia-48320": {"city": "Detroit-Warren-Livonia", "rent": 1460, "zip": "48320"}, "detroit-warren-livonia-48321": {"city": "Detroit-Warren-Livonia", "rent": 1580, "zip": "48321"}, "detroit-warren-livonia-48322": {"city": "Detroit-Warren-Livonia", "rent": 2120, "zip": "48322"}, "detroit-warren-livonia-48323": {"city": "Detroit-Warren-Livonia", "rent": 1970, "zip": "48323"}, "detroit-warren-livonia-48324": {"city": "Detroit-Warren-Livonia", "rent": 1750, "zip": "48324"}, "detroit-warren-livonia-48325": {"city": "Detroit-Warren-Livonia", "rent": 1580, "zip": "48325"}, "detroit-warren-livonia-48326": {"city": "Detroit-Warren-Livonia", "rent": 1640, "zip": "48326"}, "detroit-warren-livonia-48327": {"city": "Detroit-Warren-Livonia", "rent": 1260, "zip": "48327"}, "detroit-warren-livonia-48328": {"city": "Detroit-Warren-Livonia", "rent": 1350, "zip": "48328"}, "detroit-warren-livonia-48329": {"city": "Detroit-Warren-Livonia", "rent": 1720, "zip": "48329"}, "detroit-warren-livonia-48330": {"city": "Detroit-Warren-Livonia", "rent": 1580, "zip": "48330"}, "detroit-warren-livonia-48331": {"city": "Detroit-Warren-Livonia", "rent": 2120, "zip": "48331"}, "detroit-warren-livonia-48332": {"city": "Detroit-Warren-Livonia", "rent": 1580, "zip": "48332"}, "detroit-warren-livonia-48333": {"city": "Detroit-Warren-Livonia", "rent": 1580, "zip": "48333"}, "detroit-warren-livonia-48334": {"city": "Detroit-Warren-Livonia", "rent": 1850, "zip": "48334"}, "detroit-warren-livonia-48335": {"city": "Detroit-Warren-Livonia", "rent": 1890, "zip": "48335"}, "detroit-warren-livonia-48336": {"city": "Detroit-Warren-Livonia", "rent": 1370, "zip": "48336"}, "detroit-warren-livonia-48340": {"city": "Detroit-Warren-Livonia", "rent": 1320, "zip": "48340"}, "detroit-warren-livonia-48341": {"city": "Detroit-Warren-Livonia", "rent": 1120, "zip": "48341"}, "detroit-warren-livonia-48342": {"city": "Detroit-Warren-Livonia", "rent": 1250, "zip": "48342"}, "detroit-warren-livonia-48343": {"city": "Detroit-Warren-Livonia", "rent": 1580, "zip": "48343"}, "detroit-warren-livonia-48346": {"city": "Detroit-Warren-Livonia", "rent": 1630, "zip": "48346"}, "detroit-warren-livonia-48347": {"city": "Detroit-Warren-Livonia", "rent": 1580, "zip": "48347"}, "detroit-warren-livonia-48348": {"city": "Detroit-Warren-Livonia", "rent": 1460, "zip": "48348"}, "detroit-warren-livonia-48350": {"city": "Detroit-Warren-Livonia", "rent": 1550, "zip": "48350"}, "detroit-warren-livonia-48356": {"city": "Detroit-Warren-Livonia", "rent": 1200, "zip": "48356"}, "detroit-warren-livonia-48357": {"city": "Detroit-Warren-Livonia", "rent": 1270, "zip": "48357"}, "detroit-warren-livonia-48359": {"city": "Detroit-Warren-Livonia", "rent": 1540, "zip": "48359"}, "detroit-warren-livonia-48360": {"city": "Detroit-Warren-Livonia", "rent": 1580, "zip": "48360"}, "detroit-warren-livonia-48361": {"city": "Detroit-Warren-Livonia", "rent": 1580, "zip": "48361"}, "detroit-warren-livonia-48362": {"city": "Detroit-Warren-Livonia", "rent": 1370, "zip": "48362"}, "detroit-warren-livonia-48363": {"city": "Detroit-Warren-Livonia", "rent": 1490, "zip": "48363"}, "detroit-warren-livonia-48366": {"city": "Detroit-Warren-Livonia", "rent": 1580, "zip": "48366"}, "detroit-warren-livonia-48367": {"city": "Detroit-Warren-Livonia", "rent": 1370, "zip": "48367"}, "detroit-warren-livonia-48370": {"city": "Detroit-Warren-Livonia", "rent": 1390, "zip": "48370"}, "detroit-warren-livonia-48371": {"city": "Detroit-Warren-Livonia", "rent": 1410, "zip": "48371"}, "detroit-warren-livonia-48374": {"city": "Detroit-Warren-Livonia", "rent": 2120, "zip": "48374"}, "detroit-warren-livonia-48375": {"city": "Detroit-Warren-Livonia", "rent": 2120, "zip": "48375"}, "detroit-warren-livonia-48376": {"city": "Detroit-Warren-Livonia", "rent": 1580, "zip": "48376"}, "detroit-warren-livonia-48377": {"city": "Detroit-Warren-Livonia", "rent": 1550, "zip": "48377"}, "detroit-warren-livonia-48380": {"city": "Detroit-Warren-Livonia", "rent": 1880, "zip": "48380"}, "detroit-warren-livonia-48381": {"city": "Detroit-Warren-Livonia", "rent": 1470, "zip": "48381"}, "detroit-warren-livonia-48382": {"city": "Detroit-Warren-Livonia", "rent": 2010, "zip": "48382"}, "detroit-warren-livonia-48383": {"city": "Detroit-Warren-Livonia", "rent": 1550, "zip": "48383"}, "detroit-warren-livonia-48386": {"city": "Detroit-Warren-Livonia", "rent": 1710, "zip": "48386"}, "detroit-warren-livonia-48387": {"city": "Detroit-Warren-Livonia", "rent": 1580, "zip": "48387"}, "detroit-warren-livonia-48390": {"city": "Detroit-Warren-Livonia", "rent": 1960, "zip": "48390"}, "detroit-warren-livonia-48393": {"city": "Detroit-Warren-Livonia", "rent": 1130, "zip": "48393"}, "detroit-warren-livonia-48412": {"city": "Detroit-Warren-Livonia", "rent": 1460, "zip": "48412"}, "detroit-warren-livonia-48416": {"city": "Detroit-Warren-Livonia", "rent": 1060, "zip": "48416"}, "detroit-warren-livonia-48421": {"city": "Detroit-Warren-Livonia", "rent": 1060, "zip": "48421"}, "detroit-warren-livonia-48423": {"city": "Detroit-Warren-Livonia", "rent": 1060, "zip": "48423"}, "detroit-warren-livonia-48428": {"city": "Detroit-Warren-Livonia", "rent": 1360, "zip": "48428"}, "detroit-warren-livonia-48430": {"city": "Detroit-Warren-Livonia", "rent": 1490, "zip": "48430"}, "detroit-warren-livonia-48435": {"city": "Detroit-Warren-Livonia", "rent": 1300, "zip": "48435"}, "detroit-warren-livonia-48438": {"city": "Detroit-Warren-Livonia", "rent": 1440, "zip": "48438"}, "detroit-warren-livonia-48439": {"city": "Detroit-Warren-Livonia", "rent": 1080, "zip": "48439"}, "detroit-warren-livonia-48440": {"city": "Detroit-Warren-Livonia", "rent": 1300, "zip": "48440"}, "detroit-warren-livonia-48442": {"city": "Detroit-Warren-Livonia", "rent": 1440, "zip": "48442"}, "detroit-warren-livonia-48444": {"city": "Detroit-Warren-Livonia", "rent": 1060, "zip": "48444"}, "detroit-warren-livonia-48446": {"city": "Detroit-Warren-Livonia", "rent": 1220, "zip": "48446"}, "detroit-warren-livonia-48453": {"city": "Detroit-Warren-Livonia", "rent": 1060, "zip": "48453"}, "detroit-warren-livonia-48455": {"city": "Detroit-Warren-Livonia", "rent": 1390, "zip": "48455"}, "detroit-warren-livonia-48461": {"city": "Detroit-Warren-Livonia", "rent": 1060, "zip": "48461"}, "detroit-warren-livonia-48462": {"city": "Detroit-Warren-Livonia", "rent": 1170, "zip": "48462"}, "detroit-warren-livonia-48463": {"city": "Detroit-Warren-Livonia", "rent": 1060, "zip": "48463"}, "detroit-warren-livonia-48464": {"city": "Detroit-Warren-Livonia", "rent": 1090, "zip": "48464"}, "detroit-warren-livonia-48727": {"city": "Detroit-Warren-Livonia", "rent": 1060, "zip": "48727"}, "detroit-warren-livonia-48744": {"city": "Detroit-Warren-Livonia", "rent": 1070, "zip": "48744"}, "detroit-warren-livonia-48760": {"city": "Detroit-Warren-Livonia", "rent": 1080, "zip": "48760"}, "livingston-county-48114": {"city": "Livingston County", "rent": 1600, "zip": "48114"}, "livingston-county-48116": {"city": "Livingston County", "rent": 1390, "zip": "48116"}, "livingston-county-48137": {"city": "Livingston County", "rent": 1620, "zip": "48137"}, "livingston-county-48139": {"city": "Livingston County", "rent": 1440, "zip": "48139"}, "livingston-county-48143": {"city": "Livingston County", "rent": 1600, "zip": "48143"}, "livingston-county-48169": {"city": "Livingston County", "rent": 1600, "zip": "48169"}, "livingston-county-48178": {"city": "Livingston County", "rent": 1450, "zip": "48178"}, "livingston-county-48189": {"city": "Livingston County", "rent": 1460, "zip": "48189"}, "livingston-county-48353": {"city": "Livingston County", "rent": 1490, "zip": "48353"}, "livingston-county-48380": {"city": "Livingston County", "rent": 1880, "zip": "48380"}, "livingston-county-48418": {"city": "Livingston County", "rent": 1520, "zip": "48418"}, "livingston-county-48430": {"city": "Livingston County", "rent": 1490, "zip": "48430"}, "livingston-county-48442": {"city": "Livingston County", "rent": 1440, "zip": "48442"}, "livingston-county-48451": {"city": "Livingston County", "rent": 1270, "zip": "48451"}, "livingston-county-48816": {"city": "Livingston County", "rent": 1710, "zip": "48816"}, "livingston-county-48836": {"city": "Livingston County", "rent": 1270, "zip": "48836"}, "livingston-county-48843": {"city": "Livingston County", "rent": 1520, "zip": "48843"}, "livingston-county-48844": {"city": "Livingston County", "rent": 1460, "zip": "48844"}, "livingston-county-48855": {"city": "Livingston County", "rent": 1710, "zip": "48855"}, "livingston-county-48872": {"city": "Livingston County", "rent": 1270, "zip": "48872"}, "livingston-county-48892": {"city": "Livingston County", "rent": 1270, "zip": "48892"}, "livingston-county-49285": {"city": "Livingston County", "rent": 1450, "zip": "49285"}, "flint-48411": {"city": "Flint", "rent": 1210, "zip": "48411"}, "flint-48415": {"city": "Flint", "rent": 1180, "zip": "48415"}, "flint-48417": {"city": "Flint", "rent": 1240, "zip": "48417"}, "flint-48418": {"city": "Flint", "rent": 1520, "zip": "48418"}, "flint-48420": {"city": "Flint", "rent": 970, "zip": "48420"}, "flint-48421": {"city": "Flint", "rent": 1060, "zip": "48421"}, "flint-48423": {"city": "Flint", "rent": 1060, "zip": "48423"}, "flint-48429": {"city": "Flint", "rent": 970, "zip": "48429"}, "flint-48430": {"city": "Flint", "rent": 1490, "zip": "48430"}, "flint-48433": {"city": "Flint", "rent": 1100, "zip": "48433"}, "flint-48436": {"city": "Flint", "rent": 1100, "zip": "48436"}, "flint-48437": {"city": "Flint", "rent": 970, "zip": "48437"}, "flint-48438": {"city": "Flint", "rent": 1440, "zip": "48438"}, "flint-48439": {"city": "Flint", "rent": 1080, "zip": "48439"}, "flint-48442": {"city": "Flint", "rent": 1440, "zip": "48442"}, "flint-48449": {"city": "Flint", "rent": 1180, "zip": "48449"}, "flint-48451": {"city": "Flint", "rent": 1270, "zip": "48451"}, "flint-48457": {"city": "Flint", "rent": 990, "zip": "48457"}, "flint-48458": {"city": "Flint", "rent": 1000, "zip": "48458"}, "flint-48460": {"city": "Flint", "rent": 970, "zip": "48460"}, "flint-48462": {"city": "Flint", "rent": 1170, "zip": "48462"}, "flint-48463": {"city": "Flint", "rent": 1060, "zip": "48463"}, "flint-48464": {"city": "Flint", "rent": 1090, "zip": "48464"}, "flint-48473": {"city": "Flint", "rent": 1180, "zip": "48473"}, "flint-48480": {"city": "Flint", "rent": 1030, "zip": "48480"}, "flint-48501": {"city": "Flint", "rent": 1030, "zip": "48501"}, "flint-48502": {"city": "Flint", "rent": 980, "zip": "48502"}, "flint-48503": {"city": "Flint", "rent": 970, "zip": "48503"}, "flint-48504": {"city": "Flint", "rent": 1010, "zip": "48504"}, "flint-48505": {"city": "Flint", "rent": 970, "zip": "48505"}, "flint-48506": {"city": "Flint", "rent": 1010, "zip": "48506"}, "flint-48507": {"city": "Flint", "rent": 1030, "zip": "48507"}, "flint-48509": {"city": "Flint", "rent": 1150, "zip": "48509"}, "flint-48519": {"city": "Flint", "rent": 1060, "zip": "48519"}, "flint-48529": {"city": "Flint", "rent": 1060, "zip": "48529"}, "flint-48531": {"city": "Flint", "rent": 1030, "zip": "48531"}, "flint-48532": {"city": "Flint", "rent": 980, "zip": "48532"}, "flint-48550": {"city": "Flint", "rent": 1030, "zip": "48550"}, "flint-48746": {"city": "Flint", "rent": 1040, "zip": "48746"}, "grand-rapids-wyoming-48809": {"city": "Grand Rapids-Wyoming", "rent": 1300, "zip": "48809"}, "grand-rapids-wyoming-48815": {"city": "Grand Rapids-Wyoming", "rent": 1300, "zip": "48815"}, "grand-rapids-wyoming-48838": {"city": "Grand Rapids-Wyoming", "rent": 1300, "zip": "48838"}, "grand-rapids-wyoming-49301": {"city": "Grand Rapids-Wyoming", "rent": 2300, "zip": "49301"}, "grand-rapids-wyoming-49302": {"city": "Grand Rapids-Wyoming", "rent": 1470, "zip": "49302"}, "grand-rapids-wyoming-49303": {"city": "Grand Rapids-Wyoming", "rent": 1300, "zip": "49303"}, "grand-rapids-wyoming-49306": {"city": "Grand Rapids-Wyoming", "rent": 1740, "zip": "49306"}, "grand-rapids-wyoming-49315": {"city": "Grand Rapids-Wyoming", "rent": 1680, "zip": "49315"}, "grand-rapids-wyoming-49316": {"city": "Grand Rapids-Wyoming", "rent": 1720, "zip": "49316"}, "grand-rapids-wyoming-49318": {"city": "Grand Rapids-Wyoming", "rent": 1520, "zip": "49318"}, "grand-rapids-wyoming-49319": {"city": "Grand Rapids-Wyoming", "rent": 1390, "zip": "49319"}, "grand-rapids-wyoming-49321": {"city": "Grand Rapids-Wyoming", "rent": 1340, "zip": "49321"}, "grand-rapids-wyoming-49323": {"city": "Grand Rapids-Wyoming", "rent": 1310, "zip": "49323"}, "grand-rapids-wyoming-49325": {"city": "Grand Rapids-Wyoming", "rent": 1300, "zip": "49325"}, "grand-rapids-wyoming-49326": {"city": "Grand Rapids-Wyoming", "rent": 1300, "zip": "49326"}, "grand-rapids-wyoming-49327": {"city": "Grand Rapids-Wyoming", "rent": 1300, "zip": "49327"}, "grand-rapids-wyoming-49330": {"city": "Grand Rapids-Wyoming", "rent": 1520, "zip": "49330"}, "grand-rapids-wyoming-49331": {"city": "Grand Rapids-Wyoming", "rent": 1440, "zip": "49331"}, "grand-rapids-wyoming-49333": {"city": "Grand Rapids-Wyoming", "rent": 1570, "zip": "49333"}, "grand-rapids-wyoming-49341": {"city": "Grand Rapids-Wyoming", "rent": 1670, "zip": "49341"}, "grand-rapids-wyoming-49343": {"city": "Grand Rapids-Wyoming", "rent": 1300, "zip": "49343"}, "grand-rapids-wyoming-49345": {"city": "Grand Rapids-Wyoming", "rent": 1300, "zip": "49345"}, "grand-rapids-wyoming-49347": {"city": "Grand Rapids-Wyoming", "rent": 1330, "zip": "49347"}, "grand-rapids-wyoming-49348": {"city": "Grand Rapids-Wyoming", "rent": 1400, "zip": "49348"}, "grand-rapids-wyoming-49351": {"city": "Grand Rapids-Wyoming", "rent": 1530, "zip": "49351"}, "grand-rapids-wyoming-49403": {"city": "Grand Rapids-Wyoming", "rent": 1340, "zip": "49403"}, "grand-rapids-wyoming-49418": {"city": "Grand Rapids-Wyoming", "rent": 1550, "zip": "49418"}, "grand-rapids-wyoming-49435": {"city": "Grand Rapids-Wyoming", "rent": 1300, "zip": "49435"}, "grand-rapids-wyoming-49468": {"city": "Grand Rapids-Wyoming", "rent": 1530, "zip": "49468"}, "grand-rapids-wyoming-49501": {"city": "Grand Rapids-Wyoming", "rent": 1530, "zip": "49501"}, "grand-rapids-wyoming-49503": {"city": "Grand Rapids-Wyoming", "rent": 1610, "zip": "49503"}, "grand-rapids-wyoming-49504": {"city": "Grand Rapids-Wyoming", "rent": 1430, "zip": "49504"}, "grand-rapids-wyoming-49505": {"city": "Grand Rapids-Wyoming", "rent": 1570, "zip": "49505"}, "grand-rapids-wyoming-49506": {"city": "Grand Rapids-Wyoming", "rent": 1700, "zip": "49506"}, "grand-rapids-wyoming-49507": {"city": "Grand Rapids-Wyoming", "rent": 1530, "zip": "49507"}, "grand-rapids-wyoming-49508": {"city": "Grand Rapids-Wyoming", "rent": 1550, "zip": "49508"}, "grand-rapids-wyoming-49509": {"city": "Grand Rapids-Wyoming", "rent": 1320, "zip": "49509"}, "grand-rapids-wyoming-49510": {"city": "Grand Rapids-Wyoming", "rent": 1530, "zip": "49510"}, "grand-rapids-wyoming-49512": {"city": "Grand Rapids-Wyoming", "rent": 1530, "zip": "49512"}, "grand-rapids-wyoming-49514": {"city": "Grand Rapids-Wyoming", "rent": 1530, "zip": "49514"}, "grand-rapids-wyoming-49515": {"city": "Grand Rapids-Wyoming", "rent": 1530, "zip": "49515"}, "grand-rapids-wyoming-49516": {"city": "Grand Rapids-Wyoming", "rent": 1530, "zip": "49516"}, "grand-rapids-wyoming-49518": {"city": "Grand Rapids-Wyoming", "rent": 1530, "zip": "49518"}, "grand-rapids-wyoming-49519": {"city": "Grand Rapids-Wyoming", "rent": 1490, "zip": "49519"}, "grand-rapids-wyoming-49525": {"city": "Grand Rapids-Wyoming", "rent": 1810, "zip": "49525"}, "grand-rapids-wyoming-49534": {"city": "Grand Rapids-Wyoming", "rent": 1530, "zip": "49534"}, "grand-rapids-wyoming-49544": {"city": "Grand Rapids-Wyoming", "rent": 1450, "zip": "49544"}, "grand-rapids-wyoming-49546": {"city": "Grand Rapids-Wyoming", "rent": 1670, "zip": "49546"}, "grand-rapids-wyoming-49548": {"city": "Grand Rapids-Wyoming", "rent": 1430, "zip": "49548"}, "grand-rapids-wyoming-49588": {"city": "Grand Rapids-Wyoming", "rent": 1530, "zip": "49588"}, "ionia-county-48809": {"city": "Ionia County", "rent": 1300, "zip": "48809"}, "ionia-county-48815": {"city": "Ionia County", "rent": 1300, "zip": "48815"}, "ionia-county-48834": {"city": "Ionia County", "rent": 1300, "zip": "48834"}, "ionia-county-48837": {"city": "Ionia County", "rent": 1200, "zip": "48837"}, "ionia-county-48838": {"city": "Ionia County", "rent": 1300, "zip": "48838"}, "ionia-county-48845": {"city": "Ionia County", "rent": 1060, "zip": "48845"}, "ionia-county-48846": {"city": "Ionia County", "rent": 1160, "zip": "48846"}, "ionia-county-48849": {"city": "Ionia County", "rent": 1150, "zip": "48849"}, "ionia-county-48851": {"city": "Ionia County", "rent": 1290, "zip": "48851"}, "ionia-county-48860": {"city": "Ionia County", "rent": 1060, "zip": "48860"}, "ionia-county-48861": {"city": "Ionia County", "rent": 1260, "zip": "48861"}, "ionia-county-48865": {"city": "Ionia County", "rent": 1120, "zip": "48865"}, "ionia-county-48870": {"city": "Ionia County", "rent": 1300, "zip": "48870"}, "ionia-county-48873": {"city": "Ionia County", "rent": 1060, "zip": "48873"}, "ionia-county-48875": {"city": "Ionia County", "rent": 1450, "zip": "48875"}, "ionia-county-48881": {"city": "Ionia County", "rent": 1060, "zip": "48881"}, "ionia-county-48890": {"city": "Ionia County", "rent": 1210, "zip": "48890"}, "ionia-county-48894": {"city": "Ionia County", "rent": 1060, "zip": "48894"}, "ionia-county-49302": {"city": "Ionia County", "rent": 1470, "zip": "49302"}, "ionia-county-49325": {"city": "Ionia County", "rent": 1300, "zip": "49325"}, "ionia-county-49331": {"city": "Ionia County", "rent": 1440, "zip": "49331"}, "holland-grand-haven-49315": {"city": "Holland-Grand Haven", "rent": 1680, "zip": "49315"}, "holland-grand-haven-49318": {"city": "Holland-Grand Haven", "rent": 1520, "zip": "49318"}, "holland-grand-haven-49323": {"city": "Holland-Grand Haven", "rent": 1310, "zip": "49323"}, "holland-grand-haven-49330": {"city": "Holland-Grand Haven", "rent": 1520, "zip": "49330"}, "holland-grand-haven-49345": {"city": "Holland-Grand Haven", "rent": 1300, "zip": "49345"}, "holland-grand-haven-49401": {"city": "Holland-Grand Haven", "rent": 1680, "zip": "49401"}, "holland-grand-haven-49403": {"city": "Holland-Grand Haven", "rent": 1340, "zip": "49403"}, "holland-grand-haven-49404": {"city": "Holland-Grand Haven", "rent": 1330, "zip": "49404"}, "holland-grand-haven-49409": {"city": "Holland-Grand Haven", "rent": 1500, "zip": "49409"}, "holland-grand-haven-49415": {"city": "Holland-Grand Haven", "rent": 1410, "zip": "49415"}, "holland-grand-haven-49417": {"city": "Holland-Grand Haven", "rent": 1450, "zip": "49417"}, "holland-grand-haven-49418": {"city": "Holland-Grand Haven", "rent": 1550, "zip": "49418"}, "holland-grand-haven-49422": {"city": "Holland-Grand Haven", "rent": 1520, "zip": "49422"}, "holland-grand-haven-49423": {"city": "Holland-Grand Haven", "rent": 1480, "zip": "49423"}, "holland-grand-haven-49424": {"city": "Holland-Grand Haven", "rent": 1500, "zip": "49424"}, "holland-grand-haven-49426": {"city": "Holland-Grand Haven", "rent": 1590, "zip": "49426"}, "holland-grand-haven-49428": {"city": "Holland-Grand Haven", "rent": 1560, "zip": "49428"}, "holland-grand-haven-49429": {"city": "Holland-Grand Haven", "rent": 1520, "zip": "49429"}, "holland-grand-haven-49430": {"city": "Holland-Grand Haven", "rent": 1280, "zip": "49430"}, "holland-grand-haven-49434": {"city": "Holland-Grand Haven", "rent": 1490, "zip": "49434"}, "holland-grand-haven-49435": {"city": "Holland-Grand Haven", "rent": 1300, "zip": "49435"}, "holland-grand-haven-49448": {"city": "Holland-Grand Haven", "rent": 1230, "zip": "49448"}, "holland-grand-haven-49451": {"city": "Holland-Grand Haven", "rent": 1240, "zip": "49451"}, "holland-grand-haven-49456": {"city": "Holland-Grand Haven", "rent": 1500, "zip": "49456"}, "holland-grand-haven-49460": {"city": "Holland-Grand Haven", "rent": 1660, "zip": "49460"}, "holland-grand-haven-49464": {"city": "Holland-Grand Haven", "rent": 1360, "zip": "49464"}, "holland-grand-haven-49534": {"city": "Holland-Grand Haven", "rent": 1530, "zip": "49534"}, "holland-grand-haven-49544": {"city": "Holland-Grand Haven", "rent": 1450, "zip": "49544"}, "barry-county-48849": {"city": "Barry County", "rent": 1150, "zip": "48849"}, "barry-county-48897": {"city": "Barry County", "rent": 1020, "zip": "48897"}, "barry-county-49012": {"city": "Barry County", "rent": 1170, "zip": "49012"}, "barry-county-49017": {"city": "Barry County", "rent": 1150, "zip": "49017"}, "barry-county-49021": {"city": "Barry County", "rent": 1260, "zip": "49021"}, "barry-county-49035": {"city": "Barry County", "rent": 1330, "zip": "49035"}, "barry-county-49046": {"city": "Barry County", "rent": 1420, "zip": "49046"}, "barry-county-49050": {"city": "Barry County", "rent": 1070, "zip": "49050"}, "barry-county-49058": {"city": "Barry County", "rent": 1320, "zip": "49058"}, "barry-county-49060": {"city": "Barry County", "rent": 1230, "zip": "49060"}, "barry-county-49073": {"city": "Barry County", "rent": 1160, "zip": "49073"}, "barry-county-49080": {"city": "Barry County", "rent": 1170, "zip": "49080"}, "barry-county-49083": {"city": "Barry County", "rent": 1070, "zip": "49083"}, "barry-county-49316": {"city": "Barry County", "rent": 1720, "zip": "49316"}, "barry-county-49325": {"city": "Barry County", "rent": 1300, "zip": "49325"}, "barry-county-49333": {"city": "Barry County", "rent": 1570, "zip": "49333"}, "barry-county-49344": {"city": "Barry County", "rent": 1490, "zip": "49344"}, "barry-county-49348": {"city": "Barry County", "rent": 1400, "zip": "49348"}, "montcalm-county-48809": {"city": "Montcalm County", "rent": 1300, "zip": "48809"}, "montcalm-county-48811": {"city": "Montcalm County", "rent": 1050, "zip": "48811"}, "montcalm-county-48812": {"city": "Montcalm County", "rent": 1200, "zip": "48812"}, "montcalm-county-48818": {"city": "Montcalm County", "rent": 1160, "zip": "48818"}, "montcalm-county-48829": {"city": "Montcalm County", "rent": 1060, "zip": "48829"}, "montcalm-county-48834": {"city": "Montcalm County", "rent": 1300, "zip": "48834"}, "montcalm-county-48838": {"city": "Montcalm County", "rent": 1300, "zip": "48838"}, "montcalm-county-48845": {"city": "Montcalm County", "rent": 1060, "zip": "48845"}, "montcalm-county-48850": {"city": "Montcalm County", "rent": 1020, "zip": "48850"}, "montcalm-county-48852": {"city": "Montcalm County", "rent": 1060, "zip": "48852"}, "montcalm-county-48877": {"city": "Montcalm County", "rent": 980, "zip": "48877"}, "montcalm-county-48884": {"city": "Montcalm County", "rent": 1230, "zip": "48884"}, "montcalm-county-48885": {"city": "Montcalm County", "rent": 1230, "zip": "48885"}, "montcalm-county-48886": {"city": "Montcalm County", "rent": 1380, "zip": "48886"}, "montcalm-county-48888": {"city": "Montcalm County", "rent": 1240, "zip": "48888"}, "montcalm-county-48889": {"city": "Montcalm County", "rent": 1080, "zip": "48889"}, "montcalm-county-48891": {"city": "Montcalm County", "rent": 1160, "zip": "48891"}, "montcalm-county-49310": {"city": "Montcalm County", "rent": 1210, "zip": "49310"}, "montcalm-county-49322": {"city": "Montcalm County", "rent": 1620, "zip": "49322"}, "montcalm-county-49326": {"city": "Montcalm County", "rent": 1300, "zip": "49326"}, "montcalm-county-49329": {"city": "Montcalm County", "rent": 1270, "zip": "49329"}, "montcalm-county-49336": {"city": "Montcalm County", "rent": 1090, "zip": "49336"}, "montcalm-county-49337": {"city": "Montcalm County", "rent": 1090, "zip": "49337"}, "montcalm-county-49339": {"city": "Montcalm County", "rent": 1190, "zip": "49339"}, "montcalm-county-49343": {"city": "Montcalm County", "rent": 1300, "zip": "49343"}, "montcalm-county-49347": {"city": "Montcalm County", "rent": 1330, "zip": "49347"}, "jackson-48118": {"city": "Jackson", "rent": 1960, "zip": "48118"}, "jackson-48158": {"city": "Jackson", "rent": 1450, "zip": "48158"}, "jackson-48827": {"city": "Jackson", "rent": 1210, "zip": "48827"}, "jackson-49201": {"city": "Jackson", "rent": 1160, "zip": "49201"}, "jackson-49202": {"city": "Jackson", "rent": 1080, "zip": "49202"}, "jackson-49203": {"city": "Jackson", "rent": 1260, "zip": "49203"}, "jackson-49204": {"city": "Jackson", "rent": 1170, "zip": "49204"}, "jackson-49224": {"city": "Jackson", "rent": 1060, "zip": "49224"}, "jackson-49230": {"city": "Jackson", "rent": 1450, "zip": "49230"}, "jackson-49233": {"city": "Jackson", "rent": 1290, "zip": "49233"}, "jackson-49234": {"city": "Jackson", "rent": 1390, "zip": "49234"}, "jackson-49237": {"city": "Jackson", "rent": 1040, "zip": "49237"}, "jackson-49240": {"city": "Jackson", "rent": 1460, "zip": "49240"}, "jackson-49241": {"city": "Jackson", "rent": 1160, "zip": "49241"}, "jackson-49245": {"city": "Jackson", "rent": 1130, "zip": "49245"}, "jackson-49246": {"city": "Jackson", "rent": 1140, "zip": "49246"}, "jackson-49249": {"city": "Jackson", "rent": 1130, "zip": "49249"}, "jackson-49250": {"city": "Jackson", "rent": 1040, "zip": "49250"}, "jackson-49251": {"city": "Jackson", "rent": 1310, "zip": "49251"}, "jackson-49252": {"city": "Jackson", "rent": 1000, "zip": "49252"}, "jackson-49254": {"city": "Jackson", "rent": 1200, "zip": "49254"}, "jackson-49259": {"city": "Jackson", "rent": 1060, "zip": "49259"}, "jackson-49261": {"city": "Jackson", "rent": 1160, "zip": "49261"}, "jackson-49263": {"city": "Jackson", "rent": 1170, "zip": "49263"}, "jackson-49264": {"city": "Jackson", "rent": 1020, "zip": "49264"}, "jackson-49269": {"city": "Jackson", "rent": 1130, "zip": "49269"}, "jackson-49272": {"city": "Jackson", "rent": 1270, "zip": "49272"}, "jackson-49277": {"city": "Jackson", "rent": 1550, "zip": "49277"}, "jackson-49283": {"city": "Jackson", "rent": 1170, "zip": "49283"}, "jackson-49284": {"city": "Jackson", "rent": 1170, "zip": "49284"}, "jackson-49285": {"city": "Jackson", "rent": 1450, "zip": "49285"}, "kalamazoo-portage-49001": {"city": "Kalamazoo-Portage", "rent": 1140, "zip": "49001"}, "kalamazoo-portage-49002": {"city": "Kalamazoo-Portage", "rent": 1070, "zip": "49002"}, "kalamazoo-portage-49003": {"city": "Kalamazoo-Portage", "rent": 1160, "zip": "49003"}, "kalamazoo-portage-49004": {"city": "Kalamazoo-Portage", "rent": 1190, "zip": "49004"}, "kalamazoo-portage-49005": {"city": "Kalamazoo-Portage", "rent": 1160, "zip": "49005"}, "kalamazoo-portage-49006": {"city": "Kalamazoo-Portage", "rent": 1070, "zip": "49006"}, "kalamazoo-portage-49007": {"city": "Kalamazoo-Portage", "rent": 1160, "zip": "49007"}, "kalamazoo-portage-49008": {"city": "Kalamazoo-Portage", "rent": 1110, "zip": "49008"}, "kalamazoo-portage-49009": {"city": "Kalamazoo-Portage", "rent": 1230, "zip": "49009"}, "kalamazoo-portage-49011": {"city": "Kalamazoo-Portage", "rent": 1110, "zip": "49011"}, "kalamazoo-portage-49012": {"city": "Kalamazoo-Portage", "rent": 1170, "zip": "49012"}, "kalamazoo-portage-49015": {"city": "Kalamazoo-Portage", "rent": 1210, "zip": "49015"}, "kalamazoo-portage-49019": {"city": "Kalamazoo-Portage", "rent": 1160, "zip": "49019"}, "kalamazoo-portage-49024": {"city": "Kalamazoo-Portage", "rent": 1320, "zip": "49024"}, "kalamazoo-portage-49034": {"city": "Kalamazoo-Portage", "rent": 1070, "zip": "49034"}, "kalamazoo-portage-49041": {"city": "Kalamazoo-Portage", "rent": 1160, "zip": "49041"}, "kalamazoo-portage-49048": {"city": "Kalamazoo-Portage", "rent": 1150, "zip": "49048"}, "kalamazoo-portage-49052": {"city": "Kalamazoo-Portage", "rent": 1070, "zip": "49052"}, "kalamazoo-portage-49053": {"city": "Kalamazoo-Portage", "rent": 1070, "zip": "49053"}, "kalamazoo-portage-49060": {"city": "Kalamazoo-Portage", "rent": 1230, "zip": "49060"}, "kalamazoo-portage-49065": {"city": "Kalamazoo-Portage", "rent": 1070, "zip": "49065"}, "kalamazoo-portage-49071": {"city": "Kalamazoo-Portage", "rent": 1230, "zip": "49071"}, "kalamazoo-portage-49072": {"city": "Kalamazoo-Portage", "rent": 1090, "zip": "49072"}, "kalamazoo-portage-49074": {"city": "Kalamazoo-Portage", "rent": 1160, "zip": "49074"}, "kalamazoo-portage-49077": {"city": "Kalamazoo-Portage", "rent": 1160, "zip": "49077"}, "kalamazoo-portage-49078": {"city": "Kalamazoo-Portage", "rent": 1410, "zip": "49078"}, "kalamazoo-portage-49080": {"city": "Kalamazoo-Portage", "rent": 1170, "zip": "49080"}, "kalamazoo-portage-49081": {"city": "Kalamazoo-Portage", "rent": 1160, "zip": "49081"}, "kalamazoo-portage-49083": {"city": "Kalamazoo-Portage", "rent": 1070, "zip": "49083"}, "kalamazoo-portage-49087": {"city": "Kalamazoo-Portage", "rent": 1070, "zip": "49087"}, "kalamazoo-portage-49088": {"city": "Kalamazoo-Portage", "rent": 1170, "zip": "49088"}, "kalamazoo-portage-49097": {"city": "Kalamazoo-Portage", "rent": 1070, "zip": "49097"}, "lansing-east-lansing-48805": {"city": "Lansing-East Lansing", "rent": 1270, "zip": "48805"}, "lansing-east-lansing-48807": {"city": "Lansing-East Lansing", "rent": 1020, "zip": "48807"}, "lansing-east-lansing-48808": {"city": "Lansing-East Lansing", "rent": 1430, "zip": "48808"}, "lansing-east-lansing-48813": {"city": "Lansing-East Lansing", "rent": 1100, "zip": "48813"}, "lansing-east-lansing-48819": {"city": "Lansing-East Lansing", "rent": 1020, "zip": "48819"}, "lansing-east-lansing-48820": {"city": "Lansing-East Lansing", "rent": 1290, "zip": "48820"}, "lansing-east-lansing-48821": {"city": "Lansing-East Lansing", "rent": 1280, "zip": "48821"}, "lansing-east-lansing-48822": {"city": "Lansing-East Lansing", "rent": 1600, "zip": "48822"}, "lansing-east-lansing-48823": {"city": "Lansing-East Lansing", "rent": 1450, "zip": "48823"}, "lansing-east-lansing-48824": {"city": "Lansing-East Lansing", "rent": 1440, "zip": "48824"}, "lansing-east-lansing-48825": {"city": "Lansing-East Lansing", "rent": 1450, "zip": "48825"}, "lansing-east-lansing-48826": {"city": "Lansing-East Lansing", "rent": 1270, "zip": "48826"}, "lansing-east-lansing-48827": {"city": "Lansing-East Lansing", "rent": 1210, "zip": "48827"}, "lansing-east-lansing-48831": {"city": "Lansing-East Lansing", "rent": 1020, "zip": "48831"}, "lansing-east-lansing-48835": {"city": "Lansing-East Lansing", "rent": 1020, "zip": "48835"}, "lansing-east-lansing-48837": {"city": "Lansing-East Lansing", "rent": 1200, "zip": "48837"}, "lansing-east-lansing-48840": {"city": "Lansing-East Lansing", "rent": 1250, "zip": "48840"}, "lansing-east-lansing-48842": {"city": "Lansing-East Lansing", "rent": 1410, "zip": "48842"}, "lansing-east-lansing-48845": {"city": "Lansing-East Lansing", "rent": 1060, "zip": "48845"}, "lansing-east-lansing-48848": {"city": "Lansing-East Lansing", "rent": 1040, "zip": "48848"}, "lansing-east-lansing-48849": {"city": "Lansing-East Lansing", "rent": 1150, "zip": "48849"}, "lansing-east-lansing-48853": {"city": "Lansing-East Lansing", "rent": 1050, "zip": "48853"}, "lansing-east-lansing-48854": {"city": "Lansing-East Lansing", "rent": 1330, "zip": "48854"}, "lansing-east-lansing-48861": {"city": "Lansing-East Lansing", "rent": 1260, "zip": "48861"}, "lansing-east-lansing-48864": {"city": "Lansing-East Lansing", "rent": 1510, "zip": "48864"}, "lansing-east-lansing-48866": {"city": "Lansing-East Lansing", "rent": 1020, "zip": "48866"}, "lansing-east-lansing-48871": {"city": "Lansing-East Lansing", "rent": 1150, "zip": "48871"}, "lansing-east-lansing-48872": {"city": "Lansing-East Lansing", "rent": 1270, "zip": "48872"}, "lansing-east-lansing-48873": {"city": "Lansing-East Lansing", "rent": 1060, "zip": "48873"}, "lansing-east-lansing-48875": {"city": "Lansing-East Lansing", "rent": 1450, "zip": "48875"}, "lansing-east-lansing-48876": {"city": "Lansing-East Lansing", "rent": 1170, "zip": "48876"}, "lansing-east-lansing-48879": {"city": "Lansing-East Lansing", "rent": 1080, "zip": "48879"}, "lansing-east-lansing-48890": {"city": "Lansing-East Lansing", "rent": 1210, "zip": "48890"}, "lansing-east-lansing-48892": {"city": "Lansing-East Lansing", "rent": 1270, "zip": "48892"}, "lansing-east-lansing-48894": {"city": "Lansing-East Lansing", "rent": 1060, "zip": "48894"}, "lansing-east-lansing-48895": {"city": "Lansing-East Lansing", "rent": 1230, "zip": "48895"}, "lansing-east-lansing-48897": {"city": "Lansing-East Lansing", "rent": 1020, "zip": "48897"}, "lansing-east-lansing-48901": {"city": "Lansing-East Lansing", "rent": 1270, "zip": "48901"}, "lansing-east-lansing-48906": {"city": "Lansing-East Lansing", "rent": 1270, "zip": "48906"}, "lansing-east-lansing-48908": {"city": "Lansing-East Lansing", "rent": 1240, "zip": "48908"}, "lansing-east-lansing-48909": {"city": "Lansing-East Lansing", "rent": 1270, "zip": "48909"}, "lansing-east-lansing-48910": {"city": "Lansing-East Lansing", "rent": 1240, "zip": "48910"}, "lansing-east-lansing-48911": {"city": "Lansing-East Lansing", "rent": 1130, "zip": "48911"}, "lansing-east-lansing-48912": {"city": "Lansing-East Lansing", "rent": 1290, "zip": "48912"}, "lansing-east-lansing-48915": {"city": "Lansing-East Lansing", "rent": 1300, "zip": "48915"}, "lansing-east-lansing-48917": {"city": "Lansing-East Lansing", "rent": 1300, "zip": "48917"}, "lansing-east-lansing-48924": {"city": "Lansing-East Lansing", "rent": 1270, "zip": "48924"}, "lansing-east-lansing-48933": {"city": "Lansing-East Lansing", "rent": 1110, "zip": "48933"}, "lansing-east-lansing-48956": {"city": "Lansing-East Lansing", "rent": 1270, "zip": "48956"}, "lansing-east-lansing-49014": {"city": "Lansing-East Lansing", "rent": 1250, "zip": "49014"}, "lansing-east-lansing-49021": {"city": "Lansing-East Lansing", "rent": 1260, "zip": "49021"}, "lansing-east-lansing-49073": {"city": "Lansing-East Lansing", "rent": 1160, "zip": "49073"}, "lansing-east-lansing-49076": {"city": "Lansing-East Lansing", "rent": 1090, "zip": "49076"}, "lansing-east-lansing-49096": {"city": "Lansing-East Lansing", "rent": 1110, "zip": "49096"}, "lansing-east-lansing-49251": {"city": "Lansing-East Lansing", "rent": 1310, "zip": "49251"}, "lansing-east-lansing-49264": {"city": "Lansing-East Lansing", "rent": 1020, "zip": "49264"}, "lansing-east-lansing-49284": {"city": "Lansing-East Lansing", "rent": 1170, "zip": "49284"}, "lansing-east-lansing-49285": {"city": "Lansing-East Lansing", "rent": 1450, "zip": "49285"}, "midland-48612": {"city": "Midland", "rent": 1050, "zip": "48612"}, "midland-48615": {"city": "Midland", "rent": 1030, "zip": "48615"}, "midland-48618": {"city": "Midland", "rent": 1030, "zip": "48618"}, "midland-48620": {"city": "Midland", "rent": 1270, "zip": "48620"}, "midland-48623": {"city": "Midland", "rent": 1330, "zip": "48623"}, "midland-48626": {"city": "Midland", "rent": 1090, "zip": "48626"}, "midland-48628": {"city": "Midland", "rent": 1450, "zip": "48628"}, "midland-48634": {"city": "Midland", "rent": 1030, "zip": "48634"}, "midland-48637": {"city": "Midland", "rent": 1030, "zip": "48637"}, "midland-48640": {"city": "Midland", "rent": 1140, "zip": "48640"}, "midland-48641": {"city": "Midland", "rent": 1190, "zip": "48641"}, "midland-48642": {"city": "Midland", "rent": 1340, "zip": "48642"}, "midland-48652": {"city": "Midland", "rent": 1330, "zip": "48652"}, "midland-48657": {"city": "Midland", "rent": 1140, "zip": "48657"}, "midland-48662": {"city": "Midland", "rent": 1030, "zip": "48662"}, "midland-48858": {"city": "Midland", "rent": 1030, "zip": "48858"}, "midland-48880": {"city": "Midland", "rent": 1030, "zip": "48880"}, "midland-48883": {"city": "Midland", "rent": 1030, "zip": "48883"}, "monroe-48111": {"city": "Monroe", "rent": 1470, "zip": "48111"}, "monroe-48117": {"city": "Monroe", "rent": 1340, "zip": "48117"}, "monroe-48131": {"city": "Monroe", "rent": 1480, "zip": "48131"}, "monroe-48133": {"city": "Monroe", "rent": 1160, "zip": "48133"}, "monroe-48134": {"city": "Monroe", "rent": 1380, "zip": "48134"}, "monroe-48140": {"city": "Monroe", "rent": 1350, "zip": "48140"}, "monroe-48144": {"city": "Monroe", "rent": 1360, "zip": "48144"}, "monroe-48145": {"city": "Monroe", "rent": 1430, "zip": "48145"}, "monroe-48157": {"city": "Monroe", "rent": 1260, "zip": "48157"}, "monroe-48159": {"city": "Monroe", "rent": 1280, "zip": "48159"}, "monroe-48160": {"city": "Monroe", "rent": 1500, "zip": "48160"}, "monroe-48161": {"city": "Monroe", "rent": 1250, "zip": "48161"}, "monroe-48162": {"city": "Monroe", "rent": 1210, "zip": "48162"}, "monroe-48164": {"city": "Monroe", "rent": 1880, "zip": "48164"}, "monroe-48166": {"city": "Monroe", "rent": 1480, "zip": "48166"}, "monroe-48177": {"city": "Monroe", "rent": 1540, "zip": "48177"}, "monroe-48179": {"city": "Monroe", "rent": 1680, "zip": "48179"}, "monroe-48182": {"city": "Monroe", "rent": 1540, "zip": "48182"}, "monroe-48191": {"city": "Monroe", "rent": 1750, "zip": "48191"}, "monroe-49228": {"city": "Monroe", "rent": 1180, "zip": "49228"}, "monroe-49229": {"city": "Monroe", "rent": 1450, "zip": "49229"}, "monroe-49238": {"city": "Monroe", "rent": 1140, "zip": "49238"}, "monroe-49267": {"city": "Monroe", "rent": 1370, "zip": "49267"}, "monroe-49270": {"city": "Monroe", "rent": 1310, "zip": "49270"}, "monroe-49276": {"city": "Monroe", "rent": 1420, "zip": "49276"}, "muskegon-norton-shores-49303": {"city": "Muskegon-Norton Shores", "rent": 1300, "zip": "49303"}, "muskegon-norton-shores-49318": {"city": "Muskegon-Norton Shores", "rent": 1520, "zip": "49318"}, "muskegon-norton-shores-49327": {"city": "Muskegon-Norton Shores", "rent": 1300, "zip": "49327"}, "muskegon-norton-shores-49330": {"city": "Muskegon-Norton Shores", "rent": 1520, "zip": "49330"}, "muskegon-norton-shores-49403": {"city": "Muskegon-Norton Shores", "rent": 1340, "zip": "49403"}, "muskegon-norton-shores-49404": {"city": "Muskegon-Norton Shores", "rent": 1330, "zip": "49404"}, "muskegon-norton-shores-49412": {"city": "Muskegon-Norton Shores", "rent": 1040, "zip": "49412"}, "muskegon-norton-shores-49415": {"city": "Muskegon-Norton Shores", "rent": 1410, "zip": "49415"}, "muskegon-norton-shores-49425": {"city": "Muskegon-Norton Shores", "rent": 1040, "zip": "49425"}, "muskegon-norton-shores-49437": {"city": "Muskegon-Norton Shores", "rent": 1040, "zip": "49437"}, "muskegon-norton-shores-49440": {"city": "Muskegon-Norton Shores", "rent": 1040, "zip": "49440"}, "muskegon-norton-shores-49441": {"city": "Muskegon-Norton Shores", "rent": 1310, "zip": "49441"}, "muskegon-norton-shores-49442": {"city": "Muskegon-Norton Shores", "rent": 1150, "zip": "49442"}, "muskegon-norton-shores-49443": {"city": "Muskegon-Norton Shores", "rent": 1220, "zip": "49443"}, "muskegon-norton-shores-49444": {"city": "Muskegon-Norton Shores", "rent": 1290, "zip": "49444"}, "muskegon-norton-shores-49445": {"city": "Muskegon-Norton Shores", "rent": 1460, "zip": "49445"}, "muskegon-norton-shores-49448": {"city": "Muskegon-Norton Shores", "rent": 1230, "zip": "49448"}, "muskegon-norton-shores-49451": {"city": "Muskegon-Norton Shores", "rent": 1240, "zip": "49451"}, "muskegon-norton-shores-49456": {"city": "Muskegon-Norton Shores", "rent": 1500, "zip": "49456"}, "muskegon-norton-shores-49457": {"city": "Muskegon-Norton Shores", "rent": 1260, "zip": "49457"}, "muskegon-norton-shores-49461": {"city": "Muskegon-Norton Shores", "rent": 1130, "zip": "49461"}, "niles-49022": {"city": "Niles", "rent": 1070, "zip": "49022"}, "niles-49023": {"city": "Niles", "rent": 1180, "zip": "49023"}, "niles-49038": {"city": "Niles", "rent": 1140, "zip": "49038"}, "niles-49043": {"city": "Niles", "rent": 1110, "zip": "49043"}, "niles-49047": {"city": "Niles", "rent": 1040, "zip": "49047"}, "niles-49084": {"city": "Niles", "rent": 1070, "zip": "49084"}, "niles-49085": {"city": "Niles", "rent": 1370, "zip": "49085"}, "niles-49098": {"city": "Niles", "rent": 1400, "zip": "49098"}, "niles-49101": {"city": "Niles", "rent": 1260, "zip": "49101"}, "niles-49102": {"city": "Niles", "rent": 1290, "zip": "49102"}, "niles-49103": {"city": "Niles", "rent": 1140, "zip": "49103"}, "niles-49104": {"city": "Niles", "rent": 1140, "zip": "49104"}, "niles-49106": {"city": "Niles", "rent": 1380, "zip": "49106"}, "niles-49107": {"city": "Niles", "rent": 1070, "zip": "49107"}, "niles-49111": {"city": "Niles", "rent": 1150, "zip": "49111"}, "niles-49113": {"city": "Niles", "rent": 1150, "zip": "49113"}, "niles-49115": {"city": "Niles", "rent": 1060, "zip": "49115"}, "niles-49116": {"city": "Niles", "rent": 1190, "zip": "49116"}, "niles-49117": {"city": "Niles", "rent": 1040, "zip": "49117"}, "niles-49119": {"city": "Niles", "rent": 1140, "zip": "49119"}, "niles-49120": {"city": "Niles", "rent": 1130, "zip": "49120"}, "niles-49125": {"city": "Niles", "rent": 1040, "zip": "49125"}, "niles-49126": {"city": "Niles", "rent": 1230, "zip": "49126"}, "niles-49127": {"city": "Niles", "rent": 1360, "zip": "49127"}, "niles-49128": {"city": "Niles", "rent": 1240, "zip": "49128"}, "niles-49129": {"city": "Niles", "rent": 1040, "zip": "49129"}, "saginaw-48415": {"city": "Saginaw", "rent": 1180, "zip": "48415"}, "saginaw-48417": {"city": "Saginaw", "rent": 1240, "zip": "48417"}, "saginaw-48420": {"city": "Saginaw", "rent": 970, "zip": "48420"}, "saginaw-48457": {"city": "Saginaw", "rent": 990, "zip": "48457"}, "saginaw-48460": {"city": "Saginaw", "rent": 970, "zip": "48460"}, "saginaw-48601": {"city": "Saginaw", "rent": 1090, "zip": "48601"}, "saginaw-48602": {"city": "Saginaw", "rent": 1090, "zip": "48602"}, "saginaw-48603": {"city": "Saginaw", "rent": 1230, "zip": "48603"}, "saginaw-48604": {"city": "Saginaw", "rent": 1190, "zip": "48604"}, "saginaw-48605": {"city": "Saginaw", "rent": 1120, "zip": "48605"}, "saginaw-48606": {"city": "Saginaw", "rent": 1120, "zip": "48606"}, "saginaw-48607": {"city": "Saginaw", "rent": 1210, "zip": "48607"}, "saginaw-48608": {"city": "Saginaw", "rent": 1120, "zip": "48608"}, "saginaw-48609": {"city": "Saginaw", "rent": 1080, "zip": "48609"}, "saginaw-48614": {"city": "Saginaw", "rent": 1220, "zip": "48614"}, "saginaw-48616": {"city": "Saginaw", "rent": 970, "zip": "48616"}, "saginaw-48623": {"city": "Saginaw", "rent": 1330, "zip": "48623"}, "saginaw-48626": {"city": "Saginaw", "rent": 1090, "zip": "48626"}, "saginaw-48637": {"city": "Saginaw", "rent": 1030, "zip": "48637"}, "saginaw-48638": {"city": "Saginaw", "rent": 1130, "zip": "48638"}, "saginaw-48649": {"city": "Saginaw", "rent": 970, "zip": "48649"}, "saginaw-48655": {"city": "Saginaw", "rent": 970, "zip": "48655"}, "saginaw-48708": {"city": "Saginaw", "rent": 970, "zip": "48708"}, "saginaw-48722": {"city": "Saginaw", "rent": 1120, "zip": "48722"}, "saginaw-48724": {"city": "Saginaw", "rent": 1150, "zip": "48724"}, "saginaw-48734": {"city": "Saginaw", "rent": 990, "zip": "48734"}, "saginaw-48747": {"city": "Saginaw", "rent": 1130, "zip": "48747"}, "saginaw-48757": {"city": "Saginaw", "rent": 1030, "zip": "48757"}, "saginaw-48768": {"city": "Saginaw", "rent": 970, "zip": "48768"}, "saginaw-48807": {"city": "Saginaw", "rent": 1020, "zip": "48807"}, "saginaw-48831": {"city": "Saginaw", "rent": 1020, "zip": "48831"}, "saginaw-48841": {"city": "Saginaw", "rent": 1120, "zip": "48841"}, "saginaw-48867": {"city": "Saginaw", "rent": 1030, "zip": "48867"}, "cass-county-49031": {"city": "Cass County", "rent": 970, "zip": "49031"}, "cass-county-49042": {"city": "Cass County", "rent": 980, "zip": "49042"}, "cass-county-49045": {"city": "Cass County", "rent": 970, "zip": "49045"}, "cass-county-49047": {"city": "Cass County", "rent": 1040, "zip": "49047"}, "cass-county-49061": {"city": "Cass County", "rent": 1020, "zip": "49061"}, "cass-county-49065": {"city": "Cass County", "rent": 1070, "zip": "49065"}, "cass-county-49067": {"city": "Cass County", "rent": 1070, "zip": "49067"}, "cass-county-49093": {"city": "Cass County", "rent": 1010, "zip": "49093"}, "cass-county-49095": {"city": "Cass County", "rent": 1180, "zip": "49095"}, "cass-county-49099": {"city": "Cass County", "rent": 1040, "zip": "49099"}, "cass-county-49102": {"city": "Cass County", "rent": 1290, "zip": "49102"}, "cass-county-49111": {"city": "Cass County", "rent": 1150, "zip": "49111"}, "cass-county-49112": {"city": "Cass County", "rent": 1120, "zip": "49112"}, "cass-county-49120": {"city": "Cass County", "rent": 1130, "zip": "49120"}, "cass-county-49130": {"city": "Cass County", "rent": 970, "zip": "49130"}, "benzie-county-49613": {"city": "Benzie County", "rent": 1090, "zip": "49613"}, "benzie-county-49616": {"city": "Benzie County", "rent": 1030, "zip": "49616"}, "benzie-county-49617": {"city": "Benzie County", "rent": 1030, "zip": "49617"}, "benzie-county-49628": {"city": "Benzie County", "rent": 1110, "zip": "49628"}, "benzie-county-49630": {"city": "Benzie County", "rent": 1390, "zip": "49630"}, "benzie-county-49635": {"city": "Benzie County", "rent": 1110, "zip": "49635"}, "benzie-county-49640": {"city": "Benzie County", "rent": 1200, "zip": "49640"}, "benzie-county-49643": {"city": "Benzie County", "rent": 1320, "zip": "49643"}, "benzie-county-49650": {"city": "Benzie County", "rent": 1580, "zip": "49650"}, "benzie-county-49664": {"city": "Benzie County", "rent": 1610, "zip": "49664"}, "benzie-county-49683": {"city": "Benzie County", "rent": 1220, "zip": "49683"}, "benzie-county-49684": {"city": "Benzie County", "rent": 1380, "zip": "49684"}, "grand-traverse-county-49610": {"city": "Grand Traverse County", "rent": 1360, "zip": "49610"}, "grand-traverse-county-49620": {"city": "Grand Traverse County", "rent": 1250, "zip": "49620"}, "grand-traverse-county-49633": {"city": "Grand Traverse County", "rent": 1260, "zip": "49633"}, "grand-traverse-county-49637": {"city": "Grand Traverse County", "rent": 1390, "zip": "49637"}, "grand-traverse-county-49643": {"city": "Grand Traverse County", "rent": 1320, "zip": "49643"}, "grand-traverse-county-49649": {"city": "Grand Traverse County", "rent": 1150, "zip": "49649"}, "grand-traverse-county-49680": {"city": "Grand Traverse County", "rent": 1210, "zip": "49680"}, "grand-traverse-county-49683": {"city": "Grand Traverse County", "rent": 1220, "zip": "49683"}, "grand-traverse-county-49684": {"city": "Grand Traverse County", "rent": 1380, "zip": "49684"}, "grand-traverse-county-49685": {"city": "Grand Traverse County", "rent": 1490, "zip": "49685"}, "grand-traverse-county-49686": {"city": "Grand Traverse County", "rent": 1370, "zip": "49686"}, "grand-traverse-county-49690": {"city": "Grand Traverse County", "rent": 1420, "zip": "49690"}, "grand-traverse-county-49696": {"city": "Grand Traverse County", "rent": 1320, "zip": "49696"}, "kalkaska-county-49612": {"city": "Kalkaska County", "rent": 1030, "zip": "49612"}, "kalkaska-county-49633": {"city": "Kalkaska County", "rent": 1260, "zip": "49633"}, "kalkaska-county-49646": {"city": "Kalkaska County", "rent": 970, "zip": "49646"}, "kalkaska-county-49659": {"city": "Kalkaska County", "rent": 1130, "zip": "49659"}, "kalkaska-county-49676": {"city": "Kalkaska County", "rent": 1110, "zip": "49676"}, "kalkaska-county-49680": {"city": "Kalkaska County", "rent": 1210, "zip": "49680"}, "kalkaska-county-49690": {"city": "Kalkaska County", "rent": 1420, "zip": "49690"}, "kalkaska-county-49738": {"city": "Kalkaska County", "rent": 1070, "zip": "49738"}, "leelanau-county-49621": {"city": "Leelanau County", "rent": 1400, "zip": "49621"}, "leelanau-county-49630": {"city": "Leelanau County", "rent": 1390, "zip": "49630"}, "leelanau-county-49636": {"city": "Leelanau County", "rent": 1490, "zip": "49636"}, "leelanau-county-49640": {"city": "Leelanau County", "rent": 1200, "zip": "49640"}, "leelanau-county-49650": {"city": "Leelanau County", "rent": 1580, "zip": "49650"}, "leelanau-county-49653": {"city": "Leelanau County", "rent": 1200, "zip": "49653"}, "leelanau-county-49654": {"city": "Leelanau County", "rent": 1530, "zip": "49654"}, "leelanau-county-49664": {"city": "Leelanau County", "rent": 1610, "zip": "49664"}, "leelanau-county-49670": {"city": "Leelanau County", "rent": 1720, "zip": "49670"}, "leelanau-county-49674": {"city": "Leelanau County", "rent": 1590, "zip": "49674"}, "leelanau-county-49682": {"city": "Leelanau County", "rent": 1380, "zip": "49682"}, "leelanau-county-49684": {"city": "Leelanau County", "rent": 1380, "zip": "49684"}, "alcona-county-48647": {"city": "Alcona County", "rent": 970, "zip": "48647"}, "alcona-county-48705": {"city": "Alcona County", "rent": 1050, "zip": "48705"}, "alcona-county-48721": {"city": "Alcona County", "rent": 990, "zip": "48721"}, "alcona-county-48728": {"city": "Alcona County", "rent": 1020, "zip": "48728"}, "alcona-county-48737": {"city": "Alcona County", "rent": 1070, "zip": "48737"}, "alcona-county-48738": {"city": "Alcona County", "rent": 1020, "zip": "48738"}, "alcona-county-48740": {"city": "Alcona County", "rent": 1020, "zip": "48740"}, "alcona-county-48742": {"city": "Alcona County", "rent": 970, "zip": "48742"}, "alcona-county-48745": {"city": "Alcona County", "rent": 1270, "zip": "48745"}, "alcona-county-48750": {"city": "Alcona County", "rent": 1010, "zip": "48750"}, "alcona-county-48761": {"city": "Alcona County", "rent": 1030, "zip": "48761"}, "alcona-county-48762": {"city": "Alcona County", "rent": 980, "zip": "48762"}, "alcona-county-49747": {"city": "Alcona County", "rent": 1020, "zip": "49747"}, "alger-county-49806": {"city": "Alger County", "rent": 1100, "zip": "49806"}, "alger-county-49816": {"city": "Alger County", "rent": 1000, "zip": "49816"}, "alger-county-49822": {"city": "Alger County", "rent": 1070, "zip": "49822"}, "alger-county-49825": {"city": "Alger County", "rent": 1070, "zip": "49825"}, "alger-county-49826": {"city": "Alger County", "rent": 1070, "zip": "49826"}, "alger-county-49839": {"city": "Alger County", "rent": 1060, "zip": "49839"}, "alger-county-49862": {"city": "Alger County", "rent": 1130, "zip": "49862"}, "alger-county-49878": {"city": "Alger County", "rent": 1410, "zip": "49878"}, "alger-county-49883": {"city": "Alger County", "rent": 970, "zip": "49883"}, "alger-county-49884": {"city": "Alger County", "rent": 1070, "zip": "49884"}, "alger-county-49885": {"city": "Alger County", "rent": 1140, "zip": "49885"}, "alger-county-49891": {"city": "Alger County", "rent": 1070, "zip": "49891"}, "alger-county-49895": {"city": "Alger County", "rent": 1110, "zip": "49895"}, "allegan-county-49010": {"city": "Allegan County", "rent": 1210, "zip": "49010"}, "allegan-county-49026": {"city": "Allegan County", "rent": 1050, "zip": "49026"}, "allegan-county-49055": {"city": "Allegan County", "rent": 1110, "zip": "49055"}, "allegan-county-49056": {"city": "Allegan County", "rent": 1000, "zip": "49056"}, "allegan-county-49070": {"city": "Allegan County", "rent": 1140, "zip": "49070"}, "allegan-county-49078": {"city": "Allegan County", "rent": 1410, "zip": "49078"}, "allegan-county-49080": {"city": "Allegan County", "rent": 1170, "zip": "49080"}, "allegan-county-49090": {"city": "Allegan County", "rent": 1070, "zip": "49090"}, "allegan-county-49315": {"city": "Allegan County", "rent": 1680, "zip": "49315"}, "allegan-county-49316": {"city": "Allegan County", "rent": 1720, "zip": "49316"}, "allegan-county-49323": {"city": "Allegan County", "rent": 1310, "zip": "49323"}, "allegan-county-49328": {"city": "Allegan County", "rent": 1000, "zip": "49328"}, "allegan-county-49333": {"city": "Allegan County", "rent": 1570, "zip": "49333"}, "allegan-county-49335": {"city": "Allegan County", "rent": 1370, "zip": "49335"}, "allegan-county-49344": {"city": "Allegan County", "rent": 1490, "zip": "49344"}, "allegan-county-49348": {"city": "Allegan County", "rent": 1400, "zip": "49348"}, "allegan-county-49406": {"city": "Allegan County", "rent": 1040, "zip": "49406"}, "allegan-county-49408": {"city": "Allegan County", "rent": 1070, "zip": "49408"}, "allegan-county-49419": {"city": "Allegan County", "rent": 1380, "zip": "49419"}, "allegan-county-49423": {"city": "Allegan County", "rent": 1480, "zip": "49423"}, "allegan-county-49426": {"city": "Allegan County", "rent": 1590, "zip": "49426"}, "allegan-county-49434": {"city": "Allegan County", "rent": 1490, "zip": "49434"}, "allegan-county-49450": {"city": "Allegan County", "rent": 1280, "zip": "49450"}, "allegan-county-49453": {"city": "Allegan County", "rent": 1000, "zip": "49453"}, "allegan-county-49464": {"city": "Allegan County", "rent": 1360, "zip": "49464"}, "alpena-county-48762": {"city": "Alpena County", "rent": 980, "zip": "48762"}, "alpena-county-49707": {"city": "Alpena County", "rent": 970, "zip": "49707"}, "alpena-county-49744": {"city": "Alpena County", "rent": 1270, "zip": "49744"}, "alpena-county-49746": {"city": "Alpena County", "rent": 970, "zip": "49746"}, "alpena-county-49747": {"city": "Alpena County", "rent": 1020, "zip": "49747"}, "alpena-county-49753": {"city": "Alpena County", "rent": 1090, "zip": "49753"}, "alpena-county-49766": {"city": "Alpena County", "rent": 970, "zip": "49766"}, "alpena-county-49776": {"city": "Alpena County", "rent": 970, "zip": "49776"}, "antrim-county-49611": {"city": "Antrim County", "rent": 1110, "zip": "49611"}, "antrim-county-49612": {"city": "Antrim County", "rent": 1030, "zip": "49612"}, "antrim-county-49615": {"city": "Antrim County", "rent": 970, "zip": "49615"}, "antrim-county-49622": {"city": "Antrim County", "rent": 1250, "zip": "49622"}, "antrim-county-49627": {"city": "Antrim County", "rent": 1360, "zip": "49627"}, "antrim-county-49629": {"city": "Antrim County", "rent": 1290, "zip": "49629"}, "antrim-county-49648": {"city": "Antrim County", "rent": 1520, "zip": "49648"}, "antrim-county-49659": {"city": "Antrim County", "rent": 1130, "zip": "49659"}, "antrim-county-49676": {"city": "Antrim County", "rent": 1110, "zip": "49676"}, "antrim-county-49690": {"city": "Antrim County", "rent": 1420, "zip": "49690"}, "antrim-county-49712": {"city": "Antrim County", "rent": 1110, "zip": "49712"}, "antrim-county-49713": {"city": "Antrim County", "rent": 1040, "zip": "49713"}, "antrim-county-49720": {"city": "Antrim County", "rent": 1060, "zip": "49720"}, "antrim-county-49727": {"city": "Antrim County", "rent": 970, "zip": "49727"}, "antrim-county-49729": {"city": "Antrim County", "rent": 1280, "zip": "49729"}, "antrim-county-49730": {"city": "Antrim County", "rent": 1070, "zip": "49730"}, "arenac-county-48610": {"city": "Arenac County", "rent": 1160, "zip": "48610"}, "arenac-county-48613": {"city": "Arenac County", "rent": 1300, "zip": "48613"}, "arenac-county-48650": {"city": "Arenac County", "rent": 1010, "zip": "48650"}, "arenac-county-48658": {"city": "Arenac County", "rent": 970, "zip": "48658"}, "arenac-county-48659": {"city": "Arenac County", "rent": 1050, "zip": "48659"}, "arenac-county-48703": {"city": "Arenac County", "rent": 970, "zip": "48703"}, "arenac-county-48749": {"city": "Arenac County", "rent": 1100, "zip": "48749"}, "arenac-county-48756": {"city": "Arenac County", "rent": 1020, "zip": "48756"}, "arenac-county-48763": {"city": "Arenac County", "rent": 1090, "zip": "48763"}, "arenac-county-48765": {"city": "Arenac County", "rent": 1000, "zip": "48765"}, "arenac-county-48766": {"city": "Arenac County", "rent": 1090, "zip": "48766"}, "arenac-county-48770": {"city": "Arenac County", "rent": 970, "zip": "48770"}, "baraga-county-49861": {"city": "Baraga County", "rent": 970, "zip": "49861"}, "baraga-county-49908": {"city": "Baraga County", "rent": 1000, "zip": "49908"}, "baraga-county-49919": {"city": "Baraga County", "rent": 970, "zip": "49919"}, "baraga-county-49946": {"city": "Baraga County", "rent": 970, "zip": "49946"}, "baraga-county-49952": {"city": "Baraga County", "rent": 970, "zip": "49952"}, "baraga-county-49958": {"city": "Baraga County", "rent": 1000, "zip": "49958"}, "baraga-county-49962": {"city": "Baraga County", "rent": 970, "zip": "49962"}, "baraga-county-49970": {"city": "Baraga County", "rent": 1000, "zip": "49970"}, "branch-county-49011": {"city": "Branch County", "rent": 1110, "zip": "49011"}, "branch-county-49028": {"city": "Branch County", "rent": 970, "zip": "49028"}, "branch-county-49030": {"city": "Branch County", "rent": 1100, "zip": "49030"}, "branch-county-49036": {"city": "Branch County", "rent": 980, "zip": "49036"}, "branch-county-49040": {"city": "Branch County", "rent": 1000, "zip": "49040"}, "branch-county-49082": {"city": "Branch County", "rent": 970, "zip": "49082"}, "branch-county-49089": {"city": "Branch County", "rent": 970, "zip": "49089"}, "branch-county-49092": {"city": "Branch County", "rent": 1380, "zip": "49092"}, "branch-county-49094": {"city": "Branch County", "rent": 990, "zip": "49094"}, "branch-county-49227": {"city": "Branch County", "rent": 970, "zip": "49227"}, "branch-county-49245": {"city": "Branch County", "rent": 1130, "zip": "49245"}, "branch-county-49252": {"city": "Branch County", "rent": 1000, "zip": "49252"}, "branch-county-49255": {"city": "Branch County", "rent": 1120, "zip": "49255"}, "branch-county-49274": {"city": "Branch County", "rent": 970, "zip": "49274"}, "charlevoix-county-49712": {"city": "Charlevoix County", "rent": 1110, "zip": "49712"}, "charlevoix-county-49713": {"city": "Charlevoix County", "rent": 1040, "zip": "49713"}, "charlevoix-county-49720": {"city": "Charlevoix County", "rent": 1060, "zip": "49720"}, "charlevoix-county-49727": {"city": "Charlevoix County", "rent": 970, "zip": "49727"}, "charlevoix-county-49729": {"city": "Charlevoix County", "rent": 1280, "zip": "49729"}, "charlevoix-county-49730": {"city": "Charlevoix County", "rent": 1070, "zip": "49730"}, "charlevoix-county-49770": {"city": "Charlevoix County", "rent": 1260, "zip": "49770"}, "charlevoix-county-49782": {"city": "Charlevoix County", "rent": 1020, "zip": "49782"}, "charlevoix-county-49795": {"city": "Charlevoix County", "rent": 1140, "zip": "49795"}, "charlevoix-county-49796": {"city": "Charlevoix County", "rent": 1110, "zip": "49796"}, "cheboygan-county-49701": {"city": "Cheboygan County", "rent": 1040, "zip": "49701"}, "cheboygan-county-49705": {"city": "Cheboygan County", "rent": 970, "zip": "49705"}, "cheboygan-county-49706": {"city": "Cheboygan County", "rent": 1040, "zip": "49706"}, "cheboygan-county-49716": {"city": "Cheboygan County", "rent": 1140, "zip": "49716"}, "cheboygan-county-49717": {"city": "Cheboygan County", "rent": 1030, "zip": "49717"}, "cheboygan-county-49718": {"city": "Cheboygan County", "rent": 1210, "zip": "49718"}, "cheboygan-county-49721": {"city": "Cheboygan County", "rent": 1080, "zip": "49721"}, "cheboygan-county-49749": {"city": "Cheboygan County", "rent": 1030, "zip": "49749"}, "cheboygan-county-49755": {"city": "Cheboygan County", "rent": 1180, "zip": "49755"}, "cheboygan-county-49761": {"city": "Cheboygan County", "rent": 1050, "zip": "49761"}, "cheboygan-county-49765": {"city": "Cheboygan County", "rent": 970, "zip": "49765"}, "cheboygan-county-49769": {"city": "Cheboygan County", "rent": 1210, "zip": "49769"}, "cheboygan-county-49770": {"city": "Cheboygan County", "rent": 1260, "zip": "49770"}, "cheboygan-county-49791": {"city": "Cheboygan County", "rent": 1050, "zip": "49791"}, "cheboygan-county-49792": {"city": "Cheboygan County", "rent": 1050, "zip": "49792"}, "cheboygan-county-49795": {"city": "Cheboygan County", "rent": 1140, "zip": "49795"}, "cheboygan-county-49799": {"city": "Cheboygan County", "rent": 970, "zip": "49799"}, "chippewa-county-49710": {"city": "Chippewa County", "rent": 1070, "zip": "49710"}, "chippewa-county-49715": {"city": "Chippewa County", "rent": 970, "zip": "49715"}, "chippewa-county-49719": {"city": "Chippewa County", "rent": 1030, "zip": "49719"}, "chippewa-county-49724": {"city": "Chippewa County", "rent": 1070, "zip": "49724"}, "chippewa-county-49725": {"city": "Chippewa County", "rent": 1050, "zip": "49725"}, "chippewa-county-49726": {"city": "Chippewa County", "rent": 1060, "zip": "49726"}, "chippewa-county-49728": {"city": "Chippewa County", "rent": 1070, "zip": "49728"}, "chippewa-county-49736": {"city": "Chippewa County", "rent": 1070, "zip": "49736"}, "chippewa-county-49748": {"city": "Chippewa County", "rent": 1070, "zip": "49748"}, "chippewa-county-49752": {"city": "Chippewa County", "rent": 1070, "zip": "49752"}, "chippewa-county-49760": {"city": "Chippewa County", "rent": 1400, "zip": "49760"}, "chippewa-county-49768": {"city": "Chippewa County", "rent": 1070, "zip": "49768"}, "chippewa-county-49774": {"city": "Chippewa County", "rent": 1060, "zip": "49774"}, "chippewa-county-49780": {"city": "Chippewa County", "rent": 1140, "zip": "49780"}, "chippewa-county-49783": {"city": "Chippewa County", "rent": 1070, "zip": "49783"}, "chippewa-county-49784": {"city": "Chippewa County", "rent": 1090, "zip": "49784"}, "chippewa-county-49788": {"city": "Chippewa County", "rent": 1090, "zip": "49788"}, "chippewa-county-49793": {"city": "Chippewa County", "rent": 1100, "zip": "49793"}, "chippewa-county-49868": {"city": "Chippewa County", "rent": 1000, "zip": "49868"}, "clare-county-48612": {"city": "Clare County", "rent": 1050, "zip": "48612"}, "clare-county-48617": {"city": "Clare County", "rent": 1040, "zip": "48617"}, "clare-county-48622": {"city": "Clare County", "rent": 1040, "zip": "48622"}, "clare-county-48624": {"city": "Clare County", "rent": 970, "zip": "48624"}, "clare-county-48625": {"city": "Clare County", "rent": 970, "zip": "48625"}, "clare-county-48632": {"city": "Clare County", "rent": 980, "zip": "48632"}, "clare-county-48633": {"city": "Clare County", "rent": 970, "zip": "48633"}, "clare-county-49665": {"city": "Clare County", "rent": 970, "zip": "49665"}, "clare-county-49679": {"city": "Clare County", "rent": 1310, "zip": "49679"}, "crawford-county-48653": {"city": "Crawford County", "rent": 1010, "zip": "48653"}, "crawford-county-49733": {"city": "Crawford County", "rent": 1020, "zip": "49733"}, "crawford-county-49738": {"city": "Crawford County", "rent": 1070, "zip": "49738"}, "crawford-county-49756": {"city": "Crawford County", "rent": 1100, "zip": "49756"}, "delta-county-49807": {"city": "Delta County", "rent": 1100, "zip": "49807"}, "delta-county-49817": {"city": "Delta County", "rent": 1080, "zip": "49817"}, "delta-county-49818": {"city": "Delta County", "rent": 1040, "zip": "49818"}, "delta-county-49829": {"city": "Delta County", "rent": 970, "zip": "49829"}, "delta-county-49835": {"city": "Delta County", "rent": 1250, "zip": "49835"}, "delta-county-49837": {"city": "Delta County", "rent": 1090, "zip": "49837"}, "delta-county-49854": {"city": "Delta County", "rent": 970, "zip": "49854"}, "delta-county-49864": {"city": "Delta County", "rent": 1410, "zip": "49864"}, "delta-county-49872": {"city": "Delta County", "rent": 1310, "zip": "49872"}, "delta-county-49878": {"city": "Delta County", "rent": 1410, "zip": "49878"}, "delta-county-49880": {"city": "Delta County", "rent": 1020, "zip": "49880"}, "delta-county-49894": {"city": "Delta County", "rent": 1030, "zip": "49894"}, "delta-county-49895": {"city": "Delta County", "rent": 1110, "zip": "49895"}, "dickinson-county-49801": {"city": "Dickinson County", "rent": 970, "zip": "49801"}, "dickinson-county-49802": {"city": "Dickinson County", "rent": 1100, "zip": "49802"}, "dickinson-county-49815": {"city": "Dickinson County", "rent": 1060, "zip": "49815"}, "dickinson-county-49831": {"city": "Dickinson County", "rent": 1000, "zip": "49831"}, "dickinson-county-49834": {"city": "Dickinson County", "rent": 1030, "zip": "49834"}, "dickinson-county-49852": {"city": "Dickinson County", "rent": 1060, "zip": "49852"}, "dickinson-county-49870": {"city": "Dickinson County", "rent": 980, "zip": "49870"}, "dickinson-county-49873": {"city": "Dickinson County", "rent": 1030, "zip": "49873"}, "dickinson-county-49876": {"city": "Dickinson County", "rent": 1000, "zip": "49876"}, "dickinson-county-49877": {"city": "Dickinson County", "rent": 970, "zip": "49877"}, "dickinson-county-49881": {"city": "Dickinson County", "rent": 970, "zip": "49881"}, "dickinson-county-49892": {"city": "Dickinson County", "rent": 1060, "zip": "49892"}, "dickinson-county-49920": {"city": "Dickinson County", "rent": 1100, "zip": "49920"}, "emmet-county-49701": {"city": "Emmet County", "rent": 1040, "zip": "49701"}, "emmet-county-49706": {"city": "Emmet County", "rent": 1040, "zip": "49706"}, "emmet-county-49713": {"city": "Emmet County", "rent": 1040, "zip": "49713"}, "emmet-county-49716": {"city": "Emmet County", "rent": 1140, "zip": "49716"}, "emmet-county-49718": {"city": "Emmet County", "rent": 1210, "zip": "49718"}, "emmet-county-49720": {"city": "Emmet County", "rent": 1060, "zip": "49720"}, "emmet-county-49722": {"city": "Emmet County", "rent": 1220, "zip": "49722"}, "emmet-county-49740": {"city": "Emmet County", "rent": 1340, "zip": "49740"}, "emmet-county-49755": {"city": "Emmet County", "rent": 1180, "zip": "49755"}, "emmet-county-49764": {"city": "Emmet County", "rent": 1040, "zip": "49764"}, "emmet-county-49769": {"city": "Emmet County", "rent": 1210, "zip": "49769"}, "emmet-county-49770": {"city": "Emmet County", "rent": 1260, "zip": "49770"}, "gladwin-county-48610": {"city": "Gladwin County", "rent": 1160, "zip": "48610"}, "gladwin-county-48612": {"city": "Gladwin County", "rent": 1050, "zip": "48612"}, "gladwin-county-48613": {"city": "Gladwin County", "rent": 1300, "zip": "48613"}, "gladwin-county-48618": {"city": "Gladwin County", "rent": 1030, "zip": "48618"}, "gladwin-county-48624": {"city": "Gladwin County", "rent": 970, "zip": "48624"}, "gladwin-county-48628": {"city": "Gladwin County", "rent": 1450, "zip": "48628"}, "gladwin-county-48652": {"city": "Gladwin County", "rent": 1330, "zip": "48652"}, "gogebic-county-49911": {"city": "Gogebic County", "rent": 970, "zip": "49911"}, "gogebic-county-49925": {"city": "Gogebic County", "rent": 1260, "zip": "49925"}, "gogebic-county-49938": {"city": "Gogebic County", "rent": 970, "zip": "49938"}, "gogebic-county-49947": {"city": "Gogebic County", "rent": 970, "zip": "49947"}, "gogebic-county-49959": {"city": "Gogebic County", "rent": 980, "zip": "49959"}, "gogebic-county-49968": {"city": "Gogebic County", "rent": 1000, "zip": "49968"}, "gogebic-county-49969": {"city": "Gogebic County", "rent": 1100, "zip": "49969"}, "gogebic-county-54540": {"city": "Gogebic County", "rent": 970, "zip": "54540"}, "gratiot-county-48614": {"city": "Gratiot County", "rent": 1220, "zip": "48614"}, "gratiot-county-48615": {"city": "Gratiot County", "rent": 1030, "zip": "48615"}, "gratiot-county-48637": {"city": "Gratiot County", "rent": 1030, "zip": "48637"}, "gratiot-county-48662": {"city": "Gratiot County", "rent": 1030, "zip": "48662"}, "gratiot-county-48801": {"city": "Gratiot County", "rent": 970, "zip": "48801"}, "gratiot-county-48806": {"city": "Gratiot County", "rent": 1140, "zip": "48806"}, "gratiot-county-48807": {"city": "Gratiot County", "rent": 1020, "zip": "48807"}, "gratiot-county-48811": {"city": "Gratiot County", "rent": 1050, "zip": "48811"}, "gratiot-county-48818": {"city": "Gratiot County", "rent": 1160, "zip": "48818"}, "gratiot-county-48830": {"city": "Gratiot County", "rent": 970, "zip": "48830"}, "gratiot-county-48831": {"city": "Gratiot County", "rent": 1020, "zip": "48831"}, "gratiot-county-48832": {"city": "Gratiot County", "rent": 980, "zip": "48832"}, "gratiot-county-48845": {"city": "Gratiot County", "rent": 1060, "zip": "48845"}, "gratiot-county-48847": {"city": "Gratiot County", "rent": 970, "zip": "48847"}, "gratiot-county-48856": {"city": "Gratiot County", "rent": 970, "zip": "48856"}, "gratiot-county-48862": {"city": "Gratiot County", "rent": 970, "zip": "48862"}, "gratiot-county-48871": {"city": "Gratiot County", "rent": 1150, "zip": "48871"}, "gratiot-county-48874": {"city": "Gratiot County", "rent": 1140, "zip": "48874"}, "gratiot-county-48877": {"city": "Gratiot County", "rent": 980, "zip": "48877"}, "gratiot-county-48879": {"city": "Gratiot County", "rent": 1080, "zip": "48879"}, "gratiot-county-48880": {"city": "Gratiot County", "rent": 1030, "zip": "48880"}, "gratiot-county-48883": {"city": "Gratiot County", "rent": 1030, "zip": "48883"}, "gratiot-county-48889": {"city": "Gratiot County", "rent": 1080, "zip": "48889"}, "gratiot-county-48891": {"city": "Gratiot County", "rent": 1160, "zip": "48891"}, "hillsdale-county-49082": {"city": "Hillsdale County", "rent": 970, "zip": "49082"}, "hillsdale-county-49220": {"city": "Hillsdale County", "rent": 980, "zip": "49220"}, "hillsdale-county-49227": {"city": "Hillsdale County", "rent": 970, "zip": "49227"}, "hillsdale-county-49232": {"city": "Hillsdale County", "rent": 1020, "zip": "49232"}, "hillsdale-county-49233": {"city": "Hillsdale County", "rent": 1290, "zip": "49233"}, "hillsdale-county-49241": {"city": "Hillsdale County", "rent": 1160, "zip": "49241"}, "hillsdale-county-49242": {"city": "Hillsdale County", "rent": 990, "zip": "49242"}, "hillsdale-county-49245": {"city": "Hillsdale County", "rent": 1130, "zip": "49245"}, "hillsdale-county-49246": {"city": "Hillsdale County", "rent": 1140, "zip": "49246"}, "hillsdale-county-49247": {"city": "Hillsdale County", "rent": 1130, "zip": "49247"}, "hillsdale-county-49249": {"city": "Hillsdale County", "rent": 1130, "zip": "49249"}, "hillsdale-county-49250": {"city": "Hillsdale County", "rent": 1040, "zip": "49250"}, "hillsdale-county-49252": {"city": "Hillsdale County", "rent": 1000, "zip": "49252"}, "hillsdale-county-49255": {"city": "Hillsdale County", "rent": 1120, "zip": "49255"}, "hillsdale-county-49257": {"city": "Hillsdale County", "rent": 1000, "zip": "49257"}, "hillsdale-county-49258": {"city": "Hillsdale County", "rent": 1040, "zip": "49258"}, "hillsdale-county-49262": {"city": "Hillsdale County", "rent": 1150, "zip": "49262"}, "hillsdale-county-49266": {"city": "Hillsdale County", "rent": 990, "zip": "49266"}, "hillsdale-county-49271": {"city": "Hillsdale County", "rent": 1090, "zip": "49271"}, "hillsdale-county-49274": {"city": "Hillsdale County", "rent": 970, "zip": "49274"}, "hillsdale-county-49282": {"city": "Hillsdale County", "rent": 1210, "zip": "49282"}, "hillsdale-county-49288": {"city": "Hillsdale County", "rent": 1160, "zip": "49288"}, "houghton-county-49805": {"city": "Houghton County", "rent": 970, "zip": "49805"}, "houghton-county-49901": {"city": "Houghton County", "rent": 970, "zip": "49901"}, "houghton-county-49905": {"city": "Houghton County", "rent": 1140, "zip": "49905"}, "houghton-county-49913": {"city": "Houghton County", "rent": 970, "zip": "49913"}, "houghton-county-49916": {"city": "Houghton County", "rent": 1000, "zip": "49916"}, "houghton-county-49917": {"city": "Houghton County", "rent": 1020, "zip": "49917"}, "houghton-county-49921": {"city": "Houghton County", "rent": 1460, "zip": "49921"}, "houghton-county-49922": {"city": "Houghton County", "rent": 980, "zip": "49922"}, "houghton-county-49930": {"city": "Houghton County", "rent": 970, "zip": "49930"}, "houghton-county-49931": {"city": "Houghton County", "rent": 1120, "zip": "49931"}, "houghton-county-49934": {"city": "Houghton County", "rent": 970, "zip": "49934"}, "houghton-county-49942": {"city": "Houghton County", "rent": 970, "zip": "49942"}, "houghton-county-49945": {"city": "Houghton County", "rent": 970, "zip": "49945"}, "houghton-county-49952": {"city": "Houghton County", "rent": 970, "zip": "49952"}, "houghton-county-49955": {"city": "Houghton County", "rent": 1020, "zip": "49955"}, "houghton-county-49958": {"city": "Houghton County", "rent": 1000, "zip": "49958"}, "houghton-county-49961": {"city": "Houghton County", "rent": 970, "zip": "49961"}, "houghton-county-49963": {"city": "Houghton County", "rent": 970, "zip": "49963"}, "houghton-county-49965": {"city": "Houghton County", "rent": 970, "zip": "49965"}, "houghton-county-49967": {"city": "Houghton County", "rent": 990, "zip": "49967"}, "huron-county-48413": {"city": "Huron County", "rent": 970, "zip": "48413"}, "huron-county-48432": {"city": "Huron County", "rent": 1140, "zip": "48432"}, "huron-county-48441": {"city": "Huron County", "rent": 1050, "zip": "48441"}, "huron-county-48445": {"city": "Huron County", "rent": 970, "zip": "48445"}, "huron-county-48456": {"city": "Huron County", "rent": 1030, "zip": "48456"}, "huron-county-48467": {"city": "Huron County", "rent": 970, "zip": "48467"}, "huron-county-48468": {"city": "Huron County", "rent": 970, "zip": "48468"}, "huron-county-48470": {"city": "Huron County", "rent": 1180, "zip": "48470"}, "huron-county-48475": {"city": "Huron County", "rent": 1050, "zip": "48475"}, "huron-county-48720": {"city": "Huron County", "rent": 970, "zip": "48720"}, "huron-county-48725": {"city": "Huron County", "rent": 970, "zip": "48725"}, "huron-county-48726": {"city": "Huron County", "rent": 970, "zip": "48726"}, "huron-county-48731": {"city": "Huron County", "rent": 1110, "zip": "48731"}, "huron-county-48735": {"city": "Huron County", "rent": 1060, "zip": "48735"}, "huron-county-48754": {"city": "Huron County", "rent": 970, "zip": "48754"}, "huron-county-48755": {"city": "Huron County", "rent": 1140, "zip": "48755"}, "huron-county-48759": {"city": "Huron County", "rent": 1220, "zip": "48759"}, "huron-county-48767": {"city": "Huron County", "rent": 1130, "zip": "48767"}, "iosco-county-48730": {"city": "Iosco County", "rent": 970, "zip": "48730"}, "iosco-county-48737": {"city": "Iosco County", "rent": 1070, "zip": "48737"}, "iosco-county-48738": {"city": "Iosco County", "rent": 1020, "zip": "48738"}, "iosco-county-48739": {"city": "Iosco County", "rent": 990, "zip": "48739"}, "iosco-county-48743": {"city": "Iosco County", "rent": 990, "zip": "48743"}, "iosco-county-48745": {"city": "Iosco County", "rent": 1270, "zip": "48745"}, "iosco-county-48748": {"city": "Iosco County", "rent": 970, "zip": "48748"}, "iosco-county-48750": {"city": "Iosco County", "rent": 1010, "zip": "48750"}, "iosco-county-48761": {"city": "Iosco County", "rent": 1030, "zip": "48761"}, "iosco-county-48763": {"city": "Iosco County", "rent": 1090, "zip": "48763"}, "iosco-county-48765": {"city": "Iosco County", "rent": 1000, "zip": "48765"}, "iosco-county-48766": {"city": "Iosco County", "rent": 1090, "zip": "48766"}, "iosco-county-48770": {"city": "Iosco County", "rent": 970, "zip": "48770"}, "iron-county-49879": {"city": "Iron County", "rent": 1100, "zip": "49879"}, "iron-county-49902": {"city": "Iron County", "rent": 970, "zip": "49902"}, "iron-county-49903": {"city": "Iron County", "rent": 970, "zip": "49903"}, "iron-county-49915": {"city": "Iron County", "rent": 1030, "zip": "49915"}, "iron-county-49920": {"city": "Iron County", "rent": 1100, "zip": "49920"}, "iron-county-49927": {"city": "Iron County", "rent": 1100, "zip": "49927"}, "iron-county-49935": {"city": "Iron County", "rent": 1100, "zip": "49935"}, "iron-county-49964": {"city": "Iron County", "rent": 1070, "zip": "49964"}, "iron-county-49967": {"city": "Iron County", "rent": 990, "zip": "49967"}, "isabella-county-48617": {"city": "Isabella County", "rent": 1040, "zip": "48617"}, "isabella-county-48618": {"city": "Isabella County", "rent": 1030, "zip": "48618"}, "isabella-county-48622": {"city": "Isabella County", "rent": 1040, "zip": "48622"}, "isabella-county-48632": {"city": "Isabella County", "rent": 980, "zip": "48632"}, "isabella-county-48801": {"city": "Isabella County", "rent": 970, "zip": "48801"}, "isabella-county-48804": {"city": "Isabella County", "rent": 1010, "zip": "48804"}, "isabella-county-48829": {"city": "Isabella County", "rent": 1060, "zip": "48829"}, "isabella-county-48858": {"city": "Isabella County", "rent": 1030, "zip": "48858"}, "isabella-county-48859": {"city": "Isabella County", "rent": 1010, "zip": "48859"}, "isabella-county-48877": {"city": "Isabella County", "rent": 980, "zip": "48877"}, "isabella-county-48878": {"city": "Isabella County", "rent": 970, "zip": "48878"}, "isabella-county-48880": {"city": "Isabella County", "rent": 1030, "zip": "48880"}, "isabella-county-48883": {"city": "Isabella County", "rent": 1030, "zip": "48883"}, "isabella-county-48891": {"city": "Isabella County", "rent": 1160, "zip": "48891"}, "isabella-county-48893": {"city": "Isabella County", "rent": 1210, "zip": "48893"}, "isabella-county-48896": {"city": "Isabella County", "rent": 1010, "zip": "48896"}, "isabella-county-49305": {"city": "Isabella County", "rent": 970, "zip": "49305"}, "isabella-county-49310": {"city": "Isabella County", "rent": 1210, "zip": "49310"}, "isabella-county-49340": {"city": "Isabella County", "rent": 970, "zip": "49340"}, "keweenaw-county-49805": {"city": "Keweenaw County", "rent": 970, "zip": "49805"}, "keweenaw-county-49901": {"city": "Keweenaw County", "rent": 970, "zip": "49901"}, "keweenaw-county-49913": {"city": "Keweenaw County", "rent": 970, "zip": "49913"}, "keweenaw-county-49917": {"city": "Keweenaw County", "rent": 1020, "zip": "49917"}, "keweenaw-county-49918": {"city": "Keweenaw County", "rent": 970, "zip": "49918"}, "keweenaw-county-49945": {"city": "Keweenaw County", "rent": 970, "zip": "49945"}, "keweenaw-county-49950": {"city": "Keweenaw County", "rent": 970, "zip": "49950"}, "lake-county-49304": {"city": "Lake County", "rent": 990, "zip": "49304"}, "lake-county-49309": {"city": "Lake County", "rent": 970, "zip": "49309"}, "lake-county-49402": {"city": "Lake County", "rent": 1020, "zip": "49402"}, "lake-county-49601": {"city": "Lake County", "rent": 1050, "zip": "49601"}, "lake-county-49623": {"city": "Lake County", "rent": 990, "zip": "49623"}, "lake-county-49642": {"city": "Lake County", "rent": 970, "zip": "49642"}, "lake-county-49644": {"city": "Lake County", "rent": 970, "zip": "49644"}, "lake-county-49655": {"city": "Lake County", "rent": 990, "zip": "49655"}, "lake-county-49656": {"city": "Lake County", "rent": 1070, "zip": "49656"}, "lake-county-49677": {"city": "Lake County", "rent": 970, "zip": "49677"}, "lake-county-49688": {"city": "Lake County", "rent": 1270, "zip": "49688"}, "lenawee-county-48160": {"city": "Lenawee County", "rent": 1500, "zip": "48160"}, "lenawee-county-48176": {"city": "Lenawee County", "rent": 1450, "zip": "48176"}, "lenawee-county-49220": {"city": "Lenawee County", "rent": 980, "zip": "49220"}, "lenawee-county-49221": {"city": "Lenawee County", "rent": 1190, "zip": "49221"}, "lenawee-county-49228": {"city": "Lenawee County", "rent": 1180, "zip": "49228"}, "lenawee-county-49229": {"city": "Lenawee County", "rent": 1450, "zip": "49229"}, "lenawee-county-49230": {"city": "Lenawee County", "rent": 1450, "zip": "49230"}, "lenawee-county-49233": {"city": "Lenawee County", "rent": 1290, "zip": "49233"}, "lenawee-county-49235": {"city": "Lenawee County", "rent": 1090, "zip": "49235"}, "lenawee-county-49236": {"city": "Lenawee County", "rent": 1450, "zip": "49236"}, "lenawee-county-49238": {"city": "Lenawee County", "rent": 1140, "zip": "49238"}, "lenawee-county-49247": {"city": "Lenawee County", "rent": 1130, "zip": "49247"}, "lenawee-county-49248": {"city": "Lenawee County", "rent": 1540, "zip": "49248"}, "lenawee-county-49253": {"city": "Lenawee County", "rent": 1060, "zip": "49253"}, "lenawee-county-49256": {"city": "Lenawee County", "rent": 1020, "zip": "49256"}, "lenawee-county-49265": {"city": "Lenawee County", "rent": 1070, "zip": "49265"}, "lenawee-county-49267": {"city": "Lenawee County", "rent": 1370, "zip": "49267"}, "lenawee-county-49268": {"city": "Lenawee County", "rent": 1190, "zip": "49268"}, "lenawee-county-49276": {"city": "Lenawee County", "rent": 1420, "zip": "49276"}, "lenawee-county-49279": {"city": "Lenawee County", "rent": 1080, "zip": "49279"}, "lenawee-county-49286": {"city": "Lenawee County", "rent": 1160, "zip": "49286"}, "lenawee-county-49287": {"city": "Lenawee County", "rent": 1450, "zip": "49287"}, "lenawee-county-49288": {"city": "Lenawee County", "rent": 1160, "zip": "49288"}, "lenawee-county-49289": {"city": "Lenawee County", "rent": 1080, "zip": "49289"}, "luce-county-49748": {"city": "Luce County", "rent": 1070, "zip": "49748"}, "luce-county-49853": {"city": "Luce County", "rent": 970, "zip": "49853"}, "luce-county-49868": {"city": "Luce County", "rent": 1000, "zip": "49868"}, "mackinac-county-49719": {"city": "Mackinac County", "rent": 1030, "zip": "49719"}, "mackinac-county-49745": {"city": "Mackinac County", "rent": 970, "zip": "49745"}, "mackinac-county-49757": {"city": "Mackinac County", "rent": 1480, "zip": "49757"}, "mackinac-county-49760": {"city": "Mackinac County", "rent": 1400, "zip": "49760"}, "mackinac-county-49762": {"city": "Mackinac County", "rent": 1180, "zip": "49762"}, "mackinac-county-49774": {"city": "Mackinac County", "rent": 1060, "zip": "49774"}, "mackinac-county-49775": {"city": "Mackinac County", "rent": 1480, "zip": "49775"}, "mackinac-county-49780": {"city": "Mackinac County", "rent": 1140, "zip": "49780"}, "mackinac-county-49781": {"city": "Mackinac County", "rent": 970, "zip": "49781"}, "mackinac-county-49820": {"city": "Mackinac County", "rent": 1020, "zip": "49820"}, "mackinac-county-49827": {"city": "Mackinac County", "rent": 1040, "zip": "49827"}, "mackinac-county-49836": {"city": "Mackinac County", "rent": 970, "zip": "49836"}, "mackinac-county-49838": {"city": "Mackinac County", "rent": 1020, "zip": "49838"}, "mackinac-county-49853": {"city": "Mackinac County", "rent": 970, "zip": "49853"}, "manistee-county-49411": {"city": "Manistee County", "rent": 1280, "zip": "49411"}, "manistee-county-49613": {"city": "Manistee County", "rent": 1090, "zip": "49613"}, "manistee-county-49614": {"city": "Manistee County", "rent": 1280, "zip": "49614"}, "manistee-county-49616": {"city": "Manistee County", "rent": 1030, "zip": "49616"}, "manistee-county-49619": {"city": "Manistee County", "rent": 1350, "zip": "49619"}, "manistee-county-49625": {"city": "Manistee County", "rent": 1060, "zip": "49625"}, "manistee-county-49626": {"city": "Manistee County", "rent": 1040, "zip": "49626"}, "manistee-county-49634": {"city": "Manistee County", "rent": 1040, "zip": "49634"}, "manistee-county-49638": {"city": "Manistee County", "rent": 1140, "zip": "49638"}, "manistee-county-49644": {"city": "Manistee County", "rent": 970, "zip": "49644"}, "manistee-county-49645": {"city": "Manistee County", "rent": 1100, "zip": "49645"}, "manistee-county-49660": {"city": "Manistee County", "rent": 1040, "zip": "49660"}, "manistee-county-49668": {"city": "Manistee County", "rent": 1260, "zip": "49668"}, "manistee-county-49675": {"city": "Manistee County", "rent": 970, "zip": "49675"}, "manistee-county-49683": {"city": "Manistee County", "rent": 1220, "zip": "49683"}, "manistee-county-49689": {"city": "Manistee County", "rent": 970, "zip": "49689"}, "marquette-county-49808": {"city": "Marquette County", "rent": 1110, "zip": "49808"}, "marquette-county-49814": {"city": "Marquette County", "rent": 990, "zip": "49814"}, "marquette-county-49818": {"city": "Marquette County", "rent": 1040, "zip": "49818"}, "marquette-county-49819": {"city": "Marquette County", "rent": 1140, "zip": "49819"}, "marquette-county-49822": {"city": "Marquette County", "rent": 1070, "zip": "49822"}, "marquette-county-49831": {"city": "Marquette County", "rent": 1000, "zip": "49831"}, "marquette-county-49833": {"city": "Marquette County", "rent": 1140, "zip": "49833"}, "marquette-county-49841": {"city": "Marquette County", "rent": 970, "zip": "49841"}, "marquette-county-49849": {"city": "Marquette County", "rent": 970, "zip": "49849"}, "marquette-county-49855": {"city": "Marquette County", "rent": 1220, "zip": "49855"}, "marquette-county-49861": {"city": "Marquette County", "rent": 970, "zip": "49861"}, "marquette-county-49865": {"city": "Marquette County", "rent": 1140, "zip": "49865"}, "marquette-county-49866": {"city": "Marquette County", "rent": 970, "zip": "49866"}, "marquette-county-49871": {"city": "Marquette County", "rent": 970, "zip": "49871"}, "marquette-county-49879": {"city": "Marquette County", "rent": 1100, "zip": "49879"}, "marquette-county-49880": {"city": "Marquette County", "rent": 1020, "zip": "49880"}, "marquette-county-49885": {"city": "Marquette County", "rent": 1140, "zip": "49885"}, "mason-county-49402": {"city": "Mason County", "rent": 1020, "zip": "49402"}, "mason-county-49405": {"city": "Mason County", "rent": 970, "zip": "49405"}, "mason-county-49410": {"city": "Mason County", "rent": 1150, "zip": "49410"}, "mason-county-49411": {"city": "Mason County", "rent": 1280, "zip": "49411"}, "mason-county-49431": {"city": "Mason County", "rent": 1050, "zip": "49431"}, "mason-county-49449": {"city": "Mason County", "rent": 970, "zip": "49449"}, "mason-county-49454": {"city": "Mason County", "rent": 970, "zip": "49454"}, "mason-county-49458": {"city": "Mason County", "rent": 1030, "zip": "49458"}, "mason-county-49644": {"city": "Mason County", "rent": 970, "zip": "49644"}, "mason-county-49660": {"city": "Mason County", "rent": 1040, "zip": "49660"}, "mecosta-county-48632": {"city": "Mecosta County", "rent": 980, "zip": "48632"}, "mecosta-county-48829": {"city": "Mecosta County", "rent": 1060, "zip": "48829"}, "mecosta-county-48850": {"city": "Mecosta County", "rent": 1020, "zip": "48850"}, "mecosta-county-48886": {"city": "Mecosta County", "rent": 1380, "zip": "48886"}, "mecosta-county-49305": {"city": "Mecosta County", "rent": 970, "zip": "49305"}, "mecosta-county-49307": {"city": "Mecosta County", "rent": 1010, "zip": "49307"}, "mecosta-county-49310": {"city": "Mecosta County", "rent": 1210, "zip": "49310"}, "mecosta-county-49320": {"city": "Mecosta County", "rent": 1060, "zip": "49320"}, "mecosta-county-49329": {"city": "Mecosta County", "rent": 1270, "zip": "49329"}, "mecosta-county-49332": {"city": "Mecosta County", "rent": 970, "zip": "49332"}, "mecosta-county-49336": {"city": "Mecosta County", "rent": 1090, "zip": "49336"}, "mecosta-county-49337": {"city": "Mecosta County", "rent": 1090, "zip": "49337"}, "mecosta-county-49338": {"city": "Mecosta County", "rent": 1120, "zip": "49338"}, "mecosta-county-49340": {"city": "Mecosta County", "rent": 970, "zip": "49340"}, "mecosta-county-49342": {"city": "Mecosta County", "rent": 1100, "zip": "49342"}, "mecosta-county-49346": {"city": "Mecosta County", "rent": 970, "zip": "49346"}, "mecosta-county-49631": {"city": "Mecosta County", "rent": 1010, "zip": "49631"}, "mecosta-county-49639": {"city": "Mecosta County", "rent": 970, "zip": "49639"}, "mecosta-county-49679": {"city": "Mecosta County", "rent": 1310, "zip": "49679"}, "menominee-county-49807": {"city": "Menominee County", "rent": 1100, "zip": "49807"}, "menominee-county-49812": {"city": "Menominee County", "rent": 1380, "zip": "49812"}, "menominee-county-49821": {"city": "Menominee County", "rent": 1440, "zip": "49821"}, "menominee-county-49845": {"city": "Menominee County", "rent": 970, "zip": "49845"}, "menominee-county-49847": {"city": "Menominee County", "rent": 970, "zip": "49847"}, "menominee-county-49848": {"city": "Menominee County", "rent": 970, "zip": "49848"}, "menominee-county-49858": {"city": "Menominee County", "rent": 990, "zip": "49858"}, "menominee-county-49863": {"city": "Menominee County", "rent": 1380, "zip": "49863"}, "menominee-county-49873": {"city": "Menominee County", "rent": 1030, "zip": "49873"}, "menominee-county-49874": {"city": "Menominee County", "rent": 970, "zip": "49874"}, "menominee-county-49886": {"city": "Menominee County", "rent": 1230, "zip": "49886"}, "menominee-county-49887": {"city": "Menominee County", "rent": 970, "zip": "49887"}, "menominee-county-49892": {"city": "Menominee County", "rent": 1060, "zip": "49892"}, "menominee-county-49893": {"city": "Menominee County", "rent": 970, "zip": "49893"}, "menominee-county-49896": {"city": "Menominee County", "rent": 970, "zip": "49896"}, "missaukee-county-48625": {"city": "Missaukee County", "rent": 970, "zip": "48625"}, "missaukee-county-48629": {"city": "Missaukee County", "rent": 970, "zip": "48629"}, "missaukee-county-49601": {"city": "Missaukee County", "rent": 1050, "zip": "49601"}, "missaukee-county-49632": {"city": "Missaukee County", "rent": 970, "zip": "49632"}, "missaukee-county-49633": {"city": "Missaukee County", "rent": 1260, "zip": "49633"}, "missaukee-county-49651": {"city": "Missaukee County", "rent": 990, "zip": "49651"}, "missaukee-county-49657": {"city": "Missaukee County", "rent": 990, "zip": "49657"}, "missaukee-county-49663": {"city": "Missaukee County", "rent": 1070, "zip": "49663"}, "missaukee-county-49665": {"city": "Missaukee County", "rent": 970, "zip": "49665"}, "missaukee-county-49667": {"city": "Missaukee County", "rent": 970, "zip": "49667"}, "montmorency-county-48619": {"city": "Montmorency County", "rent": 1020, "zip": "48619"}, "montmorency-county-49709": {"city": "Montmorency County", "rent": 970, "zip": "49709"}, "montmorency-county-49746": {"city": "Montmorency County", "rent": 970, "zip": "49746"}, "montmorency-county-49751": {"city": "Montmorency County", "rent": 1050, "zip": "49751"}, "montmorency-county-49756": {"city": "Montmorency County", "rent": 1100, "zip": "49756"}, "newaygo-county-49303": {"city": "Newaygo County", "rent": 1300, "zip": "49303"}, "newaygo-county-49304": {"city": "Newaygo County", "rent": 990, "zip": "49304"}, "newaygo-county-49307": {"city": "Newaygo County", "rent": 1010, "zip": "49307"}, "newaygo-county-49309": {"city": "Newaygo County", "rent": 970, "zip": "49309"}, "newaygo-county-49312": {"city": "Newaygo County", "rent": 990, "zip": "49312"}, "newaygo-county-49327": {"city": "Newaygo County", "rent": 1300, "zip": "49327"}, "newaygo-county-49329": {"city": "Newaygo County", "rent": 1270, "zip": "49329"}, "newaygo-county-49330": {"city": "Newaygo County", "rent": 1520, "zip": "49330"}, "newaygo-county-49336": {"city": "Newaygo County", "rent": 1090, "zip": "49336"}, "newaygo-county-49337": {"city": "Newaygo County", "rent": 1090, "zip": "49337"}, "newaygo-county-49338": {"city": "Newaygo County", "rent": 1120, "zip": "49338"}, "newaygo-county-49339": {"city": "Newaygo County", "rent": 1190, "zip": "49339"}, "newaygo-county-49343": {"city": "Newaygo County", "rent": 1300, "zip": "49343"}, "newaygo-county-49346": {"city": "Newaygo County", "rent": 970, "zip": "49346"}, "newaygo-county-49349": {"city": "Newaygo County", "rent": 970, "zip": "49349"}, "newaygo-county-49412": {"city": "Newaygo County", "rent": 1040, "zip": "49412"}, "newaygo-county-49421": {"city": "Newaygo County", "rent": 970, "zip": "49421"}, "newaygo-county-49425": {"city": "Newaygo County", "rent": 1040, "zip": "49425"}, "newaygo-county-49451": {"city": "Newaygo County", "rent": 1240, "zip": "49451"}, "newaygo-county-49457": {"city": "Newaygo County", "rent": 1260, "zip": "49457"}, "newaygo-county-49459": {"city": "Newaygo County", "rent": 1130, "zip": "49459"}, "newaygo-county-49677": {"city": "Newaygo County", "rent": 970, "zip": "49677"}, "oceana-county-49402": {"city": "Oceana County", "rent": 1020, "zip": "49402"}, "oceana-county-49412": {"city": "Oceana County", "rent": 1040, "zip": "49412"}, "oceana-county-49420": {"city": "Oceana County", "rent": 980, "zip": "49420"}, "oceana-county-49421": {"city": "Oceana County", "rent": 970, "zip": "49421"}, "oceana-county-49425": {"city": "Oceana County", "rent": 1040, "zip": "49425"}, "oceana-county-49436": {"city": "Oceana County", "rent": 1040, "zip": "49436"}, "oceana-county-49437": {"city": "Oceana County", "rent": 1040, "zip": "49437"}, "oceana-county-49446": {"city": "Oceana County", "rent": 970, "zip": "49446"}, "oceana-county-49449": {"city": "Oceana County", "rent": 970, "zip": "49449"}, "oceana-county-49452": {"city": "Oceana County", "rent": 970, "zip": "49452"}, "oceana-county-49455": {"city": "Oceana County", "rent": 970, "zip": "49455"}, "oceana-county-49459": {"city": "Oceana County", "rent": 1130, "zip": "49459"}, "ogemaw-county-48610": {"city": "Ogemaw County", "rent": 1160, "zip": "48610"}, "ogemaw-county-48624": {"city": "Ogemaw County", "rent": 970, "zip": "48624"}, "ogemaw-county-48635": {"city": "Ogemaw County", "rent": 1040, "zip": "48635"}, "ogemaw-county-48654": {"city": "Ogemaw County", "rent": 970, "zip": "48654"}, "ogemaw-county-48659": {"city": "Ogemaw County", "rent": 1050, "zip": "48659"}, "ogemaw-county-48661": {"city": "Ogemaw County", "rent": 980, "zip": "48661"}, "ogemaw-county-48739": {"city": "Ogemaw County", "rent": 990, "zip": "48739"}, "ogemaw-county-48756": {"city": "Ogemaw County", "rent": 1020, "zip": "48756"}, "ogemaw-county-48761": {"city": "Ogemaw County", "rent": 1030, "zip": "48761"}, "ogemaw-county-48770": {"city": "Ogemaw County", "rent": 970, "zip": "48770"}, "ontonagon-county-49910": {"city": "Ontonagon County", "rent": 1080, "zip": "49910"}, "ontonagon-county-49912": {"city": "Ontonagon County", "rent": 970, "zip": "49912"}, "ontonagon-county-49925": {"city": "Ontonagon County", "rent": 1260, "zip": "49925"}, "ontonagon-county-49929": {"city": "Ontonagon County", "rent": 970, "zip": "49929"}, "ontonagon-county-49947": {"city": "Ontonagon County", "rent": 970, "zip": "49947"}, "ontonagon-county-49948": {"city": "Ontonagon County", "rent": 970, "zip": "49948"}, "ontonagon-county-49952": {"city": "Ontonagon County", "rent": 970, "zip": "49952"}, "ontonagon-county-49953": {"city": "Ontonagon County", "rent": 970, "zip": "49953"}, "ontonagon-county-49960": {"city": "Ontonagon County", "rent": 970, "zip": "49960"}, "ontonagon-county-49965": {"city": "Ontonagon County", "rent": 970, "zip": "49965"}, "ontonagon-county-49967": {"city": "Ontonagon County", "rent": 990, "zip": "49967"}, "ontonagon-county-49971": {"city": "Ontonagon County", "rent": 970, "zip": "49971"}, "osceola-county-48632": {"city": "Osceola County", "rent": 980, "zip": "48632"}, "osceola-county-49338": {"city": "Osceola County", "rent": 1120, "zip": "49338"}, "osceola-county-49631": {"city": "Osceola County", "rent": 1010, "zip": "49631"}, "osceola-county-49639": {"city": "Osceola County", "rent": 970, "zip": "49639"}, "osceola-county-49655": {"city": "Osceola County", "rent": 990, "zip": "49655"}, "osceola-county-49657": {"city": "Osceola County", "rent": 990, "zip": "49657"}, "osceola-county-49665": {"city": "Osceola County", "rent": 970, "zip": "49665"}, "osceola-county-49677": {"city": "Osceola County", "rent": 970, "zip": "49677"}, "osceola-county-49679": {"city": "Osceola County", "rent": 1310, "zip": "49679"}, "osceola-county-49688": {"city": "Osceola County", "rent": 1270, "zip": "49688"}, "oscoda-county-48619": {"city": "Oscoda County", "rent": 1020, "zip": "48619"}, "oscoda-county-48621": {"city": "Oscoda County", "rent": 970, "zip": "48621"}, "oscoda-county-48636": {"city": "Oscoda County", "rent": 990, "zip": "48636"}, "oscoda-county-48647": {"city": "Oscoda County", "rent": 970, "zip": "48647"}, "oscoda-county-48654": {"city": "Oscoda County", "rent": 970, "zip": "48654"}, "oscoda-county-48728": {"city": "Oscoda County", "rent": 1020, "zip": "48728"}, "oscoda-county-48761": {"city": "Oscoda County", "rent": 1030, "zip": "48761"}, "oscoda-county-49738": {"city": "Oscoda County", "rent": 1070, "zip": "49738"}, "oscoda-county-49756": {"city": "Oscoda County", "rent": 1100, "zip": "49756"}, "otsego-county-49730": {"city": "Otsego County", "rent": 1070, "zip": "49730"}, "otsego-county-49733": {"city": "Otsego County", "rent": 1020, "zip": "49733"}, "otsego-county-49734": {"city": "Otsego County", "rent": 1100, "zip": "49734"}, "otsego-county-49735": {"city": "Otsego County", "rent": 1090, "zip": "49735"}, "otsego-county-49738": {"city": "Otsego County", "rent": 1070, "zip": "49738"}, "otsego-county-49751": {"city": "Otsego County", "rent": 1050, "zip": "49751"}, "otsego-county-49756": {"city": "Otsego County", "rent": 1100, "zip": "49756"}, "otsego-county-49795": {"city": "Otsego County", "rent": 1140, "zip": "49795"}, "otsego-county-49797": {"city": "Otsego County", "rent": 1100, "zip": "49797"}, "presque-isle-county-49707": {"city": "Presque Isle County", "rent": 970, "zip": "49707"}, "presque-isle-county-49721": {"city": "Presque Isle County", "rent": 1080, "zip": "49721"}, "presque-isle-county-49743": {"city": "Presque Isle County", "rent": 970, "zip": "49743"}, "presque-isle-county-49746": {"city": "Presque Isle County", "rent": 970, "zip": "49746"}, "presque-isle-county-49759": {"city": "Presque Isle County", "rent": 980, "zip": "49759"}, "presque-isle-county-49765": {"city": "Presque Isle County", "rent": 970, "zip": "49765"}, "presque-isle-county-49776": {"city": "Presque Isle County", "rent": 970, "zip": "49776"}, "presque-isle-county-49777": {"city": "Presque Isle County", "rent": 1330, "zip": "49777"}, "presque-isle-county-49779": {"city": "Presque Isle County", "rent": 970, "zip": "49779"}, "roscommon-county-48624": {"city": "Roscommon County", "rent": 970, "zip": "48624"}, "roscommon-county-48627": {"city": "Roscommon County", "rent": 1010, "zip": "48627"}, "roscommon-county-48629": {"city": "Roscommon County", "rent": 970, "zip": "48629"}, "roscommon-county-48630": {"city": "Roscommon County", "rent": 970, "zip": "48630"}, "roscommon-county-48651": {"city": "Roscommon County", "rent": 1010, "zip": "48651"}, "roscommon-county-48653": {"city": "Roscommon County", "rent": 1010, "zip": "48653"}, "roscommon-county-48656": {"city": "Roscommon County", "rent": 970, "zip": "48656"}, "st.-joseph-county-49011": {"city": "St. Joseph County", "rent": 1110, "zip": "49011"}, "st.-joseph-county-49030": {"city": "St. Joseph County", "rent": 1100, "zip": "49030"}, "st.-joseph-county-49032": {"city": "St. Joseph County", "rent": 970, "zip": "49032"}, "st.-joseph-county-49040": {"city": "St. Joseph County", "rent": 1000, "zip": "49040"}, "st.-joseph-county-49042": {"city": "St. Joseph County", "rent": 980, "zip": "49042"}, "st.-joseph-county-49052": {"city": "St. Joseph County", "rent": 1070, "zip": "49052"}, "st.-joseph-county-49066": {"city": "St. Joseph County", "rent": 1140, "zip": "49066"}, "st.-joseph-county-49067": {"city": "St. Joseph County", "rent": 1070, "zip": "49067"}, "st.-joseph-county-49072": {"city": "St. Joseph County", "rent": 1090, "zip": "49072"}, "st.-joseph-county-49075": {"city": "St. Joseph County", "rent": 1050, "zip": "49075"}, "st.-joseph-county-49087": {"city": "St. Joseph County", "rent": 1070, "zip": "49087"}, "st.-joseph-county-49091": {"city": "St. Joseph County", "rent": 1060, "zip": "49091"}, "st.-joseph-county-49093": {"city": "St. Joseph County", "rent": 1010, "zip": "49093"}, "st.-joseph-county-49097": {"city": "St. Joseph County", "rent": 1070, "zip": "49097"}, "st.-joseph-county-49099": {"city": "St. Joseph County", "rent": 1040, "zip": "49099"}, "sanilac-county-48032": {"city": "Sanilac County", "rent": 1200, "zip": "48032"}, "sanilac-county-48097": {"city": "Sanilac County", "rent": 1060, "zip": "48097"}, "sanilac-county-48401": {"city": "Sanilac County", "rent": 1040, "zip": "48401"}, "sanilac-county-48410": {"city": "Sanilac County", "rent": 1070, "zip": "48410"}, "sanilac-county-48416": {"city": "Sanilac County", "rent": 1060, "zip": "48416"}, "sanilac-county-48419": {"city": "Sanilac County", "rent": 1090, "zip": "48419"}, "sanilac-county-48422": {"city": "Sanilac County", "rent": 1100, "zip": "48422"}, "sanilac-county-48426": {"city": "Sanilac County", "rent": 1000, "zip": "48426"}, "sanilac-county-48427": {"city": "Sanilac County", "rent": 970, "zip": "48427"}, "sanilac-county-48434": {"city": "Sanilac County", "rent": 1090, "zip": "48434"}, "sanilac-county-48441": {"city": "Sanilac County", "rent": 1050, "zip": "48441"}, "sanilac-county-48450": {"city": "Sanilac County", "rent": 970, "zip": "48450"}, "sanilac-county-48453": {"city": "Sanilac County", "rent": 1060, "zip": "48453"}, "sanilac-county-48454": {"city": "Sanilac County", "rent": 970, "zip": "48454"}, "sanilac-county-48456": {"city": "Sanilac County", "rent": 1030, "zip": "48456"}, "sanilac-county-48465": {"city": "Sanilac County", "rent": 1120, "zip": "48465"}, "sanilac-county-48466": {"city": "Sanilac County", "rent": 970, "zip": "48466"}, "sanilac-county-48469": {"city": "Sanilac County", "rent": 1020, "zip": "48469"}, "sanilac-county-48470": {"city": "Sanilac County", "rent": 1180, "zip": "48470"}, "sanilac-county-48471": {"city": "Sanilac County", "rent": 970, "zip": "48471"}, "sanilac-county-48472": {"city": "Sanilac County", "rent": 1090, "zip": "48472"}, "sanilac-county-48475": {"city": "Sanilac County", "rent": 1050, "zip": "48475"}, "sanilac-county-48726": {"city": "Sanilac County", "rent": 970, "zip": "48726"}, "sanilac-county-48729": {"city": "Sanilac County", "rent": 980, "zip": "48729"}, "sanilac-county-48741": {"city": "Sanilac County", "rent": 1020, "zip": "48741"}, "schoolcraft-county-49817": {"city": "Schoolcraft County", "rent": 1080, "zip": "49817"}, "schoolcraft-county-49836": {"city": "Schoolcraft County", "rent": 970, "zip": "49836"}, "schoolcraft-county-49840": {"city": "Schoolcraft County", "rent": 970, "zip": "49840"}, "schoolcraft-county-49854": {"city": "Schoolcraft County", "rent": 970, "zip": "49854"}, "schoolcraft-county-49883": {"city": "Schoolcraft County", "rent": 970, "zip": "49883"}, "schoolcraft-county-49884": {"city": "Schoolcraft County", "rent": 1070, "zip": "49884"}, "schoolcraft-county-49895": {"city": "Schoolcraft County", "rent": 1110, "zip": "49895"}, "shiawassee-county-48414": {"city": "Shiawassee County", "rent": 1050, "zip": "48414"}, "shiawassee-county-48418": {"city": "Shiawassee County", "rent": 1520, "zip": "48418"}, "shiawassee-county-48429": {"city": "Shiawassee County", "rent": 970, "zip": "48429"}, "shiawassee-county-48433": {"city": "Shiawassee County", "rent": 1100, "zip": "48433"}, "shiawassee-county-48436": {"city": "Shiawassee County", "rent": 1100, "zip": "48436"}, "shiawassee-county-48449": {"city": "Shiawassee County", "rent": 1180, "zip": "48449"}, "shiawassee-county-48460": {"city": "Shiawassee County", "rent": 970, "zip": "48460"}, "shiawassee-county-48476": {"city": "Shiawassee County", "rent": 970, "zip": "48476"}, "shiawassee-county-48616": {"city": "Shiawassee County", "rent": 970, "zip": "48616"}, "shiawassee-county-48649": {"city": "Shiawassee County", "rent": 970, "zip": "48649"}, "shiawassee-county-48817": {"city": "Shiawassee County", "rent": 1170, "zip": "48817"}, "shiawassee-county-48831": {"city": "Shiawassee County", "rent": 1020, "zip": "48831"}, "shiawassee-county-48836": {"city": "Shiawassee County", "rent": 1270, "zip": "48836"}, "shiawassee-county-48840": {"city": "Shiawassee County", "rent": 1250, "zip": "48840"}, "shiawassee-county-48841": {"city": "Shiawassee County", "rent": 1120, "zip": "48841"}, "shiawassee-county-48848": {"city": "Shiawassee County", "rent": 1040, "zip": "48848"}, "shiawassee-county-48857": {"city": "Shiawassee County", "rent": 1250, "zip": "48857"}, "shiawassee-county-48866": {"city": "Shiawassee County", "rent": 1020, "zip": "48866"}, "shiawassee-county-48867": {"city": "Shiawassee County", "rent": 1030, "zip": "48867"}, "shiawassee-county-48872": {"city": "Shiawassee County", "rent": 1270, "zip": "48872"}, "shiawassee-county-48882": {"city": "Shiawassee County", "rent": 1070, "zip": "48882"}, "tuscola-county-48415": {"city": "Tuscola County", "rent": 1180, "zip": "48415"}, "tuscola-county-48420": {"city": "Tuscola County", "rent": 970, "zip": "48420"}, "tuscola-county-48426": {"city": "Tuscola County", "rent": 1000, "zip": "48426"}, "tuscola-county-48435": {"city": "Tuscola County", "rent": 1300, "zip": "48435"}, "tuscola-county-48453": {"city": "Tuscola County", "rent": 1060, "zip": "48453"}, "tuscola-county-48464": {"city": "Tuscola County", "rent": 1090, "zip": "48464"}, "tuscola-county-48701": {"city": "Tuscola County", "rent": 1000, "zip": "48701"}, "tuscola-county-48723": {"city": "Tuscola County", "rent": 970, "zip": "48723"}, "tuscola-county-48726": {"city": "Tuscola County", "rent": 970, "zip": "48726"}, "tuscola-county-48727": {"city": "Tuscola County", "rent": 1060, "zip": "48727"}, "tuscola-county-48729": {"city": "Tuscola County", "rent": 980, "zip": "48729"}, "tuscola-county-48733": {"city": "Tuscola County", "rent": 1060, "zip": "48733"}, "tuscola-county-48734": {"city": "Tuscola County", "rent": 990, "zip": "48734"}, "tuscola-county-48735": {"city": "Tuscola County", "rent": 1060, "zip": "48735"}, "tuscola-county-48741": {"city": "Tuscola County", "rent": 1020, "zip": "48741"}, "tuscola-county-48744": {"city": "Tuscola County", "rent": 1070, "zip": "48744"}, "tuscola-county-48746": {"city": "Tuscola County", "rent": 1040, "zip": "48746"}, "tuscola-county-48757": {"city": "Tuscola County", "rent": 1030, "zip": "48757"}, "tuscola-county-48759": {"city": "Tuscola County", "rent": 1220, "zip": "48759"}, "tuscola-county-48760": {"city": "Tuscola County", "rent": 1080, "zip": "48760"}, "tuscola-county-48767": {"city": "Tuscola County", "rent": 1130, "zip": "48767"}, "tuscola-county-48768": {"city": "Tuscola County", "rent": 970, "zip": "48768"}, "van-buren-county-49009": {"city": "Van Buren County", "rent": 1230, "zip": "49009"}, "van-buren-county-49010": {"city": "Van Buren County", "rent": 1210, "zip": "49010"}, "van-buren-county-49013": {"city": "Van Buren County", "rent": 1000, "zip": "49013"}, "van-buren-county-49022": {"city": "Van Buren County", "rent": 1070, "zip": "49022"}, "van-buren-county-49026": {"city": "Van Buren County", "rent": 1050, "zip": "49026"}, "van-buren-county-49027": {"city": "Van Buren County", "rent": 1010, "zip": "49027"}, "van-buren-county-49038": {"city": "Van Buren County", "rent": 1140, "zip": "49038"}, "van-buren-county-49043": {"city": "Van Buren County", "rent": 1110, "zip": "49043"}, "van-buren-county-49045": {"city": "Van Buren County", "rent": 970, "zip": "49045"}, "van-buren-county-49047": {"city": "Van Buren County", "rent": 1040, "zip": "49047"}, "van-buren-county-49055": {"city": "Van Buren County", "rent": 1110, "zip": "49055"}, "van-buren-county-49056": {"city": "Van Buren County", "rent": 1000, "zip": "49056"}, "van-buren-county-49057": {"city": "Van Buren County", "rent": 970, "zip": "49057"}, "van-buren-county-49062": {"city": "Van Buren County", "rent": 1020, "zip": "49062"}, "van-buren-county-49063": {"city": "Van Buren County", "rent": 1020, "zip": "49063"}, "van-buren-county-49064": {"city": "Van Buren County", "rent": 1000, "zip": "49064"}, "van-buren-county-49065": {"city": "Van Buren County", "rent": 1070, "zip": "49065"}, "van-buren-county-49067": {"city": "Van Buren County", "rent": 1070, "zip": "49067"}, "van-buren-county-49071": {"city": "Van Buren County", "rent": 1230, "zip": "49071"}, "van-buren-county-49078": {"city": "Van Buren County", "rent": 1410, "zip": "49078"}, "van-buren-county-49079": {"city": "Van Buren County", "rent": 1040, "zip": "49079"}, "van-buren-county-49087": {"city": "Van Buren County", "rent": 1070, "zip": "49087"}, "van-buren-county-49090": {"city": "Van Buren County", "rent": 1070, "zip": "49090"}, "van-buren-county-49098": {"city": "Van Buren County", "rent": 1400, "zip": "49098"}, "wexford-county-49601": {"city": "Wexford County", "rent": 1050, "zip": "49601"}, "wexford-county-49618": {"city": "Wexford County", "rent": 1120, "zip": "49618"}, "wexford-county-49620": {"city": "Wexford County", "rent": 1250, "zip": "49620"}, "wexford-county-49625": {"city": "Wexford County", "rent": 1060, "zip": "49625"}, "wexford-county-49633": {"city": "Wexford County", "rent": 1260, "zip": "49633"}, "wexford-county-49638": {"city": "Wexford County", "rent": 1140, "zip": "49638"}, "wexford-county-49649": {"city": "Wexford County", "rent": 1150, "zip": "49649"}, "wexford-county-49663": {"city": "Wexford County", "rent": 1070, "zip": "49663"}, "wexford-county-49668": {"city": "Wexford County", "rent": 1260, "zip": "49668"}, "wexford-county-49683": {"city": "Wexford County", "rent": 1220, "zip": "49683"}, "wexford-county-49688": {"city": "Wexford County", "rent": 1270, "zip": "49688"}, "wexford-county-49689": {"city": "Wexford County", "rent": 970, "zip": "49689"}}