{"duluth-54820": {"city": "Duluth", "rent": 1030, "zip": "54820"}, "duluth-54830": {"city": "Duluth", "rent": 1030, "zip": "54830"}, "duluth-54836": {"city": "Duluth", "rent": 1110, "zip": "54836"}, "duluth-54838": {"city": "Duluth", "rent": 1040, "zip": "54838"}, "duluth-54842": {"city": "Duluth", "rent": 1120, "zip": "54842"}, "duluth-54849": {"city": "Duluth", "rent": 1030, "zip": "54849"}, "duluth-54854": {"city": "Duluth", "rent": 1030, "zip": "54854"}, "duluth-54859": {"city": "Duluth", "rent": 1060, "zip": "54859"}, "duluth-54864": {"city": "Duluth", "rent": 1340, "zip": "54864"}, "duluth-54873": {"city": "Duluth", "rent": 1030, "zip": "54873"}, "duluth-54874": {"city": "Duluth", "rent": 1220, "zip": "54874"}, "duluth-54880": {"city": "Duluth", "rent": 1150, "zip": "54880"}, "duluth-54890": {"city": "Duluth", "rent": 1150, "zip": "54890"}, "duluth-55602": {"city": "Duluth", "rent": 1250, "zip": "55602"}, "duluth-55616": {"city": "Duluth", "rent": 1380, "zip": "55616"}, "duluth-55702": {"city": "Duluth", "rent": 1230, "zip": "55702"}, "duluth-55703": {"city": "Duluth", "rent": 1030, "zip": "55703"}, "duluth-55705": {"city": "Duluth", "rent": 1030, "zip": "55705"}, "duluth-55706": {"city": "Duluth", "rent": 1030, "zip": "55706"}, "duluth-55707": {"city": "Duluth", "rent": 1210, "zip": "55707"}, "duluth-55708": {"city": "Duluth", "rent": 1030, "zip": "55708"}, "duluth-55710": {"city": "Duluth", "rent": 1050, "zip": "55710"}, "duluth-55711": {"city": "Duluth", "rent": 1170, "zip": "55711"}, "duluth-55713": {"city": "Duluth", "rent": 1240, "zip": "55713"}, "duluth-55717": {"city": "Duluth", "rent": 1710, "zip": "55717"}, "duluth-55718": {"city": "Duluth", "rent": 1080, "zip": "55718"}, "duluth-55719": {"city": "Duluth", "rent": 1030, "zip": "55719"}, "duluth-55720": {"city": "Duluth", "rent": 1260, "zip": "55720"}, "duluth-55723": {"city": "Duluth", "rent": 1030, "zip": "55723"}, "duluth-55724": {"city": "Duluth", "rent": 1250, "zip": "55724"}, "duluth-55725": {"city": "Duluth", "rent": 1040, "zip": "55725"}, "duluth-55726": {"city": "Duluth", "rent": 1140, "zip": "55726"}, "duluth-55731": {"city": "Duluth", "rent": 1120, "zip": "55731"}, "duluth-55732": {"city": "Duluth", "rent": 1030, "zip": "55732"}, "duluth-55733": {"city": "Duluth", "rent": 1740, "zip": "55733"}, "duluth-55734": {"city": "Duluth", "rent": 1100, "zip": "55734"}, "duluth-55736": {"city": "Duluth", "rent": 1030, "zip": "55736"}, "duluth-55738": {"city": "Duluth", "rent": 1030, "zip": "55738"}, "duluth-55741": {"city": "Duluth", "rent": 1030, "zip": "55741"}, "duluth-55746": {"city": "Duluth", "rent": 1030, "zip": "55746"}, "duluth-55749": {"city": "Duluth", "rent": 1180, "zip": "55749"}, "duluth-55750": {"city": "Duluth", "rent": 1250, "zip": "55750"}, "duluth-55751": {"city": "Duluth", "rent": 1090, "zip": "55751"}, "duluth-55756": {"city": "Duluth", "rent": 1150, "zip": "55756"}, "duluth-55757": {"city": "Duluth", "rent": 1150, "zip": "55757"}, "duluth-55758": {"city": "Duluth", "rent": 1160, "zip": "55758"}, "duluth-55763": {"city": "Duluth", "rent": 1030, "zip": "55763"}, "duluth-55765": {"city": "Duluth", "rent": 1030, "zip": "55765"}, "duluth-55767": {"city": "Duluth", "rent": 1160, "zip": "55767"}, "duluth-55768": {"city": "Duluth", "rent": 1130, "zip": "55768"}, "duluth-55769": {"city": "Duluth", "rent": 1030, "zip": "55769"}, "duluth-55771": {"city": "Duluth", "rent": 1060, "zip": "55771"}, "duluth-55772": {"city": "Duluth", "rent": 1070, "zip": "55772"}, "duluth-55779": {"city": "Duluth", "rent": 1850, "zip": "55779"}, "duluth-55780": {"city": "Duluth", "rent": 1220, "zip": "55780"}, "duluth-55781": {"city": "Duluth", "rent": 1630, "zip": "55781"}, "duluth-55782": {"city": "Duluth", "rent": 1030, "zip": "55782"}, "duluth-55783": {"city": "Duluth", "rent": 1220, "zip": "55783"}, "duluth-55787": {"city": "Duluth", "rent": 1030, "zip": "55787"}, "duluth-55790": {"city": "Duluth", "rent": 1030, "zip": "55790"}, "duluth-55792": {"city": "Duluth", "rent": 1080, "zip": "55792"}, "duluth-55796": {"city": "Duluth", "rent": 1120, "zip": "55796"}, "duluth-55797": {"city": "Duluth", "rent": 1380, "zip": "55797"}, "duluth-55798": {"city": "Duluth", "rent": 1030, "zip": "55798"}, "duluth-55802": {"city": "Duluth", "rent": 1330, "zip": "55802"}, "duluth-55803": {"city": "Duluth", "rent": 1710, "zip": "55803"}, "duluth-55804": {"city": "Duluth", "rent": 1650, "zip": "55804"}, "duluth-55805": {"city": "Duluth", "rent": 1290, "zip": "55805"}, "duluth-55806": {"city": "Duluth", "rent": 1160, "zip": "55806"}, "duluth-55807": {"city": "Duluth", "rent": 1190, "zip": "55807"}, "duluth-55808": {"city": "Duluth", "rent": 1230, "zip": "55808"}, "duluth-55810": {"city": "Duluth", "rent": 1360, "zip": "55810"}, "duluth-55811": {"city": "Duluth", "rent": 1570, "zip": "55811"}, "duluth-55812": {"city": "Duluth", "rent": 1490, "zip": "55812"}, "duluth-55814": {"city": "Duluth", "rent": 1570, "zip": "55814"}, "duluth-55816": {"city": "Duluth", "rent": 1250, "zip": "55816"}, "duluth-56649": {"city": "Duluth", "rent": 1030, "zip": "56649"}, "duluth-56669": {"city": "Duluth", "rent": 1040, "zip": "56669"}, "mankato-55332": {"city": "Mankato", "rent": 1060, "zip": "55332"}, "mankato-55334": {"city": "Mankato", "rent": 1060, "zip": "55334"}, "mankato-55335": {"city": "Mankato", "rent": 1060, "zip": "55335"}, "mankato-56001": {"city": "Mankato", "rent": 1290, "zip": "56001"}, "mankato-56002": {"city": "Mankato", "rent": 1230, "zip": "56002"}, "mankato-56003": {"city": "Mankato", "rent": 1060, "zip": "56003"}, "mankato-56010": {"city": "Mankato", "rent": 1060, "zip": "56010"}, "mankato-56021": {"city": "Mankato", "rent": 1150, "zip": "56021"}, "mankato-56024": {"city": "Mankato", "rent": 1560, "zip": "56024"}, "mankato-56025": {"city": "Mankato", "rent": 1460, "zip": "56025"}, "mankato-56034": {"city": "Mankato", "rent": 1060, "zip": "56034"}, "mankato-56037": {"city": "Mankato", "rent": 1060, "zip": "56037"}, "mankato-56041": {"city": "Mankato", "rent": 1140, "zip": "56041"}, "mankato-56048": {"city": "Mankato", "rent": 1060, "zip": "56048"}, "mankato-56050": {"city": "Mankato", "rent": 1060, "zip": "56050"}, "mankato-56054": {"city": "Mankato", "rent": 1060, "zip": "56054"}, "mankato-56055": {"city": "Mankato", "rent": 1060, "zip": "56055"}, "mankato-56058": {"city": "Mankato", "rent": 1070, "zip": "56058"}, "mankato-56060": {"city": "Mankato", "rent": 1060, "zip": "56060"}, "mankato-56062": {"city": "Mankato", "rent": 1060, "zip": "56062"}, "mankato-56063": {"city": "Mankato", "rent": 1180, "zip": "56063"}, "mankato-56065": {"city": "Mankato", "rent": 1060, "zip": "56065"}, "mankato-56068": {"city": "Mankato", "rent": 1060, "zip": "56068"}, "mankato-56073": {"city": "Mankato", "rent": 1060, "zip": "56073"}, "mankato-56074": {"city": "Mankato", "rent": 1060, "zip": "56074"}, "mankato-56078": {"city": "Mankato", "rent": 1540, "zip": "56078"}, "mankato-56080": {"city": "Mankato", "rent": 1060, "zip": "56080"}, "mankato-56082": {"city": "Mankato", "rent": 1110, "zip": "56082"}, "mankato-56088": {"city": "Mankato", "rent": 1060, "zip": "56088"}, "mankato-56090": {"city": "Mankato", "rent": 1200, "zip": "56090"}, "minneapolis-st.-paul-bloomington-54002": {"city": "Minneapolis-St. Paul-Bloomington", "rent": 1520, "zip": "54002"}, "minneapolis-st.-paul-bloomington-54003": {"city": "Minneapolis-St. Paul-Bloomington", "rent": 1520, "zip": "54003"}, "minneapolis-st.-paul-bloomington-54005": {"city": "Minneapolis-St. Paul-Bloomington", "rent": 1520, "zip": "54005"}, "minneapolis-st.-paul-bloomington-54007": {"city": "Minneapolis-St. Paul-Bloomington", "rent": 1520, "zip": "54007"}, "minneapolis-st.-paul-bloomington-54011": {"city": "Minneapolis-St. Paul-Bloomington", "rent": 1520, "zip": "54011"}, "minneapolis-st.-paul-bloomington-54013": {"city": "Minneapolis-St. Paul-Bloomington", "rent": 1520, "zip": "54013"}, "minneapolis-st.-paul-bloomington-54014": {"city": "Minneapolis-St. Paul-Bloomington", "rent": 1520, "zip": "54014"}, "minneapolis-st.-paul-bloomington-54015": {"city": "Minneapolis-St. Paul-Bloomington", "rent": 1520, "zip": "54015"}, "minneapolis-st.-paul-bloomington-54016": {"city": "Minneapolis-St. Paul-Bloomington", "rent": 1710, "zip": "54016"}, "minneapolis-st.-paul-bloomington-54017": {"city": "Minneapolis-St. Paul-Bloomington", "rent": 1520, "zip": "54017"}, "minneapolis-st.-paul-bloomington-54020": {"city": "Minneapolis-St. Paul-Bloomington", "rent": 1520, "zip": "54020"}, "minneapolis-st.-paul-bloomington-54021": {"city": "Minneapolis-St. Paul-Bloomington", "rent": 1550, "zip": "54021"}, "minneapolis-st.-paul-bloomington-54022": {"city": "Minneapolis-St. Paul-Bloomington", "rent": 1520, "zip": "54022"}, "minneapolis-st.-paul-bloomington-54023": {"city": "Minneapolis-St. Paul-Bloomington", "rent": 2000, "zip": "54023"}, "minneapolis-st.-paul-bloomington-54025": {"city": "Minneapolis-St. Paul-Bloomington", "rent": 1520, "zip": "54025"}, "minneapolis-st.-paul-bloomington-54026": {"city": "Minneapolis-St. Paul-Bloomington", "rent": 1520, "zip": "54026"}, "minneapolis-st.-paul-bloomington-54027": {"city": "Minneapolis-St. Paul-Bloomington", "rent": 1520, "zip": "54027"}, "minneapolis-st.-paul-bloomington-54028": {"city": "Minneapolis-St. Paul-Bloomington", "rent": 1520, "zip": "54028"}, "minneapolis-st.-paul-bloomington-54082": {"city": "Minneapolis-St. Paul-Bloomington", "rent": 1550, "zip": "54082"}, "minneapolis-st.-paul-bloomington-54721": {"city": "Minneapolis-St. Paul-Bloomington", "rent": 1520, "zip": "54721"}, "minneapolis-st.-paul-bloomington-54723": {"city": "Minneapolis-St. Paul-Bloomington", "rent": 1520, "zip": "54723"}, "minneapolis-st.-paul-bloomington-54734": {"city": "Minneapolis-St. Paul-Bloomington", "rent": 1520, "zip": "54734"}, "minneapolis-st.-paul-bloomington-54740": {"city": "Minneapolis-St. Paul-Bloomington", "rent": 1520, "zip": "54740"}, "minneapolis-st.-paul-bloomington-54749": {"city": "Minneapolis-St. Paul-Bloomington", "rent": 1520, "zip": "54749"}, "minneapolis-st.-paul-bloomington-54750": {"city": "Minneapolis-St. Paul-Bloomington", "rent": 1520, "zip": "54750"}, "minneapolis-st.-paul-bloomington-54751": {"city": "Minneapolis-St. Paul-Bloomington", "rent": 1520, "zip": "54751"}, "minneapolis-st.-paul-bloomington-54759": {"city": "Minneapolis-St. Paul-Bloomington", "rent": 1520, "zip": "54759"}, "minneapolis-st.-paul-bloomington-54761": {"city": "Minneapolis-St. Paul-Bloomington", "rent": 1520, "zip": "54761"}, "minneapolis-st.-paul-bloomington-54767": {"city": "Minneapolis-St. Paul-Bloomington", "rent": 1520, "zip": "54767"}, "minneapolis-st.-paul-bloomington-54769": {"city": "Minneapolis-St. Paul-Bloomington", "rent": 1520, "zip": "54769"}, "minneapolis-st.-paul-bloomington-55001": {"city": "Minneapolis-St. Paul-Bloomington", "rent": 1770, "zip": "55001"}, "minneapolis-st.-paul-bloomington-55003": {"city": "Minneapolis-St. Paul-Bloomington", "rent": 1590, "zip": "55003"}, "minneapolis-st.-paul-bloomington-55005": {"city": "Minneapolis-St. Paul-Bloomington", "rent": 2120, "zip": "55005"}, "minneapolis-st.-paul-bloomington-55006": {"city": "Minneapolis-St. Paul-Bloomington", "rent": 1520, "zip": "55006"}, "minneapolis-st.-paul-bloomington-55008": {"city": "Minneapolis-St. Paul-Bloomington", "rent": 1550, "zip": "55008"}, "minneapolis-st.-paul-bloomington-55009": {"city": "Minneapolis-St. Paul-Bloomington", "rent": 1520, "zip": "55009"}, "minneapolis-st.-paul-bloomington-55010": {"city": "Minneapolis-St. Paul-Bloomington", "rent": 1800, "zip": "55010"}, "minneapolis-st.-paul-bloomington-55011": {"city": "Minneapolis-St. Paul-Bloomington", "rent": 2160, "zip": "55011"}, "minneapolis-st.-paul-bloomington-55012": {"city": "Minneapolis-St. Paul-Bloomington", "rent": 1570, "zip": "55012"}, "minneapolis-st.-paul-bloomington-55013": {"city": "Minneapolis-St. Paul-Bloomington", "rent": 1520, "zip": "55013"}, "minneapolis-st.-paul-bloomington-55014": {"city": "Minneapolis-St. Paul-Bloomington", "rent": 1840, "zip": "55014"}, "minneapolis-st.-paul-bloomington-55016": {"city": "Minneapolis-St. Paul-Bloomington", "rent": 2100, "zip": "55016"}, "minneapolis-st.-paul-bloomington-55017": {"city": "Minneapolis-St. Paul-Bloomington", "rent": 2470, "zip": "55017"}, "minneapolis-st.-paul-bloomington-55018": {"city": "Minneapolis-St. Paul-Bloomington", "rent": 1640, "zip": "55018"}, "minneapolis-st.-paul-bloomington-55020": {"city": "Minneapolis-St. Paul-Bloomington", "rent": 2140, "zip": "55020"}, "minneapolis-st.-paul-bloomington-55024": {"city": "Minneapolis-St. Paul-Bloomington", "rent": 1700, "zip": "55024"}, "minneapolis-st.-paul-bloomington-55025": {"city": "Minneapolis-St. Paul-Bloomington", "rent": 1680, "zip": "55025"}, "minneapolis-st.-paul-bloomington-55029": {"city": "Minneapolis-St. Paul-Bloomington", "rent": 1550, "zip": "55029"}, "minneapolis-st.-paul-bloomington-55031": {"city": "Minneapolis-St. Paul-Bloomington", "rent": 1520, "zip": "55031"}, "minneapolis-st.-paul-bloomington-55032": {"city": "Minneapolis-St. Paul-Bloomington", "rent": 1790, "zip": "55032"}, "minneapolis-st.-paul-bloomington-55033": {"city": "Minneapolis-St. Paul-Bloomington", "rent": 1520, "zip": "55033"}, "minneapolis-st.-paul-bloomington-55038": {"city": "Minneapolis-St. Paul-Bloomington", "rent": 2200, "zip": "55038"}, "minneapolis-st.-paul-bloomington-55040": {"city": "Minneapolis-St. Paul-Bloomington", "rent": 1520, "zip": "55040"}, "minneapolis-st.-paul-bloomington-55042": {"city": "Minneapolis-St. Paul-Bloomington", "rent": 1770, "zip": "55042"}, "minneapolis-st.-paul-bloomington-55043": {"city": "Minneapolis-St. Paul-Bloomington", "rent": 1840, "zip": "55043"}, "minneapolis-st.-paul-bloomington-55044": {"city": "Minneapolis-St. Paul-Bloomington", "rent": 2180, "zip": "55044"}, "minneapolis-st.-paul-bloomington-55045": {"city": "Minneapolis-St. Paul-Bloomington", "rent": 1520, "zip": "55045"}, "minneapolis-st.-paul-bloomington-55047": {"city": "Minneapolis-St. Paul-Bloomington", "rent": 2560, "zip": "55047"}, "minneapolis-st.-paul-bloomington-55054": {"city": "Minneapolis-St. Paul-Bloomington", "rent": 2490, "zip": "55054"}, "minneapolis-st.-paul-bloomington-55055": {"city": "Minneapolis-St. Paul-Bloomington", "rent": 1520, "zip": "55055"}, "minneapolis-st.-paul-bloomington-55056": {"city": "Minneapolis-St. Paul-Bloomington", "rent": 1520, "zip": "55056"}, "minneapolis-st.-paul-bloomington-55057": {"city": "Minneapolis-St. Paul-Bloomington", "rent": 1520, "zip": "55057"}, "minneapolis-st.-paul-bloomington-55065": {"city": "Minneapolis-St. Paul-Bloomington", "rent": 1880, "zip": "55065"}, "minneapolis-st.-paul-bloomington-55068": {"city": "Minneapolis-St. Paul-Bloomington", "rent": 1990, "zip": "55068"}, "minneapolis-st.-paul-bloomington-55069": {"city": "Minneapolis-St. Paul-Bloomington", "rent": 1520, "zip": "55069"}, "minneapolis-st.-paul-bloomington-55070": {"city": "Minneapolis-St. Paul-Bloomington", "rent": 1520, "zip": "55070"}, "minneapolis-st.-paul-bloomington-55071": {"city": "Minneapolis-St. Paul-Bloomington", "rent": 2330, "zip": "55071"}, "minneapolis-st.-paul-bloomington-55073": {"city": "Minneapolis-St. Paul-Bloomington", "rent": 1520, "zip": "55073"}, "minneapolis-st.-paul-bloomington-55074": {"city": "Minneapolis-St. Paul-Bloomington", "rent": 1520, "zip": "55074"}, "minneapolis-st.-paul-bloomington-55075": {"city": "Minneapolis-St. Paul-Bloomington", "rent": 1520, "zip": "55075"}, "minneapolis-st.-paul-bloomington-55076": {"city": "Minneapolis-St. Paul-Bloomington", "rent": 1670, "zip": "55076"}, "minneapolis-st.-paul-bloomington-55077": {"city": "Minneapolis-St. Paul-Bloomington", "rent": 1760, "zip": "55077"}, "minneapolis-st.-paul-bloomington-55079": {"city": "Minneapolis-St. Paul-Bloomington", "rent": 1790, "zip": "55079"}, "minneapolis-st.-paul-bloomington-55080": {"city": "Minneapolis-St. Paul-Bloomington", "rent": 1710, "zip": "55080"}, "minneapolis-st.-paul-bloomington-55082": {"city": "Minneapolis-St. Paul-Bloomington", "rent": 1660, "zip": "55082"}, "minneapolis-st.-paul-bloomington-55083": {"city": "Minneapolis-St. Paul-Bloomington", "rent": 2000, "zip": "55083"}, "minneapolis-st.-paul-bloomington-55084": {"city": "Minneapolis-St. Paul-Bloomington", "rent": 1520, "zip": "55084"}, "minneapolis-st.-paul-bloomington-55085": {"city": "Minneapolis-St. Paul-Bloomington", "rent": 1520, "zip": "55085"}, "minneapolis-st.-paul-bloomington-55088": {"city": "Minneapolis-St. Paul-Bloomington", "rent": 1540, "zip": "55088"}, "minneapolis-st.-paul-bloomington-55089": {"city": "Minneapolis-St. Paul-Bloomington", "rent": 1520, "zip": "55089"}, "minneapolis-st.-paul-bloomington-55090": {"city": "Minneapolis-St. Paul-Bloomington", "rent": 2150, "zip": "55090"}, "minneapolis-st.-paul-bloomington-55092": {"city": "Minneapolis-St. Paul-Bloomington", "rent": 1520, "zip": "55092"}, "minneapolis-st.-paul-bloomington-55101": {"city": "Minneapolis-St. Paul-Bloomington", "rent": 2040, "zip": "55101"}, "minneapolis-st.-paul-bloomington-55102": {"city": "Minneapolis-St. Paul-Bloomington", "rent": 1770, "zip": "55102"}, "minneapolis-st.-paul-bloomington-55103": {"city": "Minneapolis-St. Paul-Bloomington", "rent": 1520, "zip": "55103"}, "minneapolis-st.-paul-bloomington-55104": {"city": "Minneapolis-St. Paul-Bloomington", "rent": 1530, "zip": "55104"}, "minneapolis-st.-paul-bloomington-55105": {"city": "Minneapolis-St. Paul-Bloomington", "rent": 1640, "zip": "55105"}, "minneapolis-st.-paul-bloomington-55106": {"city": "Minneapolis-St. Paul-Bloomington", "rent": 1520, "zip": "55106"}, "minneapolis-st.-paul-bloomington-55107": {"city": "Minneapolis-St. Paul-Bloomington", "rent": 1600, "zip": "55107"}, "minneapolis-st.-paul-bloomington-55108": {"city": "Minneapolis-St. Paul-Bloomington", "rent": 1730, "zip": "55108"}, "minneapolis-st.-paul-bloomington-55109": {"city": "Minneapolis-St. Paul-Bloomington", "rent": 1620, "zip": "55109"}, "minneapolis-st.-paul-bloomington-55110": {"city": "Minneapolis-St. Paul-Bloomington", "rent": 1820, "zip": "55110"}, "minneapolis-st.-paul-bloomington-55111": {"city": "Minneapolis-St. Paul-Bloomington", "rent": 1520, "zip": "55111"}, "minneapolis-st.-paul-bloomington-55112": {"city": "Minneapolis-St. Paul-Bloomington", "rent": 1570, "zip": "55112"}, "minneapolis-st.-paul-bloomington-55113": {"city": "Minneapolis-St. Paul-Bloomington", "rent": 1700, "zip": "55113"}, "minneapolis-st.-paul-bloomington-55114": {"city": "Minneapolis-St. Paul-Bloomington", "rent": 1960, "zip": "55114"}, "minneapolis-st.-paul-bloomington-55115": {"city": "Minneapolis-St. Paul-Bloomington", "rent": 2150, "zip": "55115"}, "minneapolis-st.-paul-bloomington-55116": {"city": "Minneapolis-St. Paul-Bloomington", "rent": 1720, "zip": "55116"}, "minneapolis-st.-paul-bloomington-55117": {"city": "Minneapolis-St. Paul-Bloomington", "rent": 1520, "zip": "55117"}, "minneapolis-st.-paul-bloomington-55118": {"city": "Minneapolis-St. Paul-Bloomington", "rent": 1550, "zip": "55118"}, "minneapolis-st.-paul-bloomington-55119": {"city": "Minneapolis-St. Paul-Bloomington", "rent": 1600, "zip": "55119"}, "minneapolis-st.-paul-bloomington-55120": {"city": "Minneapolis-St. Paul-Bloomington", "rent": 1520, "zip": "55120"}, "minneapolis-st.-paul-bloomington-55121": {"city": "Minneapolis-St. Paul-Bloomington", "rent": 1880, "zip": "55121"}, "minneapolis-st.-paul-bloomington-55122": {"city": "Minneapolis-St. Paul-Bloomington", "rent": 1810, "zip": "55122"}, "minneapolis-st.-paul-bloomington-55123": {"city": "Minneapolis-St. Paul-Bloomington", "rent": 1900, "zip": "55123"}, "minneapolis-st.-paul-bloomington-55124": {"city": "Minneapolis-St. Paul-Bloomington", "rent": 1960, "zip": "55124"}, "minneapolis-st.-paul-bloomington-55125": {"city": "Minneapolis-St. Paul-Bloomington", "rent": 2230, "zip": "55125"}, "minneapolis-st.-paul-bloomington-55126": {"city": "Minneapolis-St. Paul-Bloomington", "rent": 1820, "zip": "55126"}, "minneapolis-st.-paul-bloomington-55127": {"city": "Minneapolis-St. Paul-Bloomington", "rent": 1940, "zip": "55127"}, "minneapolis-st.-paul-bloomington-55128": {"city": "Minneapolis-St. Paul-Bloomington", "rent": 1700, "zip": "55128"}, "minneapolis-st.-paul-bloomington-55129": {"city": "Minneapolis-St. Paul-Bloomington", "rent": 2320, "zip": "55129"}, "minneapolis-st.-paul-bloomington-55130": {"city": "Minneapolis-St. Paul-Bloomington", "rent": 1520, "zip": "55130"}, "minneapolis-st.-paul-bloomington-55150": {"city": "Minneapolis-St. Paul-Bloomington", "rent": 1520, "zip": "55150"}, "minneapolis-st.-paul-bloomington-55155": {"city": "Minneapolis-St. Paul-Bloomington", "rent": 1580, "zip": "55155"}, "minneapolis-st.-paul-bloomington-55301": {"city": "Minneapolis-St. Paul-Bloomington", "rent": 1870, "zip": "55301"}, "minneapolis-st.-paul-bloomington-55302": {"city": "Minneapolis-St. Paul-Bloomington", "rent": 1520, "zip": "55302"}, "minneapolis-st.-paul-bloomington-55303": {"city": "Minneapolis-St. Paul-Bloomington", "rent": 1650, "zip": "55303"}, "minneapolis-st.-paul-bloomington-55304": {"city": "Minneapolis-St. Paul-Bloomington", "rent": 2080, "zip": "55304"}, "minneapolis-st.-paul-bloomington-55305": {"city": "Minneapolis-St. Paul-Bloomington", "rent": 2120, "zip": "55305"}, "minneapolis-st.-paul-bloomington-55306": {"city": "Minneapolis-St. Paul-Bloomington", "rent": 1920, "zip": "55306"}, "minneapolis-st.-paul-bloomington-55308": {"city": "Minneapolis-St. Paul-Bloomington", "rent": 1520, "zip": "55308"}, "minneapolis-st.-paul-bloomington-55309": {"city": "Minneapolis-St. Paul-Bloomington", "rent": 1780, "zip": "55309"}, "minneapolis-st.-paul-bloomington-55311": {"city": "Minneapolis-St. Paul-Bloomington", "rent": 2240, "zip": "55311"}, "minneapolis-st.-paul-bloomington-55313": {"city": "Minneapolis-St. Paul-Bloomington", "rent": 1520, "zip": "55313"}, "minneapolis-st.-paul-bloomington-55315": {"city": "Minneapolis-St. Paul-Bloomington", "rent": 1700, "zip": "55315"}, "minneapolis-st.-paul-bloomington-55316": {"city": "Minneapolis-St. Paul-Bloomington", "rent": 1910, "zip": "55316"}, "minneapolis-st.-paul-bloomington-55317": {"city": "Minneapolis-St. Paul-Bloomington", "rent": 2110, "zip": "55317"}, "minneapolis-st.-paul-bloomington-55318": {"city": "Minneapolis-St. Paul-Bloomington", "rent": 1730, "zip": "55318"}, "minneapolis-st.-paul-bloomington-55319": {"city": "Minneapolis-St. Paul-Bloomington", "rent": 1520, "zip": "55319"}, "minneapolis-st.-paul-bloomington-55320": {"city": "Minneapolis-St. Paul-Bloomington", "rent": 1520, "zip": "55320"}, "minneapolis-st.-paul-bloomington-55321": {"city": "Minneapolis-St. Paul-Bloomington", "rent": 1520, "zip": "55321"}, "minneapolis-st.-paul-bloomington-55322": {"city": "Minneapolis-St. Paul-Bloomington", "rent": 1620, "zip": "55322"}, "minneapolis-st.-paul-bloomington-55323": {"city": "Minneapolis-St. Paul-Bloomington", "rent": 1770, "zip": "55323"}, "minneapolis-st.-paul-bloomington-55325": {"city": "Minneapolis-St. Paul-Bloomington", "rent": 1520, "zip": "55325"}, "minneapolis-st.-paul-bloomington-55327": {"city": "Minneapolis-St. Paul-Bloomington", "rent": 1580, "zip": "55327"}, "minneapolis-st.-paul-bloomington-55328": {"city": "Minneapolis-St. Paul-Bloomington", "rent": 1520, "zip": "55328"}, "minneapolis-st.-paul-bloomington-55330": {"city": "Minneapolis-St. Paul-Bloomington", "rent": 1600, "zip": "55330"}, "minneapolis-st.-paul-bloomington-55331": {"city": "Minneapolis-St. Paul-Bloomington", "rent": 1520, "zip": "55331"}, "minneapolis-st.-paul-bloomington-55337": {"city": "Minneapolis-St. Paul-Bloomington", "rent": 1820, "zip": "55337"}, "minneapolis-st.-paul-bloomington-55338": {"city": "Minneapolis-St. Paul-Bloomington", "rent": 1520, "zip": "55338"}, "minneapolis-st.-paul-bloomington-55339": {"city": "Minneapolis-St. Paul-Bloomington", "rent": 1520, "zip": "55339"}, "minneapolis-st.-paul-bloomington-55340": {"city": "Minneapolis-St. Paul-Bloomington", "rent": 2040, "zip": "55340"}, "minneapolis-st.-paul-bloomington-55341": {"city": "Minneapolis-St. Paul-Bloomington", "rent": 1520, "zip": "55341"}, "minneapolis-st.-paul-bloomington-55343": {"city": "Minneapolis-St. Paul-Bloomington", "rent": 1800, "zip": "55343"}, "minneapolis-st.-paul-bloomington-55344": {"city": "Minneapolis-St. Paul-Bloomington", "rent": 2080, "zip": "55344"}, "minneapolis-st.-paul-bloomington-55345": {"city": "Minneapolis-St. Paul-Bloomington", "rent": 1920, "zip": "55345"}, "minneapolis-st.-paul-bloomington-55346": {"city": "Minneapolis-St. Paul-Bloomington", "rent": 2260, "zip": "55346"}, "minneapolis-st.-paul-bloomington-55347": {"city": "Minneapolis-St. Paul-Bloomington", "rent": 2370, "zip": "55347"}, "minneapolis-st.-paul-bloomington-55349": {"city": "Minneapolis-St. Paul-Bloomington", "rent": 1520, "zip": "55349"}, "minneapolis-st.-paul-bloomington-55352": {"city": "Minneapolis-St. Paul-Bloomington", "rent": 1530, "zip": "55352"}, "minneapolis-st.-paul-bloomington-55356": {"city": "Minneapolis-St. Paul-Bloomington", "rent": 2190, "zip": "55356"}, "minneapolis-st.-paul-bloomington-55357": {"city": "Minneapolis-St. Paul-Bloomington", "rent": 1520, "zip": "55357"}, "minneapolis-st.-paul-bloomington-55358": {"city": "Minneapolis-St. Paul-Bloomington", "rent": 1520, "zip": "55358"}, "minneapolis-st.-paul-bloomington-55359": {"city": "Minneapolis-St. Paul-Bloomington", "rent": 1520, "zip": "55359"}, "minneapolis-st.-paul-bloomington-55360": {"city": "Minneapolis-St. Paul-Bloomington", "rent": 1830, "zip": "55360"}, "minneapolis-st.-paul-bloomington-55361": {"city": "Minneapolis-St. Paul-Bloomington", "rent": 1770, "zip": "55361"}, "minneapolis-st.-paul-bloomington-55362": {"city": "Minneapolis-St. Paul-Bloomington", "rent": 1690, "zip": "55362"}, "minneapolis-st.-paul-bloomington-55363": {"city": "Minneapolis-St. Paul-Bloomington", "rent": 1560, "zip": "55363"}, "minneapolis-st.-paul-bloomington-55364": {"city": "Minneapolis-St. Paul-Bloomington", "rent": 1600, "zip": "55364"}, "minneapolis-st.-paul-bloomington-55367": {"city": "Minneapolis-St. Paul-Bloomington", "rent": 1520, "zip": "55367"}, "minneapolis-st.-paul-bloomington-55368": {"city": "Minneapolis-St. Paul-Bloomington", "rent": 1550, "zip": "55368"}, "minneapolis-st.-paul-bloomington-55369": {"city": "Minneapolis-St. Paul-Bloomington", "rent": 2180, "zip": "55369"}, "minneapolis-st.-paul-bloomington-55371": {"city": "Minneapolis-St. Paul-Bloomington", "rent": 1520, "zip": "55371"}, "minneapolis-st.-paul-bloomington-55372": {"city": "Minneapolis-St. Paul-Bloomington", "rent": 1710, "zip": "55372"}, "minneapolis-st.-paul-bloomington-55373": {"city": "Minneapolis-St. Paul-Bloomington", "rent": 1530, "zip": "55373"}, "minneapolis-st.-paul-bloomington-55374": {"city": "Minneapolis-St. Paul-Bloomington", "rent": 1840, "zip": "55374"}, "minneapolis-st.-paul-bloomington-55375": {"city": "Minneapolis-St. Paul-Bloomington", "rent": 1520, "zip": "55375"}, "minneapolis-st.-paul-bloomington-55376": {"city": "Minneapolis-St. Paul-Bloomington", "rent": 1520, "zip": "55376"}, "minneapolis-st.-paul-bloomington-55378": {"city": "Minneapolis-St. Paul-Bloomington", "rent": 2040, "zip": "55378"}, "minneapolis-st.-paul-bloomington-55379": {"city": "Minneapolis-St. Paul-Bloomington", "rent": 1860, "zip": "55379"}, "minneapolis-st.-paul-bloomington-55381": {"city": "Minneapolis-St. Paul-Bloomington", "rent": 1520, "zip": "55381"}, "minneapolis-st.-paul-bloomington-55382": {"city": "Minneapolis-St. Paul-Bloomington", "rent": 1590, "zip": "55382"}, "minneapolis-st.-paul-bloomington-55384": {"city": "Minneapolis-St. Paul-Bloomington", "rent": 1530, "zip": "55384"}, "minneapolis-st.-paul-bloomington-55386": {"city": "Minneapolis-St. Paul-Bloomington", "rent": 2560, "zip": "55386"}, "minneapolis-st.-paul-bloomington-55387": {"city": "Minneapolis-St. Paul-Bloomington", "rent": 1630, "zip": "55387"}, "minneapolis-st.-paul-bloomington-55388": {"city": "Minneapolis-St. Paul-Bloomington", "rent": 1520, "zip": "55388"}, "minneapolis-st.-paul-bloomington-55390": {"city": "Minneapolis-St. Paul-Bloomington", "rent": 1520, "zip": "55390"}, "minneapolis-st.-paul-bloomington-55391": {"city": "Minneapolis-St. Paul-Bloomington", "rent": 1950, "zip": "55391"}, "minneapolis-st.-paul-bloomington-55395": {"city": "Minneapolis-St. Paul-Bloomington", "rent": 1520, "zip": "55395"}, "minneapolis-st.-paul-bloomington-55397": {"city": "Minneapolis-St. Paul-Bloomington", "rent": 1520, "zip": "55397"}, "minneapolis-st.-paul-bloomington-55398": {"city": "Minneapolis-St. Paul-Bloomington", "rent": 1610, "zip": "55398"}, "minneapolis-st.-paul-bloomington-55401": {"city": "Minneapolis-St. Paul-Bloomington", "rent": 2560, "zip": "55401"}, "minneapolis-st.-paul-bloomington-55402": {"city": "Minneapolis-St. Paul-Bloomington", "rent": 2150, "zip": "55402"}, "minneapolis-st.-paul-bloomington-55403": {"city": "Minneapolis-St. Paul-Bloomington", "rent": 1700, "zip": "55403"}, "minneapolis-st.-paul-bloomington-55404": {"city": "Minneapolis-St. Paul-Bloomington", "rent": 1580, "zip": "55404"}, "minneapolis-st.-paul-bloomington-55405": {"city": "Minneapolis-St. Paul-Bloomington", "rent": 1630, "zip": "55405"}, "minneapolis-st.-paul-bloomington-55406": {"city": "Minneapolis-St. Paul-Bloomington", "rent": 1640, "zip": "55406"}, "minneapolis-st.-paul-bloomington-55407": {"city": "Minneapolis-St. Paul-Bloomington", "rent": 1520, "zip": "55407"}, "minneapolis-st.-paul-bloomington-55408": {"city": "Minneapolis-St. Paul-Bloomington", "rent": 1910, "zip": "55408"}, "minneapolis-st.-paul-bloomington-55409": {"city": "Minneapolis-St. Paul-Bloomington", "rent": 1650, "zip": "55409"}, "minneapolis-st.-paul-bloomington-55410": {"city": "Minneapolis-St. Paul-Bloomington", "rent": 1980, "zip": "55410"}, "minneapolis-st.-paul-bloomington-55411": {"city": "Minneapolis-St. Paul-Bloomington", "rent": 1620, "zip": "55411"}, "minneapolis-st.-paul-bloomington-55412": {"city": "Minneapolis-St. Paul-Bloomington", "rent": 1760, "zip": "55412"}, "minneapolis-st.-paul-bloomington-55413": {"city": "Minneapolis-St. Paul-Bloomington", "rent": 1830, "zip": "55413"}, "minneapolis-st.-paul-bloomington-55414": {"city": "Minneapolis-St. Paul-Bloomington", "rent": 1700, "zip": "55414"}, "minneapolis-st.-paul-bloomington-55415": {"city": "Minneapolis-St. Paul-Bloomington", "rent": 2500, "zip": "55415"}, "minneapolis-st.-paul-bloomington-55416": {"city": "Minneapolis-St. Paul-Bloomington", "rent": 2160, "zip": "55416"}, "minneapolis-st.-paul-bloomington-55417": {"city": "Minneapolis-St. Paul-Bloomington", "rent": 1690, "zip": "55417"}, "minneapolis-st.-paul-bloomington-55418": {"city": "Minneapolis-St. Paul-Bloomington", "rent": 1720, "zip": "55418"}, "minneapolis-st.-paul-bloomington-55419": {"city": "Minneapolis-St. Paul-Bloomington", "rent": 1840, "zip": "55419"}, "minneapolis-st.-paul-bloomington-55420": {"city": "Minneapolis-St. Paul-Bloomington", "rent": 1590, "zip": "55420"}, "minneapolis-st.-paul-bloomington-55421": {"city": "Minneapolis-St. Paul-Bloomington", "rent": 1530, "zip": "55421"}, "minneapolis-st.-paul-bloomington-55422": {"city": "Minneapolis-St. Paul-Bloomington", "rent": 1820, "zip": "55422"}, "minneapolis-st.-paul-bloomington-55423": {"city": "Minneapolis-St. Paul-Bloomington", "rent": 1660, "zip": "55423"}, "minneapolis-st.-paul-bloomington-55424": {"city": "Minneapolis-St. Paul-Bloomington", "rent": 2250, "zip": "55424"}, "minneapolis-st.-paul-bloomington-55425": {"city": "Minneapolis-St. Paul-Bloomington", "rent": 1790, "zip": "55425"}, "minneapolis-st.-paul-bloomington-55426": {"city": "Minneapolis-St. Paul-Bloomington", "rent": 1780, "zip": "55426"}, "minneapolis-st.-paul-bloomington-55427": {"city": "Minneapolis-St. Paul-Bloomington", "rent": 1740, "zip": "55427"}, "minneapolis-st.-paul-bloomington-55428": {"city": "Minneapolis-St. Paul-Bloomington", "rent": 1560, "zip": "55428"}, "minneapolis-st.-paul-bloomington-55429": {"city": "Minneapolis-St. Paul-Bloomington", "rent": 1550, "zip": "55429"}, "minneapolis-st.-paul-bloomington-55430": {"city": "Minneapolis-St. Paul-Bloomington", "rent": 1650, "zip": "55430"}, "minneapolis-st.-paul-bloomington-55431": {"city": "Minneapolis-St. Paul-Bloomington", "rent": 2100, "zip": "55431"}, "minneapolis-st.-paul-bloomington-55432": {"city": "Minneapolis-St. Paul-Bloomington", "rent": 1590, "zip": "55432"}, "minneapolis-st.-paul-bloomington-55433": {"city": "Minneapolis-St. Paul-Bloomington", "rent": 1640, "zip": "55433"}, "minneapolis-st.-paul-bloomington-55434": {"city": "Minneapolis-St. Paul-Bloomington", "rent": 2060, "zip": "55434"}, "minneapolis-st.-paul-bloomington-55435": {"city": "Minneapolis-St. Paul-Bloomington", "rent": 2110, "zip": "55435"}, "minneapolis-st.-paul-bloomington-55436": {"city": "Minneapolis-St. Paul-Bloomington", "rent": 2100, "zip": "55436"}, "minneapolis-st.-paul-bloomington-55437": {"city": "Minneapolis-St. Paul-Bloomington", "rent": 1940, "zip": "55437"}, "minneapolis-st.-paul-bloomington-55438": {"city": "Minneapolis-St. Paul-Bloomington", "rent": 1860, "zip": "55438"}, "minneapolis-st.-paul-bloomington-55439": {"city": "Minneapolis-St. Paul-Bloomington", "rent": 1970, "zip": "55439"}, "minneapolis-st.-paul-bloomington-55440": {"city": "Minneapolis-St. Paul-Bloomington", "rent": 1770, "zip": "55440"}, "minneapolis-st.-paul-bloomington-55441": {"city": "Minneapolis-St. Paul-Bloomington", "rent": 1860, "zip": "55441"}, "minneapolis-st.-paul-bloomington-55442": {"city": "Minneapolis-St. Paul-Bloomington", "rent": 2130, "zip": "55442"}, "minneapolis-st.-paul-bloomington-55443": {"city": "Minneapolis-St. Paul-Bloomington", "rent": 1570, "zip": "55443"}, "minneapolis-st.-paul-bloomington-55444": {"city": "Minneapolis-St. Paul-Bloomington", "rent": 1650, "zip": "55444"}, "minneapolis-st.-paul-bloomington-55445": {"city": "Minneapolis-St. Paul-Bloomington", "rent": 2560, "zip": "55445"}, "minneapolis-st.-paul-bloomington-55446": {"city": "Minneapolis-St. Paul-Bloomington", "rent": 2240, "zip": "55446"}, "minneapolis-st.-paul-bloomington-55447": {"city": "Minneapolis-St. Paul-Bloomington", "rent": 2060, "zip": "55447"}, "minneapolis-st.-paul-bloomington-55448": {"city": "Minneapolis-St. Paul-Bloomington", "rent": 2060, "zip": "55448"}, "minneapolis-st.-paul-bloomington-55449": {"city": "Minneapolis-St. Paul-Bloomington", "rent": 2140, "zip": "55449"}, "minneapolis-st.-paul-bloomington-55450": {"city": "Minneapolis-St. Paul-Bloomington", "rent": 1770, "zip": "55450"}, "minneapolis-st.-paul-bloomington-55454": {"city": "Minneapolis-St. Paul-Bloomington", "rent": 1520, "zip": "55454"}, "minneapolis-st.-paul-bloomington-55455": {"city": "Minneapolis-St. Paul-Bloomington", "rent": 1540, "zip": "55455"}, "minneapolis-st.-paul-bloomington-55458": {"city": "Minneapolis-St. Paul-Bloomington", "rent": 1770, "zip": "55458"}, "minneapolis-st.-paul-bloomington-55479": {"city": "Minneapolis-St. Paul-Bloomington", "rent": 1770, "zip": "55479"}, "minneapolis-st.-paul-bloomington-55480": {"city": "Minneapolis-St. Paul-Bloomington", "rent": 1770, "zip": "55480"}, "minneapolis-st.-paul-bloomington-56011": {"city": "Minneapolis-St. Paul-Bloomington", "rent": 1520, "zip": "56011"}, "minneapolis-st.-paul-bloomington-56044": {"city": "Minneapolis-St. Paul-Bloomington", "rent": 1520, "zip": "56044"}, "minneapolis-st.-paul-bloomington-56071": {"city": "Minneapolis-St. Paul-Bloomington", "rent": 1520, "zip": "56071"}, "minneapolis-st.-paul-bloomington-56304": {"city": "Minneapolis-St. Paul-Bloomington", "rent": 1520, "zip": "56304"}, "minneapolis-st.-paul-bloomington-56329": {"city": "Minneapolis-St. Paul-Bloomington", "rent": 1520, "zip": "56329"}, "minneapolis-st.-paul-bloomington-56353": {"city": "Minneapolis-St. Paul-Bloomington", "rent": 1520, "zip": "56353"}, "minneapolis-st.-paul-bloomington-56358": {"city": "Minneapolis-St. Paul-Bloomington", "rent": 1520, "zip": "56358"}, "minneapolis-st.-paul-bloomington-56379": {"city": "Minneapolis-St. Paul-Bloomington", "rent": 1520, "zip": "56379"}, "le-sueur-county-56011": {"city": "Le Sueur County", "rent": 1520, "zip": "56011"}, "le-sueur-county-56017": {"city": "Le Sueur County", "rent": 980, "zip": "56017"}, "le-sueur-county-56028": {"city": "Le Sueur County", "rent": 1280, "zip": "56028"}, "le-sueur-county-56044": {"city": "Le Sueur County", "rent": 1520, "zip": "56044"}, "le-sueur-county-56050": {"city": "Le Sueur County", "rent": 1060, "zip": "56050"}, "le-sueur-county-56052": {"city": "Le Sueur County", "rent": 1660, "zip": "56052"}, "le-sueur-county-56057": {"city": "Le Sueur County", "rent": 1120, "zip": "56057"}, "le-sueur-county-56058": {"city": "Le Sueur County", "rent": 1070, "zip": "56058"}, "le-sueur-county-56063": {"city": "Le Sueur County", "rent": 1180, "zip": "56063"}, "le-sueur-county-56069": {"city": "Le Sueur County", "rent": 1140, "zip": "56069"}, "le-sueur-county-56071": {"city": "Le Sueur County", "rent": 1520, "zip": "56071"}, "le-sueur-county-56082": {"city": "Le Sueur County", "rent": 1110, "zip": "56082"}, "le-sueur-county-56096": {"city": "Le Sueur County", "rent": 1060, "zip": "56096"}, "mille-lacs-county-55051": {"city": "Mille Lacs County", "rent": 990, "zip": "55051"}, "mille-lacs-county-55371": {"city": "Mille Lacs County", "rent": 1520, "zip": "55371"}, "mille-lacs-county-56313": {"city": "Mille Lacs County", "rent": 1260, "zip": "56313"}, "mille-lacs-county-56330": {"city": "Mille Lacs County", "rent": 1230, "zip": "56330"}, "mille-lacs-county-56338": {"city": "Mille Lacs County", "rent": 1240, "zip": "56338"}, "mille-lacs-county-56342": {"city": "Mille Lacs County", "rent": 990, "zip": "56342"}, "mille-lacs-county-56353": {"city": "Mille Lacs County", "rent": 1520, "zip": "56353"}, "mille-lacs-county-56357": {"city": "Mille Lacs County", "rent": 1270, "zip": "56357"}, "mille-lacs-county-56358": {"city": "Mille Lacs County", "rent": 1520, "zip": "56358"}, "mille-lacs-county-56359": {"city": "Mille Lacs County", "rent": 1100, "zip": "56359"}, "mille-lacs-county-56363": {"city": "Mille Lacs County", "rent": 1310, "zip": "56363"}, "mille-lacs-county-56386": {"city": "Mille Lacs County", "rent": 1040, "zip": "56386"}, "mille-lacs-county-56450": {"city": "Mille Lacs County", "rent": 1190, "zip": "56450"}, "rochester-55901": {"city": "Rochester", "rent": 1470, "zip": "55901"}, "rochester-55902": {"city": "Rochester", "rent": 1690, "zip": "55902"}, "rochester-55903": {"city": "Rochester", "rent": 1420, "zip": "55903"}, "rochester-55904": {"city": "Rochester", "rent": 1410, "zip": "55904"}, "rochester-55905": {"city": "Rochester", "rent": 1420, "zip": "55905"}, "rochester-55906": {"city": "Rochester", "rent": 1230, "zip": "55906"}, "rochester-55917": {"city": "Rochester", "rent": 1210, "zip": "55917"}, "rochester-55920": {"city": "Rochester", "rent": 1210, "zip": "55920"}, "rochester-55923": {"city": "Rochester", "rent": 1210, "zip": "55923"}, "rochester-55924": {"city": "Rochester", "rent": 1210, "zip": "55924"}, "rochester-55927": {"city": "Rochester", "rent": 1210, "zip": "55927"}, "rochester-55929": {"city": "Rochester", "rent": 1210, "zip": "55929"}, "rochester-55932": {"city": "Rochester", "rent": 1210, "zip": "55932"}, "rochester-55934": {"city": "Rochester", "rent": 1210, "zip": "55934"}, "rochester-55940": {"city": "Rochester", "rent": 1210, "zip": "55940"}, "rochester-55944": {"city": "Rochester", "rent": 1210, "zip": "55944"}, "rochester-55946": {"city": "Rochester", "rent": 1210, "zip": "55946"}, "rochester-55955": {"city": "Rochester", "rent": 1210, "zip": "55955"}, "rochester-55956": {"city": "Rochester", "rent": 1280, "zip": "55956"}, "rochester-55960": {"city": "Rochester", "rent": 1490, "zip": "55960"}, "rochester-55963": {"city": "Rochester", "rent": 1210, "zip": "55963"}, "rochester-55964": {"city": "Rochester", "rent": 1210, "zip": "55964"}, "rochester-55972": {"city": "Rochester", "rent": 1210, "zip": "55972"}, "rochester-55973": {"city": "Rochester", "rent": 1580, "zip": "55973"}, "rochester-55976": {"city": "Rochester", "rent": 1210, "zip": "55976"}, "rochester-55982": {"city": "Rochester", "rent": 1210, "zip": "55982"}, "rochester-55985": {"city": "Rochester", "rent": 1210, "zip": "55985"}, "rochester-55991": {"city": "Rochester", "rent": 1210, "zip": "55991"}, "fillmore-county-55922": {"city": "Fillmore County", "rent": 970, "zip": "55922"}, "fillmore-county-55923": {"city": "Fillmore County", "rent": 1210, "zip": "55923"}, "fillmore-county-55935": {"city": "Fillmore County", "rent": 970, "zip": "55935"}, "fillmore-county-55939": {"city": "Fillmore County", "rent": 1060, "zip": "55939"}, "fillmore-county-55949": {"city": "Fillmore County", "rent": 970, "zip": "55949"}, "fillmore-county-55951": {"city": "Fillmore County", "rent": 970, "zip": "55951"}, "fillmore-county-55954": {"city": "Fillmore County", "rent": 1080, "zip": "55954"}, "fillmore-county-55961": {"city": "Fillmore County", "rent": 1190, "zip": "55961"}, "fillmore-county-55962": {"city": "Fillmore County", "rent": 1080, "zip": "55962"}, "fillmore-county-55965": {"city": "Fillmore County", "rent": 970, "zip": "55965"}, "fillmore-county-55967": {"city": "Fillmore County", "rent": 1450, "zip": "55967"}, "fillmore-county-55971": {"city": "Fillmore County", "rent": 1110, "zip": "55971"}, "fillmore-county-55974": {"city": "Fillmore County", "rent": 1110, "zip": "55974"}, "fillmore-county-55975": {"city": "Fillmore County", "rent": 1220, "zip": "55975"}, "fillmore-county-55976": {"city": "Fillmore County", "rent": 1210, "zip": "55976"}, "fillmore-county-55979": {"city": "Fillmore County", "rent": 1430, "zip": "55979"}, "fillmore-county-55990": {"city": "Fillmore County", "rent": 1150, "zip": "55990"}, "wabasha-county-55027": {"city": "Wabasha County", "rent": 1270, "zip": "55027"}, "wabasha-county-55041": {"city": "Wabasha County", "rent": 1240, "zip": "55041"}, "wabasha-county-55906": {"city": "Wabasha County", "rent": 1230, "zip": "55906"}, "wabasha-county-55910": {"city": "Wabasha County", "rent": 1300, "zip": "55910"}, "wabasha-county-55932": {"city": "Wabasha County", "rent": 1210, "zip": "55932"}, "wabasha-county-55945": {"city": "Wabasha County", "rent": 1020, "zip": "55945"}, "wabasha-county-55956": {"city": "Wabasha County", "rent": 1280, "zip": "55956"}, "wabasha-county-55957": {"city": "Wabasha County", "rent": 970, "zip": "55957"}, "wabasha-county-55960": {"city": "Wabasha County", "rent": 1490, "zip": "55960"}, "wabasha-county-55964": {"city": "Wabasha County", "rent": 1210, "zip": "55964"}, "wabasha-county-55968": {"city": "Wabasha County", "rent": 1300, "zip": "55968"}, "wabasha-county-55981": {"city": "Wabasha County", "rent": 1010, "zip": "55981"}, "wabasha-county-55991": {"city": "Wabasha County", "rent": 1210, "zip": "55991"}, "st.-cloud-55320": {"city": "St. Cloud", "rent": 1520, "zip": "55320"}, "st.-cloud-55329": {"city": "St. Cloud", "rent": 1040, "zip": "55329"}, "st.-cloud-55353": {"city": "St. Cloud", "rent": 1040, "zip": "55353"}, "st.-cloud-55371": {"city": "St. Cloud", "rent": 1520, "zip": "55371"}, "st.-cloud-55382": {"city": "St. Cloud", "rent": 1590, "zip": "55382"}, "st.-cloud-55389": {"city": "St. Cloud", "rent": 1040, "zip": "55389"}, "st.-cloud-56301": {"city": "St. Cloud", "rent": 1310, "zip": "56301"}, "st.-cloud-56302": {"city": "St. Cloud", "rent": 1240, "zip": "56302"}, "st.-cloud-56303": {"city": "St. Cloud", "rent": 1170, "zip": "56303"}, "st.-cloud-56304": {"city": "St. Cloud", "rent": 1520, "zip": "56304"}, "st.-cloud-56307": {"city": "St. Cloud", "rent": 1040, "zip": "56307"}, "st.-cloud-56310": {"city": "St. Cloud", "rent": 1040, "zip": "56310"}, "st.-cloud-56312": {"city": "St. Cloud", "rent": 1040, "zip": "56312"}, "st.-cloud-56314": {"city": "St. Cloud", "rent": 1090, "zip": "56314"}, "st.-cloud-56316": {"city": "St. Cloud", "rent": 1210, "zip": "56316"}, "st.-cloud-56320": {"city": "St. Cloud", "rent": 1360, "zip": "56320"}, "st.-cloud-56321": {"city": "St. Cloud", "rent": 1220, "zip": "56321"}, "st.-cloud-56325": {"city": "St. Cloud", "rent": 1040, "zip": "56325"}, "st.-cloud-56329": {"city": "St. Cloud", "rent": 1520, "zip": "56329"}, "st.-cloud-56330": {"city": "St. Cloud", "rent": 1230, "zip": "56330"}, "st.-cloud-56331": {"city": "St. Cloud", "rent": 1060, "zip": "56331"}, "st.-cloud-56333": {"city": "St. Cloud", "rent": 1100, "zip": "56333"}, "st.-cloud-56335": {"city": "St. Cloud", "rent": 1190, "zip": "56335"}, "st.-cloud-56336": {"city": "St. Cloud", "rent": 1040, "zip": "56336"}, "st.-cloud-56340": {"city": "St. Cloud", "rent": 1220, "zip": "56340"}, "st.-cloud-56352": {"city": "St. Cloud", "rent": 1190, "zip": "56352"}, "st.-cloud-56356": {"city": "St. Cloud", "rent": 1130, "zip": "56356"}, "st.-cloud-56357": {"city": "St. Cloud", "rent": 1270, "zip": "56357"}, "st.-cloud-56360": {"city": "St. Cloud", "rent": 1040, "zip": "56360"}, "st.-cloud-56362": {"city": "St. Cloud", "rent": 1110, "zip": "56362"}, "st.-cloud-56367": {"city": "St. Cloud", "rent": 1260, "zip": "56367"}, "st.-cloud-56368": {"city": "St. Cloud", "rent": 1040, "zip": "56368"}, "st.-cloud-56369": {"city": "St. Cloud", "rent": 1040, "zip": "56369"}, "st.-cloud-56371": {"city": "St. Cloud", "rent": 1050, "zip": "56371"}, "st.-cloud-56373": {"city": "St. Cloud", "rent": 1040, "zip": "56373"}, "st.-cloud-56374": {"city": "St. Cloud", "rent": 1290, "zip": "56374"}, "st.-cloud-56375": {"city": "St. Cloud", "rent": 1040, "zip": "56375"}, "st.-cloud-56376": {"city": "St. Cloud", "rent": 1040, "zip": "56376"}, "st.-cloud-56377": {"city": "St. Cloud", "rent": 1390, "zip": "56377"}, "st.-cloud-56378": {"city": "St. Cloud", "rent": 1040, "zip": "56378"}, "st.-cloud-56379": {"city": "St. Cloud", "rent": 1520, "zip": "56379"}, "st.-cloud-56385": {"city": "St. Cloud", "rent": 1200, "zip": "56385"}, "st.-cloud-56387": {"city": "St. Cloud", "rent": 1250, "zip": "56387"}, "st.-cloud-56388": {"city": "St. Cloud", "rent": 1240, "zip": "56388"}, "st.-cloud-56395": {"city": "St. Cloud", "rent": 1240, "zip": "56395"}, "st.-cloud-56398": {"city": "St. Cloud", "rent": 1240, "zip": "56398"}, "rock-county-56116": {"city": "Rock County", "rent": 970, "zip": "56116"}, "rock-county-56128": {"city": "Rock County", "rent": 1120, "zip": "56128"}, "rock-county-56129": {"city": "Rock County", "rent": 970, "zip": "56129"}, "rock-county-56134": {"city": "Rock County", "rent": 970, "zip": "56134"}, "rock-county-56138": {"city": "Rock County", "rent": 1090, "zip": "56138"}, "rock-county-56144": {"city": "Rock County", "rent": 980, "zip": "56144"}, "rock-county-56146": {"city": "Rock County", "rent": 970, "zip": "56146"}, "rock-county-56147": {"city": "Rock County", "rent": 1020, "zip": "56147"}, "rock-county-56156": {"city": "Rock County", "rent": 980, "zip": "56156"}, "rock-county-56158": {"city": "Rock County", "rent": 970, "zip": "56158"}, "rock-county-56173": {"city": "Rock County", "rent": 1200, "zip": "56173"}, "rock-county-57030": {"city": "Rock County", "rent": 970, "zip": "57030"}, "rock-county-57068": {"city": "Rock County", "rent": 1220, "zip": "57068"}, "aitkin-county-55072": {"city": "Aitkin County", "rent": 1200, "zip": "55072"}, "aitkin-county-55735": {"city": "Aitkin County", "rent": 1190, "zip": "55735"}, "aitkin-county-55748": {"city": "Aitkin County", "rent": 990, "zip": "55748"}, "aitkin-county-55752": {"city": "Aitkin County", "rent": 1020, "zip": "55752"}, "aitkin-county-55760": {"city": "Aitkin County", "rent": 970, "zip": "55760"}, "aitkin-county-55783": {"city": "Aitkin County", "rent": 1220, "zip": "55783"}, "aitkin-county-55785": {"city": "Aitkin County", "rent": 1000, "zip": "55785"}, "aitkin-county-55787": {"city": "Aitkin County", "rent": 1030, "zip": "55787"}, "aitkin-county-55798": {"city": "Aitkin County", "rent": 1030, "zip": "55798"}, "aitkin-county-56342": {"city": "Aitkin County", "rent": 990, "zip": "56342"}, "aitkin-county-56350": {"city": "Aitkin County", "rent": 1060, "zip": "56350"}, "aitkin-county-56431": {"city": "Aitkin County", "rent": 980, "zip": "56431"}, "aitkin-county-56444": {"city": "Aitkin County", "rent": 1020, "zip": "56444"}, "aitkin-county-56469": {"city": "Aitkin County", "rent": 970, "zip": "56469"}, "becker-county-56464": {"city": "Becker County", "rent": 1050, "zip": "56464"}, "becker-county-56470": {"city": "Becker County", "rent": 1010, "zip": "56470"}, "becker-county-56477": {"city": "Becker County", "rent": 1090, "zip": "56477"}, "becker-county-56501": {"city": "Becker County", "rent": 1070, "zip": "56501"}, "becker-county-56502": {"city": "Becker County", "rent": 1030, "zip": "56502"}, "becker-county-56511": {"city": "Becker County", "rent": 1000, "zip": "56511"}, "becker-county-56521": {"city": "Becker County", "rent": 970, "zip": "56521"}, "becker-county-56544": {"city": "Becker County", "rent": 980, "zip": "56544"}, "becker-county-56552": {"city": "Becker County", "rent": 970, "zip": "56552"}, "becker-county-56554": {"city": "Becker County", "rent": 970, "zip": "56554"}, "becker-county-56569": {"city": "Becker County", "rent": 1080, "zip": "56569"}, "becker-county-56570": {"city": "Becker County", "rent": 970, "zip": "56570"}, "becker-county-56572": {"city": "Becker County", "rent": 980, "zip": "56572"}, "becker-county-56575": {"city": "Becker County", "rent": 970, "zip": "56575"}, "becker-county-56577": {"city": "Becker County", "rent": 1030, "zip": "56577"}, "becker-county-56578": {"city": "Becker County", "rent": 1050, "zip": "56578"}, "becker-county-56585": {"city": "Becker County", "rent": 970, "zip": "56585"}, "becker-county-56589": {"city": "Becker County", "rent": 970, "zip": "56589"}, "becker-county-56591": {"city": "Becker County", "rent": 970, "zip": "56591"}, "becker-county-56593": {"city": "Becker County", "rent": 1030, "zip": "56593"}, "beltrami-county-56601": {"city": "Beltrami County", "rent": 1150, "zip": "56601"}, "beltrami-county-56619": {"city": "Beltrami County", "rent": 1140, "zip": "56619"}, "beltrami-county-56630": {"city": "Beltrami County", "rent": 990, "zip": "56630"}, "beltrami-county-56633": {"city": "Beltrami County", "rent": 1060, "zip": "56633"}, "beltrami-county-56647": {"city": "Beltrami County", "rent": 990, "zip": "56647"}, "beltrami-county-56650": {"city": "Beltrami County", "rent": 990, "zip": "56650"}, "beltrami-county-56652": {"city": "Beltrami County", "rent": 1080, "zip": "56652"}, "beltrami-county-56661": {"city": "Beltrami County", "rent": 1000, "zip": "56661"}, "beltrami-county-56663": {"city": "Beltrami County", "rent": 1000, "zip": "56663"}, "beltrami-county-56666": {"city": "Beltrami County", "rent": 990, "zip": "56666"}, "beltrami-county-56667": {"city": "Beltrami County", "rent": 1180, "zip": "56667"}, "beltrami-county-56670": {"city": "Beltrami County", "rent": 990, "zip": "56670"}, "beltrami-county-56671": {"city": "Beltrami County", "rent": 990, "zip": "56671"}, "beltrami-county-56676": {"city": "Beltrami County", "rent": 1200, "zip": "56676"}, "beltrami-county-56678": {"city": "Beltrami County", "rent": 1150, "zip": "56678"}, "beltrami-county-56683": {"city": "Beltrami County", "rent": 1330, "zip": "56683"}, "beltrami-county-56685": {"city": "Beltrami County", "rent": 990, "zip": "56685"}, "beltrami-county-56725": {"city": "Beltrami County", "rent": 1020, "zip": "56725"}, "beltrami-county-56727": {"city": "Beltrami County", "rent": 990, "zip": "56727"}, "big-stone-county-56208": {"city": "Big Stone County", "rent": 970, "zip": "56208"}, "big-stone-county-56210": {"city": "Big Stone County", "rent": 970, "zip": "56210"}, "big-stone-county-56211": {"city": "Big Stone County", "rent": 1040, "zip": "56211"}, "big-stone-county-56219": {"city": "Big Stone County", "rent": 1320, "zip": "56219"}, "big-stone-county-56221": {"city": "Big Stone County", "rent": 970, "zip": "56221"}, "big-stone-county-56225": {"city": "Big Stone County", "rent": 1120, "zip": "56225"}, "big-stone-county-56227": {"city": "Big Stone County", "rent": 990, "zip": "56227"}, "big-stone-county-56236": {"city": "Big Stone County", "rent": 970, "zip": "56236"}, "big-stone-county-56240": {"city": "Big Stone County", "rent": 970, "zip": "56240"}, "big-stone-county-56276": {"city": "Big Stone County", "rent": 990, "zip": "56276"}, "big-stone-county-56278": {"city": "Big Stone County", "rent": 980, "zip": "56278"}, "brown-county-55333": {"city": "Brown County", "rent": 1050, "zip": "55333"}, "brown-county-56019": {"city": "Brown County", "rent": 970, "zip": "56019"}, "brown-county-56030": {"city": "Brown County", "rent": 1030, "zip": "56030"}, "brown-county-56041": {"city": "Brown County", "rent": 1140, "zip": "56041"}, "brown-county-56062": {"city": "Brown County", "rent": 1060, "zip": "56062"}, "brown-county-56073": {"city": "Brown County", "rent": 1060, "zip": "56073"}, "brown-county-56081": {"city": "Brown County", "rent": 1000, "zip": "56081"}, "brown-county-56083": {"city": "Brown County", "rent": 1090, "zip": "56083"}, "brown-county-56084": {"city": "Brown County", "rent": 970, "zip": "56084"}, "brown-county-56085": {"city": "Brown County", "rent": 970, "zip": "56085"}, "brown-county-56087": {"city": "Brown County", "rent": 970, "zip": "56087"}, "brown-county-56266": {"city": "Brown County", "rent": 1210, "zip": "56266"}, "cass-county-55785": {"city": "Cass County", "rent": 1000, "zip": "55785"}, "cass-county-56401": {"city": "Cass County", "rent": 1060, "zip": "56401"}, "cass-county-56425": {"city": "Cass County", "rent": 1310, "zip": "56425"}, "cass-county-56433": {"city": "Cass County", "rent": 1050, "zip": "56433"}, "cass-county-56435": {"city": "Cass County", "rent": 1010, "zip": "56435"}, "cass-county-56448": {"city": "Cass County", "rent": 1190, "zip": "56448"}, "cass-county-56452": {"city": "Cass County", "rent": 970, "zip": "56452"}, "cass-county-56461": {"city": "Cass County", "rent": 1030, "zip": "56461"}, "cass-county-56464": {"city": "Cass County", "rent": 1050, "zip": "56464"}, "cass-county-56466": {"city": "Cass County", "rent": 970, "zip": "56466"}, "cass-county-56468": {"city": "Cass County", "rent": 1170, "zip": "56468"}, "cass-county-56472": {"city": "Cass County", "rent": 990, "zip": "56472"}, "cass-county-56473": {"city": "Cass County", "rent": 990, "zip": "56473"}, "cass-county-56474": {"city": "Cass County", "rent": 970, "zip": "56474"}, "cass-county-56477": {"city": "Cass County", "rent": 1090, "zip": "56477"}, "cass-county-56479": {"city": "Cass County", "rent": 1170, "zip": "56479"}, "cass-county-56481": {"city": "Cass County", "rent": 970, "zip": "56481"}, "cass-county-56484": {"city": "Cass County", "rent": 990, "zip": "56484"}, "cass-county-56626": {"city": "Cass County", "rent": 970, "zip": "56626"}, "cass-county-56633": {"city": "Cass County", "rent": 1060, "zip": "56633"}, "cass-county-56636": {"city": "Cass County", "rent": 970, "zip": "56636"}, "cass-county-56641": {"city": "Cass County", "rent": 990, "zip": "56641"}, "cass-county-56655": {"city": "Cass County", "rent": 970, "zip": "56655"}, "cass-county-56662": {"city": "Cass County", "rent": 1270, "zip": "56662"}, "cass-county-56672": {"city": "Cass County", "rent": 970, "zip": "56672"}, "chippewa-county-56208": {"city": "Chippewa County", "rent": 970, "zip": "56208"}, "chippewa-county-56215": {"city": "Chippewa County", "rent": 1050, "zip": "56215"}, "chippewa-county-56222": {"city": "Chippewa County", "rent": 1250, "zip": "56222"}, "chippewa-county-56241": {"city": "Chippewa County", "rent": 1060, "zip": "56241"}, "chippewa-county-56252": {"city": "Chippewa County", "rent": 970, "zip": "56252"}, "chippewa-county-56260": {"city": "Chippewa County", "rent": 970, "zip": "56260"}, "chippewa-county-56262": {"city": "Chippewa County", "rent": 980, "zip": "56262"}, "chippewa-county-56265": {"city": "Chippewa County", "rent": 970, "zip": "56265"}, "chippewa-county-56271": {"city": "Chippewa County", "rent": 970, "zip": "56271"}, "chippewa-county-56282": {"city": "Chippewa County", "rent": 1050, "zip": "56282"}, "chippewa-county-56285": {"city": "Chippewa County", "rent": 970, "zip": "56285"}, "chippewa-county-56295": {"city": "Chippewa County", "rent": 970, "zip": "56295"}, "clearwater-county-56470": {"city": "Clearwater County", "rent": 1010, "zip": "56470"}, "clearwater-county-56557": {"city": "Clearwater County", "rent": 980, "zip": "56557"}, "clearwater-county-56589": {"city": "Clearwater County", "rent": 970, "zip": "56589"}, "clearwater-county-56621": {"city": "Clearwater County", "rent": 1010, "zip": "56621"}, "clearwater-county-56634": {"city": "Clearwater County", "rent": 970, "zip": "56634"}, "clearwater-county-56644": {"city": "Clearwater County", "rent": 970, "zip": "56644"}, "clearwater-county-56646": {"city": "Clearwater County", "rent": 990, "zip": "56646"}, "clearwater-county-56652": {"city": "Clearwater County", "rent": 1080, "zip": "56652"}, "clearwater-county-56671": {"city": "Clearwater County", "rent": 990, "zip": "56671"}, "clearwater-county-56676": {"city": "Clearwater County", "rent": 1200, "zip": "56676"}, "clearwater-county-56678": {"city": "Clearwater County", "rent": 1150, "zip": "56678"}, "cook-county-55604": {"city": "Cook County", "rent": 1020, "zip": "55604"}, "cook-county-55605": {"city": "Cook County", "rent": 970, "zip": "55605"}, "cook-county-55606": {"city": "Cook County", "rent": 1010, "zip": "55606"}, "cook-county-55612": {"city": "Cook County", "rent": 1180, "zip": "55612"}, "cook-county-55613": {"city": "Cook County", "rent": 1210, "zip": "55613"}, "cook-county-55615": {"city": "Cook County", "rent": 1390, "zip": "55615"}, "cottonwood-county-56019": {"city": "Cottonwood County", "rent": 970, "zip": "56019"}, "cottonwood-county-56083": {"city": "Cottonwood County", "rent": 1090, "zip": "56083"}, "cottonwood-county-56087": {"city": "Cottonwood County", "rent": 970, "zip": "56087"}, "cottonwood-county-56101": {"city": "Cottonwood County", "rent": 1040, "zip": "56101"}, "cottonwood-county-56118": {"city": "Cottonwood County", "rent": 1010, "zip": "56118"}, "cottonwood-county-56131": {"city": "Cottonwood County", "rent": 1000, "zip": "56131"}, "cottonwood-county-56137": {"city": "Cottonwood County", "rent": 970, "zip": "56137"}, "cottonwood-county-56145": {"city": "Cottonwood County", "rent": 970, "zip": "56145"}, "cottonwood-county-56152": {"city": "Cottonwood County", "rent": 970, "zip": "56152"}, "cottonwood-county-56159": {"city": "Cottonwood County", "rent": 980, "zip": "56159"}, "cottonwood-county-56166": {"city": "Cottonwood County", "rent": 970, "zip": "56166"}, "cottonwood-county-56174": {"city": "Cottonwood County", "rent": 1150, "zip": "56174"}, "cottonwood-county-56180": {"city": "Cottonwood County", "rent": 970, "zip": "56180"}, "cottonwood-county-56183": {"city": "Cottonwood County", "rent": 970, "zip": "56183"}, "crow-wing-county-56338": {"city": "Crow Wing County", "rent": 1240, "zip": "56338"}, "crow-wing-county-56364": {"city": "Crow Wing County", "rent": 1030, "zip": "56364"}, "crow-wing-county-56401": {"city": "Crow Wing County", "rent": 1060, "zip": "56401"}, "crow-wing-county-56425": {"city": "Crow Wing County", "rent": 1310, "zip": "56425"}, "crow-wing-county-56431": {"city": "Crow Wing County", "rent": 980, "zip": "56431"}, "crow-wing-county-56435": {"city": "Crow Wing County", "rent": 1010, "zip": "56435"}, "crow-wing-county-56441": {"city": "Crow Wing County", "rent": 1030, "zip": "56441"}, "crow-wing-county-56442": {"city": "Crow Wing County", "rent": 1120, "zip": "56442"}, "crow-wing-county-56444": {"city": "Crow Wing County", "rent": 1020, "zip": "56444"}, "crow-wing-county-56447": {"city": "Crow Wing County", "rent": 1620, "zip": "56447"}, "crow-wing-county-56448": {"city": "Crow Wing County", "rent": 1190, "zip": "56448"}, "crow-wing-county-56449": {"city": "Crow Wing County", "rent": 1270, "zip": "56449"}, "crow-wing-county-56450": {"city": "Crow Wing County", "rent": 1190, "zip": "56450"}, "crow-wing-county-56455": {"city": "Crow Wing County", "rent": 1240, "zip": "56455"}, "crow-wing-county-56465": {"city": "Crow Wing County", "rent": 1080, "zip": "56465"}, "crow-wing-county-56468": {"city": "Crow Wing County", "rent": 1170, "zip": "56468"}, "crow-wing-county-56472": {"city": "Crow Wing County", "rent": 990, "zip": "56472"}, "crow-wing-county-56474": {"city": "Crow Wing County", "rent": 970, "zip": "56474"}, "crow-wing-county-56662": {"city": "Crow Wing County", "rent": 1270, "zip": "56662"}, "douglas-county-56308": {"city": "Douglas County", "rent": 1000, "zip": "56308"}, "douglas-county-56309": {"city": "Douglas County", "rent": 1020, "zip": "56309"}, "douglas-county-56315": {"city": "Douglas County", "rent": 970, "zip": "56315"}, "douglas-county-56319": {"city": "Douglas County", "rent": 1000, "zip": "56319"}, "douglas-county-56326": {"city": "Douglas County", "rent": 970, "zip": "56326"}, "douglas-county-56327": {"city": "Douglas County", "rent": 1040, "zip": "56327"}, "douglas-county-56332": {"city": "Douglas County", "rent": 1070, "zip": "56332"}, "douglas-county-56334": {"city": "Douglas County", "rent": 1030, "zip": "56334"}, "douglas-county-56339": {"city": "Douglas County", "rent": 970, "zip": "56339"}, "douglas-county-56341": {"city": "Douglas County", "rent": 990, "zip": "56341"}, "douglas-county-56343": {"city": "Douglas County", "rent": 980, "zip": "56343"}, "douglas-county-56349": {"city": "Douglas County", "rent": 1130, "zip": "56349"}, "douglas-county-56354": {"city": "Douglas County", "rent": 970, "zip": "56354"}, "douglas-county-56355": {"city": "Douglas County", "rent": 1080, "zip": "56355"}, "douglas-county-56360": {"city": "Douglas County", "rent": 1040, "zip": "56360"}, "douglas-county-56361": {"city": "Douglas County", "rent": 970, "zip": "56361"}, "douglas-county-56385": {"city": "Douglas County", "rent": 1200, "zip": "56385"}, "douglas-county-56446": {"city": "Douglas County", "rent": 970, "zip": "56446"}, "faribault-county-56009": {"city": "Faribault County", "rent": 1190, "zip": "56009"}, "faribault-county-56010": {"city": "Faribault County", "rent": 1060, "zip": "56010"}, "faribault-county-56013": {"city": "Faribault County", "rent": 1000, "zip": "56013"}, "faribault-county-56014": {"city": "Faribault County", "rent": 970, "zip": "56014"}, "faribault-county-56023": {"city": "Faribault County", "rent": 970, "zip": "56023"}, "faribault-county-56025": {"city": "Faribault County", "rent": 1460, "zip": "56025"}, "faribault-county-56027": {"city": "Faribault County", "rent": 1050, "zip": "56027"}, "faribault-county-56033": {"city": "Faribault County", "rent": 970, "zip": "56033"}, "faribault-county-56039": {"city": "Faribault County", "rent": 1050, "zip": "56039"}, "faribault-county-56047": {"city": "Faribault County", "rent": 970, "zip": "56047"}, "faribault-county-56051": {"city": "Faribault County", "rent": 1380, "zip": "56051"}, "faribault-county-56065": {"city": "Faribault County", "rent": 1060, "zip": "56065"}, "faribault-county-56068": {"city": "Faribault County", "rent": 1060, "zip": "56068"}, "faribault-county-56072": {"city": "Faribault County", "rent": 970, "zip": "56072"}, "faribault-county-56097": {"city": "Faribault County", "rent": 970, "zip": "56097"}, "faribault-county-56098": {"city": "Faribault County", "rent": 990, "zip": "56098"}, "freeborn-county-55912": {"city": "Freeborn County", "rent": 1070, "zip": "55912"}, "freeborn-county-55917": {"city": "Freeborn County", "rent": 1210, "zip": "55917"}, "freeborn-county-55953": {"city": "Freeborn County", "rent": 970, "zip": "55953"}, "freeborn-county-56007": {"city": "Freeborn County", "rent": 970, "zip": "56007"}, "freeborn-county-56009": {"city": "Freeborn County", "rent": 1190, "zip": "56009"}, "freeborn-county-56016": {"city": "Freeborn County", "rent": 1050, "zip": "56016"}, "freeborn-county-56020": {"city": "Freeborn County", "rent": 1190, "zip": "56020"}, "freeborn-county-56026": {"city": "Freeborn County", "rent": 1020, "zip": "56026"}, "freeborn-county-56029": {"city": "Freeborn County", "rent": 970, "zip": "56029"}, "freeborn-county-56032": {"city": "Freeborn County", "rent": 1320, "zip": "56032"}, "freeborn-county-56035": {"city": "Freeborn County", "rent": 970, "zip": "56035"}, "freeborn-county-56036": {"city": "Freeborn County", "rent": 1030, "zip": "56036"}, "freeborn-county-56042": {"city": "Freeborn County", "rent": 970, "zip": "56042"}, "freeborn-county-56043": {"city": "Freeborn County", "rent": 980, "zip": "56043"}, "freeborn-county-56045": {"city": "Freeborn County", "rent": 970, "zip": "56045"}, "freeborn-county-56051": {"city": "Freeborn County", "rent": 1380, "zip": "56051"}, "freeborn-county-56072": {"city": "Freeborn County", "rent": 970, "zip": "56072"}, "freeborn-county-56089": {"city": "Freeborn County", "rent": 970, "zip": "56089"}, "freeborn-county-56097": {"city": "Freeborn County", "rent": 970, "zip": "56097"}, "goodhue-county-55009": {"city": "Goodhue County", "rent": 1520, "zip": "55009"}, "goodhue-county-55018": {"city": "Goodhue County", "rent": 1640, "zip": "55018"}, "goodhue-county-55026": {"city": "Goodhue County", "rent": 1640, "zip": "55026"}, "goodhue-county-55027": {"city": "Goodhue County", "rent": 1270, "zip": "55027"}, "goodhue-county-55033": {"city": "Goodhue County", "rent": 1520, "zip": "55033"}, "goodhue-county-55041": {"city": "Goodhue County", "rent": 1240, "zip": "55041"}, "goodhue-county-55053": {"city": "Goodhue County", "rent": 1600, "zip": "55053"}, "goodhue-county-55057": {"city": "Goodhue County", "rent": 1520, "zip": "55057"}, "goodhue-county-55065": {"city": "Goodhue County", "rent": 1880, "zip": "55065"}, "goodhue-county-55066": {"city": "Goodhue County", "rent": 1150, "zip": "55066"}, "goodhue-county-55089": {"city": "Goodhue County", "rent": 1520, "zip": "55089"}, "goodhue-county-55946": {"city": "Goodhue County", "rent": 1210, "zip": "55946"}, "goodhue-county-55956": {"city": "Goodhue County", "rent": 1280, "zip": "55956"}, "goodhue-county-55963": {"city": "Goodhue County", "rent": 1210, "zip": "55963"}, "goodhue-county-55983": {"city": "Goodhue County", "rent": 970, "zip": "55983"}, "goodhue-county-55985": {"city": "Goodhue County", "rent": 1210, "zip": "55985"}, "goodhue-county-55992": {"city": "Goodhue County", "rent": 970, "zip": "55992"}, "grant-county-56235": {"city": "Grant County", "rent": 1190, "zip": "56235"}, "grant-county-56248": {"city": "Grant County", "rent": 970, "zip": "56248"}, "grant-county-56274": {"city": "Grant County", "rent": 990, "zip": "56274"}, "grant-county-56309": {"city": "Grant County", "rent": 1020, "zip": "56309"}, "grant-county-56311": {"city": "Grant County", "rent": 1460, "zip": "56311"}, "grant-county-56324": {"city": "Grant County", "rent": 970, "zip": "56324"}, "grant-county-56326": {"city": "Grant County", "rent": 970, "zip": "56326"}, "grant-county-56339": {"city": "Grant County", "rent": 970, "zip": "56339"}, "grant-county-56343": {"city": "Grant County", "rent": 980, "zip": "56343"}, "grant-county-56522": {"city": "Grant County", "rent": 1320, "zip": "56522"}, "grant-county-56531": {"city": "Grant County", "rent": 1090, "zip": "56531"}, "grant-county-56537": {"city": "Grant County", "rent": 990, "zip": "56537"}, "grant-county-56565": {"city": "Grant County", "rent": 1210, "zip": "56565"}, "grant-county-56590": {"city": "Grant County", "rent": 1000, "zip": "56590"}, "hubbard-county-56433": {"city": "Hubbard County", "rent": 1050, "zip": "56433"}, "hubbard-county-56435": {"city": "Hubbard County", "rent": 1010, "zip": "56435"}, "hubbard-county-56436": {"city": "Hubbard County", "rent": 1010, "zip": "56436"}, "hubbard-county-56458": {"city": "Hubbard County", "rent": 1110, "zip": "56458"}, "hubbard-county-56461": {"city": "Hubbard County", "rent": 1030, "zip": "56461"}, "hubbard-county-56464": {"city": "Hubbard County", "rent": 1050, "zip": "56464"}, "hubbard-county-56467": {"city": "Hubbard County", "rent": 970, "zip": "56467"}, "hubbard-county-56470": {"city": "Hubbard County", "rent": 1010, "zip": "56470"}, "hubbard-county-56484": {"city": "Hubbard County", "rent": 990, "zip": "56484"}, "hubbard-county-56601": {"city": "Hubbard County", "rent": 1150, "zip": "56601"}, "hubbard-county-56633": {"city": "Hubbard County", "rent": 1060, "zip": "56633"}, "hubbard-county-56678": {"city": "Hubbard County", "rent": 1150, "zip": "56678"}, "itasca-county-55709": {"city": "Itasca County", "rent": 1110, "zip": "55709"}, "itasca-county-55716": {"city": "Itasca County", "rent": 970, "zip": "55716"}, "itasca-county-55721": {"city": "Itasca County", "rent": 970, "zip": "55721"}, "itasca-county-55722": {"city": "Itasca County", "rent": 970, "zip": "55722"}, "itasca-county-55723": {"city": "Itasca County", "rent": 1030, "zip": "55723"}, "itasca-county-55736": {"city": "Itasca County", "rent": 1030, "zip": "55736"}, "itasca-county-55742": {"city": "Itasca County", "rent": 1010, "zip": "55742"}, "itasca-county-55744": {"city": "Itasca County", "rent": 1130, "zip": "55744"}, "itasca-county-55745": {"city": "Itasca County", "rent": 1070, "zip": "55745"}, "itasca-county-55746": {"city": "Itasca County", "rent": 1030, "zip": "55746"}, "itasca-county-55748": {"city": "Itasca County", "rent": 990, "zip": "55748"}, "itasca-county-55752": {"city": "Itasca County", "rent": 1020, "zip": "55752"}, "itasca-county-55753": {"city": "Itasca County", "rent": 1000, "zip": "55753"}, "itasca-county-55764": {"city": "Itasca County", "rent": 1260, "zip": "55764"}, "itasca-county-55769": {"city": "Itasca County", "rent": 1030, "zip": "55769"}, "itasca-county-55771": {"city": "Itasca County", "rent": 1060, "zip": "55771"}, "itasca-county-55775": {"city": "Itasca County", "rent": 970, "zip": "55775"}, "itasca-county-55781": {"city": "Itasca County", "rent": 1630, "zip": "55781"}, "itasca-county-55784": {"city": "Itasca County", "rent": 1080, "zip": "55784"}, "itasca-county-55786": {"city": "Itasca County", "rent": 970, "zip": "55786"}, "itasca-county-55793": {"city": "Itasca County", "rent": 1190, "zip": "55793"}, "itasca-county-56628": {"city": "Itasca County", "rent": 1290, "zip": "56628"}, "itasca-county-56630": {"city": "Itasca County", "rent": 990, "zip": "56630"}, "itasca-county-56631": {"city": "Itasca County", "rent": 1070, "zip": "56631"}, "itasca-county-56636": {"city": "Itasca County", "rent": 970, "zip": "56636"}, "itasca-county-56637": {"city": "Itasca County", "rent": 1150, "zip": "56637"}, "itasca-county-56639": {"city": "Itasca County", "rent": 1150, "zip": "56639"}, "itasca-county-56657": {"city": "Itasca County", "rent": 1160, "zip": "56657"}, "itasca-county-56659": {"city": "Itasca County", "rent": 970, "zip": "56659"}, "itasca-county-56661": {"city": "Itasca County", "rent": 1000, "zip": "56661"}, "itasca-county-56680": {"city": "Itasca County", "rent": 970, "zip": "56680"}, "itasca-county-56681": {"city": "Itasca County", "rent": 970, "zip": "56681"}, "itasca-county-56688": {"city": "Itasca County", "rent": 1070, "zip": "56688"}, "jackson-county-51360": {"city": "Jackson County", "rent": 1120, "zip": "51360"}, "jackson-county-56101": {"city": "Jackson County", "rent": 1040, "zip": "56101"}, "jackson-county-56111": {"city": "Jackson County", "rent": 1200, "zip": "56111"}, "jackson-county-56118": {"city": "Jackson County", "rent": 1010, "zip": "56118"}, "jackson-county-56119": {"city": "Jackson County", "rent": 1060, "zip": "56119"}, "jackson-county-56127": {"city": "Jackson County", "rent": 1350, "zip": "56127"}, "jackson-county-56131": {"city": "Jackson County", "rent": 1000, "zip": "56131"}, "jackson-county-56137": {"city": "Jackson County", "rent": 970, "zip": "56137"}, "jackson-county-56143": {"city": "Jackson County", "rent": 970, "zip": "56143"}, "jackson-county-56150": {"city": "Jackson County", "rent": 1050, "zip": "56150"}, "jackson-county-56159": {"city": "Jackson County", "rent": 980, "zip": "56159"}, "jackson-county-56160": {"city": "Jackson County", "rent": 980, "zip": "56160"}, "jackson-county-56161": {"city": "Jackson County", "rent": 1030, "zip": "56161"}, "jackson-county-56167": {"city": "Jackson County", "rent": 1070, "zip": "56167"}, "jackson-county-56187": {"city": "Jackson County", "rent": 1070, "zip": "56187"}, "kanabec-county-55006": {"city": "Kanabec County", "rent": 1520, "zip": "55006"}, "kanabec-county-55007": {"city": "Kanabec County", "rent": 1050, "zip": "55007"}, "kanabec-county-55030": {"city": "Kanabec County", "rent": 1060, "zip": "55030"}, "kanabec-county-55037": {"city": "Kanabec County", "rent": 1120, "zip": "55037"}, "kanabec-county-55051": {"city": "Kanabec County", "rent": 990, "zip": "55051"}, "kanabec-county-55072": {"city": "Kanabec County", "rent": 1200, "zip": "55072"}, "kanabec-county-56342": {"city": "Kanabec County", "rent": 990, "zip": "56342"}, "kanabec-county-56353": {"city": "Kanabec County", "rent": 1520, "zip": "56353"}, "kanabec-county-56358": {"city": "Kanabec County", "rent": 1520, "zip": "56358"}, "kandiyohi-county-56201": {"city": "Kandiyohi County", "rent": 970, "zip": "56201"}, "kandiyohi-county-56209": {"city": "Kandiyohi County", "rent": 1030, "zip": "56209"}, "kandiyohi-county-56216": {"city": "Kandiyohi County", "rent": 1460, "zip": "56216"}, "kandiyohi-county-56222": {"city": "Kandiyohi County", "rent": 1250, "zip": "56222"}, "kandiyohi-county-56243": {"city": "Kandiyohi County", "rent": 970, "zip": "56243"}, "kandiyohi-county-56251": {"city": "Kandiyohi County", "rent": 970, "zip": "56251"}, "kandiyohi-county-56252": {"city": "Kandiyohi County", "rent": 970, "zip": "56252"}, "kandiyohi-county-56253": {"city": "Kandiyohi County", "rent": 1000, "zip": "56253"}, "kandiyohi-county-56273": {"city": "Kandiyohi County", "rent": 1040, "zip": "56273"}, "kandiyohi-county-56277": {"city": "Kandiyohi County", "rent": 1010, "zip": "56277"}, "kandiyohi-county-56279": {"city": "Kandiyohi County", "rent": 1170, "zip": "56279"}, "kandiyohi-county-56281": {"city": "Kandiyohi County", "rent": 1020, "zip": "56281"}, "kandiyohi-county-56282": {"city": "Kandiyohi County", "rent": 1050, "zip": "56282"}, "kandiyohi-county-56284": {"city": "Kandiyohi County", "rent": 980, "zip": "56284"}, "kandiyohi-county-56288": {"city": "Kandiyohi County", "rent": 970, "zip": "56288"}, "kandiyohi-county-56289": {"city": "Kandiyohi County", "rent": 970, "zip": "56289"}, "kandiyohi-county-56312": {"city": "Kandiyohi County", "rent": 1040, "zip": "56312"}, "kandiyohi-county-56316": {"city": "Kandiyohi County", "rent": 1210, "zip": "56316"}, "kandiyohi-county-56362": {"city": "Kandiyohi County", "rent": 1110, "zip": "56362"}, "kittson-county-56720": {"city": "Kittson County", "rent": 1100, "zip": "56720"}, "kittson-county-56728": {"city": "Kittson County", "rent": 1120, "zip": "56728"}, "kittson-county-56729": {"city": "Kittson County", "rent": 970, "zip": "56729"}, "kittson-county-56731": {"city": "Kittson County", "rent": 1080, "zip": "56731"}, "kittson-county-56732": {"city": "Kittson County", "rent": 970, "zip": "56732"}, "kittson-county-56733": {"city": "Kittson County", "rent": 1000, "zip": "56733"}, "kittson-county-56734": {"city": "Kittson County", "rent": 970, "zip": "56734"}, "kittson-county-56735": {"city": "Kittson County", "rent": 970, "zip": "56735"}, "kittson-county-56740": {"city": "Kittson County", "rent": 970, "zip": "56740"}, "kittson-county-56755": {"city": "Kittson County", "rent": 990, "zip": "56755"}, "kittson-county-56757": {"city": "Kittson County", "rent": 1240, "zip": "56757"}, "kittson-county-58225": {"city": "Kittson County", "rent": 970, "zip": "58225"}, "koochiching-county-55771": {"city": "Koochiching County", "rent": 1060, "zip": "55771"}, "koochiching-county-55772": {"city": "Koochiching County", "rent": 1070, "zip": "55772"}, "koochiching-county-56623": {"city": "Koochiching County", "rent": 1000, "zip": "56623"}, "koochiching-county-56627": {"city": "Koochiching County", "rent": 970, "zip": "56627"}, "koochiching-county-56629": {"city": "Koochiching County", "rent": 980, "zip": "56629"}, "koochiching-county-56639": {"city": "Koochiching County", "rent": 1150, "zip": "56639"}, "koochiching-county-56649": {"city": "Koochiching County", "rent": 1030, "zip": "56649"}, "koochiching-county-56653": {"city": "Koochiching County", "rent": 1110, "zip": "56653"}, "koochiching-county-56654": {"city": "Koochiching County", "rent": 1060, "zip": "56654"}, "koochiching-county-56658": {"city": "Koochiching County", "rent": 970, "zip": "56658"}, "koochiching-county-56660": {"city": "Koochiching County", "rent": 990, "zip": "56660"}, "koochiching-county-56661": {"city": "Koochiching County", "rent": 1000, "zip": "56661"}, "koochiching-county-56668": {"city": "Koochiching County", "rent": 970, "zip": "56668"}, "koochiching-county-56669": {"city": "Koochiching County", "rent": 1040, "zip": "56669"}, "koochiching-county-56679": {"city": "Koochiching County", "rent": 970, "zip": "56679"}, "lac-qui-parle-county-56208": {"city": "Lac qui Parle County", "rent": 970, "zip": "56208"}, "lac-qui-parle-county-56212": {"city": "Lac qui Parle County", "rent": 970, "zip": "56212"}, "lac-qui-parle-county-56218": {"city": "Lac qui Parle County", "rent": 1130, "zip": "56218"}, "lac-qui-parle-county-56220": {"city": "Lac qui Parle County", "rent": 970, "zip": "56220"}, "lac-qui-parle-county-56223": {"city": "Lac qui Parle County", "rent": 1120, "zip": "56223"}, "lac-qui-parle-county-56232": {"city": "Lac qui Parle County", "rent": 970, "zip": "56232"}, "lac-qui-parle-county-56256": {"city": "Lac qui Parle County", "rent": 1110, "zip": "56256"}, "lac-qui-parle-county-56257": {"city": "Lac qui Parle County", "rent": 1020, "zip": "56257"}, "lac-qui-parle-county-56265": {"city": "Lac qui Parle County", "rent": 970, "zip": "56265"}, "lac-qui-parle-county-56276": {"city": "Lac qui Parle County", "rent": 990, "zip": "56276"}, "lac-qui-parle-county-56278": {"city": "Lac qui Parle County", "rent": 980, "zip": "56278"}, "lake-county-55601": {"city": "Lake County", "rent": 1290, "zip": "55601"}, "lake-county-55602": {"city": "Lake County", "rent": 1250, "zip": "55602"}, "lake-county-55603": {"city": "Lake County", "rent": 1120, "zip": "55603"}, "lake-county-55607": {"city": "Lake County", "rent": 1120, "zip": "55607"}, "lake-county-55609": {"city": "Lake County", "rent": 1470, "zip": "55609"}, "lake-county-55614": {"city": "Lake County", "rent": 1260, "zip": "55614"}, "lake-county-55616": {"city": "Lake County", "rent": 1380, "zip": "55616"}, "lake-county-55731": {"city": "Lake County", "rent": 1120, "zip": "55731"}, "lake-county-55796": {"city": "Lake County", "rent": 1120, "zip": "55796"}, "lake-of-the-woods-county-56623": {"city": "Lake of the Woods County", "rent": 1000, "zip": "56623"}, "lake-of-the-woods-county-56673": {"city": "Lake of the Woods County", "rent": 1300, "zip": "56673"}, "lake-of-the-woods-county-56686": {"city": "Lake of the Woods County", "rent": 1190, "zip": "56686"}, "lake-of-the-woods-county-56711": {"city": "Lake of the Woods County", "rent": 1120, "zip": "56711"}, "lake-of-the-woods-county-56741": {"city": "Lake of the Woods County", "rent": 1010, "zip": "56741"}, "lincoln-county-56113": {"city": "Lincoln County", "rent": 990, "zip": "56113"}, "lincoln-county-56136": {"city": "Lincoln County", "rent": 970, "zip": "56136"}, "lincoln-county-56142": {"city": "Lincoln County", "rent": 980, "zip": "56142"}, "lincoln-county-56149": {"city": "Lincoln County", "rent": 990, "zip": "56149"}, "lincoln-county-56164": {"city": "Lincoln County", "rent": 970, "zip": "56164"}, "lincoln-county-56170": {"city": "Lincoln County", "rent": 1130, "zip": "56170"}, "lincoln-county-56178": {"city": "Lincoln County", "rent": 1010, "zip": "56178"}, "lincoln-county-56220": {"city": "Lincoln County", "rent": 970, "zip": "56220"}, "lincoln-county-56264": {"city": "Lincoln County", "rent": 970, "zip": "56264"}, "lincoln-county-56280": {"city": "Lincoln County", "rent": 1180, "zip": "56280"}, "lincoln-county-56291": {"city": "Lincoln County", "rent": 970, "zip": "56291"}, "lincoln-county-57026": {"city": "Lincoln County", "rent": 970, "zip": "57026"}, "lyon-county-56113": {"city": "Lyon County", "rent": 990, "zip": "56113"}, "lyon-county-56115": {"city": "Lyon County", "rent": 1240, "zip": "56115"}, "lyon-county-56132": {"city": "Lyon County", "rent": 1180, "zip": "56132"}, "lyon-county-56157": {"city": "Lyon County", "rent": 1060, "zip": "56157"}, "lyon-county-56169": {"city": "Lyon County", "rent": 970, "zip": "56169"}, "lyon-county-56170": {"city": "Lyon County", "rent": 1130, "zip": "56170"}, "lyon-county-56175": {"city": "Lyon County", "rent": 970, "zip": "56175"}, "lyon-county-56178": {"city": "Lyon County", "rent": 1010, "zip": "56178"}, "lyon-county-56220": {"city": "Lyon County", "rent": 970, "zip": "56220"}, "lyon-county-56229": {"city": "Lyon County", "rent": 970, "zip": "56229"}, "lyon-county-56239": {"city": "Lyon County", "rent": 1100, "zip": "56239"}, "lyon-county-56258": {"city": "Lyon County", "rent": 990, "zip": "56258"}, "lyon-county-56263": {"city": "Lyon County", "rent": 970, "zip": "56263"}, "lyon-county-56264": {"city": "Lyon County", "rent": 970, "zip": "56264"}, "lyon-county-56291": {"city": "Lyon County", "rent": 970, "zip": "56291"}, "lyon-county-56292": {"city": "Lyon County", "rent": 1080, "zip": "56292"}, "lyon-county-56297": {"city": "Lyon County", "rent": 1010, "zip": "56297"}, "mcleod-county-55312": {"city": "McLeod County", "rent": 970, "zip": "55312"}, "mcleod-county-55321": {"city": "McLeod County", "rent": 1520, "zip": "55321"}, "mcleod-county-55334": {"city": "McLeod County", "rent": 1060, "zip": "55334"}, "mcleod-county-55335": {"city": "McLeod County", "rent": 1060, "zip": "55335"}, "mcleod-county-55336": {"city": "McLeod County", "rent": 1010, "zip": "55336"}, "mcleod-county-55338": {"city": "McLeod County", "rent": 1520, "zip": "55338"}, "mcleod-county-55339": {"city": "McLeod County", "rent": 1520, "zip": "55339"}, "mcleod-county-55350": {"city": "McLeod County", "rent": 1030, "zip": "55350"}, "mcleod-county-55354": {"city": "McLeod County", "rent": 970, "zip": "55354"}, "mcleod-county-55355": {"city": "McLeod County", "rent": 1030, "zip": "55355"}, "mcleod-county-55367": {"city": "McLeod County", "rent": 1520, "zip": "55367"}, "mcleod-county-55368": {"city": "McLeod County", "rent": 1550, "zip": "55368"}, "mcleod-county-55370": {"city": "McLeod County", "rent": 1070, "zip": "55370"}, "mcleod-county-55381": {"city": "McLeod County", "rent": 1520, "zip": "55381"}, "mcleod-county-55385": {"city": "McLeod County", "rent": 970, "zip": "55385"}, "mcleod-county-55395": {"city": "McLeod County", "rent": 1520, "zip": "55395"}, "mcleod-county-55396": {"city": "McLeod County", "rent": 970, "zip": "55396"}, "mcleod-county-55397": {"city": "McLeod County", "rent": 1520, "zip": "55397"}, "mahnomen-county-56516": {"city": "Mahnomen County", "rent": 1190, "zip": "56516"}, "mahnomen-county-56540": {"city": "Mahnomen County", "rent": 970, "zip": "56540"}, "mahnomen-county-56542": {"city": "Mahnomen County", "rent": 1010, "zip": "56542"}, "mahnomen-county-56557": {"city": "Mahnomen County", "rent": 980, "zip": "56557"}, "mahnomen-county-56566": {"city": "Mahnomen County", "rent": 970, "zip": "56566"}, "mahnomen-county-56589": {"city": "Mahnomen County", "rent": 970, "zip": "56589"}, "mahnomen-county-56592": {"city": "Mahnomen County", "rent": 970, "zip": "56592"}, "mahnomen-county-56621": {"city": "Mahnomen County", "rent": 1010, "zip": "56621"}, "mahnomen-county-56651": {"city": "Mahnomen County", "rent": 1110, "zip": "56651"}, "marshall-county-56701": {"city": "Marshall County", "rent": 1130, "zip": "56701"}, "marshall-county-56710": {"city": "Marshall County", "rent": 1120, "zip": "56710"}, "marshall-county-56713": {"city": "Marshall County", "rent": 1140, "zip": "56713"}, "marshall-county-56724": {"city": "Marshall County", "rent": 970, "zip": "56724"}, "marshall-county-56725": {"city": "Marshall County", "rent": 1020, "zip": "56725"}, "marshall-county-56727": {"city": "Marshall County", "rent": 990, "zip": "56727"}, "marshall-county-56732": {"city": "Marshall County", "rent": 970, "zip": "56732"}, "marshall-county-56737": {"city": "Marshall County", "rent": 970, "zip": "56737"}, "marshall-county-56738": {"city": "Marshall County", "rent": 980, "zip": "56738"}, "marshall-county-56744": {"city": "Marshall County", "rent": 1140, "zip": "56744"}, "marshall-county-56757": {"city": "Marshall County", "rent": 1240, "zip": "56757"}, "marshall-county-56758": {"city": "Marshall County", "rent": 1010, "zip": "56758"}, "marshall-county-56759": {"city": "Marshall County", "rent": 970, "zip": "56759"}, "marshall-county-56760": {"city": "Marshall County", "rent": 1030, "zip": "56760"}, "marshall-county-56762": {"city": "Marshall County", "rent": 1010, "zip": "56762"}, "martin-county-56013": {"city": "Martin County", "rent": 1000, "zip": "56013"}, "martin-county-56027": {"city": "Martin County", "rent": 1050, "zip": "56027"}, "martin-county-56031": {"city": "Martin County", "rent": 970, "zip": "56031"}, "martin-county-56039": {"city": "Martin County", "rent": 1050, "zip": "56039"}, "martin-county-56075": {"city": "Martin County", "rent": 970, "zip": "56075"}, "martin-county-56088": {"city": "Martin County", "rent": 1060, "zip": "56088"}, "martin-county-56098": {"city": "Martin County", "rent": 990, "zip": "56098"}, "martin-county-56111": {"city": "Martin County", "rent": 1200, "zip": "56111"}, "martin-county-56121": {"city": "Martin County", "rent": 1070, "zip": "56121"}, "martin-county-56127": {"city": "Martin County", "rent": 1350, "zip": "56127"}, "martin-county-56160": {"city": "Martin County", "rent": 980, "zip": "56160"}, "martin-county-56162": {"city": "Martin County", "rent": 1000, "zip": "56162"}, "martin-county-56171": {"city": "Martin County", "rent": 1070, "zip": "56171"}, "martin-county-56176": {"city": "Martin County", "rent": 970, "zip": "56176"}, "martin-county-56181": {"city": "Martin County", "rent": 970, "zip": "56181"}, "meeker-county-55321": {"city": "Meeker County", "rent": 1520, "zip": "55321"}, "meeker-county-55324": {"city": "Meeker County", "rent": 970, "zip": "55324"}, "meeker-county-55325": {"city": "Meeker County", "rent": 1520, "zip": "55325"}, "meeker-county-55329": {"city": "Meeker County", "rent": 1040, "zip": "55329"}, "meeker-county-55342": {"city": "Meeker County", "rent": 1060, "zip": "55342"}, "meeker-county-55350": {"city": "Meeker County", "rent": 1030, "zip": "55350"}, "meeker-county-55353": {"city": "Meeker County", "rent": 1040, "zip": "55353"}, "meeker-county-55355": {"city": "Meeker County", "rent": 1030, "zip": "55355"}, "meeker-county-55382": {"city": "Meeker County", "rent": 1590, "zip": "55382"}, "meeker-county-55389": {"city": "Meeker County", "rent": 1040, "zip": "55389"}, "meeker-county-56209": {"city": "Meeker County", "rent": 1030, "zip": "56209"}, "meeker-county-56228": {"city": "Meeker County", "rent": 970, "zip": "56228"}, "meeker-county-56243": {"city": "Meeker County", "rent": 970, "zip": "56243"}, "meeker-county-56362": {"city": "Meeker County", "rent": 1110, "zip": "56362"}, "morrison-county-56307": {"city": "Morrison County", "rent": 1040, "zip": "56307"}, "morrison-county-56314": {"city": "Morrison County", "rent": 1090, "zip": "56314"}, "morrison-county-56318": {"city": "Morrison County", "rent": 970, "zip": "56318"}, "morrison-county-56328": {"city": "Morrison County", "rent": 980, "zip": "56328"}, "morrison-county-56329": {"city": "Morrison County", "rent": 1520, "zip": "56329"}, "morrison-county-56331": {"city": "Morrison County", "rent": 1060, "zip": "56331"}, "morrison-county-56336": {"city": "Morrison County", "rent": 1040, "zip": "56336"}, "morrison-county-56338": {"city": "Morrison County", "rent": 1240, "zip": "56338"}, "morrison-county-56340": {"city": "Morrison County", "rent": 1220, "zip": "56340"}, "morrison-county-56345": {"city": "Morrison County", "rent": 980, "zip": "56345"}, "morrison-county-56347": {"city": "Morrison County", "rent": 1040, "zip": "56347"}, "morrison-county-56353": {"city": "Morrison County", "rent": 1520, "zip": "56353"}, "morrison-county-56359": {"city": "Morrison County", "rent": 1100, "zip": "56359"}, "morrison-county-56364": {"city": "Morrison County", "rent": 1030, "zip": "56364"}, "morrison-county-56367": {"city": "Morrison County", "rent": 1260, "zip": "56367"}, "morrison-county-56373": {"city": "Morrison County", "rent": 1040, "zip": "56373"}, "morrison-county-56382": {"city": "Morrison County", "rent": 1000, "zip": "56382"}, "morrison-county-56384": {"city": "Morrison County", "rent": 970, "zip": "56384"}, "morrison-county-56438": {"city": "Morrison County", "rent": 970, "zip": "56438"}, "morrison-county-56443": {"city": "Morrison County", "rent": 1160, "zip": "56443"}, "morrison-county-56449": {"city": "Morrison County", "rent": 1270, "zip": "56449"}, "morrison-county-56466": {"city": "Morrison County", "rent": 970, "zip": "56466"}, "morrison-county-56473": {"city": "Morrison County", "rent": 990, "zip": "56473"}, "morrison-county-56475": {"city": "Morrison County", "rent": 970, "zip": "56475"}, "mower-county-55909": {"city": "Mower County", "rent": 970, "zip": "55909"}, "mower-county-55912": {"city": "Mower County", "rent": 1070, "zip": "55912"}, "mower-county-55917": {"city": "Mower County", "rent": 1210, "zip": "55917"}, "mower-county-55918": {"city": "Mower County", "rent": 970, "zip": "55918"}, "mower-county-55926": {"city": "Mower County", "rent": 980, "zip": "55926"}, "mower-county-55933": {"city": "Mower County", "rent": 970, "zip": "55933"}, "mower-county-55936": {"city": "Mower County", "rent": 970, "zip": "55936"}, "mower-county-55940": {"city": "Mower County", "rent": 1210, "zip": "55940"}, "mower-county-55950": {"city": "Mower County", "rent": 1070, "zip": "55950"}, "mower-county-55951": {"city": "Mower County", "rent": 970, "zip": "55951"}, "mower-county-55953": {"city": "Mower County", "rent": 970, "zip": "55953"}, "mower-county-55961": {"city": "Mower County", "rent": 1190, "zip": "55961"}, "mower-county-55967": {"city": "Mower County", "rent": 1450, "zip": "55967"}, "mower-county-55970": {"city": "Mower County", "rent": 970, "zip": "55970"}, "mower-county-55973": {"city": "Mower County", "rent": 1580, "zip": "55973"}, "mower-county-55975": {"city": "Mower County", "rent": 1220, "zip": "55975"}, "mower-county-55976": {"city": "Mower County", "rent": 1210, "zip": "55976"}, "mower-county-55977": {"city": "Mower County", "rent": 970, "zip": "55977"}, "mower-county-55982": {"city": "Mower County", "rent": 1210, "zip": "55982"}, "murray-county-56114": {"city": "Murray County", "rent": 1360, "zip": "56114"}, "murray-county-56115": {"city": "Murray County", "rent": 1240, "zip": "56115"}, "murray-county-56122": {"city": "Murray County", "rent": 990, "zip": "56122"}, "murray-county-56123": {"city": "Murray County", "rent": 1120, "zip": "56123"}, "murray-county-56125": {"city": "Murray County", "rent": 1190, "zip": "56125"}, "murray-county-56128": {"city": "Murray County", "rent": 1120, "zip": "56128"}, "murray-county-56131": {"city": "Murray County", "rent": 1000, "zip": "56131"}, "murray-county-56132": {"city": "Murray County", "rent": 1180, "zip": "56132"}, "murray-county-56141": {"city": "Murray County", "rent": 970, "zip": "56141"}, "murray-county-56149": {"city": "Murray County", "rent": 990, "zip": "56149"}, "murray-county-56151": {"city": "Murray County", "rent": 1130, "zip": "56151"}, "murray-county-56170": {"city": "Murray County", "rent": 1130, "zip": "56170"}, "murray-county-56172": {"city": "Murray County", "rent": 970, "zip": "56172"}, "murray-county-56175": {"city": "Murray County", "rent": 970, "zip": "56175"}, "murray-county-56180": {"city": "Murray County", "rent": 970, "zip": "56180"}, "murray-county-56183": {"city": "Murray County", "rent": 970, "zip": "56183"}, "murray-county-56185": {"city": "Murray County", "rent": 970, "zip": "56185"}, "murray-county-56186": {"city": "Murray County", "rent": 970, "zip": "56186"}, "nobles-county-56110": {"city": "Nobles County", "rent": 970, "zip": "56110"}, "nobles-county-56117": {"city": "Nobles County", "rent": 1400, "zip": "56117"}, "nobles-county-56119": {"city": "Nobles County", "rent": 1060, "zip": "56119"}, "nobles-county-56122": {"city": "Nobles County", "rent": 990, "zip": "56122"}, "nobles-county-56128": {"city": "Nobles County", "rent": 1120, "zip": "56128"}, "nobles-county-56129": {"city": "Nobles County", "rent": 970, "zip": "56129"}, "nobles-county-56131": {"city": "Nobles County", "rent": 1000, "zip": "56131"}, "nobles-county-56137": {"city": "Nobles County", "rent": 970, "zip": "56137"}, "nobles-county-56141": {"city": "Nobles County", "rent": 970, "zip": "56141"}, "nobles-county-56147": {"city": "Nobles County", "rent": 1020, "zip": "56147"}, "nobles-county-56153": {"city": "Nobles County", "rent": 1120, "zip": "56153"}, "nobles-county-56155": {"city": "Nobles County", "rent": 970, "zip": "56155"}, "nobles-county-56158": {"city": "Nobles County", "rent": 970, "zip": "56158"}, "nobles-county-56165": {"city": "Nobles County", "rent": 1020, "zip": "56165"}, "nobles-county-56167": {"city": "Nobles County", "rent": 1070, "zip": "56167"}, "nobles-county-56168": {"city": "Nobles County", "rent": 970, "zip": "56168"}, "nobles-county-56185": {"city": "Nobles County", "rent": 970, "zip": "56185"}, "nobles-county-56187": {"city": "Nobles County", "rent": 1070, "zip": "56187"}, "norman-county-56510": {"city": "Norman County", "rent": 970, "zip": "56510"}, "norman-county-56516": {"city": "Norman County", "rent": 1190, "zip": "56516"}, "norman-county-56517": {"city": "Norman County", "rent": 1000, "zip": "56517"}, "norman-county-56519": {"city": "Norman County", "rent": 1460, "zip": "56519"}, "norman-county-56540": {"city": "Norman County", "rent": 970, "zip": "56540"}, "norman-county-56541": {"city": "Norman County", "rent": 1220, "zip": "56541"}, "norman-county-56545": {"city": "Norman County", "rent": 1070, "zip": "56545"}, "norman-county-56548": {"city": "Norman County", "rent": 970, "zip": "56548"}, "norman-county-56550": {"city": "Norman County", "rent": 1030, "zip": "56550"}, "norman-county-56557": {"city": "Norman County", "rent": 980, "zip": "56557"}, "norman-county-56568": {"city": "Norman County", "rent": 990, "zip": "56568"}, "norman-county-56574": {"city": "Norman County", "rent": 1110, "zip": "56574"}, "norman-county-56581": {"city": "Norman County", "rent": 970, "zip": "56581"}, "norman-county-56584": {"city": "Norman County", "rent": 1330, "zip": "56584"}, "norman-county-56585": {"city": "Norman County", "rent": 970, "zip": "56585"}, "norman-county-56589": {"city": "Norman County", "rent": 970, "zip": "56589"}, "otter-tail-county-56309": {"city": "Otter Tail County", "rent": 1020, "zip": "56309"}, "otter-tail-county-56315": {"city": "Otter Tail County", "rent": 970, "zip": "56315"}, "otter-tail-county-56324": {"city": "Otter Tail County", "rent": 970, "zip": "56324"}, "otter-tail-county-56326": {"city": "Otter Tail County", "rent": 970, "zip": "56326"}, "otter-tail-county-56354": {"city": "Otter Tail County", "rent": 970, "zip": "56354"}, "otter-tail-county-56361": {"city": "Otter Tail County", "rent": 970, "zip": "56361"}, "otter-tail-county-56437": {"city": "Otter Tail County", "rent": 970, "zip": "56437"}, "otter-tail-county-56446": {"city": "Otter Tail County", "rent": 970, "zip": "56446"}, "otter-tail-county-56453": {"city": "Otter Tail County", "rent": 1030, "zip": "56453"}, "otter-tail-county-56464": {"city": "Otter Tail County", "rent": 1050, "zip": "56464"}, "otter-tail-county-56477": {"city": "Otter Tail County", "rent": 1090, "zip": "56477"}, "otter-tail-county-56482": {"city": "Otter Tail County", "rent": 980, "zip": "56482"}, "otter-tail-county-56501": {"city": "Otter Tail County", "rent": 1070, "zip": "56501"}, "otter-tail-county-56514": {"city": "Otter Tail County", "rent": 1010, "zip": "56514"}, "otter-tail-county-56515": {"city": "Otter Tail County", "rent": 1070, "zip": "56515"}, "otter-tail-county-56518": {"city": "Otter Tail County", "rent": 1020, "zip": "56518"}, "otter-tail-county-56522": {"city": "Otter Tail County", "rent": 1320, "zip": "56522"}, "otter-tail-county-56524": {"city": "Otter Tail County", "rent": 1100, "zip": "56524"}, "otter-tail-county-56527": {"city": "Otter Tail County", "rent": 990, "zip": "56527"}, "otter-tail-county-56528": {"city": "Otter Tail County", "rent": 1410, "zip": "56528"}, "otter-tail-county-56531": {"city": "Otter Tail County", "rent": 1090, "zip": "56531"}, "otter-tail-county-56533": {"city": "Otter Tail County", "rent": 1280, "zip": "56533"}, "otter-tail-county-56534": {"city": "Otter Tail County", "rent": 1200, "zip": "56534"}, "otter-tail-county-56537": {"city": "Otter Tail County", "rent": 990, "zip": "56537"}, "otter-tail-county-56538": {"city": "Otter Tail County", "rent": 980, "zip": "56538"}, "otter-tail-county-56543": {"city": "Otter Tail County", "rent": 1100, "zip": "56543"}, "otter-tail-county-56544": {"city": "Otter Tail County", "rent": 980, "zip": "56544"}, "otter-tail-county-56551": {"city": "Otter Tail County", "rent": 970, "zip": "56551"}, "otter-tail-county-56567": {"city": "Otter Tail County", "rent": 970, "zip": "56567"}, "otter-tail-county-56571": {"city": "Otter Tail County", "rent": 1150, "zip": "56571"}, "otter-tail-county-56572": {"city": "Otter Tail County", "rent": 980, "zip": "56572"}, "otter-tail-county-56573": {"city": "Otter Tail County", "rent": 970, "zip": "56573"}, "otter-tail-county-56576": {"city": "Otter Tail County", "rent": 1070, "zip": "56576"}, "otter-tail-county-56579": {"city": "Otter Tail County", "rent": 1180, "zip": "56579"}, "otter-tail-county-56586": {"city": "Otter Tail County", "rent": 1150, "zip": "56586"}, "otter-tail-county-56587": {"city": "Otter Tail County", "rent": 970, "zip": "56587"}, "otter-tail-county-56588": {"city": "Otter Tail County", "rent": 1010, "zip": "56588"}, "otter-tail-county-56590": {"city": "Otter Tail County", "rent": 1000, "zip": "56590"}, "pennington-county-56684": {"city": "Pennington County", "rent": 1000, "zip": "56684"}, "pennington-county-56701": {"city": "Pennington County", "rent": 1130, "zip": "56701"}, "pennington-county-56725": {"city": "Pennington County", "rent": 1020, "zip": "56725"}, "pennington-county-56742": {"city": "Pennington County", "rent": 1010, "zip": "56742"}, "pennington-county-56748": {"city": "Pennington County", "rent": 1120, "zip": "56748"}, "pennington-county-56750": {"city": "Pennington County", "rent": 980, "zip": "56750"}, "pennington-county-56754": {"city": "Pennington County", "rent": 1310, "zip": "56754"}, "pennington-county-56760": {"city": "Pennington County", "rent": 1030, "zip": "56760"}, "pine-county-55006": {"city": "Pine County", "rent": 1520, "zip": "55006"}, "pine-county-55007": {"city": "Pine County", "rent": 1050, "zip": "55007"}, "pine-county-55030": {"city": "Pine County", "rent": 1060, "zip": "55030"}, "pine-county-55036": {"city": "Pine County", "rent": 1100, "zip": "55036"}, "pine-county-55037": {"city": "Pine County", "rent": 1120, "zip": "55037"}, "pine-county-55051": {"city": "Pine County", "rent": 990, "zip": "55051"}, "pine-county-55063": {"city": "Pine County", "rent": 970, "zip": "55063"}, "pine-county-55069": {"city": "Pine County", "rent": 1520, "zip": "55069"}, "pine-county-55072": {"city": "Pine County", "rent": 1200, "zip": "55072"}, "pine-county-55704": {"city": "Pine County", "rent": 970, "zip": "55704"}, "pine-county-55712": {"city": "Pine County", "rent": 1090, "zip": "55712"}, "pine-county-55735": {"city": "Pine County", "rent": 1190, "zip": "55735"}, "pine-county-55749": {"city": "Pine County", "rent": 1180, "zip": "55749"}, "pine-county-55756": {"city": "Pine County", "rent": 1150, "zip": "55756"}, "pine-county-55767": {"city": "Pine County", "rent": 1160, "zip": "55767"}, "pine-county-55783": {"city": "Pine County", "rent": 1220, "zip": "55783"}, "pine-county-55795": {"city": "Pine County", "rent": 980, "zip": "55795"}, "pine-county-56350": {"city": "Pine County", "rent": 1060, "zip": "56350"}, "pipestone-county-56128": {"city": "Pipestone County", "rent": 1120, "zip": "56128"}, "pipestone-county-56139": {"city": "Pipestone County", "rent": 1070, "zip": "56139"}, "pipestone-county-56140": {"city": "Pipestone County", "rent": 970, "zip": "56140"}, "pipestone-county-56144": {"city": "Pipestone County", "rent": 980, "zip": "56144"}, "pipestone-county-56149": {"city": "Pipestone County", "rent": 990, "zip": "56149"}, "pipestone-county-56164": {"city": "Pipestone County", "rent": 970, "zip": "56164"}, "pipestone-county-56170": {"city": "Pipestone County", "rent": 1130, "zip": "56170"}, "pipestone-county-56186": {"city": "Pipestone County", "rent": 970, "zip": "56186"}, "pipestone-county-57026": {"city": "Pipestone County", "rent": 970, "zip": "57026"}, "pope-county-56215": {"city": "Pope County", "rent": 1050, "zip": "56215"}, "pope-county-56226": {"city": "Pope County", "rent": 1020, "zip": "56226"}, "pope-county-56244": {"city": "Pope County", "rent": 970, "zip": "56244"}, "pope-county-56289": {"city": "Pope County", "rent": 970, "zip": "56289"}, "pope-county-56308": {"city": "Pope County", "rent": 1000, "zip": "56308"}, "pope-county-56316": {"city": "Pope County", "rent": 1210, "zip": "56316"}, "pope-county-56323": {"city": "Pope County", "rent": 970, "zip": "56323"}, "pope-county-56327": {"city": "Pope County", "rent": 1040, "zip": "56327"}, "pope-county-56334": {"city": "Pope County", "rent": 1030, "zip": "56334"}, "pope-county-56343": {"city": "Pope County", "rent": 980, "zip": "56343"}, "pope-county-56349": {"city": "Pope County", "rent": 1130, "zip": "56349"}, "pope-county-56360": {"city": "Pope County", "rent": 1040, "zip": "56360"}, "pope-county-56378": {"city": "Pope County", "rent": 1040, "zip": "56378"}, "pope-county-56381": {"city": "Pope County", "rent": 1080, "zip": "56381"}, "pope-county-56385": {"city": "Pope County", "rent": 1200, "zip": "56385"}, "red-lake-county-56535": {"city": "Red Lake County", "rent": 970, "zip": "56535"}, "red-lake-county-56684": {"city": "Red Lake County", "rent": 1000, "zip": "56684"}, "red-lake-county-56715": {"city": "Red Lake County", "rent": 970, "zip": "56715"}, "red-lake-county-56716": {"city": "Red Lake County", "rent": 1030, "zip": "56716"}, "red-lake-county-56736": {"city": "Red Lake County", "rent": 1020, "zip": "56736"}, "red-lake-county-56742": {"city": "Red Lake County", "rent": 1010, "zip": "56742"}, "red-lake-county-56748": {"city": "Red Lake County", "rent": 1120, "zip": "56748"}, "red-lake-county-56750": {"city": "Red Lake County", "rent": 980, "zip": "56750"}, "red-lake-county-56754": {"city": "Red Lake County", "rent": 1310, "zip": "56754"}, "redwood-county-55333": {"city": "Redwood County", "rent": 1050, "zip": "55333"}, "redwood-county-56083": {"city": "Redwood County", "rent": 1090, "zip": "56083"}, "redwood-county-56085": {"city": "Redwood County", "rent": 970, "zip": "56085"}, "redwood-county-56087": {"city": "Redwood County", "rent": 970, "zip": "56087"}, "redwood-county-56152": {"city": "Redwood County", "rent": 970, "zip": "56152"}, "redwood-county-56166": {"city": "Redwood County", "rent": 970, "zip": "56166"}, "redwood-county-56175": {"city": "Redwood County", "rent": 970, "zip": "56175"}, "redwood-county-56180": {"city": "Redwood County", "rent": 970, "zip": "56180"}, "redwood-county-56214": {"city": "Redwood County", "rent": 970, "zip": "56214"}, "redwood-county-56224": {"city": "Redwood County", "rent": 970, "zip": "56224"}, "redwood-county-56237": {"city": "Redwood County", "rent": 970, "zip": "56237"}, "redwood-county-56255": {"city": "Redwood County", "rent": 970, "zip": "56255"}, "redwood-county-56258": {"city": "Redwood County", "rent": 990, "zip": "56258"}, "redwood-county-56263": {"city": "Redwood County", "rent": 970, "zip": "56263"}, "redwood-county-56266": {"city": "Redwood County", "rent": 1210, "zip": "56266"}, "redwood-county-56270": {"city": "Redwood County", "rent": 1030, "zip": "56270"}, "redwood-county-56283": {"city": "Redwood County", "rent": 1080, "zip": "56283"}, "redwood-county-56284": {"city": "Redwood County", "rent": 980, "zip": "56284"}, "redwood-county-56287": {"city": "Redwood County", "rent": 1030, "zip": "56287"}, "redwood-county-56292": {"city": "Redwood County", "rent": 1080, "zip": "56292"}, "redwood-county-56293": {"city": "Redwood County", "rent": 970, "zip": "56293"}, "redwood-county-56294": {"city": "Redwood County", "rent": 1060, "zip": "56294"}, "redwood-county-56297": {"city": "Redwood County", "rent": 1010, "zip": "56297"}, "renville-county-55310": {"city": "Renville County", "rent": 970, "zip": "55310"}, "renville-county-55314": {"city": "Renville County", "rent": 970, "zip": "55314"}, "renville-county-55332": {"city": "Renville County", "rent": 1060, "zip": "55332"}, "renville-county-55333": {"city": "Renville County", "rent": 1050, "zip": "55333"}, "renville-county-55335": {"city": "Renville County", "rent": 1060, "zip": "55335"}, "renville-county-55342": {"city": "Renville County", "rent": 1060, "zip": "55342"}, "renville-county-55350": {"city": "Renville County", "rent": 1030, "zip": "55350"}, "renville-county-55385": {"city": "Renville County", "rent": 970, "zip": "55385"}, "renville-county-56228": {"city": "Renville County", "rent": 970, "zip": "56228"}, "renville-county-56230": {"city": "Renville County", "rent": 1070, "zip": "56230"}, "renville-county-56241": {"city": "Renville County", "rent": 1060, "zip": "56241"}, "renville-county-56260": {"city": "Renville County", "rent": 970, "zip": "56260"}, "renville-county-56270": {"city": "Renville County", "rent": 1030, "zip": "56270"}, "renville-county-56277": {"city": "Renville County", "rent": 1010, "zip": "56277"}, "renville-county-56283": {"city": "Renville County", "rent": 1080, "zip": "56283"}, "renville-county-56284": {"city": "Renville County", "rent": 980, "zip": "56284"}, "renville-county-56285": {"city": "Renville County", "rent": 970, "zip": "56285"}, "rice-county-55018": {"city": "Rice County", "rent": 1640, "zip": "55018"}, "rice-county-55019": {"city": "Rice County", "rent": 1570, "zip": "55019"}, "rice-county-55020": {"city": "Rice County", "rent": 2140, "zip": "55020"}, "rice-county-55021": {"city": "Rice County", "rent": 1210, "zip": "55021"}, "rice-county-55046": {"city": "Rice County", "rent": 1560, "zip": "55046"}, "rice-county-55049": {"city": "Rice County", "rent": 1170, "zip": "55049"}, "rice-county-55052": {"city": "Rice County", "rent": 1210, "zip": "55052"}, "rice-county-55053": {"city": "Rice County", "rent": 1600, "zip": "55053"}, "rice-county-55057": {"city": "Rice County", "rent": 1520, "zip": "55057"}, "rice-county-55087": {"city": "Rice County", "rent": 1210, "zip": "55087"}, "rice-county-55088": {"city": "Rice County", "rent": 1540, "zip": "55088"}, "rice-county-55946": {"city": "Rice County", "rent": 1210, "zip": "55946"}, "rice-county-56052": {"city": "Rice County", "rent": 1660, "zip": "56052"}, "rice-county-56069": {"city": "Rice County", "rent": 1140, "zip": "56069"}, "rice-county-56071": {"city": "Rice County", "rent": 1520, "zip": "56071"}, "rice-county-56093": {"city": "Rice County", "rent": 1060, "zip": "56093"}, "rice-county-56096": {"city": "Rice County", "rent": 1060, "zip": "56096"}, "roseau-county-56673": {"city": "Roseau County", "rent": 1300, "zip": "56673"}, "roseau-county-56714": {"city": "Roseau County", "rent": 970, "zip": "56714"}, "roseau-county-56726": {"city": "Roseau County", "rent": 970, "zip": "56726"}, "roseau-county-56732": {"city": "Roseau County", "rent": 970, "zip": "56732"}, "roseau-county-56735": {"city": "Roseau County", "rent": 970, "zip": "56735"}, "roseau-county-56751": {"city": "Roseau County", "rent": 1080, "zip": "56751"}, "roseau-county-56756": {"city": "Roseau County", "rent": 1010, "zip": "56756"}, "roseau-county-56759": {"city": "Roseau County", "rent": 970, "zip": "56759"}, "roseau-county-56761": {"city": "Roseau County", "rent": 1060, "zip": "56761"}, "roseau-county-56763": {"city": "Roseau County", "rent": 970, "zip": "56763"}, "sibley-county-55307": {"city": "Sibley County", "rent": 1010, "zip": "55307"}, "sibley-county-55312": {"city": "Sibley County", "rent": 970, "zip": "55312"}, "sibley-county-55314": {"city": "Sibley County", "rent": 970, "zip": "55314"}, "sibley-county-55332": {"city": "Sibley County", "rent": 1060, "zip": "55332"}, "sibley-county-55334": {"city": "Sibley County", "rent": 1060, "zip": "55334"}, "sibley-county-55335": {"city": "Sibley County", "rent": 1060, "zip": "55335"}, "sibley-county-55336": {"city": "Sibley County", "rent": 1010, "zip": "55336"}, "sibley-county-55338": {"city": "Sibley County", "rent": 1520, "zip": "55338"}, "sibley-county-55339": {"city": "Sibley County", "rent": 1520, "zip": "55339"}, "sibley-county-55366": {"city": "Sibley County", "rent": 970, "zip": "55366"}, "sibley-county-55385": {"city": "Sibley County", "rent": 970, "zip": "55385"}, "sibley-county-55396": {"city": "Sibley County", "rent": 970, "zip": "55396"}, "sibley-county-56011": {"city": "Sibley County", "rent": 1520, "zip": "56011"}, "sibley-county-56044": {"city": "Sibley County", "rent": 1520, "zip": "56044"}, "sibley-county-56054": {"city": "Sibley County", "rent": 1060, "zip": "56054"}, "sibley-county-56058": {"city": "Sibley County", "rent": 1070, "zip": "56058"}, "steele-county-55021": {"city": "Steele County", "rent": 1210, "zip": "55021"}, "steele-county-55049": {"city": "Steele County", "rent": 1170, "zip": "55049"}, "steele-county-55052": {"city": "Steele County", "rent": 1210, "zip": "55052"}, "steele-county-55060": {"city": "Steele County", "rent": 1150, "zip": "55060"}, "steele-county-55917": {"city": "Steele County", "rent": 1210, "zip": "55917"}, "steele-county-55924": {"city": "Steele County", "rent": 1210, "zip": "55924"}, "steele-county-55946": {"city": "Steele County", "rent": 1210, "zip": "55946"}, "steele-county-55985": {"city": "Steele County", "rent": 1210, "zip": "55985"}, "steele-county-56026": {"city": "Steele County", "rent": 1020, "zip": "56026"}, "steele-county-56035": {"city": "Steele County", "rent": 970, "zip": "56035"}, "steele-county-56042": {"city": "Steele County", "rent": 970, "zip": "56042"}, "steele-county-56046": {"city": "Steele County", "rent": 1140, "zip": "56046"}, "steele-county-56072": {"city": "Steele County", "rent": 970, "zip": "56072"}, "steele-county-56093": {"city": "Steele County", "rent": 1060, "zip": "56093"}, "stevens-county-56207": {"city": "Stevens County", "rent": 970, "zip": "56207"}, "stevens-county-56221": {"city": "Stevens County", "rent": 970, "zip": "56221"}, "stevens-county-56225": {"city": "Stevens County", "rent": 1120, "zip": "56225"}, "stevens-county-56235": {"city": "Stevens County", "rent": 1190, "zip": "56235"}, "stevens-county-56244": {"city": "Stevens County", "rent": 970, "zip": "56244"}, "stevens-county-56248": {"city": "Stevens County", "rent": 970, "zip": "56248"}, "stevens-county-56267": {"city": "Stevens County", "rent": 1000, "zip": "56267"}, "stevens-county-56278": {"city": "Stevens County", "rent": 980, "zip": "56278"}, "stevens-county-56323": {"city": "Stevens County", "rent": 970, "zip": "56323"}, "stevens-county-56343": {"city": "Stevens County", "rent": 980, "zip": "56343"}, "swift-county-56207": {"city": "Swift County", "rent": 970, "zip": "56207"}, "swift-county-56208": {"city": "Swift County", "rent": 970, "zip": "56208"}, "swift-county-56215": {"city": "Swift County", "rent": 1050, "zip": "56215"}, "swift-county-56226": {"city": "Swift County", "rent": 1020, "zip": "56226"}, "swift-county-56227": {"city": "Swift County", "rent": 990, "zip": "56227"}, "swift-county-56231": {"city": "Swift County", "rent": 1130, "zip": "56231"}, "swift-county-56244": {"city": "Swift County", "rent": 970, "zip": "56244"}, "swift-county-56249": {"city": "Swift County", "rent": 970, "zip": "56249"}, "swift-county-56252": {"city": "Swift County", "rent": 970, "zip": "56252"}, "swift-county-56262": {"city": "Swift County", "rent": 980, "zip": "56262"}, "swift-county-56271": {"city": "Swift County", "rent": 970, "zip": "56271"}, "swift-county-56289": {"city": "Swift County", "rent": 970, "zip": "56289"}, "todd-county-56318": {"city": "Todd County", "rent": 970, "zip": "56318"}, "todd-county-56319": {"city": "Todd County", "rent": 1000, "zip": "56319"}, "todd-county-56331": {"city": "Todd County", "rent": 1060, "zip": "56331"}, "todd-county-56336": {"city": "Todd County", "rent": 1040, "zip": "56336"}, "todd-county-56347": {"city": "Todd County", "rent": 1040, "zip": "56347"}, "todd-county-56360": {"city": "Todd County", "rent": 1040, "zip": "56360"}, "todd-county-56378": {"city": "Todd County", "rent": 1040, "zip": "56378"}, "todd-county-56382": {"city": "Todd County", "rent": 1000, "zip": "56382"}, "todd-county-56389": {"city": "Todd County", "rent": 980, "zip": "56389"}, "todd-county-56434": {"city": "Todd County", "rent": 970, "zip": "56434"}, "todd-county-56437": {"city": "Todd County", "rent": 970, "zip": "56437"}, "todd-county-56438": {"city": "Todd County", "rent": 970, "zip": "56438"}, "todd-county-56440": {"city": "Todd County", "rent": 970, "zip": "56440"}, "todd-county-56443": {"city": "Todd County", "rent": 1160, "zip": "56443"}, "todd-county-56446": {"city": "Todd County", "rent": 970, "zip": "56446"}, "todd-county-56453": {"city": "Todd County", "rent": 1030, "zip": "56453"}, "todd-county-56466": {"city": "Todd County", "rent": 970, "zip": "56466"}, "todd-county-56475": {"city": "Todd County", "rent": 970, "zip": "56475"}, "todd-county-56479": {"city": "Todd County", "rent": 1170, "zip": "56479"}, "todd-county-56481": {"city": "Todd County", "rent": 970, "zip": "56481"}, "todd-county-56482": {"city": "Todd County", "rent": 980, "zip": "56482"}, "traverse-county-56211": {"city": "Traverse County", "rent": 1040, "zip": "56211"}, "traverse-county-56219": {"city": "Traverse County", "rent": 1320, "zip": "56219"}, "traverse-county-56221": {"city": "Traverse County", "rent": 970, "zip": "56221"}, "traverse-county-56236": {"city": "Traverse County", "rent": 970, "zip": "56236"}, "traverse-county-56240": {"city": "Traverse County", "rent": 970, "zip": "56240"}, "traverse-county-56248": {"city": "Traverse County", "rent": 970, "zip": "56248"}, "traverse-county-56274": {"city": "Traverse County", "rent": 990, "zip": "56274"}, "traverse-county-56296": {"city": "Traverse County", "rent": 970, "zip": "56296"}, "traverse-county-56565": {"city": "Traverse County", "rent": 1210, "zip": "56565"}, "traverse-county-56583": {"city": "Traverse County", "rent": 1060, "zip": "56583"}, "wadena-county-56434": {"city": "Wadena County", "rent": 970, "zip": "56434"}, "wadena-county-56464": {"city": "Wadena County", "rent": 1050, "zip": "56464"}, "wadena-county-56470": {"city": "Wadena County", "rent": 1010, "zip": "56470"}, "wadena-county-56477": {"city": "Wadena County", "rent": 1090, "zip": "56477"}, "wadena-county-56479": {"city": "Wadena County", "rent": 1170, "zip": "56479"}, "wadena-county-56481": {"city": "Wadena County", "rent": 970, "zip": "56481"}, "wadena-county-56482": {"city": "Wadena County", "rent": 980, "zip": "56482"}, "waseca-county-55052": {"city": "Waseca County", "rent": 1210, "zip": "55052"}, "waseca-county-56026": {"city": "Waseca County", "rent": 1020, "zip": "56026"}, "waseca-county-56028": {"city": "Waseca County", "rent": 1280, "zip": "56028"}, "waseca-county-56042": {"city": "Waseca County", "rent": 970, "zip": "56042"}, "waseca-county-56048": {"city": "Waseca County", "rent": 1060, "zip": "56048"}, "waseca-county-56063": {"city": "Waseca County", "rent": 1180, "zip": "56063"}, "waseca-county-56065": {"city": "Waseca County", "rent": 1060, "zip": "56065"}, "waseca-county-56068": {"city": "Waseca County", "rent": 1060, "zip": "56068"}, "waseca-county-56072": {"city": "Waseca County", "rent": 970, "zip": "56072"}, "waseca-county-56078": {"city": "Waseca County", "rent": 1540, "zip": "56078"}, "waseca-county-56091": {"city": "Waseca County", "rent": 1030, "zip": "56091"}, "waseca-county-56093": {"city": "Waseca County", "rent": 1060, "zip": "56093"}, "waseca-county-56096": {"city": "Waseca County", "rent": 1060, "zip": "56096"}, "waseca-county-56097": {"city": "Waseca County", "rent": 970, "zip": "56097"}, "watonwan-county-56019": {"city": "Watonwan County", "rent": 970, "zip": "56019"}, "watonwan-county-56022": {"city": "Watonwan County", "rent": 970, "zip": "56022"}, "watonwan-county-56041": {"city": "Watonwan County", "rent": 1140, "zip": "56041"}, "watonwan-county-56056": {"city": "Watonwan County", "rent": 990, "zip": "56056"}, "watonwan-county-56060": {"city": "Watonwan County", "rent": 1060, "zip": "56060"}, "watonwan-county-56062": {"city": "Watonwan County", "rent": 1060, "zip": "56062"}, "watonwan-county-56081": {"city": "Watonwan County", "rent": 1000, "zip": "56081"}, "watonwan-county-56088": {"city": "Watonwan County", "rent": 1060, "zip": "56088"}, "watonwan-county-56120": {"city": "Watonwan County", "rent": 970, "zip": "56120"}, "watonwan-county-56159": {"city": "Watonwan County", "rent": 980, "zip": "56159"}, "watonwan-county-56160": {"city": "Watonwan County", "rent": 980, "zip": "56160"}, "watonwan-county-56162": {"city": "Watonwan County", "rent": 1000, "zip": "56162"}, "wilkin-county-56514": {"city": "Wilkin County", "rent": 1010, "zip": "56514"}, "wilkin-county-56520": {"city": "Wilkin County", "rent": 970, "zip": "56520"}, "wilkin-county-56522": {"city": "Wilkin County", "rent": 1320, "zip": "56522"}, "wilkin-county-56543": {"city": "Wilkin County", "rent": 1100, "zip": "56543"}, "wilkin-county-56553": {"city": "Wilkin County", "rent": 970, "zip": "56553"}, "wilkin-county-56560": {"city": "Wilkin County", "rent": 1170, "zip": "56560"}, "wilkin-county-56565": {"city": "Wilkin County", "rent": 1210, "zip": "56565"}, "wilkin-county-56572": {"city": "Wilkin County", "rent": 980, "zip": "56572"}, "wilkin-county-56579": {"city": "Wilkin County", "rent": 1180, "zip": "56579"}, "wilkin-county-56583": {"city": "Wilkin County", "rent": 1060, "zip": "56583"}, "wilkin-county-56594": {"city": "Wilkin County", "rent": 1130, "zip": "56594"}, "wilkin-county-58030": {"city": "Wilkin County", "rent": 970, "zip": "58030"}, "winona-county-55910": {"city": "Winona County", "rent": 1300, "zip": "55910"}, "winona-county-55923": {"city": "Winona County", "rent": 1210, "zip": "55923"}, "winona-county-55925": {"city": "Winona County", "rent": 970, "zip": "55925"}, "winona-county-55943": {"city": "Winona County", "rent": 1080, "zip": "55943"}, "winona-county-55947": {"city": "Winona County", "rent": 1140, "zip": "55947"}, "winona-county-55952": {"city": "Winona County", "rent": 1140, "zip": "55952"}, "winona-county-55959": {"city": "Winona County", "rent": 1030, "zip": "55959"}, "winona-county-55962": {"city": "Winona County", "rent": 1080, "zip": "55962"}, "winona-county-55964": {"city": "Winona County", "rent": 1210, "zip": "55964"}, "winona-county-55969": {"city": "Winona County", "rent": 1120, "zip": "55969"}, "winona-county-55971": {"city": "Winona County", "rent": 1110, "zip": "55971"}, "winona-county-55972": {"city": "Winona County", "rent": 1210, "zip": "55972"}, "winona-county-55979": {"city": "Winona County", "rent": 1430, "zip": "55979"}, "winona-county-55987": {"city": "Winona County", "rent": 1060, "zip": "55987"}, "yellow-medicine-county-56142": {"city": "Yellow Medicine County", "rent": 980, "zip": "56142"}, "yellow-medicine-county-56214": {"city": "Yellow Medicine County", "rent": 970, "zip": "56214"}, "yellow-medicine-county-56218": {"city": "Yellow Medicine County", "rent": 1130, "zip": "56218"}, "yellow-medicine-county-56220": {"city": "Yellow Medicine County", "rent": 970, "zip": "56220"}, "yellow-medicine-county-56223": {"city": "Yellow Medicine County", "rent": 1120, "zip": "56223"}, "yellow-medicine-county-56229": {"city": "Yellow Medicine County", "rent": 970, "zip": "56229"}, "yellow-medicine-county-56237": {"city": "Yellow Medicine County", "rent": 970, "zip": "56237"}, "yellow-medicine-county-56241": {"city": "Yellow Medicine County", "rent": 1060, "zip": "56241"}, "yellow-medicine-county-56245": {"city": "Yellow Medicine County", "rent": 970, "zip": "56245"}, "yellow-medicine-county-56264": {"city": "Yellow Medicine County", "rent": 970, "zip": "56264"}, "yellow-medicine-county-56265": {"city": "Yellow Medicine County", "rent": 970, "zip": "56265"}, "yellow-medicine-county-56280": {"city": "Yellow Medicine County", "rent": 1180, "zip": "56280"}, "yellow-medicine-county-56291": {"city": "Yellow Medicine County", "rent": 970, "zip": "56291"}, "yellow-medicine-county-56292": {"city": "Yellow Medicine County", "rent": 1080, "zip": "56292"}, "yellow-medicine-county-56297": {"city": "Yellow Medicine County", "rent": 1010, "zip": "56297"}}