{"gulfport-biloxi-39426": {"city": "Gulfport-Biloxi", "rent": 1060, "zip": "39426"}, "gulfport-biloxi-39466": {"city": "Gulfport-Biloxi", "rent": 1010, "zip": "39466"}, "gulfport-biloxi-39470": {"city": "Gulfport-Biloxi", "rent": 1010, "zip": "39470"}, "gulfport-biloxi-39501": {"city": "Gulfport-Biloxi", "rent": 1080, "zip": "39501"}, "gulfport-biloxi-39502": {"city": "Gulfport-Biloxi", "rent": 1150, "zip": "39502"}, "gulfport-biloxi-39503": {"city": "Gulfport-Biloxi", "rent": 1170, "zip": "39503"}, "gulfport-biloxi-39505": {"city": "Gulfport-Biloxi", "rent": 1150, "zip": "39505"}, "gulfport-biloxi-39506": {"city": "Gulfport-Biloxi", "rent": 1150, "zip": "39506"}, "gulfport-biloxi-39507": {"city": "Gulfport-Biloxi", "rent": 1160, "zip": "39507"}, "gulfport-biloxi-39520": {"city": "Gulfport-Biloxi", "rent": 1120, "zip": "39520"}, "gulfport-biloxi-39522": {"city": "Gulfport-Biloxi", "rent": 1090, "zip": "39522"}, "gulfport-biloxi-39525": {"city": "Gulfport-Biloxi", "rent": 1580, "zip": "39525"}, "gulfport-biloxi-39529": {"city": "Gulfport-Biloxi", "rent": 1090, "zip": "39529"}, "gulfport-biloxi-39530": {"city": "Gulfport-Biloxi", "rent": 1010, "zip": "39530"}, "gulfport-biloxi-39531": {"city": "Gulfport-Biloxi", "rent": 1140, "zip": "39531"}, "gulfport-biloxi-39532": {"city": "Gulfport-Biloxi", "rent": 1140, "zip": "39532"}, "gulfport-biloxi-39533": {"city": "Gulfport-Biloxi", "rent": 1150, "zip": "39533"}, "gulfport-biloxi-39534": {"city": "Gulfport-Biloxi", "rent": 1010, "zip": "39534"}, "gulfport-biloxi-39535": {"city": "Gulfport-Biloxi", "rent": 1150, "zip": "39535"}, "gulfport-biloxi-39540": {"city": "Gulfport-Biloxi", "rent": 1230, "zip": "39540"}, "gulfport-biloxi-39556": {"city": "Gulfport-Biloxi", "rent": 1190, "zip": "39556"}, "gulfport-biloxi-39560": {"city": "Gulfport-Biloxi", "rent": 1270, "zip": "39560"}, "gulfport-biloxi-39565": {"city": "Gulfport-Biloxi", "rent": 1100, "zip": "39565"}, "gulfport-biloxi-39571": {"city": "Gulfport-Biloxi", "rent": 1080, "zip": "39571"}, "gulfport-biloxi-39572": {"city": "Gulfport-Biloxi", "rent": 1120, "zip": "39572"}, "gulfport-biloxi-39573": {"city": "Gulfport-Biloxi", "rent": 1010, "zip": "39573"}, "gulfport-biloxi-39574": {"city": "Gulfport-Biloxi", "rent": 1090, "zip": "39574"}, "gulfport-biloxi-39576": {"city": "Gulfport-Biloxi", "rent": 1010, "zip": "39576"}, "stone-county-39455": {"city": "Stone County", "rent": 1030, "zip": "39455"}, "stone-county-39561": {"city": "Stone County", "rent": 930, "zip": "39561"}, "stone-county-39573": {"city": "Stone County", "rent": 1010, "zip": "39573"}, "stone-county-39574": {"city": "Stone County", "rent": 1090, "zip": "39574"}, "stone-county-39577": {"city": "Stone County", "rent": 1030, "zip": "39577"}, "pascagoula-39452": {"city": "Pascagoula", "rent": 990, "zip": "39452"}, "pascagoula-39532": {"city": "Pascagoula", "rent": 1140, "zip": "39532"}, "pascagoula-39552": {"city": "Pascagoula", "rent": 1070, "zip": "39552"}, "pascagoula-39553": {"city": "Pascagoula", "rent": 1030, "zip": "39553"}, "pascagoula-39562": {"city": "Pascagoula", "rent": 990, "zip": "39562"}, "pascagoula-39563": {"city": "Pascagoula", "rent": 1040, "zip": "39563"}, "pascagoula-39564": {"city": "Pascagoula", "rent": 1270, "zip": "39564"}, "pascagoula-39565": {"city": "Pascagoula", "rent": 1100, "zip": "39565"}, "pascagoula-39566": {"city": "Pascagoula", "rent": 1070, "zip": "39566"}, "pascagoula-39567": {"city": "Pascagoula", "rent": 990, "zip": "39567"}, "pascagoula-39569": {"city": "Pascagoula", "rent": 1070, "zip": "39569"}, "pascagoula-39573": {"city": "Pascagoula", "rent": 1010, "zip": "39573"}, "pascagoula-39581": {"city": "Pascagoula", "rent": 990, "zip": "39581"}, "pascagoula-39595": {"city": "Pascagoula", "rent": 990, "zip": "39595"}, "hattiesburg-39401": {"city": "Hattiesburg", "rent": 1030, "zip": "39401"}, "hattiesburg-39402": {"city": "Hattiesburg", "rent": 1260, "zip": "39402"}, "hattiesburg-39403": {"city": "Hattiesburg", "rent": 1030, "zip": "39403"}, "hattiesburg-39404": {"city": "Hattiesburg", "rent": 1030, "zip": "39404"}, "hattiesburg-39406": {"city": "Hattiesburg", "rent": 1030, "zip": "39406"}, "hattiesburg-39423": {"city": "Hattiesburg", "rent": 1030, "zip": "39423"}, "hattiesburg-39425": {"city": "Hattiesburg", "rent": 1030, "zip": "39425"}, "hattiesburg-39429": {"city": "Hattiesburg", "rent": 1030, "zip": "39429"}, "hattiesburg-39437": {"city": "Hattiesburg", "rent": 1030, "zip": "39437"}, "hattiesburg-39455": {"city": "Hattiesburg", "rent": 1030, "zip": "39455"}, "hattiesburg-39456": {"city": "Hattiesburg", "rent": 1030, "zip": "39456"}, "hattiesburg-39459": {"city": "Hattiesburg", "rent": 1030, "zip": "39459"}, "hattiesburg-39462": {"city": "Hattiesburg", "rent": 1030, "zip": "39462"}, "hattiesburg-39464": {"city": "Hattiesburg", "rent": 1030, "zip": "39464"}, "hattiesburg-39465": {"city": "Hattiesburg", "rent": 1030, "zip": "39465"}, "hattiesburg-39475": {"city": "Hattiesburg", "rent": 1040, "zip": "39475"}, "hattiesburg-39476": {"city": "Hattiesburg", "rent": 1030, "zip": "39476"}, "hattiesburg-39482": {"city": "Hattiesburg", "rent": 1030, "zip": "39482"}, "hattiesburg-39577": {"city": "Hattiesburg", "rent": 1030, "zip": "39577"}, "jackson-39041": {"city": "Jackson", "rent": 840, "zip": "39041"}, "jackson-39042": {"city": "Jackson", "rent": 1330, "zip": "39042"}, "jackson-39043": {"city": "Jackson", "rent": 1450, "zip": "39043"}, "jackson-39044": {"city": "Jackson", "rent": 990, "zip": "39044"}, "jackson-39045": {"city": "Jackson", "rent": 1010, "zip": "39045"}, "jackson-39046": {"city": "Jackson", "rent": 1080, "zip": "39046"}, "jackson-39047": {"city": "Jackson", "rent": 1830, "zip": "39047"}, "jackson-39051": {"city": "Jackson", "rent": 950, "zip": "39051"}, "jackson-39056": {"city": "Jackson", "rent": 1400, "zip": "39056"}, "jackson-39058": {"city": "Jackson", "rent": 1400, "zip": "39058"}, "jackson-39059": {"city": "Jackson", "rent": 860, "zip": "39059"}, "jackson-39060": {"city": "Jackson", "rent": 1250, "zip": "39060"}, "jackson-39066": {"city": "Jackson", "rent": 1030, "zip": "39066"}, "jackson-39071": {"city": "Jackson", "rent": 1190, "zip": "39071"}, "jackson-39073": {"city": "Jackson", "rent": 1140, "zip": "39073"}, "jackson-39078": {"city": "Jackson", "rent": 860, "zip": "39078"}, "jackson-39079": {"city": "Jackson", "rent": 840, "zip": "39079"}, "jackson-39083": {"city": "Jackson", "rent": 840, "zip": "39083"}, "jackson-39086": {"city": "Jackson", "rent": 940, "zip": "39086"}, "jackson-39094": {"city": "Jackson", "rent": 960, "zip": "39094"}, "jackson-39110": {"city": "Jackson", "rent": 1930, "zip": "39110"}, "jackson-39114": {"city": "Jackson", "rent": 900, "zip": "39114"}, "jackson-39117": {"city": "Jackson", "rent": 990, "zip": "39117"}, "jackson-39130": {"city": "Jackson", "rent": 1300, "zip": "39130"}, "jackson-39144": {"city": "Jackson", "rent": 840, "zip": "39144"}, "jackson-39145": {"city": "Jackson", "rent": 1030, "zip": "39145"}, "jackson-39146": {"city": "Jackson", "rent": 1080, "zip": "39146"}, "jackson-39148": {"city": "Jackson", "rent": 1140, "zip": "39148"}, "jackson-39154": {"city": "Jackson", "rent": 1330, "zip": "39154"}, "jackson-39157": {"city": "Jackson", "rent": 1440, "zip": "39157"}, "jackson-39158": {"city": "Jackson", "rent": 1300, "zip": "39158"}, "jackson-39167": {"city": "Jackson", "rent": 1450, "zip": "39167"}, "jackson-39170": {"city": "Jackson", "rent": 1160, "zip": "39170"}, "jackson-39174": {"city": "Jackson", "rent": 1060, "zip": "39174"}, "jackson-39175": {"city": "Jackson", "rent": 1070, "zip": "39175"}, "jackson-39191": {"city": "Jackson", "rent": 1050, "zip": "39191"}, "jackson-39193": {"city": "Jackson", "rent": 1350, "zip": "39193"}, "jackson-39201": {"city": "Jackson", "rent": 1570, "zip": "39201"}, "jackson-39202": {"city": "Jackson", "rent": 1090, "zip": "39202"}, "jackson-39203": {"city": "Jackson", "rent": 890, "zip": "39203"}, "jackson-39204": {"city": "Jackson", "rent": 1080, "zip": "39204"}, "jackson-39205": {"city": "Jackson", "rent": 1250, "zip": "39205"}, "jackson-39206": {"city": "Jackson", "rent": 1280, "zip": "39206"}, "jackson-39207": {"city": "Jackson", "rent": 1250, "zip": "39207"}, "jackson-39208": {"city": "Jackson", "rent": 1350, "zip": "39208"}, "jackson-39209": {"city": "Jackson", "rent": 1150, "zip": "39209"}, "jackson-39210": {"city": "Jackson", "rent": 1130, "zip": "39210"}, "jackson-39211": {"city": "Jackson", "rent": 1460, "zip": "39211"}, "jackson-39212": {"city": "Jackson", "rent": 1350, "zip": "39212"}, "jackson-39213": {"city": "Jackson", "rent": 990, "zip": "39213"}, "jackson-39215": {"city": "Jackson", "rent": 1250, "zip": "39215"}, "jackson-39216": {"city": "Jackson", "rent": 1360, "zip": "39216"}, "jackson-39217": {"city": "Jackson", "rent": 940, "zip": "39217"}, "jackson-39218": {"city": "Jackson", "rent": 1340, "zip": "39218"}, "jackson-39225": {"city": "Jackson", "rent": 1250, "zip": "39225"}, "jackson-39232": {"city": "Jackson", "rent": 1700, "zip": "39232"}, "jackson-39236": {"city": "Jackson", "rent": 1250, "zip": "39236"}, "jackson-39269": {"city": "Jackson", "rent": 1250, "zip": "39269"}, "jackson-39272": {"city": "Jackson", "rent": 1590, "zip": "39272"}, "jackson-39282": {"city": "Jackson", "rent": 1250, "zip": "39282"}, "jackson-39283": {"city": "Jackson", "rent": 1250, "zip": "39283"}, "jackson-39284": {"city": "Jackson", "rent": 1250, "zip": "39284"}, "jackson-39286": {"city": "Jackson", "rent": 1250, "zip": "39286"}, "jackson-39288": {"city": "Jackson", "rent": 1450, "zip": "39288"}, "jackson-39289": {"city": "Jackson", "rent": 1250, "zip": "39289"}, "jackson-39296": {"city": "Jackson", "rent": 1250, "zip": "39296"}, "jackson-39298": {"city": "Jackson", "rent": 1450, "zip": "39298"}, "jackson-39654": {"city": "Jackson", "rent": 840, "zip": "39654"}, "jackson-39668": {"city": "Jackson", "rent": 850, "zip": "39668"}, "holmes-county-38924": {"city": "Holmes County", "rent": 1200, "zip": "38924"}, "holmes-county-38954": {"city": "Holmes County", "rent": 1030, "zip": "38954"}, "holmes-county-39038": {"city": "Holmes County", "rent": 860, "zip": "39038"}, "holmes-county-39063": {"city": "Holmes County", "rent": 990, "zip": "39063"}, "holmes-county-39079": {"city": "Holmes County", "rent": 840, "zip": "39079"}, "holmes-county-39095": {"city": "Holmes County", "rent": 910, "zip": "39095"}, "holmes-county-39146": {"city": "Holmes County", "rent": 1080, "zip": "39146"}, "holmes-county-39169": {"city": "Holmes County", "rent": 840, "zip": "39169"}, "holmes-county-39192": {"city": "Holmes County", "rent": 970, "zip": "39192"}, "scott-county-39057": {"city": "Scott County", "rent": 880, "zip": "39057"}, "scott-county-39074": {"city": "Scott County", "rent": 960, "zip": "39074"}, "scott-county-39092": {"city": "Scott County", "rent": 850, "zip": "39092"}, "scott-county-39094": {"city": "Scott County", "rent": 960, "zip": "39094"}, "scott-county-39117": {"city": "Scott County", "rent": 990, "zip": "39117"}, "scott-county-39145": {"city": "Scott County", "rent": 1030, "zip": "39145"}, "scott-county-39152": {"city": "Scott County", "rent": 960, "zip": "39152"}, "scott-county-39189": {"city": "Scott County", "rent": 940, "zip": "39189"}, "scott-county-39359": {"city": "Scott County", "rent": 940, "zip": "39359"}, "scott-county-39365": {"city": "Scott County", "rent": 930, "zip": "39365"}, "simpson-county-39044": {"city": "Simpson County", "rent": 990, "zip": "39044"}, "simpson-county-39062": {"city": "Simpson County", "rent": 840, "zip": "39062"}, "simpson-county-39073": {"city": "Simpson County", "rent": 1140, "zip": "39073"}, "simpson-county-39078": {"city": "Simpson County", "rent": 860, "zip": "39078"}, "simpson-county-39082": {"city": "Simpson County", "rent": 990, "zip": "39082"}, "simpson-county-39111": {"city": "Simpson County", "rent": 850, "zip": "39111"}, "simpson-county-39114": {"city": "Simpson County", "rent": 900, "zip": "39114"}, "simpson-county-39119": {"city": "Simpson County", "rent": 840, "zip": "39119"}, "simpson-county-39140": {"city": "Simpson County", "rent": 990, "zip": "39140"}, "simpson-county-39149": {"city": "Simpson County", "rent": 930, "zip": "39149"}, "yazoo-county-39039": {"city": "Yazoo County", "rent": 1020, "zip": "39039"}, "yazoo-county-39040": {"city": "Yazoo County", "rent": 1080, "zip": "39040"}, "yazoo-county-39088": {"city": "Yazoo County", "rent": 910, "zip": "39088"}, "yazoo-county-39095": {"city": "Yazoo County", "rent": 910, "zip": "39095"}, "yazoo-county-39146": {"city": "Yazoo County", "rent": 1080, "zip": "39146"}, "yazoo-county-39162": {"city": "Yazoo County", "rent": 1010, "zip": "39162"}, "yazoo-county-39166": {"city": "Yazoo County", "rent": 910, "zip": "39166"}, "yazoo-county-39173": {"city": "Yazoo County", "rent": 980, "zip": "39173"}, "yazoo-county-39179": {"city": "Yazoo County", "rent": 1100, "zip": "39179"}, "yazoo-county-39194": {"city": "Yazoo County", "rent": 960, "zip": "39194"}, "benton-county-38603": {"city": "Benton County", "rent": 930, "zip": "38603"}, "benton-county-38610": {"city": "Benton County", "rent": 970, "zip": "38610"}, "benton-county-38629": {"city": "Benton County", "rent": 870, "zip": "38629"}, "benton-county-38633": {"city": "Benton County", "rent": 1020, "zip": "38633"}, "benton-county-38635": {"city": "Benton County", "rent": 1050, "zip": "38635"}, "benton-county-38642": {"city": "Benton County", "rent": 1020, "zip": "38642"}, "benton-county-38647": {"city": "Benton County", "rent": 890, "zip": "38647"}, "benton-county-38650": {"city": "Benton County", "rent": 850, "zip": "38650"}, "benton-county-38659": {"city": "Benton County", "rent": 1030, "zip": "38659"}, "benton-county-38663": {"city": "Benton County", "rent": 840, "zip": "38663"}, "benton-county-38683": {"city": "Benton County", "rent": 840, "zip": "38683"}, "marshall-county-38611": {"city": "Marshall County", "rent": 1330, "zip": "38611"}, "marshall-county-38618": {"city": "Marshall County", "rent": 1130, "zip": "38618"}, "marshall-county-38633": {"city": "Marshall County", "rent": 1020, "zip": "38633"}, "marshall-county-38634": {"city": "Marshall County", "rent": 1110, "zip": "38634"}, "marshall-county-38635": {"city": "Marshall County", "rent": 1050, "zip": "38635"}, "marshall-county-38642": {"city": "Marshall County", "rent": 1020, "zip": "38642"}, "marshall-county-38649": {"city": "Marshall County", "rent": 1110, "zip": "38649"}, "marshall-county-38654": {"city": "Marshall County", "rent": 1690, "zip": "38654"}, "marshall-county-38659": {"city": "Marshall County", "rent": 1030, "zip": "38659"}, "marshall-county-38661": {"city": "Marshall County", "rent": 1180, "zip": "38661"}, "marshall-county-38685": {"city": "Marshall County", "rent": 1170, "zip": "38685"}, "tate-county-38611": {"city": "Tate County", "rent": 1330, "zip": "38611"}, "tate-county-38618": {"city": "Tate County", "rent": 1130, "zip": "38618"}, "tate-county-38619": {"city": "Tate County", "rent": 1170, "zip": "38619"}, "tate-county-38632": {"city": "Tate County", "rent": 1290, "zip": "38632"}, "tate-county-38635": {"city": "Tate County", "rent": 1050, "zip": "38635"}, "tate-county-38665": {"city": "Tate County", "rent": 1160, "zip": "38665"}, "tate-county-38668": {"city": "Tate County", "rent": 1060, "zip": "38668"}, "tunica-county-38621": {"city": "Tunica County", "rent": 1120, "zip": "38621"}, "tunica-county-38626": {"city": "Tunica County", "rent": 1120, "zip": "38626"}, "tunica-county-38641": {"city": "Tunica County", "rent": 1150, "zip": "38641"}, "tunica-county-38664": {"city": "Tunica County", "rent": 1250, "zip": "38664"}, "tunica-county-38665": {"city": "Tunica County", "rent": 1160, "zip": "38665"}, "tunica-county-38670": {"city": "Tunica County", "rent": 1120, "zip": "38670"}, "tunica-county-38676": {"city": "Tunica County", "rent": 1120, "zip": "38676"}, "adams-county-39120": {"city": "Adams County", "rent": 850, "zip": "39120"}, "adams-county-39121": {"city": "Adams County", "rent": 840, "zip": "39121"}, "adams-county-39122": {"city": "Adams County", "rent": 840, "zip": "39122"}, "adams-county-39190": {"city": "Adams County", "rent": 840, "zip": "39190"}, "adams-county-39661": {"city": "Adams County", "rent": 1190, "zip": "39661"}, "alcorn-county-38683": {"city": "Alcorn County", "rent": 840, "zip": "38683"}, "alcorn-county-38833": {"city": "Alcorn County", "rent": 840, "zip": "38833"}, "alcorn-county-38834": {"city": "Alcorn County", "rent": 840, "zip": "38834"}, "alcorn-county-38835": {"city": "Alcorn County", "rent": 840, "zip": "38835"}, "alcorn-county-38846": {"city": "Alcorn County", "rent": 860, "zip": "38846"}, "alcorn-county-38865": {"city": "Alcorn County", "rent": 990, "zip": "38865"}, "amite-county-39631": {"city": "Amite County", "rent": 860, "zip": "39631"}, "amite-county-39633": {"city": "Amite County", "rent": 980, "zip": "39633"}, "amite-county-39638": {"city": "Amite County", "rent": 860, "zip": "39638"}, "amite-county-39645": {"city": "Amite County", "rent": 880, "zip": "39645"}, "amite-county-39652": {"city": "Amite County", "rent": 970, "zip": "39652"}, "amite-county-39653": {"city": "Amite County", "rent": 1000, "zip": "39653"}, "amite-county-39657": {"city": "Amite County", "rent": 970, "zip": "39657"}, "amite-county-39664": {"city": "Amite County", "rent": 900, "zip": "39664"}, "amite-county-39666": {"city": "Amite County", "rent": 980, "zip": "39666"}, "attala-county-39051": {"city": "Attala County", "rent": 950, "zip": "39051"}, "attala-county-39067": {"city": "Attala County", "rent": 1190, "zip": "39067"}, "attala-county-39079": {"city": "Attala County", "rent": 840, "zip": "39079"}, "attala-county-39090": {"city": "Attala County", "rent": 930, "zip": "39090"}, "attala-county-39108": {"city": "Attala County", "rent": 990, "zip": "39108"}, "attala-county-39160": {"city": "Attala County", "rent": 950, "zip": "39160"}, "attala-county-39176": {"city": "Attala County", "rent": 900, "zip": "39176"}, "attala-county-39192": {"city": "Attala County", "rent": 970, "zip": "39192"}, "attala-county-39745": {"city": "Attala County", "rent": 900, "zip": "39745"}, "attala-county-39747": {"city": "Attala County", "rent": 840, "zip": "39747"}, "attala-county-39772": {"city": "Attala County", "rent": 870, "zip": "39772"}, "bolivar-county-38614": {"city": "Bolivar County", "rent": 890, "zip": "38614"}, "bolivar-county-38703": {"city": "Bolivar County", "rent": 980, "zip": "38703"}, "bolivar-county-38720": {"city": "Bolivar County", "rent": 850, "zip": "38720"}, "bolivar-county-38725": {"city": "Bolivar County", "rent": 840, "zip": "38725"}, "bolivar-county-38726": {"city": "Bolivar County", "rent": 840, "zip": "38726"}, "bolivar-county-38730": {"city": "Bolivar County", "rent": 930, "zip": "38730"}, "bolivar-county-38732": {"city": "Bolivar County", "rent": 890, "zip": "38732"}, "bolivar-county-38733": {"city": "Bolivar County", "rent": 890, "zip": "38733"}, "bolivar-county-38740": {"city": "Bolivar County", "rent": 840, "zip": "38740"}, "bolivar-county-38746": {"city": "Bolivar County", "rent": 850, "zip": "38746"}, "bolivar-county-38759": {"city": "Bolivar County", "rent": 880, "zip": "38759"}, "bolivar-county-38762": {"city": "Bolivar County", "rent": 880, "zip": "38762"}, "bolivar-county-38764": {"city": "Bolivar County", "rent": 850, "zip": "38764"}, "bolivar-county-38769": {"city": "Bolivar County", "rent": 840, "zip": "38769"}, "bolivar-county-38772": {"city": "Bolivar County", "rent": 910, "zip": "38772"}, "bolivar-county-38773": {"city": "Bolivar County", "rent": 870, "zip": "38773"}, "bolivar-county-38774": {"city": "Bolivar County", "rent": 840, "zip": "38774"}, "bolivar-county-38781": {"city": "Bolivar County", "rent": 840, "zip": "38781"}, "calhoun-county-38839": {"city": "Calhoun County", "rent": 890, "zip": "38839"}, "calhoun-county-38850": {"city": "Calhoun County", "rent": 900, "zip": "38850"}, "calhoun-county-38851": {"city": "Calhoun County", "rent": 870, "zip": "38851"}, "calhoun-county-38864": {"city": "Calhoun County", "rent": 920, "zip": "38864"}, "calhoun-county-38878": {"city": "Calhoun County", "rent": 840, "zip": "38878"}, "calhoun-county-38913": {"city": "Calhoun County", "rent": 1170, "zip": "38913"}, "calhoun-county-38914": {"city": "Calhoun County", "rent": 920, "zip": "38914"}, "calhoun-county-38915": {"city": "Calhoun County", "rent": 1170, "zip": "38915"}, "calhoun-county-38916": {"city": "Calhoun County", "rent": 890, "zip": "38916"}, "calhoun-county-38929": {"city": "Calhoun County", "rent": 990, "zip": "38929"}, "calhoun-county-38951": {"city": "Calhoun County", "rent": 1170, "zip": "38951"}, "calhoun-county-38965": {"city": "Calhoun County", "rent": 1170, "zip": "38965"}, "calhoun-county-39744": {"city": "Calhoun County", "rent": 870, "zip": "39744"}, "carroll-county-38901": {"city": "Carroll County", "rent": 920, "zip": "38901"}, "carroll-county-38917": {"city": "Carroll County", "rent": 840, "zip": "38917"}, "carroll-county-38923": {"city": "Carroll County", "rent": 870, "zip": "38923"}, "carroll-county-38924": {"city": "Carroll County", "rent": 1200, "zip": "38924"}, "carroll-county-38930": {"city": "Carroll County", "rent": 840, "zip": "38930"}, "carroll-county-38940": {"city": "Carroll County", "rent": 900, "zip": "38940"}, "carroll-county-38943": {"city": "Carroll County", "rent": 900, "zip": "38943"}, "carroll-county-38947": {"city": "Carroll County", "rent": 840, "zip": "38947"}, "carroll-county-38954": {"city": "Carroll County", "rent": 1030, "zip": "38954"}, "carroll-county-38967": {"city": "Carroll County", "rent": 900, "zip": "38967"}, "carroll-county-39095": {"city": "Carroll County", "rent": 910, "zip": "39095"}, "carroll-county-39176": {"city": "Carroll County", "rent": 900, "zip": "39176"}, "carroll-county-39192": {"city": "Carroll County", "rent": 970, "zip": "39192"}, "chickasaw-county-38850": {"city": "Chickasaw County", "rent": 900, "zip": "38850"}, "chickasaw-county-38851": {"city": "Chickasaw County", "rent": 870, "zip": "38851"}, "chickasaw-county-38860": {"city": "Chickasaw County", "rent": 990, "zip": "38860"}, "chickasaw-county-38868": {"city": "Chickasaw County", "rent": 990, "zip": "38868"}, "chickasaw-county-38877": {"city": "Chickasaw County", "rent": 840, "zip": "38877"}, "chickasaw-county-38878": {"city": "Chickasaw County", "rent": 840, "zip": "38878"}, "chickasaw-county-39730": {"city": "Chickasaw County", "rent": 840, "zip": "39730"}, "chickasaw-county-39751": {"city": "Chickasaw County", "rent": 920, "zip": "39751"}, "chickasaw-county-39756": {"city": "Chickasaw County", "rent": 850, "zip": "39756"}, "chickasaw-county-39776": {"city": "Chickasaw County", "rent": 1040, "zip": "39776"}, "choctaw-county-39108": {"city": "Choctaw County", "rent": 990, "zip": "39108"}, "choctaw-county-39339": {"city": "Choctaw County", "rent": 840, "zip": "39339"}, "choctaw-county-39735": {"city": "Choctaw County", "rent": 1000, "zip": "39735"}, "choctaw-county-39744": {"city": "Choctaw County", "rent": 870, "zip": "39744"}, "choctaw-county-39745": {"city": "Choctaw County", "rent": 900, "zip": "39745"}, "choctaw-county-39750": {"city": "Choctaw County", "rent": 960, "zip": "39750"}, "choctaw-county-39752": {"city": "Choctaw County", "rent": 960, "zip": "39752"}, "choctaw-county-39767": {"city": "Choctaw County", "rent": 850, "zip": "39767"}, "choctaw-county-39769": {"city": "Choctaw County", "rent": 1050, "zip": "39769"}, "choctaw-county-39772": {"city": "Choctaw County", "rent": 870, "zip": "39772"}, "claiborne-county-39086": {"city": "Claiborne County", "rent": 940, "zip": "39086"}, "claiborne-county-39096": {"city": "Claiborne County", "rent": 860, "zip": "39096"}, "claiborne-county-39144": {"city": "Claiborne County", "rent": 840, "zip": "39144"}, "claiborne-county-39150": {"city": "Claiborne County", "rent": 880, "zip": "39150"}, "claiborne-county-39175": {"city": "Claiborne County", "rent": 1070, "zip": "39175"}, "claiborne-county-39668": {"city": "Claiborne County", "rent": 850, "zip": "39668"}, "clarke-county-39301": {"city": "Clarke County", "rent": 900, "zip": "39301"}, "clarke-county-39307": {"city": "Clarke County", "rent": 900, "zip": "39307"}, "clarke-county-39330": {"city": "Clarke County", "rent": 900, "zip": "39330"}, "clarke-county-39347": {"city": "Clarke County", "rent": 870, "zip": "39347"}, "clarke-county-39355": {"city": "Clarke County", "rent": 990, "zip": "39355"}, "clarke-county-39360": {"city": "Clarke County", "rent": 870, "zip": "39360"}, "clarke-county-39363": {"city": "Clarke County", "rent": 870, "zip": "39363"}, "clarke-county-39366": {"city": "Clarke County", "rent": 890, "zip": "39366"}, "clarke-county-39367": {"city": "Clarke County", "rent": 870, "zip": "39367"}, "clarke-county-39439": {"city": "Clarke County", "rent": 890, "zip": "39439"}, "clay-county-38851": {"city": "Clay County", "rent": 870, "zip": "38851"}, "clay-county-39741": {"city": "Clay County", "rent": 900, "zip": "39741"}, "clay-county-39750": {"city": "Clay County", "rent": 960, "zip": "39750"}, "clay-county-39751": {"city": "Clay County", "rent": 920, "zip": "39751"}, "clay-county-39755": {"city": "Clay County", "rent": 960, "zip": "39755"}, "clay-county-39756": {"city": "Clay County", "rent": 850, "zip": "39756"}, "clay-county-39759": {"city": "Clay County", "rent": 1010, "zip": "39759"}, "clay-county-39773": {"city": "Clay County", "rent": 850, "zip": "39773"}, "clay-county-39776": {"city": "Clay County", "rent": 1040, "zip": "39776"}, "coahoma-county-38614": {"city": "Coahoma County", "rent": 890, "zip": "38614"}, "coahoma-county-38617": {"city": "Coahoma County", "rent": 840, "zip": "38617"}, "coahoma-county-38626": {"city": "Coahoma County", "rent": 1120, "zip": "38626"}, "coahoma-county-38631": {"city": "Coahoma County", "rent": 840, "zip": "38631"}, "coahoma-county-38639": {"city": "Coahoma County", "rent": 840, "zip": "38639"}, "coahoma-county-38643": {"city": "Coahoma County", "rent": 870, "zip": "38643"}, "coahoma-county-38644": {"city": "Coahoma County", "rent": 840, "zip": "38644"}, "coahoma-county-38645": {"city": "Coahoma County", "rent": 840, "zip": "38645"}, "coahoma-county-38720": {"city": "Coahoma County", "rent": 850, "zip": "38720"}, "coahoma-county-38767": {"city": "Coahoma County", "rent": 840, "zip": "38767"}, "coahoma-county-38963": {"city": "Coahoma County", "rent": 1050, "zip": "38963"}, "covington-county-39119": {"city": "Covington County", "rent": 840, "zip": "39119"}, "covington-county-39168": {"city": "Covington County", "rent": 890, "zip": "39168"}, "covington-county-39401": {"city": "Covington County", "rent": 1030, "zip": "39401"}, "covington-county-39402": {"city": "Covington County", "rent": 1260, "zip": "39402"}, "covington-county-39428": {"city": "Covington County", "rent": 950, "zip": "39428"}, "covington-county-39437": {"city": "Covington County", "rent": 1030, "zip": "39437"}, "covington-county-39474": {"city": "Covington County", "rent": 870, "zip": "39474"}, "covington-county-39479": {"city": "Covington County", "rent": 890, "zip": "39479"}, "covington-county-39482": {"city": "Covington County", "rent": 1030, "zip": "39482"}, "franklin-county-39069": {"city": "Franklin County", "rent": 840, "zip": "39069"}, "franklin-county-39601": {"city": "Franklin County", "rent": 890, "zip": "39601"}, "franklin-county-39630": {"city": "Franklin County", "rent": 850, "zip": "39630"}, "franklin-county-39647": {"city": "Franklin County", "rent": 890, "zip": "39647"}, "franklin-county-39653": {"city": "Franklin County", "rent": 1000, "zip": "39653"}, "franklin-county-39661": {"city": "Franklin County", "rent": 1190, "zip": "39661"}, "franklin-county-39664": {"city": "Franklin County", "rent": 900, "zip": "39664"}, "franklin-county-39668": {"city": "Franklin County", "rent": 850, "zip": "39668"}, "george-county-39451": {"city": "George County", "rent": 870, "zip": "39451"}, "george-county-39452": {"city": "George County", "rent": 990, "zip": "39452"}, "george-county-39456": {"city": "George County", "rent": 1030, "zip": "39456"}, "george-county-39573": {"city": "George County", "rent": 1010, "zip": "39573"}, "greene-county-39362": {"city": "Greene County", "rent": 1260, "zip": "39362"}, "greene-county-39423": {"city": "Greene County", "rent": 1030, "zip": "39423"}, "greene-county-39451": {"city": "Greene County", "rent": 870, "zip": "39451"}, "greene-county-39452": {"city": "Greene County", "rent": 990, "zip": "39452"}, "greene-county-39456": {"city": "Greene County", "rent": 1030, "zip": "39456"}, "greene-county-39461": {"city": "Greene County", "rent": 840, "zip": "39461"}, "greene-county-39476": {"city": "Greene County", "rent": 1030, "zip": "39476"}, "grenada-county-38901": {"city": "Grenada County", "rent": 920, "zip": "38901"}, "grenada-county-38902": {"city": "Grenada County", "rent": 910, "zip": "38902"}, "grenada-county-38914": {"city": "Grenada County", "rent": 920, "zip": "38914"}, "grenada-county-38920": {"city": "Grenada County", "rent": 870, "zip": "38920"}, "grenada-county-38922": {"city": "Grenada County", "rent": 870, "zip": "38922"}, "grenada-county-38925": {"city": "Grenada County", "rent": 920, "zip": "38925"}, "grenada-county-38929": {"city": "Grenada County", "rent": 990, "zip": "38929"}, "grenada-county-38940": {"city": "Grenada County", "rent": 900, "zip": "38940"}, "grenada-county-38953": {"city": "Grenada County", "rent": 870, "zip": "38953"}, "grenada-county-38961": {"city": "Grenada County", "rent": 890, "zip": "38961"}, "grenada-county-39744": {"city": "Grenada County", "rent": 870, "zip": "39744"}, "humphreys-county-38753": {"city": "Humphreys County", "rent": 850, "zip": "38753"}, "humphreys-county-38754": {"city": "Humphreys County", "rent": 850, "zip": "38754"}, "humphreys-county-38924": {"city": "Humphreys County", "rent": 1200, "zip": "38924"}, "humphreys-county-39038": {"city": "Humphreys County", "rent": 860, "zip": "39038"}, "humphreys-county-39097": {"city": "Humphreys County", "rent": 1030, "zip": "39097"}, "humphreys-county-39115": {"city": "Humphreys County", "rent": 970, "zip": "39115"}, "humphreys-county-39166": {"city": "Humphreys County", "rent": 910, "zip": "39166"}, "humphreys-county-39194": {"city": "Humphreys County", "rent": 960, "zip": "39194"}, "issaquena-county-38744": {"city": "Issaquena County", "rent": 840, "zip": "38744"}, "issaquena-county-38745": {"city": "Issaquena County", "rent": 840, "zip": "38745"}, "issaquena-county-39113": {"city": "Issaquena County", "rent": 840, "zip": "39113"}, "issaquena-county-39159": {"city": "Issaquena County", "rent": 840, "zip": "39159"}, "issaquena-county-39177": {"city": "Issaquena County", "rent": 840, "zip": "39177"}, "issaquena-county-39183": {"city": "Issaquena County", "rent": 930, "zip": "39183"}, "itawamba-county-38804": {"city": "Itawamba County", "rent": 990, "zip": "38804"}, "itawamba-county-38824": {"city": "Itawamba County", "rent": 990, "zip": "38824"}, "itawamba-county-38843": {"city": "Itawamba County", "rent": 990, "zip": "38843"}, "itawamba-county-38847": {"city": "Itawamba County", "rent": 1240, "zip": "38847"}, "itawamba-county-38848": {"city": "Itawamba County", "rent": 860, "zip": "38848"}, "itawamba-county-38849": {"city": "Itawamba County", "rent": 990, "zip": "38849"}, "itawamba-county-38855": {"city": "Itawamba County", "rent": 990, "zip": "38855"}, "itawamba-county-38856": {"city": "Itawamba County", "rent": 1270, "zip": "38856"}, "itawamba-county-38857": {"city": "Itawamba County", "rent": 990, "zip": "38857"}, "itawamba-county-38858": {"city": "Itawamba County", "rent": 990, "zip": "38858"}, "itawamba-county-38870": {"city": "Itawamba County", "rent": 990, "zip": "38870"}, "itawamba-county-38876": {"city": "Itawamba County", "rent": 840, "zip": "38876"}, "jasper-county-39168": {"city": "Jasper County", "rent": 890, "zip": "39168"}, "jasper-county-39330": {"city": "Jasper County", "rent": 900, "zip": "39330"}, "jasper-county-39332": {"city": "Jasper County", "rent": 910, "zip": "39332"}, "jasper-county-39336": {"city": "Jasper County", "rent": 860, "zip": "39336"}, "jasper-county-39338": {"city": "Jasper County", "rent": 840, "zip": "39338"}, "jasper-county-39345": {"city": "Jasper County", "rent": 900, "zip": "39345"}, "jasper-county-39347": {"city": "Jasper County", "rent": 870, "zip": "39347"}, "jasper-county-39348": {"city": "Jasper County", "rent": 870, "zip": "39348"}, "jasper-county-39356": {"city": "Jasper County", "rent": 870, "zip": "39356"}, "jasper-county-39366": {"city": "Jasper County", "rent": 890, "zip": "39366"}, "jasper-county-39422": {"city": "Jasper County", "rent": 840, "zip": "39422"}, "jasper-county-39439": {"city": "Jasper County", "rent": 890, "zip": "39439"}, "jasper-county-39443": {"city": "Jasper County", "rent": 890, "zip": "39443"}, "jasper-county-39477": {"city": "Jasper County", "rent": 950, "zip": "39477"}, "jasper-county-39480": {"city": "Jasper County", "rent": 1120, "zip": "39480"}, "jasper-county-39481": {"city": "Jasper County", "rent": 1030, "zip": "39481"}, "jefferson-county-39069": {"city": "Jefferson County", "rent": 840, "zip": "39069"}, "jefferson-county-39096": {"city": "Jefferson County", "rent": 860, "zip": "39096"}, "jefferson-county-39120": {"city": "Jefferson County", "rent": 850, "zip": "39120"}, "jefferson-county-39144": {"city": "Jefferson County", "rent": 840, "zip": "39144"}, "jefferson-county-39653": {"city": "Jefferson County", "rent": 1000, "zip": "39653"}, "jefferson-county-39661": {"city": "Jefferson County", "rent": 1190, "zip": "39661"}, "jefferson-county-39668": {"city": "Jefferson County", "rent": 850, "zip": "39668"}, "jefferson-davis-county-39119": {"city": "Jefferson Davis County", "rent": 840, "zip": "39119"}, "jefferson-davis-county-39140": {"city": "Jefferson Davis County", "rent": 990, "zip": "39140"}, "jefferson-davis-county-39149": {"city": "Jefferson Davis County", "rent": 930, "zip": "39149"}, "jefferson-davis-county-39421": {"city": "Jefferson Davis County", "rent": 960, "zip": "39421"}, "jefferson-davis-county-39427": {"city": "Jefferson Davis County", "rent": 840, "zip": "39427"}, "jefferson-davis-county-39429": {"city": "Jefferson Davis County", "rent": 1030, "zip": "39429"}, "jefferson-davis-county-39474": {"city": "Jefferson Davis County", "rent": 870, "zip": "39474"}, "jefferson-davis-county-39482": {"city": "Jefferson Davis County", "rent": 1030, "zip": "39482"}, "jefferson-davis-county-39656": {"city": "Jefferson Davis County", "rent": 870, "zip": "39656"}, "jefferson-davis-county-39663": {"city": "Jefferson Davis County", "rent": 870, "zip": "39663"}, "jones-county-39168": {"city": "Jones County", "rent": 890, "zip": "39168"}, "jones-county-39401": {"city": "Jones County", "rent": 1030, "zip": "39401"}, "jones-county-39437": {"city": "Jones County", "rent": 1030, "zip": "39437"}, "jones-county-39439": {"city": "Jones County", "rent": 890, "zip": "39439"}, "jones-county-39440": {"city": "Jones County", "rent": 960, "zip": "39440"}, "jones-county-39443": {"city": "Jones County", "rent": 890, "zip": "39443"}, "jones-county-39459": {"city": "Jones County", "rent": 1030, "zip": "39459"}, "jones-county-39464": {"city": "Jones County", "rent": 1030, "zip": "39464"}, "jones-county-39465": {"city": "Jones County", "rent": 1030, "zip": "39465"}, "jones-county-39476": {"city": "Jones County", "rent": 1030, "zip": "39476"}, "jones-county-39477": {"city": "Jones County", "rent": 950, "zip": "39477"}, "jones-county-39479": {"city": "Jones County", "rent": 890, "zip": "39479"}, "jones-county-39480": {"city": "Jones County", "rent": 1120, "zip": "39480"}, "kemper-county-39320": {"city": "Kemper County", "rent": 990, "zip": "39320"}, "kemper-county-39325": {"city": "Kemper County", "rent": 970, "zip": "39325"}, "kemper-county-39326": {"city": "Kemper County", "rent": 900, "zip": "39326"}, "kemper-county-39328": {"city": "Kemper County", "rent": 910, "zip": "39328"}, "kemper-county-39335": {"city": "Kemper County", "rent": 1070, "zip": "39335"}, "kemper-county-39341": {"city": "Kemper County", "rent": 840, "zip": "39341"}, "kemper-county-39350": {"city": "Kemper County", "rent": 930, "zip": "39350"}, "kemper-county-39352": {"city": "Kemper County", "rent": 970, "zip": "39352"}, "kemper-county-39354": {"city": "Kemper County", "rent": 1020, "zip": "39354"}, "kemper-county-39358": {"city": "Kemper County", "rent": 840, "zip": "39358"}, "kemper-county-39361": {"city": "Kemper County", "rent": 900, "zip": "39361"}, "lafayette-county-38601": {"city": "Lafayette County", "rent": 1170, "zip": "38601"}, "lafayette-county-38606": {"city": "Lafayette County", "rent": 1170, "zip": "38606"}, "lafayette-county-38619": {"city": "Lafayette County", "rent": 1170, "zip": "38619"}, "lafayette-county-38627": {"city": "Lafayette County", "rent": 1170, "zip": "38627"}, "lafayette-county-38655": {"city": "Lafayette County", "rent": 1260, "zip": "38655"}, "lafayette-county-38673": {"city": "Lafayette County", "rent": 1260, "zip": "38673"}, "lafayette-county-38677": {"city": "Lafayette County", "rent": 1260, "zip": "38677"}, "lafayette-county-38685": {"city": "Lafayette County", "rent": 1170, "zip": "38685"}, "lafayette-county-38863": {"city": "Lafayette County", "rent": 1170, "zip": "38863"}, "lafayette-county-38871": {"city": "Lafayette County", "rent": 1170, "zip": "38871"}, "lafayette-county-38913": {"city": "Lafayette County", "rent": 1170, "zip": "38913"}, "lafayette-county-38915": {"city": "Lafayette County", "rent": 1170, "zip": "38915"}, "lafayette-county-38949": {"city": "Lafayette County", "rent": 1170, "zip": "38949"}, "lafayette-county-38965": {"city": "Lafayette County", "rent": 1170, "zip": "38965"}, "lauderdale-county-39301": {"city": "Lauderdale County", "rent": 900, "zip": "39301"}, "lauderdale-county-39302": {"city": "Lauderdale County", "rent": 910, "zip": "39302"}, "lauderdale-county-39303": {"city": "Lauderdale County", "rent": 910, "zip": "39303"}, "lauderdale-county-39304": {"city": "Lauderdale County", "rent": 910, "zip": "39304"}, "lauderdale-county-39305": {"city": "Lauderdale County", "rent": 1000, "zip": "39305"}, "lauderdale-county-39307": {"city": "Lauderdale County", "rent": 900, "zip": "39307"}, "lauderdale-county-39309": {"city": "Lauderdale County", "rent": 1070, "zip": "39309"}, "lauderdale-county-39320": {"city": "Lauderdale County", "rent": 990, "zip": "39320"}, "lauderdale-county-39323": {"city": "Lauderdale County", "rent": 1240, "zip": "39323"}, "lauderdale-county-39325": {"city": "Lauderdale County", "rent": 970, "zip": "39325"}, "lauderdale-county-39326": {"city": "Lauderdale County", "rent": 900, "zip": "39326"}, "lauderdale-county-39330": {"city": "Lauderdale County", "rent": 900, "zip": "39330"}, "lauderdale-county-39335": {"city": "Lauderdale County", "rent": 1070, "zip": "39335"}, "lauderdale-county-39342": {"city": "Lauderdale County", "rent": 1030, "zip": "39342"}, "lauderdale-county-39364": {"city": "Lauderdale County", "rent": 1060, "zip": "39364"}, "lawrence-county-39140": {"city": "Lawrence County", "rent": 990, "zip": "39140"}, "lawrence-county-39191": {"city": "Lawrence County", "rent": 1050, "zip": "39191"}, "lawrence-county-39474": {"city": "Lawrence County", "rent": 870, "zip": "39474"}, "lawrence-county-39641": {"city": "Lawrence County", "rent": 980, "zip": "39641"}, "lawrence-county-39654": {"city": "Lawrence County", "rent": 840, "zip": "39654"}, "lawrence-county-39656": {"city": "Lawrence County", "rent": 870, "zip": "39656"}, "lawrence-county-39662": {"city": "Lawrence County", "rent": 970, "zip": "39662"}, "lawrence-county-39663": {"city": "Lawrence County", "rent": 870, "zip": "39663"}, "lawrence-county-39665": {"city": "Lawrence County", "rent": 900, "zip": "39665"}, "leake-county-39051": {"city": "Leake County", "rent": 950, "zip": "39051"}, "leake-county-39090": {"city": "Leake County", "rent": 930, "zip": "39090"}, "leake-county-39094": {"city": "Leake County", "rent": 960, "zip": "39094"}, "leake-county-39109": {"city": "Leake County", "rent": 960, "zip": "39109"}, "leake-county-39160": {"city": "Leake County", "rent": 950, "zip": "39160"}, "leake-county-39189": {"city": "Leake County", "rent": 940, "zip": "39189"}, "leake-county-39350": {"city": "Leake County", "rent": 930, "zip": "39350"}, "leake-county-39365": {"city": "Leake County", "rent": 930, "zip": "39365"}, "lee-county-38801": {"city": "Lee County", "rent": 1010, "zip": "38801"}, "lee-county-38802": {"city": "Lee County", "rent": 990, "zip": "38802"}, "lee-county-38803": {"city": "Lee County", "rent": 990, "zip": "38803"}, "lee-county-38804": {"city": "Lee County", "rent": 990, "zip": "38804"}, "lee-county-38824": {"city": "Lee County", "rent": 990, "zip": "38824"}, "lee-county-38826": {"city": "Lee County", "rent": 1100, "zip": "38826"}, "lee-county-38828": {"city": "Lee County", "rent": 990, "zip": "38828"}, "lee-county-38843": {"city": "Lee County", "rent": 990, "zip": "38843"}, "lee-county-38849": {"city": "Lee County", "rent": 990, "zip": "38849"}, "lee-county-38855": {"city": "Lee County", "rent": 990, "zip": "38855"}, "lee-county-38857": {"city": "Lee County", "rent": 990, "zip": "38857"}, "lee-county-38858": {"city": "Lee County", "rent": 990, "zip": "38858"}, "lee-county-38860": {"city": "Lee County", "rent": 990, "zip": "38860"}, "lee-county-38862": {"city": "Lee County", "rent": 990, "zip": "38862"}, "lee-county-38866": {"city": "Lee County", "rent": 1040, "zip": "38866"}, "lee-county-38868": {"city": "Lee County", "rent": 990, "zip": "38868"}, "lee-county-38879": {"city": "Lee County", "rent": 1010, "zip": "38879"}, "leflore-county-38736": {"city": "Leflore County", "rent": 860, "zip": "38736"}, "leflore-county-38737": {"city": "Leflore County", "rent": 840, "zip": "38737"}, "leflore-county-38761": {"city": "Leflore County", "rent": 840, "zip": "38761"}, "leflore-county-38924": {"city": "Leflore County", "rent": 1200, "zip": "38924"}, "leflore-county-38930": {"city": "Leflore County", "rent": 840, "zip": "38930"}, "leflore-county-38941": {"city": "Leflore County", "rent": 850, "zip": "38941"}, "leflore-county-38944": {"city": "Leflore County", "rent": 890, "zip": "38944"}, "leflore-county-38946": {"city": "Leflore County", "rent": 920, "zip": "38946"}, "leflore-county-38950": {"city": "Leflore County", "rent": 840, "zip": "38950"}, "leflore-county-38952": {"city": "Leflore County", "rent": 850, "zip": "38952"}, "leflore-county-38954": {"city": "Leflore County", "rent": 1030, "zip": "38954"}, "leflore-county-39038": {"city": "Leflore County", "rent": 860, "zip": "39038"}, "lincoln-county-39083": {"city": "Lincoln County", "rent": 840, "zip": "39083"}, "lincoln-county-39191": {"city": "Lincoln County", "rent": 1050, "zip": "39191"}, "lincoln-county-39601": {"city": "Lincoln County", "rent": 890, "zip": "39601"}, "lincoln-county-39602": {"city": "Lincoln County", "rent": 860, "zip": "39602"}, "lincoln-county-39603": {"city": "Lincoln County", "rent": 860, "zip": "39603"}, "lincoln-county-39629": {"city": "Lincoln County", "rent": 970, "zip": "39629"}, "lincoln-county-39641": {"city": "Lincoln County", "rent": 980, "zip": "39641"}, "lincoln-county-39647": {"city": "Lincoln County", "rent": 890, "zip": "39647"}, "lincoln-county-39654": {"city": "Lincoln County", "rent": 840, "zip": "39654"}, "lincoln-county-39662": {"city": "Lincoln County", "rent": 970, "zip": "39662"}, "lincoln-county-39664": {"city": "Lincoln County", "rent": 900, "zip": "39664"}, "lincoln-county-39665": {"city": "Lincoln County", "rent": 900, "zip": "39665"}, "lincoln-county-39666": {"city": "Lincoln County", "rent": 980, "zip": "39666"}, "lincoln-county-39668": {"city": "Lincoln County", "rent": 850, "zip": "39668"}, "lowndes-county-39701": {"city": "Lowndes County", "rent": 880, "zip": "39701"}, "lowndes-county-39702": {"city": "Lowndes County", "rent": 880, "zip": "39702"}, "lowndes-county-39703": {"city": "Lowndes County", "rent": 880, "zip": "39703"}, "lowndes-county-39704": {"city": "Lowndes County", "rent": 880, "zip": "39704"}, "lowndes-county-39705": {"city": "Lowndes County", "rent": 1030, "zip": "39705"}, "lowndes-county-39710": {"city": "Lowndes County", "rent": 880, "zip": "39710"}, "lowndes-county-39736": {"city": "Lowndes County", "rent": 880, "zip": "39736"}, "lowndes-county-39740": {"city": "Lowndes County", "rent": 880, "zip": "39740"}, "lowndes-county-39743": {"city": "Lowndes County", "rent": 960, "zip": "39743"}, "lowndes-county-39753": {"city": "Lowndes County", "rent": 880, "zip": "39753"}, "lowndes-county-39759": {"city": "Lowndes County", "rent": 1010, "zip": "39759"}, "lowndes-county-39766": {"city": "Lowndes County", "rent": 880, "zip": "39766"}, "marion-county-39421": {"city": "Marion County", "rent": 960, "zip": "39421"}, "marion-county-39429": {"city": "Marion County", "rent": 1030, "zip": "39429"}, "marion-county-39455": {"city": "Marion County", "rent": 1030, "zip": "39455"}, "marion-county-39478": {"city": "Marion County", "rent": 940, "zip": "39478"}, "marion-county-39482": {"city": "Marion County", "rent": 1030, "zip": "39482"}, "marion-county-39483": {"city": "Marion County", "rent": 1050, "zip": "39483"}, "marion-county-39643": {"city": "Marion County", "rent": 1020, "zip": "39643"}, "marion-county-39667": {"city": "Marion County", "rent": 1010, "zip": "39667"}, "monroe-county-38821": {"city": "Monroe County", "rent": 850, "zip": "38821"}, "monroe-county-38844": {"city": "Monroe County", "rent": 840, "zip": "38844"}, "monroe-county-38848": {"city": "Monroe County", "rent": 860, "zip": "38848"}, "monroe-county-38858": {"city": "Monroe County", "rent": 990, "zip": "38858"}, "monroe-county-38860": {"city": "Monroe County", "rent": 990, "zip": "38860"}, "monroe-county-38868": {"city": "Monroe County", "rent": 990, "zip": "38868"}, "monroe-county-38870": {"city": "Monroe County", "rent": 990, "zip": "38870"}, "monroe-county-39730": {"city": "Monroe County", "rent": 840, "zip": "39730"}, "monroe-county-39740": {"city": "Monroe County", "rent": 880, "zip": "39740"}, "monroe-county-39746": {"city": "Monroe County", "rent": 840, "zip": "39746"}, "monroe-county-39756": {"city": "Monroe County", "rent": 850, "zip": "39756"}, "monroe-county-39773": {"city": "Monroe County", "rent": 850, "zip": "39773"}, "montgomery-county-38901": {"city": "Montgomery County", "rent": 920, "zip": "38901"}, "montgomery-county-38925": {"city": "Montgomery County", "rent": 920, "zip": "38925"}, "montgomery-county-38967": {"city": "Montgomery County", "rent": 900, "zip": "38967"}, "montgomery-county-39176": {"city": "Montgomery County", "rent": 900, "zip": "39176"}, "montgomery-county-39745": {"city": "Montgomery County", "rent": 900, "zip": "39745"}, "montgomery-county-39747": {"city": "Montgomery County", "rent": 840, "zip": "39747"}, "montgomery-county-39767": {"city": "Montgomery County", "rent": 850, "zip": "39767"}, "neshoba-county-39051": {"city": "Neshoba County", "rent": 950, "zip": "39051"}, "neshoba-county-39057": {"city": "Neshoba County", "rent": 880, "zip": "39057"}, "neshoba-county-39325": {"city": "Neshoba County", "rent": 970, "zip": "39325"}, "neshoba-county-39328": {"city": "Neshoba County", "rent": 910, "zip": "39328"}, "neshoba-county-39337": {"city": "Neshoba County", "rent": 940, "zip": "39337"}, "neshoba-county-39346": {"city": "Neshoba County", "rent": 960, "zip": "39346"}, "neshoba-county-39350": {"city": "Neshoba County", "rent": 930, "zip": "39350"}, "neshoba-county-39354": {"city": "Neshoba County", "rent": 1020, "zip": "39354"}, "neshoba-county-39365": {"city": "Neshoba County", "rent": 930, "zip": "39365"}, "newton-county-39057": {"city": "Newton County", "rent": 880, "zip": "39057"}, "newton-county-39092": {"city": "Newton County", "rent": 850, "zip": "39092"}, "newton-county-39323": {"city": "Newton County", "rent": 1240, "zip": "39323"}, "newton-county-39325": {"city": "Newton County", "rent": 970, "zip": "39325"}, "newton-county-39327": {"city": "Newton County", "rent": 850, "zip": "39327"}, "newton-county-39330": {"city": "Newton County", "rent": 900, "zip": "39330"}, "newton-county-39332": {"city": "Newton County", "rent": 910, "zip": "39332"}, "newton-county-39336": {"city": "Newton County", "rent": 860, "zip": "39336"}, "newton-county-39337": {"city": "Newton County", "rent": 940, "zip": "39337"}, "newton-county-39345": {"city": "Newton County", "rent": 900, "zip": "39345"}, "newton-county-39365": {"city": "Newton County", "rent": 930, "zip": "39365"}, "noxubee-county-39341": {"city": "Noxubee County", "rent": 840, "zip": "39341"}, "noxubee-county-39354": {"city": "Noxubee County", "rent": 1020, "zip": "39354"}, "noxubee-county-39361": {"city": "Noxubee County", "rent": 900, "zip": "39361"}, "noxubee-county-39701": {"city": "Noxubee County", "rent": 880, "zip": "39701"}, "noxubee-county-39739": {"city": "Noxubee County", "rent": 1030, "zip": "39739"}, "noxubee-county-39743": {"city": "Noxubee County", "rent": 960, "zip": "39743"}, "oktibbeha-county-39735": {"city": "Oktibbeha County", "rent": 1000, "zip": "39735"}, "oktibbeha-county-39743": {"city": "Oktibbeha County", "rent": 960, "zip": "39743"}, "oktibbeha-county-39750": {"city": "Oktibbeha County", "rent": 960, "zip": "39750"}, "oktibbeha-county-39752": {"city": "Oktibbeha County", "rent": 960, "zip": "39752"}, "oktibbeha-county-39755": {"city": "Oktibbeha County", "rent": 960, "zip": "39755"}, "oktibbeha-county-39759": {"city": "Oktibbeha County", "rent": 1010, "zip": "39759"}, "oktibbeha-county-39760": {"city": "Oktibbeha County", "rent": 960, "zip": "39760"}, "oktibbeha-county-39762": {"city": "Oktibbeha County", "rent": 1010, "zip": "39762"}, "oktibbeha-county-39769": {"city": "Oktibbeha County", "rent": 1050, "zip": "39769"}, "panola-county-38606": {"city": "Panola County", "rent": 1170, "zip": "38606"}, "panola-county-38619": {"city": "Panola County", "rent": 1170, "zip": "38619"}, "panola-county-38620": {"city": "Panola County", "rent": 910, "zip": "38620"}, "panola-county-38621": {"city": "Panola County", "rent": 1120, "zip": "38621"}, "panola-county-38622": {"city": "Panola County", "rent": 870, "zip": "38622"}, "panola-county-38643": {"city": "Panola County", "rent": 870, "zip": "38643"}, "panola-county-38646": {"city": "Panola County", "rent": 900, "zip": "38646"}, "panola-county-38655": {"city": "Panola County", "rent": 1260, "zip": "38655"}, "panola-county-38658": {"city": "Panola County", "rent": 1110, "zip": "38658"}, "panola-county-38665": {"city": "Panola County", "rent": 1160, "zip": "38665"}, "panola-county-38666": {"city": "Panola County", "rent": 870, "zip": "38666"}, "panola-county-38668": {"city": "Panola County", "rent": 1060, "zip": "38668"}, "panola-county-38670": {"city": "Panola County", "rent": 1120, "zip": "38670"}, "panola-county-38927": {"city": "Panola County", "rent": 940, "zip": "38927"}, "panola-county-38948": {"city": "Panola County", "rent": 970, "zip": "38948"}, "panola-county-38965": {"city": "Panola County", "rent": 1170, "zip": "38965"}, "pearl-river-county-39426": {"city": "Pearl River County", "rent": 1060, "zip": "39426"}, "pearl-river-county-39455": {"city": "Pearl River County", "rent": 1030, "zip": "39455"}, "pearl-river-county-39466": {"city": "Pearl River County", "rent": 1010, "zip": "39466"}, "pearl-river-county-39470": {"city": "Pearl River County", "rent": 1010, "zip": "39470"}, "pearl-river-county-39573": {"city": "Pearl River County", "rent": 1010, "zip": "39573"}, "pike-county-39629": {"city": "Pike County", "rent": 970, "zip": "39629"}, "pike-county-39635": {"city": "Pike County", "rent": 990, "zip": "39635"}, "pike-county-39641": {"city": "Pike County", "rent": 980, "zip": "39641"}, "pike-county-39648": {"city": "Pike County", "rent": 990, "zip": "39648"}, "pike-county-39649": {"city": "Pike County", "rent": 990, "zip": "39649"}, "pike-county-39652": {"city": "Pike County", "rent": 970, "zip": "39652"}, "pike-county-39657": {"city": "Pike County", "rent": 970, "zip": "39657"}, "pike-county-39662": {"city": "Pike County", "rent": 970, "zip": "39662"}, "pike-county-39666": {"city": "Pike County", "rent": 980, "zip": "39666"}, "pike-county-39667": {"city": "Pike County", "rent": 1010, "zip": "39667"}, "pontotoc-county-38627": {"city": "Pontotoc County", "rent": 1170, "zip": "38627"}, "pontotoc-county-38652": {"city": "Pontotoc County", "rent": 900, "zip": "38652"}, "pontotoc-county-38655": {"city": "Pontotoc County", "rent": 1260, "zip": "38655"}, "pontotoc-county-38801": {"city": "Pontotoc County", "rent": 1010, "zip": "38801"}, "pontotoc-county-38804": {"city": "Pontotoc County", "rent": 990, "zip": "38804"}, "pontotoc-county-38826": {"city": "Pontotoc County", "rent": 1100, "zip": "38826"}, "pontotoc-county-38828": {"city": "Pontotoc County", "rent": 990, "zip": "38828"}, "pontotoc-county-38841": {"city": "Pontotoc County", "rent": 900, "zip": "38841"}, "pontotoc-county-38850": {"city": "Pontotoc County", "rent": 900, "zip": "38850"}, "pontotoc-county-38860": {"city": "Pontotoc County", "rent": 990, "zip": "38860"}, "pontotoc-county-38863": {"city": "Pontotoc County", "rent": 1170, "zip": "38863"}, "pontotoc-county-38864": {"city": "Pontotoc County", "rent": 920, "zip": "38864"}, "pontotoc-county-38868": {"city": "Pontotoc County", "rent": 990, "zip": "38868"}, "pontotoc-county-38869": {"city": "Pontotoc County", "rent": 1010, "zip": "38869"}, "pontotoc-county-38871": {"city": "Pontotoc County", "rent": 1170, "zip": "38871"}, "prentiss-county-38663": {"city": "Prentiss County", "rent": 840, "zip": "38663"}, "prentiss-county-38824": {"city": "Prentiss County", "rent": 990, "zip": "38824"}, "prentiss-county-38829": {"city": "Prentiss County", "rent": 840, "zip": "38829"}, "prentiss-county-38833": {"city": "Prentiss County", "rent": 840, "zip": "38833"}, "prentiss-county-38838": {"city": "Prentiss County", "rent": 900, "zip": "38838"}, "prentiss-county-38856": {"city": "Prentiss County", "rent": 1270, "zip": "38856"}, "prentiss-county-38859": {"city": "Prentiss County", "rent": 1080, "zip": "38859"}, "prentiss-county-38865": {"city": "Prentiss County", "rent": 990, "zip": "38865"}, "prentiss-county-38873": {"city": "Prentiss County", "rent": 840, "zip": "38873"}, "quitman-county-38606": {"city": "Quitman County", "rent": 1170, "zip": "38606"}, "quitman-county-38617": {"city": "Quitman County", "rent": 840, "zip": "38617"}, "quitman-county-38621": {"city": "Quitman County", "rent": 1120, "zip": "38621"}, "quitman-county-38622": {"city": "Quitman County", "rent": 870, "zip": "38622"}, "quitman-county-38623": {"city": "Quitman County", "rent": 950, "zip": "38623"}, "quitman-county-38643": {"city": "Quitman County", "rent": 870, "zip": "38643"}, "quitman-county-38645": {"city": "Quitman County", "rent": 840, "zip": "38645"}, "quitman-county-38646": {"city": "Quitman County", "rent": 900, "zip": "38646"}, "quitman-county-38670": {"city": "Quitman County", "rent": 1120, "zip": "38670"}, "quitman-county-38963": {"city": "Quitman County", "rent": 1050, "zip": "38963"}, "quitman-county-38964": {"city": "Quitman County", "rent": 900, "zip": "38964"}, "sharkey-county-38721": {"city": "Sharkey County", "rent": 910, "zip": "38721"}, "sharkey-county-38748": {"city": "Sharkey County", "rent": 840, "zip": "38748"}, "sharkey-county-38765": {"city": "Sharkey County", "rent": 890, "zip": "38765"}, "sharkey-county-39054": {"city": "Sharkey County", "rent": 1260, "zip": "39054"}, "sharkey-county-39061": {"city": "Sharkey County", "rent": 840, "zip": "39061"}, "sharkey-county-39088": {"city": "Sharkey County", "rent": 910, "zip": "39088"}, "sharkey-county-39159": {"city": "Sharkey County", "rent": 840, "zip": "39159"}, "smith-county-39042": {"city": "Smith County", "rent": 1330, "zip": "39042"}, "smith-county-39074": {"city": "Smith County", "rent": 960, "zip": "39074"}, "smith-county-39092": {"city": "Smith County", "rent": 850, "zip": "39092"}, "smith-county-39111": {"city": "Smith County", "rent": 850, "zip": "39111"}, "smith-county-39114": {"city": "Smith County", "rent": 900, "zip": "39114"}, "smith-county-39116": {"city": "Smith County", "rent": 1140, "zip": "39116"}, "smith-county-39117": {"city": "Smith County", "rent": 990, "zip": "39117"}, "smith-county-39119": {"city": "Smith County", "rent": 840, "zip": "39119"}, "smith-county-39152": {"city": "Smith County", "rent": 960, "zip": "39152"}, "smith-county-39153": {"city": "Smith County", "rent": 860, "zip": "39153"}, "smith-county-39168": {"city": "Smith County", "rent": 890, "zip": "39168"}, "smith-county-39338": {"city": "Smith County", "rent": 840, "zip": "39338"}, "smith-county-39422": {"city": "Smith County", "rent": 840, "zip": "39422"}, "sunflower-county-38732": {"city": "Sunflower County", "rent": 890, "zip": "38732"}, "sunflower-county-38736": {"city": "Sunflower County", "rent": 860, "zip": "38736"}, "sunflower-county-38737": {"city": "Sunflower County", "rent": 840, "zip": "38737"}, "sunflower-county-38738": {"city": "Sunflower County", "rent": 980, "zip": "38738"}, "sunflower-county-38751": {"city": "Sunflower County", "rent": 900, "zip": "38751"}, "sunflower-county-38753": {"city": "Sunflower County", "rent": 850, "zip": "38753"}, "sunflower-county-38754": {"city": "Sunflower County", "rent": 850, "zip": "38754"}, "sunflower-county-38756": {"city": "Sunflower County", "rent": 840, "zip": "38756"}, "sunflower-county-38759": {"city": "Sunflower County", "rent": 880, "zip": "38759"}, "sunflower-county-38761": {"city": "Sunflower County", "rent": 840, "zip": "38761"}, "sunflower-county-38762": {"city": "Sunflower County", "rent": 880, "zip": "38762"}, "sunflower-county-38768": {"city": "Sunflower County", "rent": 1050, "zip": "38768"}, "sunflower-county-38771": {"city": "Sunflower County", "rent": 840, "zip": "38771"}, "sunflower-county-38773": {"city": "Sunflower County", "rent": 870, "zip": "38773"}, "sunflower-county-38778": {"city": "Sunflower County", "rent": 840, "zip": "38778"}, "sunflower-county-38963": {"city": "Sunflower County", "rent": 1050, "zip": "38963"}, "sunflower-county-39038": {"city": "Sunflower County", "rent": 860, "zip": "39038"}, "tallahatchie-county-38643": {"city": "Tallahatchie County", "rent": 870, "zip": "38643"}, "tallahatchie-county-38737": {"city": "Tallahatchie County", "rent": 840, "zip": "38737"}, "tallahatchie-county-38901": {"city": "Tallahatchie County", "rent": 920, "zip": "38901"}, "tallahatchie-county-38920": {"city": "Tallahatchie County", "rent": 870, "zip": "38920"}, "tallahatchie-county-38921": {"city": "Tallahatchie County", "rent": 840, "zip": "38921"}, "tallahatchie-county-38927": {"city": "Tallahatchie County", "rent": 940, "zip": "38927"}, "tallahatchie-county-38928": {"city": "Tallahatchie County", "rent": 840, "zip": "38928"}, "tallahatchie-county-38940": {"city": "Tallahatchie County", "rent": 900, "zip": "38940"}, "tallahatchie-county-38944": {"city": "Tallahatchie County", "rent": 890, "zip": "38944"}, "tallahatchie-county-38948": {"city": "Tallahatchie County", "rent": 970, "zip": "38948"}, "tallahatchie-county-38950": {"city": "Tallahatchie County", "rent": 840, "zip": "38950"}, "tallahatchie-county-38953": {"city": "Tallahatchie County", "rent": 870, "zip": "38953"}, "tallahatchie-county-38957": {"city": "Tallahatchie County", "rent": 1030, "zip": "38957"}, "tallahatchie-county-38961": {"city": "Tallahatchie County", "rent": 890, "zip": "38961"}, "tallahatchie-county-38962": {"city": "Tallahatchie County", "rent": 840, "zip": "38962"}, "tallahatchie-county-38963": {"city": "Tallahatchie County", "rent": 1050, "zip": "38963"}, "tallahatchie-county-38964": {"city": "Tallahatchie County", "rent": 900, "zip": "38964"}, "tallahatchie-county-38966": {"city": "Tallahatchie County", "rent": 840, "zip": "38966"}, "tippah-county-38603": {"city": "Tippah County", "rent": 930, "zip": "38603"}, "tippah-county-38610": {"city": "Tippah County", "rent": 970, "zip": "38610"}, "tippah-county-38625": {"city": "Tippah County", "rent": 890, "zip": "38625"}, "tippah-county-38629": {"city": "Tippah County", "rent": 870, "zip": "38629"}, "tippah-county-38650": {"city": "Tippah County", "rent": 850, "zip": "38650"}, "tippah-county-38663": {"city": "Tippah County", "rent": 840, "zip": "38663"}, "tippah-county-38674": {"city": "Tippah County", "rent": 840, "zip": "38674"}, "tippah-county-38683": {"city": "Tippah County", "rent": 840, "zip": "38683"}, "tippah-county-38824": {"city": "Tippah County", "rent": 990, "zip": "38824"}, "tippah-county-38829": {"city": "Tippah County", "rent": 840, "zip": "38829"}, "tishomingo-county-38326": {"city": "Tishomingo County", "rent": 1120, "zip": "38326"}, "tishomingo-county-38827": {"city": "Tishomingo County", "rent": 870, "zip": "38827"}, "tishomingo-county-38833": {"city": "Tishomingo County", "rent": 840, "zip": "38833"}, "tishomingo-county-38834": {"city": "Tishomingo County", "rent": 840, "zip": "38834"}, "tishomingo-county-38838": {"city": "Tishomingo County", "rent": 900, "zip": "38838"}, "tishomingo-county-38846": {"city": "Tishomingo County", "rent": 860, "zip": "38846"}, "tishomingo-county-38847": {"city": "Tishomingo County", "rent": 1240, "zip": "38847"}, "tishomingo-county-38852": {"city": "Tishomingo County", "rent": 880, "zip": "38852"}, "tishomingo-county-38873": {"city": "Tishomingo County", "rent": 840, "zip": "38873"}, "union-county-38610": {"city": "Union County", "rent": 970, "zip": "38610"}, "union-county-38625": {"city": "Union County", "rent": 890, "zip": "38625"}, "union-county-38627": {"city": "Union County", "rent": 1170, "zip": "38627"}, "union-county-38633": {"city": "Union County", "rent": 1020, "zip": "38633"}, "union-county-38650": {"city": "Union County", "rent": 850, "zip": "38650"}, "union-county-38652": {"city": "Union County", "rent": 900, "zip": "38652"}, "union-county-38655": {"city": "Union County", "rent": 1260, "zip": "38655"}, "union-county-38663": {"city": "Union County", "rent": 840, "zip": "38663"}, "union-county-38824": {"city": "Union County", "rent": 990, "zip": "38824"}, "union-county-38828": {"city": "Union County", "rent": 990, "zip": "38828"}, "union-county-38841": {"city": "Union County", "rent": 900, "zip": "38841"}, "union-county-38849": {"city": "Union County", "rent": 990, "zip": "38849"}, "union-county-38869": {"city": "Union County", "rent": 1010, "zip": "38869"}, "union-county-38871": {"city": "Union County", "rent": 1170, "zip": "38871"}, "walthall-county-39478": {"city": "Walthall County", "rent": 940, "zip": "39478"}, "walthall-county-39483": {"city": "Walthall County", "rent": 1050, "zip": "39483"}, "walthall-county-39641": {"city": "Walthall County", "rent": 980, "zip": "39641"}, "walthall-county-39643": {"city": "Walthall County", "rent": 1020, "zip": "39643"}, "walthall-county-39657": {"city": "Walthall County", "rent": 970, "zip": "39657"}, "walthall-county-39667": {"city": "Walthall County", "rent": 1010, "zip": "39667"}, "warren-county-39156": {"city": "Warren County", "rent": 950, "zip": "39156"}, "warren-county-39162": {"city": "Warren County", "rent": 1010, "zip": "39162"}, "warren-county-39180": {"city": "Warren County", "rent": 970, "zip": "39180"}, "warren-county-39181": {"city": "Warren County", "rent": 950, "zip": "39181"}, "warren-county-39182": {"city": "Warren County", "rent": 950, "zip": "39182"}, "warren-county-39183": {"city": "Warren County", "rent": 930, "zip": "39183"}, "washington-county-38701": {"city": "Washington County", "rent": 840, "zip": "38701"}, "washington-county-38703": {"city": "Washington County", "rent": 980, "zip": "38703"}, "washington-county-38721": {"city": "Washington County", "rent": 910, "zip": "38721"}, "washington-county-38722": {"city": "Washington County", "rent": 840, "zip": "38722"}, "washington-county-38723": {"city": "Washington County", "rent": 840, "zip": "38723"}, "washington-county-38731": {"city": "Washington County", "rent": 840, "zip": "38731"}, "washington-county-38744": {"city": "Washington County", "rent": 840, "zip": "38744"}, "washington-county-38748": {"city": "Washington County", "rent": 840, "zip": "38748"}, "washington-county-38751": {"city": "Washington County", "rent": 900, "zip": "38751"}, "washington-county-38754": {"city": "Washington County", "rent": 850, "zip": "38754"}, "washington-county-38756": {"city": "Washington County", "rent": 840, "zip": "38756"}, "washington-county-38760": {"city": "Washington County", "rent": 840, "zip": "38760"}, "washington-county-38773": {"city": "Washington County", "rent": 870, "zip": "38773"}, "washington-county-38776": {"city": "Washington County", "rent": 840, "zip": "38776"}, "washington-county-38780": {"city": "Washington County", "rent": 840, "zip": "38780"}, "wayne-county-39322": {"city": "Wayne County", "rent": 950, "zip": "39322"}, "wayne-county-39324": {"city": "Wayne County", "rent": 840, "zip": "39324"}, "wayne-county-39360": {"city": "Wayne County", "rent": 870, "zip": "39360"}, "wayne-county-39362": {"city": "Wayne County", "rent": 1260, "zip": "39362"}, "wayne-county-39367": {"city": "Wayne County", "rent": 870, "zip": "39367"}, "wayne-county-39439": {"city": "Wayne County", "rent": 890, "zip": "39439"}, "wayne-county-39443": {"city": "Wayne County", "rent": 890, "zip": "39443"}, "wayne-county-39476": {"city": "Wayne County", "rent": 1030, "zip": "39476"}, "webster-county-38916": {"city": "Webster County", "rent": 890, "zip": "38916"}, "webster-county-38925": {"city": "Webster County", "rent": 920, "zip": "38925"}, "webster-county-38929": {"city": "Webster County", "rent": 990, "zip": "38929"}, "webster-county-39737": {"city": "Webster County", "rent": 860, "zip": "39737"}, "webster-county-39744": {"city": "Webster County", "rent": 870, "zip": "39744"}, "webster-county-39750": {"city": "Webster County", "rent": 960, "zip": "39750"}, "webster-county-39751": {"city": "Webster County", "rent": 920, "zip": "39751"}, "webster-county-39752": {"city": "Webster County", "rent": 960, "zip": "39752"}, "webster-county-39755": {"city": "Webster County", "rent": 960, "zip": "39755"}, "webster-county-39767": {"city": "Webster County", "rent": 850, "zip": "39767"}, "webster-county-39771": {"city": "Webster County", "rent": 860, "zip": "39771"}, "wilkinson-county-39631": {"city": "Wilkinson County", "rent": 860, "zip": "39631"}, "wilkinson-county-39633": {"city": "Wilkinson County", "rent": 980, "zip": "39633"}, "wilkinson-county-39638": {"city": "Wilkinson County", "rent": 860, "zip": "39638"}, "wilkinson-county-39669": {"city": "Wilkinson County", "rent": 1180, "zip": "39669"}, "winston-county-39090": {"city": "Winston County", "rent": 930, "zip": "39090"}, "winston-county-39108": {"city": "Winston County", "rent": 990, "zip": "39108"}, "winston-county-39339": {"city": "Winston County", "rent": 840, "zip": "39339"}, "winston-county-39341": {"city": "Winston County", "rent": 840, "zip": "39341"}, "winston-county-39346": {"city": "Winston County", "rent": 960, "zip": "39346"}, "winston-county-39350": {"city": "Winston County", "rent": 930, "zip": "39350"}, "winston-county-39354": {"city": "Winston County", "rent": 1020, "zip": "39354"}, "winston-county-39735": {"city": "Winston County", "rent": 1000, "zip": "39735"}, "winston-county-39769": {"city": "Winston County", "rent": 1050, "zip": "39769"}, "winston-county-39772": {"city": "Winston County", "rent": 870, "zip": "39772"}, "yalobusha-county-38658": {"city": "Yalobusha County", "rent": 1110, "zip": "38658"}, "yalobusha-county-38922": {"city": "Yalobusha County", "rent": 870, "zip": "38922"}, "yalobusha-county-38927": {"city": "Yalobusha County", "rent": 940, "zip": "38927"}, "yalobusha-county-38948": {"city": "Yalobusha County", "rent": 970, "zip": "38948"}, "yalobusha-county-38953": {"city": "Yalobusha County", "rent": 870, "zip": "38953"}, "yalobusha-county-38961": {"city": "Yalobusha County", "rent": 890, "zip": "38961"}, "yalobusha-county-38965": {"city": "Yalobusha County", "rent": 1170, "zip": "38965"}}