{"cape-girardeau-62914": {"city": "Cape Girardeau", "rent": 920, "zip": "62914"}, "cape-girardeau-62952": {"city": "Cape Girardeau", "rent": 920, "zip": "62952"}, "cape-girardeau-62957": {"city": "Cape Girardeau", "rent": 1050, "zip": "62957"}, "cape-girardeau-62962": {"city": "Cape Girardeau", "rent": 920, "zip": "62962"}, "cape-girardeau-62969": {"city": "Cape Girardeau", "rent": 930, "zip": "62969"}, "cape-girardeau-62988": {"city": "Cape Girardeau", "rent": 920, "zip": "62988"}, "cape-girardeau-62990": {"city": "Cape Girardeau", "rent": 920, "zip": "62990"}, "cape-girardeau-62992": {"city": "Cape Girardeau", "rent": 920, "zip": "62992"}, "cape-girardeau-62993": {"city": "Cape Girardeau", "rent": 920, "zip": "62993"}, "cape-girardeau-63645": {"city": "Cape Girardeau", "rent": 940, "zip": "63645"}, "cape-girardeau-63655": {"city": "Cape Girardeau", "rent": 920, "zip": "63655"}, "cape-girardeau-63662": {"city": "Cape Girardeau", "rent": 1020, "zip": "63662"}, "cape-girardeau-63701": {"city": "Cape Girardeau", "rent": 1010, "zip": "63701"}, "cape-girardeau-63702": {"city": "Cape Girardeau", "rent": 1000, "zip": "63702"}, "cape-girardeau-63703": {"city": "Cape Girardeau", "rent": 960, "zip": "63703"}, "cape-girardeau-63730": {"city": "Cape Girardeau", "rent": 940, "zip": "63730"}, "cape-girardeau-63732": {"city": "Cape Girardeau", "rent": 920, "zip": "63732"}, "cape-girardeau-63739": {"city": "Cape Girardeau", "rent": 1050, "zip": "63739"}, "cape-girardeau-63740": {"city": "Cape Girardeau", "rent": 980, "zip": "63740"}, "cape-girardeau-63743": {"city": "Cape Girardeau", "rent": 960, "zip": "63743"}, "cape-girardeau-63744": {"city": "Cape Girardeau", "rent": 960, "zip": "63744"}, "cape-girardeau-63745": {"city": "Cape Girardeau", "rent": 1010, "zip": "63745"}, "cape-girardeau-63747": {"city": "Cape Girardeau", "rent": 960, "zip": "63747"}, "cape-girardeau-63750": {"city": "Cape Girardeau", "rent": 1020, "zip": "63750"}, "cape-girardeau-63751": {"city": "Cape Girardeau", "rent": 1120, "zip": "63751"}, "cape-girardeau-63752": {"city": "Cape Girardeau", "rent": 1000, "zip": "63752"}, "cape-girardeau-63755": {"city": "Cape Girardeau", "rent": 1150, "zip": "63755"}, "cape-girardeau-63760": {"city": "Cape Girardeau", "rent": 920, "zip": "63760"}, "cape-girardeau-63764": {"city": "Cape Girardeau", "rent": 920, "zip": "63764"}, "cape-girardeau-63766": {"city": "Cape Girardeau", "rent": 960, "zip": "63766"}, "cape-girardeau-63769": {"city": "Cape Girardeau", "rent": 940, "zip": "63769"}, "cape-girardeau-63770": {"city": "Cape Girardeau", "rent": 930, "zip": "63770"}, "cape-girardeau-63771": {"city": "Cape Girardeau", "rent": 920, "zip": "63771"}, "cape-girardeau-63775": {"city": "Cape Girardeau", "rent": 950, "zip": "63775"}, "cape-girardeau-63779": {"city": "Cape Girardeau", "rent": 1000, "zip": "63779"}, "cape-girardeau-63780": {"city": "Cape Girardeau", "rent": 920, "zip": "63780"}, "cape-girardeau-63781": {"city": "Cape Girardeau", "rent": 1180, "zip": "63781"}, "cape-girardeau-63782": {"city": "Cape Girardeau", "rent": 930, "zip": "63782"}, "cape-girardeau-63785": {"city": "Cape Girardeau", "rent": 1020, "zip": "63785"}, "cape-girardeau-63787": {"city": "Cape Girardeau", "rent": 990, "zip": "63787"}, "cape-girardeau-63960": {"city": "Cape Girardeau", "rent": 920, "zip": "63960"}, "columbia-65010": {"city": "Columbia", "rent": 1290, "zip": "65010"}, "columbia-65039": {"city": "Columbia", "rent": 910, "zip": "65039"}, "columbia-65201": {"city": "Columbia", "rent": 1160, "zip": "65201"}, "columbia-65202": {"city": "Columbia", "rent": 1190, "zip": "65202"}, "columbia-65203": {"city": "Columbia", "rent": 1190, "zip": "65203"}, "columbia-65205": {"city": "Columbia", "rent": 1160, "zip": "65205"}, "columbia-65211": {"city": "Columbia", "rent": 1160, "zip": "65211"}, "columbia-65215": {"city": "Columbia", "rent": 1160, "zip": "65215"}, "columbia-65216": {"city": "Columbia", "rent": 1160, "zip": "65216"}, "columbia-65240": {"city": "Columbia", "rent": 910, "zip": "65240"}, "columbia-65243": {"city": "Columbia", "rent": 910, "zip": "65243"}, "columbia-65255": {"city": "Columbia", "rent": 1030, "zip": "65255"}, "columbia-65256": {"city": "Columbia", "rent": 1150, "zip": "65256"}, "columbia-65279": {"city": "Columbia", "rent": 1240, "zip": "65279"}, "columbia-65284": {"city": "Columbia", "rent": 990, "zip": "65284"}, "columbia-65299": {"city": "Columbia", "rent": 1160, "zip": "65299"}, "cooper-county-65018": {"city": "Cooper County", "rent": 940, "zip": "65018"}, "cooper-county-65025": {"city": "Cooper County", "rent": 890, "zip": "65025"}, "cooper-county-65046": {"city": "Cooper County", "rent": 890, "zip": "65046"}, "cooper-county-65068": {"city": "Cooper County", "rent": 890, "zip": "65068"}, "cooper-county-65081": {"city": "Cooper County", "rent": 890, "zip": "65081"}, "cooper-county-65233": {"city": "Cooper County", "rent": 990, "zip": "65233"}, "cooper-county-65237": {"city": "Cooper County", "rent": 890, "zip": "65237"}, "cooper-county-65276": {"city": "Cooper County", "rent": 890, "zip": "65276"}, "cooper-county-65287": {"city": "Cooper County", "rent": 970, "zip": "65287"}, "cooper-county-65301": {"city": "Cooper County", "rent": 990, "zip": "65301"}, "cooper-county-65322": {"city": "Cooper County", "rent": 1230, "zip": "65322"}, "cooper-county-65347": {"city": "Cooper County", "rent": 910, "zip": "65347"}, "cooper-county-65348": {"city": "Cooper County", "rent": 940, "zip": "65348"}, "cooper-county-65350": {"city": "Cooper County", "rent": 980, "zip": "65350"}, "cooper-county-65354": {"city": "Cooper County", "rent": 1290, "zip": "65354"}, "howard-county-65230": {"city": "Howard County", "rent": 890, "zip": "65230"}, "howard-county-65243": {"city": "Howard County", "rent": 910, "zip": "65243"}, "howard-county-65248": {"city": "Howard County", "rent": 1070, "zip": "65248"}, "howard-county-65250": {"city": "Howard County", "rent": 1000, "zip": "65250"}, "howard-county-65254": {"city": "Howard County", "rent": 950, "zip": "65254"}, "howard-county-65256": {"city": "Howard County", "rent": 1150, "zip": "65256"}, "howard-county-65257": {"city": "Howard County", "rent": 900, "zip": "65257"}, "howard-county-65274": {"city": "Howard County", "rent": 940, "zip": "65274"}, "howard-county-65279": {"city": "Howard County", "rent": 1240, "zip": "65279"}, "howard-county-65281": {"city": "Howard County", "rent": 990, "zip": "65281"}, "jefferson-city-65001": {"city": "Jefferson City", "rent": 920, "zip": "65001"}, "jefferson-city-65013": {"city": "Jefferson City", "rent": 890, "zip": "65013"}, "jefferson-city-65014": {"city": "Jefferson City", "rent": 890, "zip": "65014"}, "jefferson-city-65016": {"city": "Jefferson City", "rent": 890, "zip": "65016"}, "jefferson-city-65023": {"city": "Jefferson City", "rent": 1060, "zip": "65023"}, "jefferson-city-65024": {"city": "Jefferson City", "rent": 890, "zip": "65024"}, "jefferson-city-65032": {"city": "Jefferson City", "rent": 940, "zip": "65032"}, "jefferson-city-65035": {"city": "Jefferson City", "rent": 890, "zip": "65035"}, "jefferson-city-65040": {"city": "Jefferson City", "rent": 920, "zip": "65040"}, "jefferson-city-65046": {"city": "Jefferson City", "rent": 890, "zip": "65046"}, "jefferson-city-65048": {"city": "Jefferson City", "rent": 890, "zip": "65048"}, "jefferson-city-65051": {"city": "Jefferson City", "rent": 890, "zip": "65051"}, "jefferson-city-65053": {"city": "Jefferson City", "rent": 890, "zip": "65053"}, "jefferson-city-65054": {"city": "Jefferson City", "rent": 890, "zip": "65054"}, "jefferson-city-65058": {"city": "Jefferson City", "rent": 890, "zip": "65058"}, "jefferson-city-65061": {"city": "Jefferson City", "rent": 910, "zip": "65061"}, "jefferson-city-65062": {"city": "Jefferson City", "rent": 900, "zip": "65062"}, "jefferson-city-65074": {"city": "Jefferson City", "rent": 900, "zip": "65074"}, "jefferson-city-65076": {"city": "Jefferson City", "rent": 1010, "zip": "65076"}, "jefferson-city-65085": {"city": "Jefferson City", "rent": 890, "zip": "65085"}, "jefferson-city-65101": {"city": "Jefferson City", "rent": 900, "zip": "65101"}, "jefferson-city-65102": {"city": "Jefferson City", "rent": 920, "zip": "65102"}, "jefferson-city-65103": {"city": "Jefferson City", "rent": 920, "zip": "65103"}, "jefferson-city-65104": {"city": "Jefferson City", "rent": 920, "zip": "65104"}, "jefferson-city-65105": {"city": "Jefferson City", "rent": 920, "zip": "65105"}, "jefferson-city-65109": {"city": "Jefferson City", "rent": 950, "zip": "65109"}, "jefferson-city-65110": {"city": "Jefferson City", "rent": 920, "zip": "65110"}, "jefferson-city-65582": {"city": "Jefferson City", "rent": 970, "zip": "65582"}, "callaway-county-63361": {"city": "Callaway County", "rent": 900, "zip": "63361"}, "callaway-county-63384": {"city": "Callaway County", "rent": 900, "zip": "63384"}, "callaway-county-63388": {"city": "Callaway County", "rent": 970, "zip": "63388"}, "callaway-county-65039": {"city": "Callaway County", "rent": 910, "zip": "65039"}, "callaway-county-65043": {"city": "Callaway County", "rent": 1110, "zip": "65043"}, "callaway-county-65059": {"city": "Callaway County", "rent": 1120, "zip": "65059"}, "callaway-county-65063": {"city": "Callaway County", "rent": 1060, "zip": "65063"}, "callaway-county-65067": {"city": "Callaway County", "rent": 1180, "zip": "65067"}, "callaway-county-65069": {"city": "Callaway County", "rent": 1020, "zip": "65069"}, "callaway-county-65077": {"city": "Callaway County", "rent": 1120, "zip": "65077"}, "callaway-county-65080": {"city": "Callaway County", "rent": 1050, "zip": "65080"}, "callaway-county-65101": {"city": "Callaway County", "rent": 900, "zip": "65101"}, "callaway-county-65201": {"city": "Callaway County", "rent": 1160, "zip": "65201"}, "callaway-county-65202": {"city": "Callaway County", "rent": 1190, "zip": "65202"}, "callaway-county-65231": {"city": "Callaway County", "rent": 900, "zip": "65231"}, "callaway-county-65240": {"city": "Callaway County", "rent": 910, "zip": "65240"}, "callaway-county-65251": {"city": "Callaway County", "rent": 1020, "zip": "65251"}, "callaway-county-65262": {"city": "Callaway County", "rent": 970, "zip": "65262"}, "callaway-county-65264": {"city": "Callaway County", "rent": 900, "zip": "65264"}, "callaway-county-65265": {"city": "Callaway County", "rent": 900, "zip": "65265"}, "moniteau-county-65011": {"city": "Moniteau County", "rent": 980, "zip": "65011"}, "moniteau-county-65018": {"city": "Moniteau County", "rent": 940, "zip": "65018"}, "moniteau-county-65023": {"city": "Moniteau County", "rent": 1060, "zip": "65023"}, "moniteau-county-65025": {"city": "Moniteau County", "rent": 890, "zip": "65025"}, "moniteau-county-65026": {"city": "Moniteau County", "rent": 910, "zip": "65026"}, "moniteau-county-65034": {"city": "Moniteau County", "rent": 930, "zip": "65034"}, "moniteau-county-65042": {"city": "Moniteau County", "rent": 920, "zip": "65042"}, "moniteau-county-65046": {"city": "Moniteau County", "rent": 890, "zip": "65046"}, "moniteau-county-65050": {"city": "Moniteau County", "rent": 910, "zip": "65050"}, "moniteau-county-65055": {"city": "Moniteau County", "rent": 920, "zip": "65055"}, "moniteau-county-65064": {"city": "Moniteau County", "rent": 900, "zip": "65064"}, "moniteau-county-65068": {"city": "Moniteau County", "rent": 890, "zip": "65068"}, "moniteau-county-65074": {"city": "Moniteau County", "rent": 900, "zip": "65074"}, "moniteau-county-65081": {"city": "Moniteau County", "rent": 890, "zip": "65081"}, "moniteau-county-65084": {"city": "Moniteau County", "rent": 890, "zip": "65084"}, "moniteau-county-65287": {"city": "Moniteau County", "rent": 970, "zip": "65287"}, "joplin-64748": {"city": "Joplin", "rent": 940, "zip": "64748"}, "joplin-64755": {"city": "Joplin", "rent": 940, "zip": "64755"}, "joplin-64801": {"city": "Joplin", "rent": 990, "zip": "64801"}, "joplin-64802": {"city": "Joplin", "rent": 970, "zip": "64802"}, "joplin-64803": {"city": "Joplin", "rent": 970, "zip": "64803"}, "joplin-64804": {"city": "Joplin", "rent": 940, "zip": "64804"}, "joplin-64830": {"city": "Joplin", "rent": 1060, "zip": "64830"}, "joplin-64832": {"city": "Joplin", "rent": 1160, "zip": "64832"}, "joplin-64833": {"city": "Joplin", "rent": 940, "zip": "64833"}, "joplin-64834": {"city": "Joplin", "rent": 1200, "zip": "64834"}, "joplin-64835": {"city": "Joplin", "rent": 940, "zip": "64835"}, "joplin-64836": {"city": "Joplin", "rent": 960, "zip": "64836"}, "joplin-64840": {"city": "Joplin", "rent": 940, "zip": "64840"}, "joplin-64841": {"city": "Joplin", "rent": 940, "zip": "64841"}, "joplin-64842": {"city": "Joplin", "rent": 940, "zip": "64842"}, "joplin-64843": {"city": "Joplin", "rent": 1050, "zip": "64843"}, "joplin-64844": {"city": "Joplin", "rent": 940, "zip": "64844"}, "joplin-64848": {"city": "Joplin", "rent": 940, "zip": "64848"}, "joplin-64849": {"city": "Joplin", "rent": 940, "zip": "64849"}, "joplin-64850": {"city": "Joplin", "rent": 940, "zip": "64850"}, "joplin-64855": {"city": "Joplin", "rent": 940, "zip": "64855"}, "joplin-64857": {"city": "Joplin", "rent": 960, "zip": "64857"}, "joplin-64858": {"city": "Joplin", "rent": 940, "zip": "64858"}, "joplin-64859": {"city": "Joplin", "rent": 940, "zip": "64859"}, "joplin-64861": {"city": "Joplin", "rent": 940, "zip": "64861"}, "joplin-64862": {"city": "Joplin", "rent": 950, "zip": "64862"}, "joplin-64864": {"city": "Joplin", "rent": 940, "zip": "64864"}, "joplin-64865": {"city": "Joplin", "rent": 940, "zip": "64865"}, "joplin-64866": {"city": "Joplin", "rent": 940, "zip": "64866"}, "joplin-64867": {"city": "Joplin", "rent": 960, "zip": "64867"}, "joplin-64870": {"city": "Joplin", "rent": 1030, "zip": "64870"}, "joplin-64873": {"city": "Joplin", "rent": 940, "zip": "64873"}, "joplin-65723": {"city": "Joplin", "rent": 940, "zip": "65723"}, "joplin-65734": {"city": "Joplin", "rent": 940, "zip": "65734"}, "kansas-city-64001": {"city": "Kansas City", "rent": 1030, "zip": "64001"}, "kansas-city-64011": {"city": "Kansas City", "rent": 1030, "zip": "64011"}, "kansas-city-64012": {"city": "Kansas City", "rent": 1440, "zip": "64012"}, "kansas-city-64013": {"city": "Kansas City", "rent": 1300, "zip": "64013"}, "kansas-city-64014": {"city": "Kansas City", "rent": 1420, "zip": "64014"}, "kansas-city-64015": {"city": "Kansas City", "rent": 1300, "zip": "64015"}, "kansas-city-64016": {"city": "Kansas City", "rent": 1140, "zip": "64016"}, "kansas-city-64017": {"city": "Kansas City", "rent": 1030, "zip": "64017"}, "kansas-city-64018": {"city": "Kansas City", "rent": 1460, "zip": "64018"}, "kansas-city-64020": {"city": "Kansas City", "rent": 1030, "zip": "64020"}, "kansas-city-64021": {"city": "Kansas City", "rent": 1220, "zip": "64021"}, "kansas-city-64022": {"city": "Kansas City", "rent": 1030, "zip": "64022"}, "kansas-city-64024": {"city": "Kansas City", "rent": 1090, "zip": "64024"}, "kansas-city-64028": {"city": "Kansas City", "rent": 1390, "zip": "64028"}, "kansas-city-64029": {"city": "Kansas City", "rent": 1490, "zip": "64029"}, "kansas-city-64030": {"city": "Kansas City", "rent": 1110, "zip": "64030"}, "kansas-city-64034": {"city": "Kansas City", "rent": 2000, "zip": "64034"}, "kansas-city-64035": {"city": "Kansas City", "rent": 1190, "zip": "64035"}, "kansas-city-64036": {"city": "Kansas City", "rent": 1030, "zip": "64036"}, "kansas-city-64037": {"city": "Kansas City", "rent": 1030, "zip": "64037"}, "kansas-city-64040": {"city": "Kansas City", "rent": 1030, "zip": "64040"}, "kansas-city-64048": {"city": "Kansas City", "rent": 1150, "zip": "64048"}, "kansas-city-64050": {"city": "Kansas City", "rent": 1050, "zip": "64050"}, "kansas-city-64051": {"city": "Kansas City", "rent": 1300, "zip": "64051"}, "kansas-city-64052": {"city": "Kansas City", "rent": 1230, "zip": "64052"}, "kansas-city-64053": {"city": "Kansas City", "rent": 1090, "zip": "64053"}, "kansas-city-64054": {"city": "Kansas City", "rent": 1240, "zip": "64054"}, "kansas-city-64055": {"city": "Kansas City", "rent": 1230, "zip": "64055"}, "kansas-city-64056": {"city": "Kansas City", "rent": 1420, "zip": "64056"}, "kansas-city-64057": {"city": "Kansas City", "rent": 1300, "zip": "64057"}, "kansas-city-64058": {"city": "Kansas City", "rent": 1290, "zip": "64058"}, "kansas-city-64060": {"city": "Kansas City", "rent": 1350, "zip": "64060"}, "kansas-city-64061": {"city": "Kansas City", "rent": 1030, "zip": "64061"}, "kansas-city-64062": {"city": "Kansas City", "rent": 1290, "zip": "64062"}, "kansas-city-64063": {"city": "Kansas City", "rent": 1310, "zip": "64063"}, "kansas-city-64064": {"city": "Kansas City", "rent": 1550, "zip": "64064"}, "kansas-city-64065": {"city": "Kansas City", "rent": 1630, "zip": "64065"}, "kansas-city-64066": {"city": "Kansas City", "rent": 1170, "zip": "64066"}, "kansas-city-64067": {"city": "Kansas City", "rent": 1030, "zip": "64067"}, "kansas-city-64068": {"city": "Kansas City", "rent": 1280, "zip": "64068"}, "kansas-city-64069": {"city": "Kansas City", "rent": 1360, "zip": "64069"}, "kansas-city-64070": {"city": "Kansas City", "rent": 1300, "zip": "64070"}, "kansas-city-64071": {"city": "Kansas City", "rent": 1030, "zip": "64071"}, "kansas-city-64072": {"city": "Kansas City", "rent": 1170, "zip": "64072"}, "kansas-city-64073": {"city": "Kansas City", "rent": 1360, "zip": "64073"}, "kansas-city-64074": {"city": "Kansas City", "rent": 1970, "zip": "64074"}, "kansas-city-64075": {"city": "Kansas City", "rent": 1120, "zip": "64075"}, "kansas-city-64076": {"city": "Kansas City", "rent": 1070, "zip": "64076"}, "kansas-city-64077": {"city": "Kansas City", "rent": 1130, "zip": "64077"}, "kansas-city-64078": {"city": "Kansas City", "rent": 1350, "zip": "64078"}, "kansas-city-64079": {"city": "Kansas City", "rent": 1590, "zip": "64079"}, "kansas-city-64080": {"city": "Kansas City", "rent": 1290, "zip": "64080"}, "kansas-city-64081": {"city": "Kansas City", "rent": 1480, "zip": "64081"}, "kansas-city-64082": {"city": "Kansas City", "rent": 1990, "zip": "64082"}, "kansas-city-64083": {"city": "Kansas City", "rent": 1490, "zip": "64083"}, "kansas-city-64084": {"city": "Kansas City", "rent": 1070, "zip": "64084"}, "kansas-city-64085": {"city": "Kansas City", "rent": 1030, "zip": "64085"}, "kansas-city-64086": {"city": "Kansas City", "rent": 1490, "zip": "64086"}, "kansas-city-64088": {"city": "Kansas City", "rent": 1170, "zip": "64088"}, "kansas-city-64089": {"city": "Kansas City", "rent": 1310, "zip": "64089"}, "kansas-city-64090": {"city": "Kansas City", "rent": 1090, "zip": "64090"}, "kansas-city-64092": {"city": "Kansas City", "rent": 1430, "zip": "64092"}, "kansas-city-64096": {"city": "Kansas City", "rent": 1030, "zip": "64096"}, "kansas-city-64097": {"city": "Kansas City", "rent": 1190, "zip": "64097"}, "kansas-city-64098": {"city": "Kansas City", "rent": 1190, "zip": "64098"}, "kansas-city-64101": {"city": "Kansas City", "rent": 1370, "zip": "64101"}, "kansas-city-64102": {"city": "Kansas City", "rent": 1620, "zip": "64102"}, "kansas-city-64105": {"city": "Kansas City", "rent": 1880, "zip": "64105"}, "kansas-city-64106": {"city": "Kansas City", "rent": 1490, "zip": "64106"}, "kansas-city-64108": {"city": "Kansas City", "rent": 1860, "zip": "64108"}, "kansas-city-64109": {"city": "Kansas City", "rent": 1090, "zip": "64109"}, "kansas-city-64110": {"city": "Kansas City", "rent": 1370, "zip": "64110"}, "kansas-city-64111": {"city": "Kansas City", "rent": 1580, "zip": "64111"}, "kansas-city-64112": {"city": "Kansas City", "rent": 1570, "zip": "64112"}, "kansas-city-64113": {"city": "Kansas City", "rent": 1590, "zip": "64113"}, "kansas-city-64114": {"city": "Kansas City", "rent": 1590, "zip": "64114"}, "kansas-city-64116": {"city": "Kansas City", "rent": 1310, "zip": "64116"}, "kansas-city-64117": {"city": "Kansas City", "rent": 1180, "zip": "64117"}, "kansas-city-64118": {"city": "Kansas City", "rent": 1330, "zip": "64118"}, "kansas-city-64119": {"city": "Kansas City", "rent": 1420, "zip": "64119"}, "kansas-city-64120": {"city": "Kansas City", "rent": 1540, "zip": "64120"}, "kansas-city-64121": {"city": "Kansas City", "rent": 1300, "zip": "64121"}, "kansas-city-64123": {"city": "Kansas City", "rent": 1130, "zip": "64123"}, "kansas-city-64124": {"city": "Kansas City", "rent": 1060, "zip": "64124"}, "kansas-city-64125": {"city": "Kansas City", "rent": 1080, "zip": "64125"}, "kansas-city-64126": {"city": "Kansas City", "rent": 1090, "zip": "64126"}, "kansas-city-64127": {"city": "Kansas City", "rent": 1070, "zip": "64127"}, "kansas-city-64128": {"city": "Kansas City", "rent": 1080, "zip": "64128"}, "kansas-city-64129": {"city": "Kansas City", "rent": 1160, "zip": "64129"}, "kansas-city-64130": {"city": "Kansas City", "rent": 1160, "zip": "64130"}, "kansas-city-64131": {"city": "Kansas City", "rent": 1400, "zip": "64131"}, "kansas-city-64132": {"city": "Kansas City", "rent": 1180, "zip": "64132"}, "kansas-city-64133": {"city": "Kansas City", "rent": 1280, "zip": "64133"}, "kansas-city-64134": {"city": "Kansas City", "rent": 1420, "zip": "64134"}, "kansas-city-64136": {"city": "Kansas City", "rent": 1520, "zip": "64136"}, "kansas-city-64137": {"city": "Kansas City", "rent": 1290, "zip": "64137"}, "kansas-city-64138": {"city": "Kansas City", "rent": 1260, "zip": "64138"}, "kansas-city-64139": {"city": "Kansas City", "rent": 1770, "zip": "64139"}, "kansas-city-64141": {"city": "Kansas City", "rent": 1300, "zip": "64141"}, "kansas-city-64144": {"city": "Kansas City", "rent": 1360, "zip": "64144"}, "kansas-city-64145": {"city": "Kansas City", "rent": 1620, "zip": "64145"}, "kansas-city-64146": {"city": "Kansas City", "rent": 1870, "zip": "64146"}, "kansas-city-64147": {"city": "Kansas City", "rent": 1220, "zip": "64147"}, "kansas-city-64148": {"city": "Kansas City", "rent": 1300, "zip": "64148"}, "kansas-city-64149": {"city": "Kansas City", "rent": 1610, "zip": "64149"}, "kansas-city-64150": {"city": "Kansas City", "rent": 1030, "zip": "64150"}, "kansas-city-64151": {"city": "Kansas City", "rent": 1490, "zip": "64151"}, "kansas-city-64152": {"city": "Kansas City", "rent": 1390, "zip": "64152"}, "kansas-city-64153": {"city": "Kansas City", "rent": 1350, "zip": "64153"}, "kansas-city-64154": {"city": "Kansas City", "rent": 1560, "zip": "64154"}, "kansas-city-64155": {"city": "Kansas City", "rent": 1510, "zip": "64155"}, "kansas-city-64156": {"city": "Kansas City", "rent": 1660, "zip": "64156"}, "kansas-city-64157": {"city": "Kansas City", "rent": 2040, "zip": "64157"}, "kansas-city-64158": {"city": "Kansas City", "rent": 1610, "zip": "64158"}, "kansas-city-64161": {"city": "Kansas City", "rent": 1560, "zip": "64161"}, "kansas-city-64163": {"city": "Kansas City", "rent": 1030, "zip": "64163"}, "kansas-city-64164": {"city": "Kansas City", "rent": 1210, "zip": "64164"}, "kansas-city-64165": {"city": "Kansas City", "rent": 1450, "zip": "64165"}, "kansas-city-64166": {"city": "Kansas City", "rent": 1460, "zip": "64166"}, "kansas-city-64167": {"city": "Kansas City", "rent": 1590, "zip": "64167"}, "kansas-city-64168": {"city": "Kansas City", "rent": 1430, "zip": "64168"}, "kansas-city-64170": {"city": "Kansas City", "rent": 1300, "zip": "64170"}, "kansas-city-64171": {"city": "Kansas City", "rent": 1300, "zip": "64171"}, "kansas-city-64188": {"city": "Kansas City", "rent": 1360, "zip": "64188"}, "kansas-city-64190": {"city": "Kansas City", "rent": 1430, "zip": "64190"}, "kansas-city-64197": {"city": "Kansas City", "rent": 1300, "zip": "64197"}, "kansas-city-64198": {"city": "Kansas City", "rent": 1300, "zip": "64198"}, "kansas-city-64429": {"city": "Kansas City", "rent": 1220, "zip": "64429"}, "kansas-city-64439": {"city": "Kansas City", "rent": 1160, "zip": "64439"}, "kansas-city-64440": {"city": "Kansas City", "rent": 1030, "zip": "64440"}, "kansas-city-64444": {"city": "Kansas City", "rent": 1180, "zip": "64444"}, "kansas-city-64454": {"city": "Kansas City", "rent": 1030, "zip": "64454"}, "kansas-city-64465": {"city": "Kansas City", "rent": 1030, "zip": "64465"}, "kansas-city-64474": {"city": "Kansas City", "rent": 1030, "zip": "64474"}, "kansas-city-64477": {"city": "Kansas City", "rent": 1030, "zip": "64477"}, "kansas-city-64484": {"city": "Kansas City", "rent": 1040, "zip": "64484"}, "kansas-city-64490": {"city": "Kansas City", "rent": 1030, "zip": "64490"}, "kansas-city-64492": {"city": "Kansas City", "rent": 1090, "zip": "64492"}, "kansas-city-64493": {"city": "Kansas City", "rent": 1140, "zip": "64493"}, "kansas-city-64624": {"city": "Kansas City", "rent": 1030, "zip": "64624"}, "kansas-city-64625": {"city": "Kansas City", "rent": 1030, "zip": "64625"}, "kansas-city-64637": {"city": "Kansas City", "rent": 1030, "zip": "64637"}, "kansas-city-64644": {"city": "Kansas City", "rent": 1030, "zip": "64644"}, "kansas-city-64649": {"city": "Kansas City", "rent": 1040, "zip": "64649"}, "kansas-city-64650": {"city": "Kansas City", "rent": 1030, "zip": "64650"}, "kansas-city-64668": {"city": "Kansas City", "rent": 1030, "zip": "64668"}, "kansas-city-64671": {"city": "Kansas City", "rent": 1030, "zip": "64671"}, "kansas-city-64701": {"city": "Kansas City", "rent": 1090, "zip": "64701"}, "kansas-city-64720": {"city": "Kansas City", "rent": 1030, "zip": "64720"}, "kansas-city-64725": {"city": "Kansas City", "rent": 1210, "zip": "64725"}, "kansas-city-64734": {"city": "Kansas City", "rent": 1330, "zip": "64734"}, "kansas-city-64739": {"city": "Kansas City", "rent": 1030, "zip": "64739"}, "kansas-city-64742": {"city": "Kansas City", "rent": 1030, "zip": "64742"}, "kansas-city-64743": {"city": "Kansas City", "rent": 1160, "zip": "64743"}, "kansas-city-64746": {"city": "Kansas City", "rent": 1110, "zip": "64746"}, "kansas-city-64747": {"city": "Kansas City", "rent": 1030, "zip": "64747"}, "kansas-city-64999": {"city": "Kansas City", "rent": 1300, "zip": "64999"}, "kansas-city-65321": {"city": "Kansas City", "rent": 1030, "zip": "65321"}, "kansas-city-65327": {"city": "Kansas City", "rent": 1030, "zip": "65327"}, "kansas-city-65351": {"city": "Kansas City", "rent": 1030, "zip": "65351"}, "kansas-city-66002": {"city": "Kansas City", "rent": 1030, "zip": "66002"}, "kansas-city-66007": {"city": "Kansas City", "rent": 1310, "zip": "66007"}, "kansas-city-66010": {"city": "Kansas City", "rent": 1030, "zip": "66010"}, "kansas-city-66012": {"city": "Kansas City", "rent": 1310, "zip": "66012"}, "kansas-city-66013": {"city": "Kansas City", "rent": 1570, "zip": "66013"}, "kansas-city-66014": {"city": "Kansas City", "rent": 1030, "zip": "66014"}, "kansas-city-66018": {"city": "Kansas City", "rent": 1190, "zip": "66018"}, "kansas-city-66020": {"city": "Kansas City", "rent": 1030, "zip": "66020"}, "kansas-city-66021": {"city": "Kansas City", "rent": 1330, "zip": "66021"}, "kansas-city-66025": {"city": "Kansas City", "rent": 1480, "zip": "66025"}, "kansas-city-66026": {"city": "Kansas City", "rent": 1140, "zip": "66026"}, "kansas-city-66027": {"city": "Kansas City", "rent": 2040, "zip": "66027"}, "kansas-city-66030": {"city": "Kansas City", "rent": 1480, "zip": "66030"}, "kansas-city-66031": {"city": "Kansas City", "rent": 1360, "zip": "66031"}, "kansas-city-66033": {"city": "Kansas City", "rent": 1030, "zip": "66033"}, "kansas-city-66036": {"city": "Kansas City", "rent": 1260, "zip": "66036"}, "kansas-city-66039": {"city": "Kansas City", "rent": 1030, "zip": "66039"}, "kansas-city-66040": {"city": "Kansas City", "rent": 1110, "zip": "66040"}, "kansas-city-66042": {"city": "Kansas City", "rent": 1070, "zip": "66042"}, "kansas-city-66043": {"city": "Kansas City", "rent": 1310, "zip": "66043"}, "kansas-city-66044": {"city": "Kansas City", "rent": 1130, "zip": "66044"}, "kansas-city-66048": {"city": "Kansas City", "rent": 1100, "zip": "66048"}, "kansas-city-66051": {"city": "Kansas City", "rent": 1530, "zip": "66051"}, "kansas-city-66052": {"city": "Kansas City", "rent": 1300, "zip": "66052"}, "kansas-city-66053": {"city": "Kansas City", "rent": 1710, "zip": "66053"}, "kansas-city-66054": {"city": "Kansas City", "rent": 1160, "zip": "66054"}, "kansas-city-66056": {"city": "Kansas City", "rent": 1030, "zip": "66056"}, "kansas-city-66061": {"city": "Kansas City", "rent": 1280, "zip": "66061"}, "kansas-city-66062": {"city": "Kansas City", "rent": 1560, "zip": "66062"}, "kansas-city-66063": {"city": "Kansas City", "rent": 1530, "zip": "66063"}, "kansas-city-66064": {"city": "Kansas City", "rent": 1080, "zip": "66064"}, "kansas-city-66071": {"city": "Kansas City", "rent": 1190, "zip": "66071"}, "kansas-city-66072": {"city": "Kansas City", "rent": 1230, "zip": "66072"}, "kansas-city-66075": {"city": "Kansas City", "rent": 1030, "zip": "66075"}, "kansas-city-66079": {"city": "Kansas City", "rent": 1120, "zip": "66079"}, "kansas-city-66083": {"city": "Kansas City", "rent": 1250, "zip": "66083"}, "kansas-city-66085": {"city": "Kansas City", "rent": 1860, "zip": "66085"}, "kansas-city-66086": {"city": "Kansas City", "rent": 1320, "zip": "66086"}, "kansas-city-66092": {"city": "Kansas City", "rent": 1370, "zip": "66092"}, "kansas-city-66097": {"city": "Kansas City", "rent": 1030, "zip": "66097"}, "kansas-city-66101": {"city": "Kansas City", "rent": 1030, "zip": "66101"}, "kansas-city-66102": {"city": "Kansas City", "rent": 1170, "zip": "66102"}, "kansas-city-66103": {"city": "Kansas City", "rent": 1340, "zip": "66103"}, "kansas-city-66104": {"city": "Kansas City", "rent": 1190, "zip": "66104"}, "kansas-city-66105": {"city": "Kansas City", "rent": 1030, "zip": "66105"}, "kansas-city-66106": {"city": "Kansas City", "rent": 1180, "zip": "66106"}, "kansas-city-66109": {"city": "Kansas City", "rent": 1870, "zip": "66109"}, "kansas-city-66110": {"city": "Kansas City", "rent": 1250, "zip": "66110"}, "kansas-city-66111": {"city": "Kansas City", "rent": 1220, "zip": "66111"}, "kansas-city-66112": {"city": "Kansas City", "rent": 1270, "zip": "66112"}, "kansas-city-66115": {"city": "Kansas City", "rent": 1250, "zip": "66115"}, "kansas-city-66117": {"city": "Kansas City", "rent": 1250, "zip": "66117"}, "kansas-city-66118": {"city": "Kansas City", "rent": 1250, "zip": "66118"}, "kansas-city-66119": {"city": "Kansas City", "rent": 1250, "zip": "66119"}, "kansas-city-66160": {"city": "Kansas City", "rent": 1340, "zip": "66160"}, "kansas-city-66201": {"city": "Kansas City", "rent": 1530, "zip": "66201"}, "kansas-city-66202": {"city": "Kansas City", "rent": 1350, "zip": "66202"}, "kansas-city-66203": {"city": "Kansas City", "rent": 1320, "zip": "66203"}, "kansas-city-66204": {"city": "Kansas City", "rent": 1460, "zip": "66204"}, "kansas-city-66205": {"city": "Kansas City", "rent": 1740, "zip": "66205"}, "kansas-city-66206": {"city": "Kansas City", "rent": 2040, "zip": "66206"}, "kansas-city-66207": {"city": "Kansas City", "rent": 2040, "zip": "66207"}, "kansas-city-66208": {"city": "Kansas City", "rent": 1890, "zip": "66208"}, "kansas-city-66209": {"city": "Kansas City", "rent": 1580, "zip": "66209"}, "kansas-city-66210": {"city": "Kansas City", "rent": 1730, "zip": "66210"}, "kansas-city-66211": {"city": "Kansas City", "rent": 1670, "zip": "66211"}, "kansas-city-66212": {"city": "Kansas City", "rent": 1610, "zip": "66212"}, "kansas-city-66213": {"city": "Kansas City", "rent": 1940, "zip": "66213"}, "kansas-city-66214": {"city": "Kansas City", "rent": 1230, "zip": "66214"}, "kansas-city-66215": {"city": "Kansas City", "rent": 1560, "zip": "66215"}, "kansas-city-66216": {"city": "Kansas City", "rent": 1430, "zip": "66216"}, "kansas-city-66217": {"city": "Kansas City", "rent": 1460, "zip": "66217"}, "kansas-city-66218": {"city": "Kansas City", "rent": 1920, "zip": "66218"}, "kansas-city-66219": {"city": "Kansas City", "rent": 1640, "zip": "66219"}, "kansas-city-66220": {"city": "Kansas City", "rent": 1470, "zip": "66220"}, "kansas-city-66221": {"city": "Kansas City", "rent": 1810, "zip": "66221"}, "kansas-city-66223": {"city": "Kansas City", "rent": 1810, "zip": "66223"}, "kansas-city-66224": {"city": "Kansas City", "rent": 1910, "zip": "66224"}, "kansas-city-66225": {"city": "Kansas City", "rent": 1530, "zip": "66225"}, "kansas-city-66226": {"city": "Kansas City", "rent": 1450, "zip": "66226"}, "kansas-city-66227": {"city": "Kansas City", "rent": 2040, "zip": "66227"}, "kansas-city-66250": {"city": "Kansas City", "rent": 1530, "zip": "66250"}, "kansas-city-66251": {"city": "Kansas City", "rent": 1670, "zip": "66251"}, "kansas-city-66276": {"city": "Kansas City", "rent": 1530, "zip": "66276"}, "kansas-city-66282": {"city": "Kansas City", "rent": 1530, "zip": "66282"}, "kansas-city-66283": {"city": "Kansas City", "rent": 1530, "zip": "66283"}, "kansas-city-66285": {"city": "Kansas City", "rent": 1530, "zip": "66285"}, "kansas-city-66286": {"city": "Kansas City", "rent": 1530, "zip": "66286"}, "kansas-city-66738": {"city": "Kansas City", "rent": 1030, "zip": "66738"}, "kansas-city-66754": {"city": "Kansas City", "rent": 1280, "zip": "66754"}, "kansas-city-66767": {"city": "Kansas City", "rent": 1030, "zip": "66767"}, "bates-county-64720": {"city": "Bates County", "rent": 1030, "zip": "64720"}, "bates-county-64722": {"city": "Bates County", "rent": 920, "zip": "64722"}, "bates-county-64723": {"city": "Bates County", "rent": 910, "zip": "64723"}, "bates-county-64724": {"city": "Bates County", "rent": 890, "zip": "64724"}, "bates-county-64725": {"city": "Bates County", "rent": 1210, "zip": "64725"}, "bates-county-64730": {"city": "Bates County", "rent": 890, "zip": "64730"}, "bates-county-64742": {"city": "Bates County", "rent": 1030, "zip": "64742"}, "bates-county-64745": {"city": "Bates County", "rent": 890, "zip": "64745"}, "bates-county-64752": {"city": "Bates County", "rent": 1170, "zip": "64752"}, "bates-county-64770": {"city": "Bates County", "rent": 940, "zip": "64770"}, "bates-county-64779": {"city": "Bates County", "rent": 890, "zip": "64779"}, "bates-county-64780": {"city": "Bates County", "rent": 910, "zip": "64780"}, "bates-county-64788": {"city": "Bates County", "rent": 930, "zip": "64788"}, "st.-joseph-64401": {"city": "St. Joseph", "rent": 950, "zip": "64401"}, "st.-joseph-64421": {"city": "St. Joseph", "rent": 1490, "zip": "64421"}, "st.-joseph-64422": {"city": "St. Joseph", "rent": 1030, "zip": "64422"}, "st.-joseph-64423": {"city": "St. Joseph", "rent": 940, "zip": "64423"}, "st.-joseph-64427": {"city": "St. Joseph", "rent": 940, "zip": "64427"}, "st.-joseph-64429": {"city": "St. Joseph", "rent": 1220, "zip": "64429"}, "st.-joseph-64430": {"city": "St. Joseph", "rent": 1110, "zip": "64430"}, "st.-joseph-64436": {"city": "St. Joseph", "rent": 1620, "zip": "64436"}, "st.-joseph-64439": {"city": "St. Joseph", "rent": 1160, "zip": "64439"}, "st.-joseph-64440": {"city": "St. Joseph", "rent": 1030, "zip": "64440"}, "st.-joseph-64443": {"city": "St. Joseph", "rent": 1060, "zip": "64443"}, "st.-joseph-64444": {"city": "St. Joseph", "rent": 1180, "zip": "64444"}, "st.-joseph-64448": {"city": "St. Joseph", "rent": 990, "zip": "64448"}, "st.-joseph-64449": {"city": "St. Joseph", "rent": 940, "zip": "64449"}, "st.-joseph-64454": {"city": "St. Joseph", "rent": 1030, "zip": "64454"}, "st.-joseph-64455": {"city": "St. Joseph", "rent": 940, "zip": "64455"}, "st.-joseph-64457": {"city": "St. Joseph", "rent": 940, "zip": "64457"}, "st.-joseph-64459": {"city": "St. Joseph", "rent": 1180, "zip": "64459"}, "st.-joseph-64463": {"city": "St. Joseph", "rent": 940, "zip": "64463"}, "st.-joseph-64469": {"city": "St. Joseph", "rent": 950, "zip": "64469"}, "st.-joseph-64474": {"city": "St. Joseph", "rent": 1030, "zip": "64474"}, "st.-joseph-64480": {"city": "St. Joseph", "rent": 970, "zip": "64480"}, "st.-joseph-64483": {"city": "St. Joseph", "rent": 940, "zip": "64483"}, "st.-joseph-64484": {"city": "St. Joseph", "rent": 1040, "zip": "64484"}, "st.-joseph-64485": {"city": "St. Joseph", "rent": 1030, "zip": "64485"}, "st.-joseph-64490": {"city": "St. Joseph", "rent": 1030, "zip": "64490"}, "st.-joseph-64494": {"city": "St. Joseph", "rent": 1060, "zip": "64494"}, "st.-joseph-64497": {"city": "St. Joseph", "rent": 940, "zip": "64497"}, "st.-joseph-64501": {"city": "St. Joseph", "rent": 1030, "zip": "64501"}, "st.-joseph-64502": {"city": "St. Joseph", "rent": 1080, "zip": "64502"}, "st.-joseph-64503": {"city": "St. Joseph", "rent": 1170, "zip": "64503"}, "st.-joseph-64504": {"city": "St. Joseph", "rent": 1090, "zip": "64504"}, "st.-joseph-64505": {"city": "St. Joseph", "rent": 1160, "zip": "64505"}, "st.-joseph-64506": {"city": "St. Joseph", "rent": 1080, "zip": "64506"}, "st.-joseph-64507": {"city": "St. Joseph", "rent": 1110, "zip": "64507"}, "st.-joseph-64508": {"city": "St. Joseph", "rent": 1080, "zip": "64508"}, "st.-joseph-64670": {"city": "St. Joseph", "rent": 940, "zip": "64670"}, "st.-joseph-66002": {"city": "St. Joseph", "rent": 1030, "zip": "66002"}, "st.-joseph-66008": {"city": "St. Joseph", "rent": 940, "zip": "66008"}, "st.-joseph-66017": {"city": "St. Joseph", "rent": 940, "zip": "66017"}, "st.-joseph-66024": {"city": "St. Joseph", "rent": 1090, "zip": "66024"}, "st.-joseph-66035": {"city": "St. Joseph", "rent": 940, "zip": "66035"}, "st.-joseph-66041": {"city": "St. Joseph", "rent": 940, "zip": "66041"}, "st.-joseph-66087": {"city": "St. Joseph", "rent": 940, "zip": "66087"}, "st.-joseph-66090": {"city": "St. Joseph", "rent": 970, "zip": "66090"}, "st.-joseph-66094": {"city": "St. Joseph", "rent": 940, "zip": "66094"}, "st.-joseph-66532": {"city": "St. Joseph", "rent": 940, "zip": "66532"}, "st.-louis-62001": {"city": "St. Louis", "rent": 990, "zip": "62001"}, "st.-louis-62002": {"city": "St. Louis", "rent": 1160, "zip": "62002"}, "st.-louis-62006": {"city": "St. Louis", "rent": 990, "zip": "62006"}, "st.-louis-62010": {"city": "St. Louis", "rent": 1020, "zip": "62010"}, "st.-louis-62012": {"city": "St. Louis", "rent": 1130, "zip": "62012"}, "st.-louis-62013": {"city": "St. Louis", "rent": 990, "zip": "62013"}, "st.-louis-62018": {"city": "St. Louis", "rent": 1160, "zip": "62018"}, "st.-louis-62021": {"city": "St. Louis", "rent": 1050, "zip": "62021"}, "st.-louis-62022": {"city": "St. Louis", "rent": 1040, "zip": "62022"}, "st.-louis-62024": {"city": "St. Louis", "rent": 990, "zip": "62024"}, "st.-louis-62025": {"city": "St. Louis", "rent": 1340, "zip": "62025"}, "st.-louis-62026": {"city": "St. Louis", "rent": 1340, "zip": "62026"}, "st.-louis-62028": {"city": "St. Louis", "rent": 990, "zip": "62028"}, "st.-louis-62030": {"city": "St. Louis", "rent": 1080, "zip": "62030"}, "st.-louis-62031": {"city": "St. Louis", "rent": 990, "zip": "62031"}, "st.-louis-62034": {"city": "St. Louis", "rent": 1240, "zip": "62034"}, "st.-louis-62035": {"city": "St. Louis", "rent": 1280, "zip": "62035"}, "st.-louis-62036": {"city": "St. Louis", "rent": 1200, "zip": "62036"}, "st.-louis-62037": {"city": "St. Louis", "rent": 990, "zip": "62037"}, "st.-louis-62040": {"city": "St. Louis", "rent": 1040, "zip": "62040"}, "st.-louis-62045": {"city": "St. Louis", "rent": 1030, "zip": "62045"}, "st.-louis-62046": {"city": "St. Louis", "rent": 1090, "zip": "62046"}, "st.-louis-62047": {"city": "St. Louis", "rent": 990, "zip": "62047"}, "st.-louis-62048": {"city": "St. Louis", "rent": 1070, "zip": "62048"}, "st.-louis-62052": {"city": "St. Louis", "rent": 990, "zip": "62052"}, "st.-louis-62053": {"city": "St. Louis", "rent": 990, "zip": "62053"}, "st.-louis-62054": {"city": "St. Louis", "rent": 990, "zip": "62054"}, "st.-louis-62058": {"city": "St. Louis", "rent": 990, "zip": "62058"}, "st.-louis-62059": {"city": "St. Louis", "rent": 990, "zip": "62059"}, "st.-louis-62060": {"city": "St. Louis", "rent": 1080, "zip": "62060"}, "st.-louis-62061": {"city": "St. Louis", "rent": 1050, "zip": "62061"}, "st.-louis-62062": {"city": "St. Louis", "rent": 1090, "zip": "62062"}, "st.-louis-62063": {"city": "St. Louis", "rent": 990, "zip": "62063"}, "st.-louis-62065": {"city": "St. Louis", "rent": 990, "zip": "62065"}, "st.-louis-62067": {"city": "St. Louis", "rent": 1160, "zip": "62067"}, "st.-louis-62070": {"city": "St. Louis", "rent": 990, "zip": "62070"}, "st.-louis-62071": {"city": "St. Louis", "rent": 1190, "zip": "62071"}, "st.-louis-62074": {"city": "St. Louis", "rent": 990, "zip": "62074"}, "st.-louis-62079": {"city": "St. Louis", "rent": 990, "zip": "62079"}, "st.-louis-62084": {"city": "St. Louis", "rent": 1060, "zip": "62084"}, "st.-louis-62086": {"city": "St. Louis", "rent": 990, "zip": "62086"}, "st.-louis-62087": {"city": "St. Louis", "rent": 990, "zip": "62087"}, "st.-louis-62088": {"city": "St. Louis", "rent": 1030, "zip": "62088"}, "st.-louis-62090": {"city": "St. Louis", "rent": 1000, "zip": "62090"}, "st.-louis-62095": {"city": "St. Louis", "rent": 1040, "zip": "62095"}, "st.-louis-62097": {"city": "St. Louis", "rent": 1110, "zip": "62097"}, "st.-louis-62201": {"city": "St. Louis", "rent": 990, "zip": "62201"}, "st.-louis-62202": {"city": "St. Louis", "rent": 1190, "zip": "62202"}, "st.-louis-62203": {"city": "St. Louis", "rent": 1130, "zip": "62203"}, "st.-louis-62204": {"city": "St. Louis", "rent": 990, "zip": "62204"}, "st.-louis-62205": {"city": "St. Louis", "rent": 1170, "zip": "62205"}, "st.-louis-62206": {"city": "St. Louis", "rent": 1190, "zip": "62206"}, "st.-louis-62207": {"city": "St. Louis", "rent": 990, "zip": "62207"}, "st.-louis-62208": {"city": "St. Louis", "rent": 1320, "zip": "62208"}, "st.-louis-62215": {"city": "St. Louis", "rent": 1290, "zip": "62215"}, "st.-louis-62216": {"city": "St. Louis", "rent": 1170, "zip": "62216"}, "st.-louis-62218": {"city": "St. Louis", "rent": 1020, "zip": "62218"}, "st.-louis-62219": {"city": "St. Louis", "rent": 1130, "zip": "62219"}, "st.-louis-62220": {"city": "St. Louis", "rent": 1080, "zip": "62220"}, "st.-louis-62221": {"city": "St. Louis", "rent": 1230, "zip": "62221"}, "st.-louis-62222": {"city": "St. Louis", "rent": 1190, "zip": "62222"}, "st.-louis-62223": {"city": "St. Louis", "rent": 1180, "zip": "62223"}, "st.-louis-62225": {"city": "St. Louis", "rent": 1830, "zip": "62225"}, "st.-louis-62226": {"city": "St. Louis", "rent": 1090, "zip": "62226"}, "st.-louis-62230": {"city": "St. Louis", "rent": 1020, "zip": "62230"}, "st.-louis-62231": {"city": "St. Louis", "rent": 1160, "zip": "62231"}, "st.-louis-62232": {"city": "St. Louis", "rent": 1220, "zip": "62232"}, "st.-louis-62234": {"city": "St. Louis", "rent": 1120, "zip": "62234"}, "st.-louis-62236": {"city": "St. Louis", "rent": 1220, "zip": "62236"}, "st.-louis-62239": {"city": "St. Louis", "rent": 1060, "zip": "62239"}, "st.-louis-62240": {"city": "St. Louis", "rent": 1180, "zip": "62240"}, "st.-louis-62243": {"city": "St. Louis", "rent": 1270, "zip": "62243"}, "st.-louis-62244": {"city": "St. Louis", "rent": 1160, "zip": "62244"}, "st.-louis-62245": {"city": "St. Louis", "rent": 990, "zip": "62245"}, "st.-louis-62246": {"city": "St. Louis", "rent": 990, "zip": "62246"}, "st.-louis-62248": {"city": "St. Louis", "rent": 990, "zip": "62248"}, "st.-louis-62249": {"city": "St. Louis", "rent": 990, "zip": "62249"}, "st.-louis-62250": {"city": "St. Louis", "rent": 990, "zip": "62250"}, "st.-louis-62252": {"city": "St. Louis", "rent": 1110, "zip": "62252"}, "st.-louis-62253": {"city": "St. Louis", "rent": 990, "zip": "62253"}, "st.-louis-62254": {"city": "St. Louis", "rent": 1340, "zip": "62254"}, "st.-louis-62255": {"city": "St. Louis", "rent": 1000, "zip": "62255"}, "st.-louis-62256": {"city": "St. Louis", "rent": 1160, "zip": "62256"}, "st.-louis-62257": {"city": "St. Louis", "rent": 990, "zip": "62257"}, "st.-louis-62258": {"city": "St. Louis", "rent": 1310, "zip": "62258"}, "st.-louis-62260": {"city": "St. Louis", "rent": 1300, "zip": "62260"}, "st.-louis-62264": {"city": "St. Louis", "rent": 1110, "zip": "62264"}, "st.-louis-62265": {"city": "St. Louis", "rent": 1350, "zip": "62265"}, "st.-louis-62266": {"city": "St. Louis", "rent": 1240, "zip": "62266"}, "st.-louis-62269": {"city": "St. Louis", "rent": 1420, "zip": "62269"}, "st.-louis-62275": {"city": "St. Louis", "rent": 1130, "zip": "62275"}, "st.-louis-62277": {"city": "St. Louis", "rent": 990, "zip": "62277"}, "st.-louis-62278": {"city": "St. Louis", "rent": 1000, "zip": "62278"}, "st.-louis-62279": {"city": "St. Louis", "rent": 990, "zip": "62279"}, "st.-louis-62281": {"city": "St. Louis", "rent": 1540, "zip": "62281"}, "st.-louis-62282": {"city": "St. Louis", "rent": 990, "zip": "62282"}, "st.-louis-62285": {"city": "St. Louis", "rent": 990, "zip": "62285"}, "st.-louis-62289": {"city": "St. Louis", "rent": 1010, "zip": "62289"}, "st.-louis-62293": {"city": "St. Louis", "rent": 990, "zip": "62293"}, "st.-louis-62294": {"city": "St. Louis", "rent": 1180, "zip": "62294"}, "st.-louis-62295": {"city": "St. Louis", "rent": 1460, "zip": "62295"}, "st.-louis-62298": {"city": "St. Louis", "rent": 1050, "zip": "62298"}, "st.-louis-62355": {"city": "St. Louis", "rent": 1260, "zip": "62355"}, "st.-louis-62366": {"city": "St. Louis", "rent": 990, "zip": "62366"}, "st.-louis-62801": {"city": "St. Louis", "rent": 990, "zip": "62801"}, "st.-louis-62875": {"city": "St. Louis", "rent": 1090, "zip": "62875"}, "st.-louis-62882": {"city": "St. Louis", "rent": 990, "zip": "62882"}, "st.-louis-63005": {"city": "St. Louis", "rent": 1670, "zip": "63005"}, "st.-louis-63006": {"city": "St. Louis", "rent": 1300, "zip": "63006"}, "st.-louis-63010": {"city": "St. Louis", "rent": 1210, "zip": "63010"}, "st.-louis-63011": {"city": "St. Louis", "rent": 1810, "zip": "63011"}, "st.-louis-63012": {"city": "St. Louis", "rent": 1380, "zip": "63012"}, "st.-louis-63013": {"city": "St. Louis", "rent": 990, "zip": "63013"}, "st.-louis-63014": {"city": "St. Louis", "rent": 990, "zip": "63014"}, "st.-louis-63015": {"city": "St. Louis", "rent": 1040, "zip": "63015"}, "st.-louis-63016": {"city": "St. Louis", "rent": 1010, "zip": "63016"}, "st.-louis-63017": {"city": "St. Louis", "rent": 1710, "zip": "63017"}, "st.-louis-63019": {"city": "St. Louis", "rent": 1070, "zip": "63019"}, "st.-louis-63020": {"city": "St. Louis", "rent": 1010, "zip": "63020"}, "st.-louis-63021": {"city": "St. Louis", "rent": 1440, "zip": "63021"}, "st.-louis-63022": {"city": "St. Louis", "rent": 1300, "zip": "63022"}, "st.-louis-63023": {"city": "St. Louis", "rent": 1230, "zip": "63023"}, "st.-louis-63024": {"city": "St. Louis", "rent": 1300, "zip": "63024"}, "st.-louis-63025": {"city": "St. Louis", "rent": 1370, "zip": "63025"}, "st.-louis-63026": {"city": "St. Louis", "rent": 1220, "zip": "63026"}, "st.-louis-63028": {"city": "St. Louis", "rent": 1070, "zip": "63028"}, "st.-louis-63030": {"city": "St. Louis", "rent": 1040, "zip": "63030"}, "st.-louis-63031": {"city": "St. Louis", "rent": 1440, "zip": "63031"}, "st.-louis-63032": {"city": "St. Louis", "rent": 1300, "zip": "63032"}, "st.-louis-63033": {"city": "St. Louis", "rent": 1250, "zip": "63033"}, "st.-louis-63034": {"city": "St. Louis", "rent": 1830, "zip": "63034"}, "st.-louis-63037": {"city": "St. Louis", "rent": 990, "zip": "63037"}, "st.-louis-63038": {"city": "St. Louis", "rent": 1500, "zip": "63038"}, "st.-louis-63039": {"city": "St. Louis", "rent": 1160, "zip": "63039"}, "st.-louis-63040": {"city": "St. Louis", "rent": 1620, "zip": "63040"}, "st.-louis-63041": {"city": "St. Louis", "rent": 1210, "zip": "63041"}, "st.-louis-63042": {"city": "St. Louis", "rent": 1110, "zip": "63042"}, "st.-louis-63043": {"city": "St. Louis", "rent": 1340, "zip": "63043"}, "st.-louis-63044": {"city": "St. Louis", "rent": 1150, "zip": "63044"}, "st.-louis-63045": {"city": "St. Louis", "rent": 1300, "zip": "63045"}, "st.-louis-63047": {"city": "St. Louis", "rent": 1100, "zip": "63047"}, "st.-louis-63048": {"city": "St. Louis", "rent": 1830, "zip": "63048"}, "st.-louis-63049": {"city": "St. Louis", "rent": 1080, "zip": "63049"}, "st.-louis-63050": {"city": "St. Louis", "rent": 1090, "zip": "63050"}, "st.-louis-63051": {"city": "St. Louis", "rent": 1200, "zip": "63051"}, "st.-louis-63052": {"city": "St. Louis", "rent": 1060, "zip": "63052"}, "st.-louis-63053": {"city": "St. Louis", "rent": 1080, "zip": "63053"}, "st.-louis-63055": {"city": "St. Louis", "rent": 1030, "zip": "63055"}, "st.-louis-63056": {"city": "St. Louis", "rent": 990, "zip": "63056"}, "st.-louis-63057": {"city": "St. Louis", "rent": 1100, "zip": "63057"}, "st.-louis-63060": {"city": "St. Louis", "rent": 1280, "zip": "63060"}, "st.-louis-63061": {"city": "St. Louis", "rent": 1280, "zip": "63061"}, "st.-louis-63065": {"city": "St. Louis", "rent": 1100, "zip": "63065"}, "st.-louis-63066": {"city": "St. Louis", "rent": 1100, "zip": "63066"}, "st.-louis-63068": {"city": "St. Louis", "rent": 990, "zip": "63068"}, "st.-louis-63069": {"city": "St. Louis", "rent": 1010, "zip": "63069"}, "st.-louis-63070": {"city": "St. Louis", "rent": 990, "zip": "63070"}, "st.-louis-63071": {"city": "St. Louis", "rent": 1070, "zip": "63071"}, "st.-louis-63072": {"city": "St. Louis", "rent": 1090, "zip": "63072"}, "st.-louis-63073": {"city": "St. Louis", "rent": 1280, "zip": "63073"}, "st.-louis-63074": {"city": "St. Louis", "rent": 1090, "zip": "63074"}, "st.-louis-63077": {"city": "St. Louis", "rent": 990, "zip": "63077"}, "st.-louis-63079": {"city": "St. Louis", "rent": 990, "zip": "63079"}, "st.-louis-63080": {"city": "St. Louis", "rent": 990, "zip": "63080"}, "st.-louis-63084": {"city": "St. Louis", "rent": 990, "zip": "63084"}, "st.-louis-63087": {"city": "St. Louis", "rent": 990, "zip": "63087"}, "st.-louis-63088": {"city": "St. Louis", "rent": 1420, "zip": "63088"}, "st.-louis-63089": {"city": "St. Louis", "rent": 1320, "zip": "63089"}, "st.-louis-63090": {"city": "St. Louis", "rent": 990, "zip": "63090"}, "st.-louis-63091": {"city": "St. Louis", "rent": 990, "zip": "63091"}, "st.-louis-63101": {"city": "St. Louis", "rent": 1460, "zip": "63101"}, "st.-louis-63102": {"city": "St. Louis", "rent": 1280, "zip": "63102"}, "st.-louis-63103": {"city": "St. Louis", "rent": 1310, "zip": "63103"}, "st.-louis-63104": {"city": "St. Louis", "rent": 1330, "zip": "63104"}, "st.-louis-63105": {"city": "St. Louis", "rent": 1730, "zip": "63105"}, "st.-louis-63106": {"city": "St. Louis", "rent": 990, "zip": "63106"}, "st.-louis-63107": {"city": "St. Louis", "rent": 1030, "zip": "63107"}, "st.-louis-63108": {"city": "St. Louis", "rent": 1810, "zip": "63108"}, "st.-louis-63109": {"city": "St. Louis", "rent": 1240, "zip": "63109"}, "st.-louis-63110": {"city": "St. Louis", "rent": 1440, "zip": "63110"}, "st.-louis-63111": {"city": "St. Louis", "rent": 990, "zip": "63111"}, "st.-louis-63112": {"city": "St. Louis", "rent": 1140, "zip": "63112"}, "st.-louis-63113": {"city": "St. Louis", "rent": 1110, "zip": "63113"}, "st.-louis-63114": {"city": "St. Louis", "rent": 1260, "zip": "63114"}, "st.-louis-63115": {"city": "St. Louis", "rent": 1060, "zip": "63115"}, "st.-louis-63116": {"city": "St. Louis", "rent": 1170, "zip": "63116"}, "st.-louis-63117": {"city": "St. Louis", "rent": 1360, "zip": "63117"}, "st.-louis-63118": {"city": "St. Louis", "rent": 1160, "zip": "63118"}, "st.-louis-63119": {"city": "St. Louis", "rent": 1280, "zip": "63119"}, "st.-louis-63120": {"city": "St. Louis", "rent": 1030, "zip": "63120"}, "st.-louis-63121": {"city": "St. Louis", "rent": 1110, "zip": "63121"}, "st.-louis-63122": {"city": "St. Louis", "rent": 1420, "zip": "63122"}, "st.-louis-63123": {"city": "St. Louis", "rent": 1230, "zip": "63123"}, "st.-louis-63124": {"city": "St. Louis", "rent": 1830, "zip": "63124"}, "st.-louis-63125": {"city": "St. Louis", "rent": 1110, "zip": "63125"}, "st.-louis-63126": {"city": "St. Louis", "rent": 1250, "zip": "63126"}, "st.-louis-63127": {"city": "St. Louis", "rent": 1290, "zip": "63127"}, "st.-louis-63128": {"city": "St. Louis", "rent": 1220, "zip": "63128"}, "st.-louis-63129": {"city": "St. Louis", "rent": 1200, "zip": "63129"}, "st.-louis-63130": {"city": "St. Louis", "rent": 1360, "zip": "63130"}, "st.-louis-63131": {"city": "St. Louis", "rent": 1830, "zip": "63131"}, "st.-louis-63132": {"city": "St. Louis", "rent": 1460, "zip": "63132"}, "st.-louis-63133": {"city": "St. Louis", "rent": 1160, "zip": "63133"}, "st.-louis-63134": {"city": "St. Louis", "rent": 1270, "zip": "63134"}, "st.-louis-63135": {"city": "St. Louis", "rent": 1290, "zip": "63135"}, "st.-louis-63136": {"city": "St. Louis", "rent": 1100, "zip": "63136"}, "st.-louis-63137": {"city": "St. Louis", "rent": 1170, "zip": "63137"}, "st.-louis-63138": {"city": "St. Louis", "rent": 1190, "zip": "63138"}, "st.-louis-63139": {"city": "St. Louis", "rent": 1340, "zip": "63139"}, "st.-louis-63140": {"city": "St. Louis", "rent": 990, "zip": "63140"}, "st.-louis-63141": {"city": "St. Louis", "rent": 1630, "zip": "63141"}, "st.-louis-63143": {"city": "St. Louis", "rent": 1010, "zip": "63143"}, "st.-louis-63144": {"city": "St. Louis", "rent": 1640, "zip": "63144"}, "st.-louis-63145": {"city": "St. Louis", "rent": 1300, "zip": "63145"}, "st.-louis-63146": {"city": "St. Louis", "rent": 1550, "zip": "63146"}, "st.-louis-63147": {"city": "St. Louis", "rent": 1090, "zip": "63147"}, "st.-louis-63151": {"city": "St. Louis", "rent": 1300, "zip": "63151"}, "st.-louis-63155": {"city": "St. Louis", "rent": 1130, "zip": "63155"}, "st.-louis-63156": {"city": "St. Louis", "rent": 1130, "zip": "63156"}, "st.-louis-63166": {"city": "St. Louis", "rent": 1130, "zip": "63166"}, "st.-louis-63177": {"city": "St. Louis", "rent": 1130, "zip": "63177"}, "st.-louis-63178": {"city": "St. Louis", "rent": 1130, "zip": "63178"}, "st.-louis-63180": {"city": "St. Louis", "rent": 1130, "zip": "63180"}, "st.-louis-63301": {"city": "St. Louis", "rent": 1220, "zip": "63301"}, "st.-louis-63302": {"city": "St. Louis", "rent": 1420, "zip": "63302"}, "st.-louis-63303": {"city": "St. Louis", "rent": 1490, "zip": "63303"}, "st.-louis-63304": {"city": "St. Louis", "rent": 1730, "zip": "63304"}, "st.-louis-63332": {"city": "St. Louis", "rent": 1550, "zip": "63332"}, "st.-louis-63333": {"city": "St. Louis", "rent": 990, "zip": "63333"}, "st.-louis-63334": {"city": "St. Louis", "rent": 990, "zip": "63334"}, "st.-louis-63338": {"city": "St. Louis", "rent": 1420, "zip": "63338"}, "st.-louis-63341": {"city": "St. Louis", "rent": 1580, "zip": "63341"}, "st.-louis-63342": {"city": "St. Louis", "rent": 1110, "zip": "63342"}, "st.-louis-63343": {"city": "St. Louis", "rent": 1150, "zip": "63343"}, "st.-louis-63344": {"city": "St. Louis", "rent": 1000, "zip": "63344"}, "st.-louis-63346": {"city": "St. Louis", "rent": 1420, "zip": "63346"}, "st.-louis-63347": {"city": "St. Louis", "rent": 1030, "zip": "63347"}, "st.-louis-63348": {"city": "St. Louis", "rent": 1750, "zip": "63348"}, "st.-louis-63349": {"city": "St. Louis", "rent": 1090, "zip": "63349"}, "st.-louis-63351": {"city": "St. Louis", "rent": 990, "zip": "63351"}, "st.-louis-63357": {"city": "St. Louis", "rent": 1220, "zip": "63357"}, "st.-louis-63359": {"city": "St. Louis", "rent": 990, "zip": "63359"}, "st.-louis-63362": {"city": "St. Louis", "rent": 1240, "zip": "63362"}, "st.-louis-63363": {"city": "St. Louis", "rent": 990, "zip": "63363"}, "st.-louis-63365": {"city": "St. Louis", "rent": 1380, "zip": "63365"}, "st.-louis-63366": {"city": "St. Louis", "rent": 1390, "zip": "63366"}, "st.-louis-63367": {"city": "St. Louis", "rent": 1680, "zip": "63367"}, "st.-louis-63368": {"city": "St. Louis", "rent": 1570, "zip": "63368"}, "st.-louis-63369": {"city": "St. Louis", "rent": 1210, "zip": "63369"}, "st.-louis-63373": {"city": "St. Louis", "rent": 1170, "zip": "63373"}, "st.-louis-63376": {"city": "St. Louis", "rent": 1350, "zip": "63376"}, "st.-louis-63377": {"city": "St. Louis", "rent": 990, "zip": "63377"}, "st.-louis-63378": {"city": "St. Louis", "rent": 1110, "zip": "63378"}, "st.-louis-63379": {"city": "St. Louis", "rent": 1160, "zip": "63379"}, "st.-louis-63380": {"city": "St. Louis", "rent": 1190, "zip": "63380"}, "st.-louis-63381": {"city": "St. Louis", "rent": 1110, "zip": "63381"}, "st.-louis-63383": {"city": "St. Louis", "rent": 1100, "zip": "63383"}, "st.-louis-63385": {"city": "St. Louis", "rent": 1380, "zip": "63385"}, "st.-louis-63386": {"city": "St. Louis", "rent": 1050, "zip": "63386"}, "st.-louis-63387": {"city": "St. Louis", "rent": 990, "zip": "63387"}, "st.-louis-63389": {"city": "St. Louis", "rent": 1020, "zip": "63389"}, "st.-louis-63390": {"city": "St. Louis", "rent": 1090, "zip": "63390"}, "st.-louis-63627": {"city": "St. Louis", "rent": 1010, "zip": "63627"}, "st.-louis-63628": {"city": "St. Louis", "rent": 990, "zip": "63628"}, "st.-louis-65041": {"city": "St. Louis", "rent": 990, "zip": "65041"}, "st.-louis-65066": {"city": "St. Louis", "rent": 990, "zip": "65066"}, "st.-louis-65441": {"city": "St. Louis", "rent": 990, "zip": "65441"}, "st.-louis-65453": {"city": "St. Louis", "rent": 990, "zip": "65453"}, "springfield-65604": {"city": "Springfield", "rent": 900, "zip": "65604"}, "springfield-65610": {"city": "Springfield", "rent": 960, "zip": "65610"}, "springfield-65612": {"city": "Springfield", "rent": 1010, "zip": "65612"}, "springfield-65614": {"city": "Springfield", "rent": 980, "zip": "65614"}, "springfield-65617": {"city": "Springfield", "rent": 1040, "zip": "65617"}, "springfield-65619": {"city": "Springfield", "rent": 1100, "zip": "65619"}, "springfield-65620": {"city": "Springfield", "rent": 930, "zip": "65620"}, "springfield-65629": {"city": "Springfield", "rent": 910, "zip": "65629"}, "springfield-65630": {"city": "Springfield", "rent": 1050, "zip": "65630"}, "springfield-65631": {"city": "Springfield", "rent": 1320, "zip": "65631"}, "springfield-65632": {"city": "Springfield", "rent": 920, "zip": "65632"}, "springfield-65636": {"city": "Springfield", "rent": 910, "zip": "65636"}, "springfield-65644": {"city": "Springfield", "rent": 970, "zip": "65644"}, "springfield-65648": {"city": "Springfield", "rent": 1020, "zip": "65648"}, "springfield-65652": {"city": "Springfield", "rent": 900, "zip": "65652"}, "springfield-65653": {"city": "Springfield", "rent": 900, "zip": "65653"}, "springfield-65656": {"city": "Springfield", "rent": 900, "zip": "65656"}, "springfield-65657": {"city": "Springfield", "rent": 930, "zip": "65657"}, "springfield-65662": {"city": "Springfield", "rent": 910, "zip": "65662"}, "springfield-65667": {"city": "Springfield", "rent": 940, "zip": "65667"}, "springfield-65669": {"city": "Springfield", "rent": 1230, "zip": "65669"}, "springfield-65705": {"city": "Springfield", "rent": 910, "zip": "65705"}, "springfield-65706": {"city": "Springfield", "rent": 910, "zip": "65706"}, "springfield-65713": {"city": "Springfield", "rent": 900, "zip": "65713"}, "springfield-65714": {"city": "Springfield", "rent": 1160, "zip": "65714"}, "springfield-65720": {"city": "Springfield", "rent": 900, "zip": "65720"}, "springfield-65721": {"city": "Springfield", "rent": 1150, "zip": "65721"}, "springfield-65725": {"city": "Springfield", "rent": 1080, "zip": "65725"}, "springfield-65728": {"city": "Springfield", "rent": 1120, "zip": "65728"}, "springfield-65737": {"city": "Springfield", "rent": 910, "zip": "65737"}, "springfield-65738": {"city": "Springfield", "rent": 1280, "zip": "65738"}, "springfield-65742": {"city": "Springfield", "rent": 990, "zip": "65742"}, "springfield-65746": {"city": "Springfield", "rent": 900, "zip": "65746"}, "springfield-65753": {"city": "Springfield", "rent": 960, "zip": "65753"}, "springfield-65754": {"city": "Springfield", "rent": 1030, "zip": "65754"}, "springfield-65757": {"city": "Springfield", "rent": 1180, "zip": "65757"}, "springfield-65759": {"city": "Springfield", "rent": 900, "zip": "65759"}, "springfield-65765": {"city": "Springfield", "rent": 1100, "zip": "65765"}, "springfield-65770": {"city": "Springfield", "rent": 900, "zip": "65770"}, "springfield-65771": {"city": "Springfield", "rent": 980, "zip": "65771"}, "springfield-65781": {"city": "Springfield", "rent": 1290, "zip": "65781"}, "springfield-65801": {"city": "Springfield", "rent": 1100, "zip": "65801"}, "springfield-65802": {"city": "Springfield", "rent": 980, "zip": "65802"}, "springfield-65803": {"city": "Springfield", "rent": 1060, "zip": "65803"}, "springfield-65804": {"city": "Springfield", "rent": 1090, "zip": "65804"}, "springfield-65805": {"city": "Springfield", "rent": 1100, "zip": "65805"}, "springfield-65806": {"city": "Springfield", "rent": 1100, "zip": "65806"}, "springfield-65807": {"city": "Springfield", "rent": 1200, "zip": "65807"}, "springfield-65808": {"city": "Springfield", "rent": 1100, "zip": "65808"}, "springfield-65809": {"city": "Springfield", "rent": 1160, "zip": "65809"}, "springfield-65810": {"city": "Springfield", "rent": 1260, "zip": "65810"}, "springfield-65814": {"city": "Springfield", "rent": 1100, "zip": "65814"}, "springfield-65890": {"city": "Springfield", "rent": 1100, "zip": "65890"}, "springfield-65897": {"city": "Springfield", "rent": 1130, "zip": "65897"}, "springfield-65898": {"city": "Springfield", "rent": 1100, "zip": "65898"}, "dallas-county-65463": {"city": "Dallas County", "rent": 920, "zip": "65463"}, "dallas-county-65536": {"city": "Dallas County", "rent": 920, "zip": "65536"}, "dallas-county-65590": {"city": "Dallas County", "rent": 970, "zip": "65590"}, "dallas-county-65622": {"city": "Dallas County", "rent": 890, "zip": "65622"}, "dallas-county-65632": {"city": "Dallas County", "rent": 920, "zip": "65632"}, "dallas-county-65644": {"city": "Dallas County", "rent": 970, "zip": "65644"}, "dallas-county-65648": {"city": "Dallas County", "rent": 1020, "zip": "65648"}, "dallas-county-65685": {"city": "Dallas County", "rent": 890, "zip": "65685"}, "dallas-county-65722": {"city": "Dallas County", "rent": 890, "zip": "65722"}, "dallas-county-65732": {"city": "Dallas County", "rent": 900, "zip": "65732"}, "dallas-county-65764": {"city": "Dallas County", "rent": 900, "zip": "65764"}, "dallas-county-65767": {"city": "Dallas County", "rent": 890, "zip": "65767"}, "dallas-county-65783": {"city": "Dallas County", "rent": 920, "zip": "65783"}, "dallas-county-65786": {"city": "Dallas County", "rent": 890, "zip": "65786"}, "polk-county-65601": {"city": "Polk County", "rent": 890, "zip": "65601"}, "polk-county-65613": {"city": "Polk County", "rent": 900, "zip": "65613"}, "polk-county-65617": {"city": "Polk County", "rent": 1040, "zip": "65617"}, "polk-county-65622": {"city": "Polk County", "rent": 890, "zip": "65622"}, "polk-county-65640": {"city": "Polk County", "rent": 950, "zip": "65640"}, "polk-county-65648": {"city": "Polk County", "rent": 1020, "zip": "65648"}, "polk-county-65649": {"city": "Polk County", "rent": 1030, "zip": "65649"}, "polk-county-65650": {"city": "Polk County", "rent": 890, "zip": "65650"}, "polk-county-65663": {"city": "Polk County", "rent": 890, "zip": "65663"}, "polk-county-65674": {"city": "Polk County", "rent": 890, "zip": "65674"}, "polk-county-65685": {"city": "Polk County", "rent": 890, "zip": "65685"}, "polk-county-65710": {"city": "Polk County", "rent": 890, "zip": "65710"}, "polk-county-65724": {"city": "Polk County", "rent": 1000, "zip": "65724"}, "polk-county-65725": {"city": "Polk County", "rent": 1080, "zip": "65725"}, "polk-county-65727": {"city": "Polk County", "rent": 890, "zip": "65727"}, "polk-county-65767": {"city": "Polk County", "rent": 890, "zip": "65767"}, "polk-county-65770": {"city": "Polk County", "rent": 900, "zip": "65770"}, "polk-county-65781": {"city": "Polk County", "rent": 1290, "zip": "65781"}, "adair-county-63501": {"city": "Adair County", "rent": 890, "zip": "63501"}, "adair-county-63533": {"city": "Adair County", "rent": 900, "zip": "63533"}, "adair-county-63540": {"city": "Adair County", "rent": 890, "zip": "63540"}, "adair-county-63544": {"city": "Adair County", "rent": 970, "zip": "63544"}, "adair-county-63546": {"city": "Adair County", "rent": 1090, "zip": "63546"}, "adair-county-63547": {"city": "Adair County", "rent": 890, "zip": "63547"}, "adair-county-63549": {"city": "Adair County", "rent": 890, "zip": "63549"}, "adair-county-63557": {"city": "Adair County", "rent": 910, "zip": "63557"}, "adair-county-63559": {"city": "Adair County", "rent": 930, "zip": "63559"}, "atchison-county-64428": {"city": "Atchison County", "rent": 1180, "zip": "64428"}, "atchison-county-64437": {"city": "Atchison County", "rent": 1070, "zip": "64437"}, "atchison-county-64446": {"city": "Atchison County", "rent": 890, "zip": "64446"}, "atchison-county-64482": {"city": "Atchison County", "rent": 1000, "zip": "64482"}, "atchison-county-64487": {"city": "Atchison County", "rent": 890, "zip": "64487"}, "atchison-county-64491": {"city": "Atchison County", "rent": 910, "zip": "64491"}, "atchison-county-64496": {"city": "Atchison County", "rent": 1000, "zip": "64496"}, "atchison-county-64498": {"city": "Atchison County", "rent": 920, "zip": "64498"}, "audrain-county-63345": {"city": "Audrain County", "rent": 890, "zip": "63345"}, "audrain-county-63352": {"city": "Audrain County", "rent": 900, "zip": "63352"}, "audrain-county-63359": {"city": "Audrain County", "rent": 990, "zip": "63359"}, "audrain-county-63382": {"city": "Audrain County", "rent": 910, "zip": "63382"}, "audrain-county-63384": {"city": "Audrain County", "rent": 900, "zip": "63384"}, "audrain-county-65231": {"city": "Audrain County", "rent": 900, "zip": "65231"}, "audrain-county-65232": {"city": "Audrain County", "rent": 980, "zip": "65232"}, "audrain-county-65240": {"city": "Audrain County", "rent": 910, "zip": "65240"}, "audrain-county-65243": {"city": "Audrain County", "rent": 910, "zip": "65243"}, "audrain-county-65264": {"city": "Audrain County", "rent": 900, "zip": "65264"}, "audrain-county-65265": {"city": "Audrain County", "rent": 900, "zip": "65265"}, "audrain-county-65280": {"city": "Audrain County", "rent": 920, "zip": "65280"}, "audrain-county-65284": {"city": "Audrain County", "rent": 990, "zip": "65284"}, "audrain-county-65285": {"city": "Audrain County", "rent": 900, "zip": "65285"}, "barry-county-64842": {"city": "Barry County", "rent": 940, "zip": "64842"}, "barry-county-64861": {"city": "Barry County", "rent": 940, "zip": "64861"}, "barry-county-64866": {"city": "Barry County", "rent": 940, "zip": "64866"}, "barry-county-64874": {"city": "Barry County", "rent": 890, "zip": "64874"}, "barry-county-65605": {"city": "Barry County", "rent": 950, "zip": "65605"}, "barry-county-65623": {"city": "Barry County", "rent": 910, "zip": "65623"}, "barry-county-65624": {"city": "Barry County", "rent": 910, "zip": "65624"}, "barry-county-65625": {"city": "Barry County", "rent": 890, "zip": "65625"}, "barry-county-65633": {"city": "Barry County", "rent": 1130, "zip": "65633"}, "barry-county-65641": {"city": "Barry County", "rent": 920, "zip": "65641"}, "barry-county-65647": {"city": "Barry County", "rent": 910, "zip": "65647"}, "barry-county-65656": {"city": "Barry County", "rent": 900, "zip": "65656"}, "barry-county-65658": {"city": "Barry County", "rent": 890, "zip": "65658"}, "barry-county-65708": {"city": "Barry County", "rent": 950, "zip": "65708"}, "barry-county-65723": {"city": "Barry County", "rent": 940, "zip": "65723"}, "barry-county-65734": {"city": "Barry County", "rent": 940, "zip": "65734"}, "barry-county-65745": {"city": "Barry County", "rent": 1000, "zip": "65745"}, "barry-county-65747": {"city": "Barry County", "rent": 910, "zip": "65747"}, "barry-county-65769": {"city": "Barry County", "rent": 890, "zip": "65769"}, "barry-county-65772": {"city": "Barry County", "rent": 890, "zip": "65772"}, "barton-county-64728": {"city": "Barton County", "rent": 890, "zip": "64728"}, "barton-county-64748": {"city": "Barton County", "rent": 940, "zip": "64748"}, "barton-county-64755": {"city": "Barton County", "rent": 940, "zip": "64755"}, "barton-county-64759": {"city": "Barton County", "rent": 910, "zip": "64759"}, "barton-county-64762": {"city": "Barton County", "rent": 890, "zip": "64762"}, "barton-county-64769": {"city": "Barton County", "rent": 890, "zip": "64769"}, "barton-county-64784": {"city": "Barton County", "rent": 890, "zip": "64784"}, "barton-county-64832": {"city": "Barton County", "rent": 1160, "zip": "64832"}, "barton-county-64855": {"city": "Barton County", "rent": 940, "zip": "64855"}, "benton-county-64735": {"city": "Benton County", "rent": 890, "zip": "64735"}, "benton-county-64776": {"city": "Benton County", "rent": 890, "zip": "64776"}, "benton-county-65078": {"city": "Benton County", "rent": 970, "zip": "65078"}, "benton-county-65324": {"city": "Benton County", "rent": 960, "zip": "65324"}, "benton-county-65325": {"city": "Benton County", "rent": 910, "zip": "65325"}, "benton-county-65326": {"city": "Benton County", "rent": 1030, "zip": "65326"}, "benton-county-65335": {"city": "Benton County", "rent": 920, "zip": "65335"}, "benton-county-65338": {"city": "Benton County", "rent": 1000, "zip": "65338"}, "benton-county-65345": {"city": "Benton County", "rent": 960, "zip": "65345"}, "benton-county-65355": {"city": "Benton County", "rent": 930, "zip": "65355"}, "benton-county-65360": {"city": "Benton County", "rent": 900, "zip": "65360"}, "benton-county-65634": {"city": "Benton County", "rent": 980, "zip": "65634"}, "benton-county-65735": {"city": "Benton County", "rent": 890, "zip": "65735"}, "benton-county-65779": {"city": "Benton County", "rent": 890, "zip": "65779"}, "butler-county-63901": {"city": "Butler County", "rent": 900, "zip": "63901"}, "butler-county-63902": {"city": "Butler County", "rent": 900, "zip": "63902"}, "butler-county-63932": {"city": "Butler County", "rent": 940, "zip": "63932"}, "butler-county-63937": {"city": "Butler County", "rent": 890, "zip": "63937"}, "butler-county-63940": {"city": "Butler County", "rent": 970, "zip": "63940"}, "butler-county-63945": {"city": "Butler County", "rent": 890, "zip": "63945"}, "butler-county-63953": {"city": "Butler County", "rent": 890, "zip": "63953"}, "butler-county-63954": {"city": "Butler County", "rent": 890, "zip": "63954"}, "butler-county-63961": {"city": "Butler County", "rent": 890, "zip": "63961"}, "butler-county-63962": {"city": "Butler County", "rent": 900, "zip": "63962"}, "butler-county-63966": {"city": "Butler County", "rent": 890, "zip": "63966"}, "butler-county-63967": {"city": "Butler County", "rent": 890, "zip": "63967"}, "camden-county-65017": {"city": "Camden County", "rent": 890, "zip": "65017"}, "camden-county-65020": {"city": "Camden County", "rent": 930, "zip": "65020"}, "camden-county-65037": {"city": "Camden County", "rent": 960, "zip": "65037"}, "camden-county-65047": {"city": "Camden County", "rent": 890, "zip": "65047"}, "camden-county-65049": {"city": "Camden County", "rent": 1020, "zip": "65049"}, "camden-county-65052": {"city": "Camden County", "rent": 890, "zip": "65052"}, "camden-county-65065": {"city": "Camden County", "rent": 900, "zip": "65065"}, "camden-county-65079": {"city": "Camden County", "rent": 1260, "zip": "65079"}, "camden-county-65324": {"city": "Camden County", "rent": 960, "zip": "65324"}, "camden-county-65326": {"city": "Camden County", "rent": 1030, "zip": "65326"}, "camden-county-65452": {"city": "Camden County", "rent": 910, "zip": "65452"}, "camden-county-65536": {"city": "Camden County", "rent": 920, "zip": "65536"}, "camden-county-65556": {"city": "Camden County", "rent": 910, "zip": "65556"}, "camden-county-65567": {"city": "Camden County", "rent": 890, "zip": "65567"}, "camden-county-65591": {"city": "Camden County", "rent": 1130, "zip": "65591"}, "camden-county-65634": {"city": "Camden County", "rent": 980, "zip": "65634"}, "camden-county-65786": {"city": "Camden County", "rent": 890, "zip": "65786"}, "camden-county-65787": {"city": "Camden County", "rent": 1350, "zip": "65787"}, "carroll-county-64035": {"city": "Carroll County", "rent": 1190, "zip": "64035"}, "carroll-county-64622": {"city": "Carroll County", "rent": 890, "zip": "64622"}, "carroll-county-64623": {"city": "Carroll County", "rent": 890, "zip": "64623"}, "carroll-county-64624": {"city": "Carroll County", "rent": 1030, "zip": "64624"}, "carroll-county-64633": {"city": "Carroll County", "rent": 890, "zip": "64633"}, "carroll-county-64638": {"city": "Carroll County", "rent": 890, "zip": "64638"}, "carroll-county-64639": {"city": "Carroll County", "rent": 890, "zip": "64639"}, "carroll-county-64643": {"city": "Carroll County", "rent": 890, "zip": "64643"}, "carroll-county-64668": {"city": "Carroll County", "rent": 1030, "zip": "64668"}, "carroll-county-64682": {"city": "Carroll County", "rent": 890, "zip": "64682"}, "carter-county-63901": {"city": "Carter County", "rent": 900, "zip": "63901"}, "carter-county-63935": {"city": "Carter County", "rent": 930, "zip": "63935"}, "carter-county-63937": {"city": "Carter County", "rent": 890, "zip": "63937"}, "carter-county-63941": {"city": "Carter County", "rent": 920, "zip": "63941"}, "carter-county-63943": {"city": "Carter County", "rent": 1040, "zip": "63943"}, "carter-county-63965": {"city": "Carter County", "rent": 910, "zip": "63965"}, "cedar-county-64744": {"city": "Cedar County", "rent": 940, "zip": "64744"}, "cedar-county-64756": {"city": "Cedar County", "rent": 890, "zip": "64756"}, "cedar-county-64784": {"city": "Cedar County", "rent": 890, "zip": "64784"}, "cedar-county-65601": {"city": "Cedar County", "rent": 890, "zip": "65601"}, "cedar-county-65607": {"city": "Cedar County", "rent": 890, "zip": "65607"}, "cedar-county-65635": {"city": "Cedar County", "rent": 920, "zip": "65635"}, "cedar-county-65640": {"city": "Cedar County", "rent": 950, "zip": "65640"}, "cedar-county-65649": {"city": "Cedar County", "rent": 1030, "zip": "65649"}, "cedar-county-65674": {"city": "Cedar County", "rent": 890, "zip": "65674"}, "cedar-county-65785": {"city": "Cedar County", "rent": 890, "zip": "65785"}, "chariton-county-63558": {"city": "Chariton County", "rent": 890, "zip": "63558"}, "chariton-county-64628": {"city": "Chariton County", "rent": 900, "zip": "64628"}, "chariton-county-64658": {"city": "Chariton County", "rent": 890, "zip": "64658"}, "chariton-county-64660": {"city": "Chariton County", "rent": 890, "zip": "64660"}, "chariton-county-64676": {"city": "Chariton County", "rent": 900, "zip": "64676"}, "chariton-county-64681": {"city": "Chariton County", "rent": 950, "zip": "64681"}, "chariton-county-65236": {"city": "Chariton County", "rent": 890, "zip": "65236"}, "chariton-county-65244": {"city": "Chariton County", "rent": 910, "zip": "65244"}, "chariton-county-65246": {"city": "Chariton County", "rent": 890, "zip": "65246"}, "chariton-county-65254": {"city": "Chariton County", "rent": 950, "zip": "65254"}, "chariton-county-65261": {"city": "Chariton County", "rent": 890, "zip": "65261"}, "chariton-county-65281": {"city": "Chariton County", "rent": 990, "zip": "65281"}, "chariton-county-65286": {"city": "Chariton County", "rent": 890, "zip": "65286"}, "clark-county-52626": {"city": "Clark County", "rent": 970, "zip": "52626"}, "clark-county-63430": {"city": "Clark County", "rent": 910, "zip": "63430"}, "clark-county-63432": {"city": "Clark County", "rent": 890, "zip": "63432"}, "clark-county-63435": {"city": "Clark County", "rent": 890, "zip": "63435"}, "clark-county-63445": {"city": "Clark County", "rent": 890, "zip": "63445"}, "clark-county-63453": {"city": "Clark County", "rent": 890, "zip": "63453"}, "clark-county-63465": {"city": "Clark County", "rent": 930, "zip": "63465"}, "clark-county-63466": {"city": "Clark County", "rent": 890, "zip": "63466"}, "clark-county-63472": {"city": "Clark County", "rent": 980, "zip": "63472"}, "clark-county-63473": {"city": "Clark County", "rent": 900, "zip": "63473"}, "clark-county-63474": {"city": "Clark County", "rent": 900, "zip": "63474"}, "clark-county-63543": {"city": "Clark County", "rent": 1070, "zip": "63543"}, "crawford-county-63080": {"city": "Crawford County", "rent": 990, "zip": "63080"}, "crawford-county-65066": {"city": "Crawford County", "rent": 990, "zip": "65066"}, "crawford-county-65441": {"city": "Crawford County", "rent": 990, "zip": "65441"}, "crawford-county-65446": {"city": "Crawford County", "rent": 890, "zip": "65446"}, "crawford-county-65449": {"city": "Crawford County", "rent": 910, "zip": "65449"}, "crawford-county-65453": {"city": "Crawford County", "rent": 990, "zip": "65453"}, "crawford-county-65456": {"city": "Crawford County", "rent": 890, "zip": "65456"}, "crawford-county-65535": {"city": "Crawford County", "rent": 890, "zip": "65535"}, "crawford-county-65559": {"city": "Crawford County", "rent": 950, "zip": "65559"}, "crawford-county-65560": {"city": "Crawford County", "rent": 900, "zip": "65560"}, "crawford-county-65565": {"city": "Crawford County", "rent": 890, "zip": "65565"}, "crawford-county-65566": {"city": "Crawford County", "rent": 890, "zip": "65566"}, "crawford-county-65586": {"city": "Crawford County", "rent": 890, "zip": "65586"}, "dade-county-64748": {"city": "Dade County", "rent": 940, "zip": "64748"}, "dade-county-64756": {"city": "Dade County", "rent": 890, "zip": "64756"}, "dade-county-64759": {"city": "Dade County", "rent": 910, "zip": "64759"}, "dade-county-65601": {"city": "Dade County", "rent": 890, "zip": "65601"}, "dade-county-65603": {"city": "Dade County", "rent": 900, "zip": "65603"}, "dade-county-65604": {"city": "Dade County", "rent": 900, "zip": "65604"}, "dade-county-65635": {"city": "Dade County", "rent": 920, "zip": "65635"}, "dade-county-65646": {"city": "Dade County", "rent": 970, "zip": "65646"}, "dade-county-65661": {"city": "Dade County", "rent": 890, "zip": "65661"}, "dade-county-65682": {"city": "Dade County", "rent": 950, "zip": "65682"}, "dade-county-65752": {"city": "Dade County", "rent": 990, "zip": "65752"}, "dade-county-65770": {"city": "Dade County", "rent": 900, "zip": "65770"}, "dade-county-65785": {"city": "Dade County", "rent": 890, "zip": "65785"}, "daviess-county-64429": {"city": "Daviess County", "rent": 1220, "zip": "64429"}, "daviess-county-64497": {"city": "Daviess County", "rent": 940, "zip": "64497"}, "daviess-county-64601": {"city": "Daviess County", "rent": 900, "zip": "64601"}, "daviess-county-64620": {"city": "Daviess County", "rent": 890, "zip": "64620"}, "daviess-county-64625": {"city": "Daviess County", "rent": 1030, "zip": "64625"}, "daviess-county-64636": {"city": "Daviess County", "rent": 1140, "zip": "64636"}, "daviess-county-64640": {"city": "Daviess County", "rent": 920, "zip": "64640"}, "daviess-county-64642": {"city": "Daviess County", "rent": 900, "zip": "64642"}, "daviess-county-64644": {"city": "Daviess County", "rent": 1030, "zip": "64644"}, "daviess-county-64647": {"city": "Daviess County", "rent": 890, "zip": "64647"}, "daviess-county-64648": {"city": "Daviess County", "rent": 940, "zip": "64648"}, "daviess-county-64649": {"city": "Daviess County", "rent": 1040, "zip": "64649"}, "daviess-county-64654": {"city": "Daviess County", "rent": 940, "zip": "64654"}, "daviess-county-64657": {"city": "Daviess County", "rent": 900, "zip": "64657"}, "daviess-county-64670": {"city": "Daviess County", "rent": 940, "zip": "64670"}, "daviess-county-64683": {"city": "Daviess County", "rent": 900, "zip": "64683"}, "daviess-county-64689": {"city": "Daviess County", "rent": 930, "zip": "64689"}, "dent-county-63629": {"city": "Dent County", "rent": 910, "zip": "63629"}, "dent-county-63638": {"city": "Dent County", "rent": 890, "zip": "63638"}, "dent-county-65401": {"city": "Dent County", "rent": 930, "zip": "65401"}, "dent-county-65440": {"city": "Dent County", "rent": 890, "zip": "65440"}, "dent-county-65462": {"city": "Dent County", "rent": 890, "zip": "65462"}, "dent-county-65501": {"city": "Dent County", "rent": 900, "zip": "65501"}, "dent-county-65532": {"city": "Dent County", "rent": 890, "zip": "65532"}, "dent-county-65541": {"city": "Dent County", "rent": 900, "zip": "65541"}, "dent-county-65542": {"city": "Dent County", "rent": 890, "zip": "65542"}, "dent-county-65560": {"city": "Dent County", "rent": 900, "zip": "65560"}, "douglas-county-65608": {"city": "Douglas County", "rent": 890, "zip": "65608"}, "douglas-county-65637": {"city": "Douglas County", "rent": 890, "zip": "65637"}, "douglas-county-65638": {"city": "Douglas County", "rent": 890, "zip": "65638"}, "douglas-county-65652": {"city": "Douglas County", "rent": 900, "zip": "65652"}, "douglas-county-65689": {"city": "Douglas County", "rent": 930, "zip": "65689"}, "douglas-county-65702": {"city": "Douglas County", "rent": 890, "zip": "65702"}, "douglas-county-65704": {"city": "Douglas County", "rent": 890, "zip": "65704"}, "douglas-county-65711": {"city": "Douglas County", "rent": 1050, "zip": "65711"}, "douglas-county-65717": {"city": "Douglas County", "rent": 890, "zip": "65717"}, "douglas-county-65720": {"city": "Douglas County", "rent": 900, "zip": "65720"}, "douglas-county-65746": {"city": "Douglas County", "rent": 900, "zip": "65746"}, "douglas-county-65753": {"city": "Douglas County", "rent": 960, "zip": "65753"}, "douglas-county-65755": {"city": "Douglas County", "rent": 890, "zip": "65755"}, "douglas-county-65768": {"city": "Douglas County", "rent": 930, "zip": "65768"}, "douglas-county-65775": {"city": "Douglas County", "rent": 930, "zip": "65775"}, "douglas-county-65793": {"city": "Douglas County", "rent": 890, "zip": "65793"}, "dunklin-county-63821": {"city": "Dunklin County", "rent": 890, "zip": "63821"}, "dunklin-county-63822": {"city": "Dunklin County", "rent": 900, "zip": "63822"}, "dunklin-county-63829": {"city": "Dunklin County", "rent": 920, "zip": "63829"}, "dunklin-county-63837": {"city": "Dunklin County", "rent": 890, "zip": "63837"}, "dunklin-county-63847": {"city": "Dunklin County", "rent": 900, "zip": "63847"}, "dunklin-county-63849": {"city": "Dunklin County", "rent": 890, "zip": "63849"}, "dunklin-county-63852": {"city": "Dunklin County", "rent": 890, "zip": "63852"}, "dunklin-county-63855": {"city": "Dunklin County", "rent": 890, "zip": "63855"}, "dunklin-county-63857": {"city": "Dunklin County", "rent": 900, "zip": "63857"}, "dunklin-county-63863": {"city": "Dunklin County", "rent": 950, "zip": "63863"}, "dunklin-county-63875": {"city": "Dunklin County", "rent": 890, "zip": "63875"}, "dunklin-county-63876": {"city": "Dunklin County", "rent": 890, "zip": "63876"}, "dunklin-county-63877": {"city": "Dunklin County", "rent": 890, "zip": "63877"}, "dunklin-county-63880": {"city": "Dunklin County", "rent": 890, "zip": "63880"}, "dunklin-county-63933": {"city": "Dunklin County", "rent": 910, "zip": "63933"}, "gasconade-county-63014": {"city": "Gasconade County", "rent": 990, "zip": "63014"}, "gasconade-county-63037": {"city": "Gasconade County", "rent": 990, "zip": "63037"}, "gasconade-county-63068": {"city": "Gasconade County", "rent": 990, "zip": "63068"}, "gasconade-county-63091": {"city": "Gasconade County", "rent": 990, "zip": "63091"}, "gasconade-county-65014": {"city": "Gasconade County", "rent": 890, "zip": "65014"}, "gasconade-county-65041": {"city": "Gasconade County", "rent": 990, "zip": "65041"}, "gasconade-county-65051": {"city": "Gasconade County", "rent": 890, "zip": "65051"}, "gasconade-county-65061": {"city": "Gasconade County", "rent": 910, "zip": "65061"}, "gasconade-county-65062": {"city": "Gasconade County", "rent": 900, "zip": "65062"}, "gasconade-county-65066": {"city": "Gasconade County", "rent": 990, "zip": "65066"}, "gasconade-county-65441": {"city": "Gasconade County", "rent": 990, "zip": "65441"}, "gasconade-county-65453": {"city": "Gasconade County", "rent": 990, "zip": "65453"}, "gentry-county-64402": {"city": "Gentry County", "rent": 890, "zip": "64402"}, "gentry-county-64438": {"city": "Gentry County", "rent": 920, "zip": "64438"}, "gentry-county-64441": {"city": "Gentry County", "rent": 890, "zip": "64441"}, "gentry-county-64453": {"city": "Gentry County", "rent": 940, "zip": "64453"}, "gentry-county-64463": {"city": "Gentry County", "rent": 940, "zip": "64463"}, "gentry-county-64469": {"city": "Gentry County", "rent": 950, "zip": "64469"}, "gentry-county-64471": {"city": "Gentry County", "rent": 950, "zip": "64471"}, "gentry-county-64479": {"city": "Gentry County", "rent": 890, "zip": "64479"}, "gentry-county-64489": {"city": "Gentry County", "rent": 990, "zip": "64489"}, "gentry-county-64499": {"city": "Gentry County", "rent": 890, "zip": "64499"}, "gentry-county-64657": {"city": "Gentry County", "rent": 900, "zip": "64657"}, "gentry-county-64670": {"city": "Gentry County", "rent": 940, "zip": "64670"}, "grundy-county-64635": {"city": "Grundy County", "rent": 890, "zip": "64635"}, "grundy-county-64641": {"city": "Grundy County", "rent": 890, "zip": "64641"}, "grundy-county-64642": {"city": "Grundy County", "rent": 900, "zip": "64642"}, "grundy-county-64648": {"city": "Grundy County", "rent": 940, "zip": "64648"}, "grundy-county-64652": {"city": "Grundy County", "rent": 890, "zip": "64652"}, "grundy-county-64679": {"city": "Grundy County", "rent": 890, "zip": "64679"}, "grundy-county-64683": {"city": "Grundy County", "rent": 900, "zip": "64683"}, "harrison-county-64402": {"city": "Harrison County", "rent": 890, "zip": "64402"}, "harrison-county-64424": {"city": "Harrison County", "rent": 890, "zip": "64424"}, "harrison-county-64426": {"city": "Harrison County", "rent": 1010, "zip": "64426"}, "harrison-county-64442": {"city": "Harrison County", "rent": 890, "zip": "64442"}, "harrison-county-64456": {"city": "Harrison County", "rent": 890, "zip": "64456"}, "harrison-county-64458": {"city": "Harrison County", "rent": 920, "zip": "64458"}, "harrison-county-64467": {"city": "Harrison County", "rent": 890, "zip": "64467"}, "harrison-county-64471": {"city": "Harrison County", "rent": 950, "zip": "64471"}, "harrison-county-64481": {"city": "Harrison County", "rent": 900, "zip": "64481"}, "harrison-county-64632": {"city": "Harrison County", "rent": 1010, "zip": "64632"}, "harrison-county-64636": {"city": "Harrison County", "rent": 1140, "zip": "64636"}, "harrison-county-64642": {"city": "Harrison County", "rent": 900, "zip": "64642"}, "harrison-county-64657": {"city": "Harrison County", "rent": 900, "zip": "64657"}, "harrison-county-64670": {"city": "Harrison County", "rent": 940, "zip": "64670"}, "henry-county-64724": {"city": "Henry County", "rent": 890, "zip": "64724"}, "henry-county-64726": {"city": "Henry County", "rent": 900, "zip": "64726"}, "henry-county-64733": {"city": "Henry County", "rent": 890, "zip": "64733"}, "henry-county-64735": {"city": "Henry County", "rent": 890, "zip": "64735"}, "henry-county-64739": {"city": "Henry County", "rent": 1030, "zip": "64739"}, "henry-county-64740": {"city": "Henry County", "rent": 890, "zip": "64740"}, "henry-county-64761": {"city": "Henry County", "rent": 890, "zip": "64761"}, "henry-county-64770": {"city": "Henry County", "rent": 940, "zip": "64770"}, "henry-county-64788": {"city": "Henry County", "rent": 930, "zip": "64788"}, "henry-county-65323": {"city": "Henry County", "rent": 890, "zip": "65323"}, "henry-county-65360": {"city": "Henry County", "rent": 900, "zip": "65360"}, "hickory-county-64738": {"city": "Hickory County", "rent": 1110, "zip": "64738"}, "hickory-county-65326": {"city": "Hickory County", "rent": 1030, "zip": "65326"}, "hickory-county-65355": {"city": "Hickory County", "rent": 930, "zip": "65355"}, "hickory-county-65634": {"city": "Hickory County", "rent": 980, "zip": "65634"}, "hickory-county-65650": {"city": "Hickory County", "rent": 890, "zip": "65650"}, "hickory-county-65668": {"city": "Hickory County", "rent": 1260, "zip": "65668"}, "hickory-county-65674": {"city": "Hickory County", "rent": 890, "zip": "65674"}, "hickory-county-65724": {"city": "Hickory County", "rent": 1000, "zip": "65724"}, "hickory-county-65727": {"city": "Hickory County", "rent": 890, "zip": "65727"}, "hickory-county-65732": {"city": "Hickory County", "rent": 900, "zip": "65732"}, "hickory-county-65735": {"city": "Hickory County", "rent": 890, "zip": "65735"}, "hickory-county-65767": {"city": "Hickory County", "rent": 890, "zip": "65767"}, "hickory-county-65774": {"city": "Hickory County", "rent": 890, "zip": "65774"}, "hickory-county-65779": {"city": "Hickory County", "rent": 890, "zip": "65779"}, "holt-county-64437": {"city": "Holt County", "rent": 1070, "zip": "64437"}, "holt-county-64446": {"city": "Holt County", "rent": 890, "zip": "64446"}, "holt-county-64451": {"city": "Holt County", "rent": 940, "zip": "64451"}, "holt-county-64466": {"city": "Holt County", "rent": 890, "zip": "64466"}, "holt-county-64470": {"city": "Holt County", "rent": 890, "zip": "64470"}, "holt-county-64473": {"city": "Holt County", "rent": 890, "zip": "64473"}, "holt-county-64487": {"city": "Holt County", "rent": 890, "zip": "64487"}, "howell-county-65548": {"city": "Howell County", "rent": 890, "zip": "65548"}, "howell-county-65609": {"city": "Howell County", "rent": 950, "zip": "65609"}, "howell-county-65626": {"city": "Howell County", "rent": 890, "zip": "65626"}, "howell-county-65637": {"city": "Howell County", "rent": 890, "zip": "65637"}, "howell-county-65688": {"city": "Howell County", "rent": 930, "zip": "65688"}, "howell-county-65689": {"city": "Howell County", "rent": 930, "zip": "65689"}, "howell-county-65692": {"city": "Howell County", "rent": 1030, "zip": "65692"}, "howell-county-65775": {"city": "Howell County", "rent": 930, "zip": "65775"}, "howell-county-65777": {"city": "Howell County", "rent": 950, "zip": "65777"}, "howell-county-65788": {"city": "Howell County", "rent": 920, "zip": "65788"}, "howell-county-65789": {"city": "Howell County", "rent": 890, "zip": "65789"}, "howell-county-65790": {"city": "Howell County", "rent": 900, "zip": "65790"}, "howell-county-65791": {"city": "Howell County", "rent": 890, "zip": "65791"}, "howell-county-65793": {"city": "Howell County", "rent": 890, "zip": "65793"}, "iron-county-63620": {"city": "Iron County", "rent": 890, "zip": "63620"}, "iron-county-63621": {"city": "Iron County", "rent": 980, "zip": "63621"}, "iron-county-63623": {"city": "Iron County", "rent": 950, "zip": "63623"}, "iron-county-63624": {"city": "Iron County", "rent": 890, "zip": "63624"}, "iron-county-63625": {"city": "Iron County", "rent": 970, "zip": "63625"}, "iron-county-63631": {"city": "Iron County", "rent": 960, "zip": "63631"}, "iron-county-63636": {"city": "Iron County", "rent": 890, "zip": "63636"}, "iron-county-63650": {"city": "Iron County", "rent": 1070, "zip": "63650"}, "iron-county-63654": {"city": "Iron County", "rent": 1050, "zip": "63654"}, "iron-county-63656": {"city": "Iron County", "rent": 1010, "zip": "63656"}, "iron-county-63663": {"city": "Iron County", "rent": 890, "zip": "63663"}, "iron-county-63675": {"city": "Iron County", "rent": 890, "zip": "63675"}, "iron-county-63956": {"city": "Iron County", "rent": 890, "zip": "63956"}, "iron-county-65439": {"city": "Iron County", "rent": 910, "zip": "65439"}, "iron-county-65440": {"city": "Iron County", "rent": 890, "zip": "65440"}, "iron-county-65565": {"city": "Iron County", "rent": 890, "zip": "65565"}, "iron-county-65566": {"city": "Iron County", "rent": 890, "zip": "65566"}, "johnson-county-64011": {"city": "Johnson County", "rent": 1030, "zip": "64011"}, "johnson-county-64019": {"city": "Johnson County", "rent": 990, "zip": "64019"}, "johnson-county-64020": {"city": "Johnson County", "rent": 1030, "zip": "64020"}, "johnson-county-64037": {"city": "Johnson County", "rent": 1030, "zip": "64037"}, "johnson-county-64040": {"city": "Johnson County", "rent": 1030, "zip": "64040"}, "johnson-county-64061": {"city": "Johnson County", "rent": 1030, "zip": "64061"}, "johnson-county-64070": {"city": "Johnson County", "rent": 1300, "zip": "64070"}, "johnson-county-64071": {"city": "Johnson County", "rent": 1030, "zip": "64071"}, "johnson-county-64076": {"city": "Johnson County", "rent": 1070, "zip": "64076"}, "johnson-county-64080": {"city": "Johnson County", "rent": 1290, "zip": "64080"}, "johnson-county-64093": {"city": "Johnson County", "rent": 1030, "zip": "64093"}, "johnson-county-64726": {"city": "Johnson County", "rent": 900, "zip": "64726"}, "johnson-county-64733": {"city": "Johnson County", "rent": 890, "zip": "64733"}, "johnson-county-64739": {"city": "Johnson County", "rent": 1030, "zip": "64739"}, "johnson-county-64747": {"city": "Johnson County", "rent": 1030, "zip": "64747"}, "johnson-county-64761": {"city": "Johnson County", "rent": 890, "zip": "64761"}, "johnson-county-65305": {"city": "Johnson County", "rent": 1260, "zip": "65305"}, "johnson-county-65332": {"city": "Johnson County", "rent": 890, "zip": "65332"}, "johnson-county-65336": {"city": "Johnson County", "rent": 980, "zip": "65336"}, "johnson-county-65337": {"city": "Johnson County", "rent": 890, "zip": "65337"}, "johnson-county-65351": {"city": "Johnson County", "rent": 1030, "zip": "65351"}, "johnson-county-65360": {"city": "Johnson County", "rent": 900, "zip": "65360"}, "knox-county-63446": {"city": "Knox County", "rent": 1000, "zip": "63446"}, "knox-county-63447": {"city": "Knox County", "rent": 930, "zip": "63447"}, "knox-county-63458": {"city": "Knox County", "rent": 1010, "zip": "63458"}, "knox-county-63460": {"city": "Knox County", "rent": 940, "zip": "63460"}, "knox-county-63469": {"city": "Knox County", "rent": 1280, "zip": "63469"}, "knox-county-63530": {"city": "Knox County", "rent": 890, "zip": "63530"}, "knox-county-63531": {"city": "Knox County", "rent": 980, "zip": "63531"}, "knox-county-63533": {"city": "Knox County", "rent": 900, "zip": "63533"}, "knox-county-63537": {"city": "Knox County", "rent": 920, "zip": "63537"}, "knox-county-63547": {"city": "Knox County", "rent": 890, "zip": "63547"}, "knox-county-63549": {"city": "Knox County", "rent": 890, "zip": "63549"}, "knox-county-63563": {"city": "Knox County", "rent": 1280, "zip": "63563"}, "laclede-county-65020": {"city": "Laclede County", "rent": 930, "zip": "65020"}, "laclede-county-65463": {"city": "Laclede County", "rent": 920, "zip": "65463"}, "laclede-county-65470": {"city": "Laclede County", "rent": 970, "zip": "65470"}, "laclede-county-65534": {"city": "Laclede County", "rent": 1000, "zip": "65534"}, "laclede-county-65536": {"city": "Laclede County", "rent": 920, "zip": "65536"}, "laclede-county-65543": {"city": "Laclede County", "rent": 900, "zip": "65543"}, "laclede-county-65552": {"city": "Laclede County", "rent": 1140, "zip": "65552"}, "laclede-county-65556": {"city": "Laclede County", "rent": 910, "zip": "65556"}, "laclede-county-65567": {"city": "Laclede County", "rent": 890, "zip": "65567"}, "laclede-county-65590": {"city": "Laclede County", "rent": 970, "zip": "65590"}, "laclede-county-65632": {"city": "Laclede County", "rent": 920, "zip": "65632"}, "laclede-county-65662": {"city": "Laclede County", "rent": 910, "zip": "65662"}, "laclede-county-65713": {"city": "Laclede County", "rent": 900, "zip": "65713"}, "laclede-county-65722": {"city": "Laclede County", "rent": 890, "zip": "65722"}, "lawrence-county-64748": {"city": "Lawrence County", "rent": 940, "zip": "64748"}, "lawrence-county-64848": {"city": "Lawrence County", "rent": 940, "zip": "64848"}, "lawrence-county-64862": {"city": "Lawrence County", "rent": 950, "zip": "64862"}, "lawrence-county-64873": {"city": "Lawrence County", "rent": 940, "zip": "64873"}, "lawrence-county-65604": {"city": "Lawrence County", "rent": 900, "zip": "65604"}, "lawrence-county-65605": {"city": "Lawrence County", "rent": 950, "zip": "65605"}, "lawrence-county-65610": {"city": "Lawrence County", "rent": 960, "zip": "65610"}, "lawrence-county-65612": {"city": "Lawrence County", "rent": 1010, "zip": "65612"}, "lawrence-county-65646": {"city": "Lawrence County", "rent": 970, "zip": "65646"}, "lawrence-county-65654": {"city": "Lawrence County", "rent": 1070, "zip": "65654"}, "lawrence-county-65664": {"city": "Lawrence County", "rent": 890, "zip": "65664"}, "lawrence-county-65682": {"city": "Lawrence County", "rent": 950, "zip": "65682"}, "lawrence-county-65705": {"city": "Lawrence County", "rent": 910, "zip": "65705"}, "lawrence-county-65707": {"city": "Lawrence County", "rent": 930, "zip": "65707"}, "lawrence-county-65708": {"city": "Lawrence County", "rent": 950, "zip": "65708"}, "lawrence-county-65712": {"city": "Lawrence County", "rent": 890, "zip": "65712"}, "lawrence-county-65723": {"city": "Lawrence County", "rent": 940, "zip": "65723"}, "lawrence-county-65738": {"city": "Lawrence County", "rent": 1280, "zip": "65738"}, "lawrence-county-65752": {"city": "Lawrence County", "rent": 990, "zip": "65752"}, "lawrence-county-65756": {"city": "Lawrence County", "rent": 930, "zip": "65756"}, "lawrence-county-65769": {"city": "Lawrence County", "rent": 890, "zip": "65769"}, "lewis-county-63435": {"city": "Lewis County", "rent": 890, "zip": "63435"}, "lewis-county-63438": {"city": "Lewis County", "rent": 980, "zip": "63438"}, "lewis-county-63440": {"city": "Lewis County", "rent": 1020, "zip": "63440"}, "lewis-county-63446": {"city": "Lewis County", "rent": 1000, "zip": "63446"}, "lewis-county-63447": {"city": "Lewis County", "rent": 930, "zip": "63447"}, "lewis-county-63448": {"city": "Lewis County", "rent": 1130, "zip": "63448"}, "lewis-county-63452": {"city": "Lewis County", "rent": 910, "zip": "63452"}, "lewis-county-63454": {"city": "Lewis County", "rent": 890, "zip": "63454"}, "lewis-county-63457": {"city": "Lewis County", "rent": 900, "zip": "63457"}, "lewis-county-63471": {"city": "Lewis County", "rent": 1030, "zip": "63471"}, "lewis-county-63473": {"city": "Lewis County", "rent": 900, "zip": "63473"}, "lewis-county-63474": {"city": "Lewis County", "rent": 900, "zip": "63474"}, "linn-county-63557": {"city": "Linn County", "rent": 910, "zip": "63557"}, "linn-county-63566": {"city": "Linn County", "rent": 920, "zip": "63566"}, "linn-county-64628": {"city": "Linn County", "rent": 900, "zip": "64628"}, "linn-county-64630": {"city": "Linn County", "rent": 890, "zip": "64630"}, "linn-county-64631": {"city": "Linn County", "rent": 890, "zip": "64631"}, "linn-county-64635": {"city": "Linn County", "rent": 890, "zip": "64635"}, "linn-county-64646": {"city": "Linn County", "rent": 890, "zip": "64646"}, "linn-county-64651": {"city": "Linn County", "rent": 1090, "zip": "64651"}, "linn-county-64652": {"city": "Linn County", "rent": 890, "zip": "64652"}, "linn-county-64653": {"city": "Linn County", "rent": 950, "zip": "64653"}, "linn-county-64658": {"city": "Linn County", "rent": 890, "zip": "64658"}, "linn-county-64659": {"city": "Linn County", "rent": 890, "zip": "64659"}, "linn-county-64674": {"city": "Linn County", "rent": 890, "zip": "64674"}, "linn-county-64681": {"city": "Linn County", "rent": 950, "zip": "64681"}, "linn-county-64688": {"city": "Linn County", "rent": 930, "zip": "64688"}, "linn-county-65281": {"city": "Linn County", "rent": 990, "zip": "65281"}, "livingston-county-64601": {"city": "Livingston County", "rent": 900, "zip": "64601"}, "livingston-county-64624": {"city": "Livingston County", "rent": 1030, "zip": "64624"}, "livingston-county-64625": {"city": "Livingston County", "rent": 1030, "zip": "64625"}, "livingston-county-64635": {"city": "Livingston County", "rent": 890, "zip": "64635"}, "livingston-county-64638": {"city": "Livingston County", "rent": 890, "zip": "64638"}, "livingston-county-64643": {"city": "Livingston County", "rent": 890, "zip": "64643"}, "livingston-county-64648": {"city": "Livingston County", "rent": 940, "zip": "64648"}, "livingston-county-64656": {"city": "Livingston County", "rent": 890, "zip": "64656"}, "livingston-county-64664": {"city": "Livingston County", "rent": 900, "zip": "64664"}, "livingston-county-64683": {"city": "Livingston County", "rent": 900, "zip": "64683"}, "livingston-county-64686": {"city": "Livingston County", "rent": 900, "zip": "64686"}, "livingston-county-64688": {"city": "Livingston County", "rent": 930, "zip": "64688"}, "mcdonald-county-64831": {"city": "McDonald County", "rent": 890, "zip": "64831"}, "mcdonald-county-64843": {"city": "McDonald County", "rent": 1050, "zip": "64843"}, "mcdonald-county-64847": {"city": "McDonald County", "rent": 890, "zip": "64847"}, "mcdonald-county-64850": {"city": "McDonald County", "rent": 940, "zip": "64850"}, "mcdonald-county-64854": {"city": "McDonald County", "rent": 900, "zip": "64854"}, "mcdonald-county-64856": {"city": "McDonald County", "rent": 890, "zip": "64856"}, "mcdonald-county-64861": {"city": "McDonald County", "rent": 940, "zip": "64861"}, "mcdonald-county-64863": {"city": "McDonald County", "rent": 940, "zip": "64863"}, "mcdonald-county-64865": {"city": "McDonald County", "rent": 940, "zip": "64865"}, "mcdonald-county-64867": {"city": "McDonald County", "rent": 960, "zip": "64867"}, "mcdonald-county-64868": {"city": "McDonald County", "rent": 910, "zip": "64868"}, "mcdonald-county-65647": {"city": "McDonald County", "rent": 910, "zip": "65647"}, "mcdonald-county-65730": {"city": "McDonald County", "rent": 900, "zip": "65730"}, "mcdonald-county-65745": {"city": "McDonald County", "rent": 1000, "zip": "65745"}, "mcdonald-county-65772": {"city": "McDonald County", "rent": 890, "zip": "65772"}, "macon-county-63431": {"city": "Macon County", "rent": 920, "zip": "63431"}, "macon-county-63437": {"city": "Macon County", "rent": 890, "zip": "63437"}, "macon-county-63451": {"city": "Macon County", "rent": 1130, "zip": "63451"}, "macon-county-63530": {"city": "Macon County", "rent": 890, "zip": "63530"}, "macon-county-63532": {"city": "Macon County", "rent": 1020, "zip": "63532"}, "macon-county-63534": {"city": "Macon County", "rent": 890, "zip": "63534"}, "macon-county-63538": {"city": "Macon County", "rent": 890, "zip": "63538"}, "macon-county-63539": {"city": "Macon County", "rent": 890, "zip": "63539"}, "macon-county-63549": {"city": "Macon County", "rent": 890, "zip": "63549"}, "macon-county-63552": {"city": "Macon County", "rent": 950, "zip": "63552"}, "macon-county-63557": {"city": "Macon County", "rent": 910, "zip": "63557"}, "macon-county-63558": {"city": "Macon County", "rent": 890, "zip": "63558"}, "macon-county-64631": {"city": "Macon County", "rent": 890, "zip": "64631"}, "macon-county-64658": {"city": "Macon County", "rent": 890, "zip": "64658"}, "macon-county-65247": {"city": "Macon County", "rent": 940, "zip": "65247"}, "macon-county-65260": {"city": "Macon County", "rent": 970, "zip": "65260"}, "madison-county-63620": {"city": "Madison County", "rent": 890, "zip": "63620"}, "madison-county-63621": {"city": "Madison County", "rent": 980, "zip": "63621"}, "madison-county-63636": {"city": "Madison County", "rent": 890, "zip": "63636"}, "madison-county-63640": {"city": "Madison County", "rent": 970, "zip": "63640"}, "madison-county-63645": {"city": "Madison County", "rent": 940, "zip": "63645"}, "madison-county-63650": {"city": "Madison County", "rent": 1070, "zip": "63650"}, "madison-county-63655": {"city": "Madison County", "rent": 920, "zip": "63655"}, "madison-county-63662": {"city": "Madison County", "rent": 1020, "zip": "63662"}, "madison-county-63964": {"city": "Madison County", "rent": 900, "zip": "63964"}, "maries-county-65001": {"city": "Maries County", "rent": 920, "zip": "65001"}, "maries-county-65013": {"city": "Maries County", "rent": 890, "zip": "65013"}, "maries-county-65014": {"city": "Maries County", "rent": 890, "zip": "65014"}, "maries-county-65058": {"city": "Maries County", "rent": 890, "zip": "65058"}, "maries-county-65401": {"city": "Maries County", "rent": 930, "zip": "65401"}, "maries-county-65443": {"city": "Maries County", "rent": 920, "zip": "65443"}, "maries-county-65459": {"city": "Maries County", "rent": 910, "zip": "65459"}, "maries-county-65559": {"city": "Maries County", "rent": 950, "zip": "65559"}, "maries-county-65580": {"city": "Maries County", "rent": 930, "zip": "65580"}, "maries-county-65582": {"city": "Maries County", "rent": 970, "zip": "65582"}, "marion-county-63401": {"city": "Marion County", "rent": 970, "zip": "63401"}, "marion-county-63438": {"city": "Marion County", "rent": 980, "zip": "63438"}, "marion-county-63439": {"city": "Marion County", "rent": 1010, "zip": "63439"}, "marion-county-63440": {"city": "Marion County", "rent": 1020, "zip": "63440"}, "marion-county-63443": {"city": "Marion County", "rent": 890, "zip": "63443"}, "marion-county-63454": {"city": "Marion County", "rent": 890, "zip": "63454"}, "marion-county-63456": {"city": "Marion County", "rent": 890, "zip": "63456"}, "marion-county-63461": {"city": "Marion County", "rent": 910, "zip": "63461"}, "marion-county-63463": {"city": "Marion County", "rent": 890, "zip": "63463"}, "marion-county-63471": {"city": "Marion County", "rent": 1030, "zip": "63471"}, "mercer-county-64632": {"city": "Mercer County", "rent": 1010, "zip": "64632"}, "mercer-county-64645": {"city": "Mercer County", "rent": 1020, "zip": "64645"}, "mercer-county-64661": {"city": "Mercer County", "rent": 940, "zip": "64661"}, "mercer-county-64667": {"city": "Mercer County", "rent": 1250, "zip": "64667"}, "mercer-county-64672": {"city": "Mercer County", "rent": 950, "zip": "64672"}, "mercer-county-64673": {"city": "Mercer County", "rent": 890, "zip": "64673"}, "mercer-county-64679": {"city": "Mercer County", "rent": 890, "zip": "64679"}, "miller-county-65017": {"city": "Miller County", "rent": 890, "zip": "65017"}, "miller-county-65026": {"city": "Miller County", "rent": 910, "zip": "65026"}, "miller-county-65032": {"city": "Miller County", "rent": 940, "zip": "65032"}, "miller-county-65040": {"city": "Miller County", "rent": 920, "zip": "65040"}, "miller-county-65047": {"city": "Miller County", "rent": 890, "zip": "65047"}, "miller-county-65049": {"city": "Miller County", "rent": 1020, "zip": "65049"}, "miller-county-65058": {"city": "Miller County", "rent": 890, "zip": "65058"}, "miller-county-65064": {"city": "Miller County", "rent": 900, "zip": "65064"}, "miller-county-65065": {"city": "Miller County", "rent": 900, "zip": "65065"}, "miller-county-65072": {"city": "Miller County", "rent": 1330, "zip": "65072"}, "miller-county-65074": {"city": "Miller County", "rent": 900, "zip": "65074"}, "miller-county-65075": {"city": "Miller County", "rent": 910, "zip": "65075"}, "miller-county-65079": {"city": "Miller County", "rent": 1260, "zip": "65079"}, "miller-county-65082": {"city": "Miller County", "rent": 990, "zip": "65082"}, "miller-county-65083": {"city": "Miller County", "rent": 920, "zip": "65083"}, "miller-county-65452": {"city": "Miller County", "rent": 910, "zip": "65452"}, "miller-county-65459": {"city": "Miller County", "rent": 910, "zip": "65459"}, "miller-county-65486": {"city": "Miller County", "rent": 890, "zip": "65486"}, "miller-county-65591": {"city": "Miller County", "rent": 1130, "zip": "65591"}, "mississippi-county-63801": {"city": "Mississippi County", "rent": 940, "zip": "63801"}, "mississippi-county-63820": {"city": "Mississippi County", "rent": 890, "zip": "63820"}, "mississippi-county-63823": {"city": "Mississippi County", "rent": 890, "zip": "63823"}, "mississippi-county-63834": {"city": "Mississippi County", "rent": 890, "zip": "63834"}, "mississippi-county-63845": {"city": "Mississippi County", "rent": 910, "zip": "63845"}, "mississippi-county-63881": {"city": "Mississippi County", "rent": 890, "zip": "63881"}, "mississippi-county-63882": {"city": "Mississippi County", "rent": 890, "zip": "63882"}, "monroe-county-63437": {"city": "Monroe County", "rent": 890, "zip": "63437"}, "monroe-county-63443": {"city": "Monroe County", "rent": 890, "zip": "63443"}, "monroe-county-63450": {"city": "Monroe County", "rent": 930, "zip": "63450"}, "monroe-county-63456": {"city": "Monroe County", "rent": 890, "zip": "63456"}, "monroe-county-63462": {"city": "Monroe County", "rent": 890, "zip": "63462"}, "monroe-county-63468": {"city": "Monroe County", "rent": 980, "zip": "63468"}, "monroe-county-65240": {"city": "Monroe County", "rent": 910, "zip": "65240"}, "monroe-county-65243": {"city": "Monroe County", "rent": 910, "zip": "65243"}, "monroe-county-65258": {"city": "Monroe County", "rent": 920, "zip": "65258"}, "monroe-county-65260": {"city": "Monroe County", "rent": 970, "zip": "65260"}, "monroe-county-65263": {"city": "Monroe County", "rent": 890, "zip": "65263"}, "monroe-county-65265": {"city": "Monroe County", "rent": 900, "zip": "65265"}, "monroe-county-65270": {"city": "Monroe County", "rent": 910, "zip": "65270"}, "monroe-county-65275": {"city": "Monroe County", "rent": 1090, "zip": "65275"}, "monroe-county-65282": {"city": "Monroe County", "rent": 930, "zip": "65282"}, "monroe-county-65283": {"city": "Monroe County", "rent": 960, "zip": "65283"}, "montgomery-county-63333": {"city": "Montgomery County", "rent": 990, "zip": "63333"}, "montgomery-county-63350": {"city": "Montgomery County", "rent": 930, "zip": "63350"}, "montgomery-county-63351": {"city": "Montgomery County", "rent": 990, "zip": "63351"}, "montgomery-county-63359": {"city": "Montgomery County", "rent": 990, "zip": "63359"}, "montgomery-county-63361": {"city": "Montgomery County", "rent": 900, "zip": "63361"}, "montgomery-county-63363": {"city": "Montgomery County", "rent": 990, "zip": "63363"}, "montgomery-county-63381": {"city": "Montgomery County", "rent": 1110, "zip": "63381"}, "montgomery-county-63384": {"city": "Montgomery County", "rent": 900, "zip": "63384"}, "montgomery-county-65041": {"city": "Montgomery County", "rent": 990, "zip": "65041"}, "montgomery-county-65069": {"city": "Montgomery County", "rent": 1020, "zip": "65069"}, "montgomery-county-65264": {"city": "Montgomery County", "rent": 900, "zip": "65264"}, "morgan-county-65011": {"city": "Morgan County", "rent": 980, "zip": "65011"}, "morgan-county-65026": {"city": "Morgan County", "rent": 910, "zip": "65026"}, "morgan-county-65034": {"city": "Morgan County", "rent": 930, "zip": "65034"}, "morgan-county-65037": {"city": "Morgan County", "rent": 960, "zip": "65037"}, "morgan-county-65038": {"city": "Morgan County", "rent": 890, "zip": "65038"}, "morgan-county-65072": {"city": "Morgan County", "rent": 1330, "zip": "65072"}, "morgan-county-65078": {"city": "Morgan County", "rent": 970, "zip": "65078"}, "morgan-county-65079": {"city": "Morgan County", "rent": 1260, "zip": "65079"}, "morgan-county-65081": {"city": "Morgan County", "rent": 890, "zip": "65081"}, "morgan-county-65084": {"city": "Morgan County", "rent": 890, "zip": "65084"}, "morgan-county-65325": {"city": "Morgan County", "rent": 910, "zip": "65325"}, "morgan-county-65329": {"city": "Morgan County", "rent": 1020, "zip": "65329"}, "morgan-county-65345": {"city": "Morgan County", "rent": 960, "zip": "65345"}, "morgan-county-65348": {"city": "Morgan County", "rent": 940, "zip": "65348"}, "morgan-county-65350": {"city": "Morgan County", "rent": 980, "zip": "65350"}, "morgan-county-65354": {"city": "Morgan County", "rent": 1290, "zip": "65354"}, "new-madrid-county-63801": {"city": "New Madrid County", "rent": 940, "zip": "63801"}, "new-madrid-county-63822": {"city": "New Madrid County", "rent": 900, "zip": "63822"}, "new-madrid-county-63828": {"city": "New Madrid County", "rent": 920, "zip": "63828"}, "new-madrid-county-63833": {"city": "New Madrid County", "rent": 890, "zip": "63833"}, "new-madrid-county-63837": {"city": "New Madrid County", "rent": 890, "zip": "63837"}, "new-madrid-county-63845": {"city": "New Madrid County", "rent": 910, "zip": "63845"}, "new-madrid-county-63848": {"city": "New Madrid County", "rent": 890, "zip": "63848"}, "new-madrid-county-63860": {"city": "New Madrid County", "rent": 900, "zip": "63860"}, "new-madrid-county-63862": {"city": "New Madrid County", "rent": 890, "zip": "63862"}, "new-madrid-county-63863": {"city": "New Madrid County", "rent": 950, "zip": "63863"}, "new-madrid-county-63866": {"city": "New Madrid County", "rent": 890, "zip": "63866"}, "new-madrid-county-63867": {"city": "New Madrid County", "rent": 890, "zip": "63867"}, "new-madrid-county-63868": {"city": "New Madrid County", "rent": 890, "zip": "63868"}, "new-madrid-county-63869": {"city": "New Madrid County", "rent": 940, "zip": "63869"}, "new-madrid-county-63870": {"city": "New Madrid County", "rent": 890, "zip": "63870"}, "new-madrid-county-63873": {"city": "New Madrid County", "rent": 910, "zip": "63873"}, "new-madrid-county-63874": {"city": "New Madrid County", "rent": 890, "zip": "63874"}, "new-madrid-county-63878": {"city": "New Madrid County", "rent": 890, "zip": "63878"}, "nodaway-county-64423": {"city": "Nodaway County", "rent": 940, "zip": "64423"}, "nodaway-county-64427": {"city": "Nodaway County", "rent": 940, "zip": "64427"}, "nodaway-county-64428": {"city": "Nodaway County", "rent": 1180, "zip": "64428"}, "nodaway-county-64431": {"city": "Nodaway County", "rent": 950, "zip": "64431"}, "nodaway-county-64432": {"city": "Nodaway County", "rent": 950, "zip": "64432"}, "nodaway-county-64433": {"city": "Nodaway County", "rent": 930, "zip": "64433"}, "nodaway-county-64434": {"city": "Nodaway County", "rent": 890, "zip": "64434"}, "nodaway-county-64445": {"city": "Nodaway County", "rent": 890, "zip": "64445"}, "nodaway-county-64455": {"city": "Nodaway County", "rent": 940, "zip": "64455"}, "nodaway-county-64457": {"city": "Nodaway County", "rent": 940, "zip": "64457"}, "nodaway-county-64461": {"city": "Nodaway County", "rent": 1000, "zip": "64461"}, "nodaway-county-64468": {"city": "Nodaway County", "rent": 910, "zip": "64468"}, "nodaway-county-64475": {"city": "Nodaway County", "rent": 910, "zip": "64475"}, "nodaway-county-64476": {"city": "Nodaway County", "rent": 890, "zip": "64476"}, "nodaway-county-64479": {"city": "Nodaway County", "rent": 890, "zip": "64479"}, "nodaway-county-64486": {"city": "Nodaway County", "rent": 940, "zip": "64486"}, "nodaway-county-64487": {"city": "Nodaway County", "rent": 890, "zip": "64487"}, "nodaway-county-64489": {"city": "Nodaway County", "rent": 990, "zip": "64489"}, "oregon-county-63935": {"city": "Oregon County", "rent": 930, "zip": "63935"}, "oregon-county-63941": {"city": "Oregon County", "rent": 920, "zip": "63941"}, "oregon-county-63942": {"city": "Oregon County", "rent": 920, "zip": "63942"}, "oregon-county-65438": {"city": "Oregon County", "rent": 890, "zip": "65438"}, "oregon-county-65588": {"city": "Oregon County", "rent": 940, "zip": "65588"}, "oregon-county-65606": {"city": "Oregon County", "rent": 890, "zip": "65606"}, "oregon-county-65690": {"city": "Oregon County", "rent": 890, "zip": "65690"}, "oregon-county-65692": {"city": "Oregon County", "rent": 1030, "zip": "65692"}, "oregon-county-65775": {"city": "Oregon County", "rent": 930, "zip": "65775"}, "oregon-county-65778": {"city": "Oregon County", "rent": 910, "zip": "65778"}, "oregon-county-65791": {"city": "Oregon County", "rent": 890, "zip": "65791"}, "ozark-county-65608": {"city": "Ozark County", "rent": 890, "zip": "65608"}, "ozark-county-65609": {"city": "Ozark County", "rent": 950, "zip": "65609"}, "ozark-county-65618": {"city": "Ozark County", "rent": 890, "zip": "65618"}, "ozark-county-65626": {"city": "Ozark County", "rent": 890, "zip": "65626"}, "ozark-county-65637": {"city": "Ozark County", "rent": 890, "zip": "65637"}, "ozark-county-65638": {"city": "Ozark County", "rent": 890, "zip": "65638"}, "ozark-county-65655": {"city": "Ozark County", "rent": 890, "zip": "65655"}, "ozark-county-65666": {"city": "Ozark County", "rent": 890, "zip": "65666"}, "ozark-county-65676": {"city": "Ozark County", "rent": 890, "zip": "65676"}, "ozark-county-65715": {"city": "Ozark County", "rent": 890, "zip": "65715"}, "ozark-county-65729": {"city": "Ozark County", "rent": 890, "zip": "65729"}, "ozark-county-65733": {"city": "Ozark County", "rent": 1010, "zip": "65733"}, "ozark-county-65741": {"city": "Ozark County", "rent": 890, "zip": "65741"}, "ozark-county-65755": {"city": "Ozark County", "rent": 890, "zip": "65755"}, "ozark-county-65760": {"city": "Ozark County", "rent": 890, "zip": "65760"}, "ozark-county-65761": {"city": "Ozark County", "rent": 900, "zip": "65761"}, "ozark-county-65762": {"city": "Ozark County", "rent": 890, "zip": "65762"}, "ozark-county-65766": {"city": "Ozark County", "rent": 890, "zip": "65766"}, "ozark-county-65773": {"city": "Ozark County", "rent": 890, "zip": "65773"}, "ozark-county-65784": {"city": "Ozark County", "rent": 890, "zip": "65784"}, "ozark-county-65790": {"city": "Ozark County", "rent": 900, "zip": "65790"}, "pemiscot-county-63826": {"city": "Pemiscot County", "rent": 890, "zip": "63826"}, "pemiscot-county-63827": {"city": "Pemiscot County", "rent": 890, "zip": "63827"}, "pemiscot-county-63830": {"city": "Pemiscot County", "rent": 900, "zip": "63830"}, "pemiscot-county-63839": {"city": "Pemiscot County", "rent": 900, "zip": "63839"}, "pemiscot-county-63840": {"city": "Pemiscot County", "rent": 890, "zip": "63840"}, "pemiscot-county-63848": {"city": "Pemiscot County", "rent": 890, "zip": "63848"}, "pemiscot-county-63849": {"city": "Pemiscot County", "rent": 890, "zip": "63849"}, "pemiscot-county-63851": {"city": "Pemiscot County", "rent": 890, "zip": "63851"}, "pemiscot-county-63852": {"city": "Pemiscot County", "rent": 890, "zip": "63852"}, "pemiscot-county-63853": {"city": "Pemiscot County", "rent": 890, "zip": "63853"}, "pemiscot-county-63855": {"city": "Pemiscot County", "rent": 890, "zip": "63855"}, "pemiscot-county-63857": {"city": "Pemiscot County", "rent": 900, "zip": "63857"}, "pemiscot-county-63873": {"city": "Pemiscot County", "rent": 910, "zip": "63873"}, "pemiscot-county-63877": {"city": "Pemiscot County", "rent": 890, "zip": "63877"}, "pemiscot-county-63879": {"city": "Pemiscot County", "rent": 890, "zip": "63879"}, "perry-county-63645": {"city": "Perry County", "rent": 940, "zip": "63645"}, "perry-county-63673": {"city": "Perry County", "rent": 950, "zip": "63673"}, "perry-county-63732": {"city": "Perry County", "rent": 920, "zip": "63732"}, "perry-county-63737": {"city": "Perry County", "rent": 950, "zip": "63737"}, "perry-county-63746": {"city": "Perry County", "rent": 930, "zip": "63746"}, "perry-county-63748": {"city": "Perry County", "rent": 920, "zip": "63748"}, "perry-county-63770": {"city": "Perry County", "rent": 930, "zip": "63770"}, "perry-county-63775": {"city": "Perry County", "rent": 950, "zip": "63775"}, "perry-county-63776": {"city": "Perry County", "rent": 950, "zip": "63776"}, "perry-county-63781": {"city": "Perry County", "rent": 1180, "zip": "63781"}, "perry-county-63783": {"city": "Perry County", "rent": 930, "zip": "63783"}, "pettis-county-64020": {"city": "Pettis County", "rent": 1030, "zip": "64020"}, "pettis-county-65078": {"city": "Pettis County", "rent": 970, "zip": "65078"}, "pettis-county-65301": {"city": "Pettis County", "rent": 990, "zip": "65301"}, "pettis-county-65302": {"city": "Pettis County", "rent": 980, "zip": "65302"}, "pettis-county-65325": {"city": "Pettis County", "rent": 910, "zip": "65325"}, "pettis-county-65332": {"city": "Pettis County", "rent": 890, "zip": "65332"}, "pettis-county-65333": {"city": "Pettis County", "rent": 890, "zip": "65333"}, "pettis-county-65334": {"city": "Pettis County", "rent": 1290, "zip": "65334"}, "pettis-county-65335": {"city": "Pettis County", "rent": 920, "zip": "65335"}, "pettis-county-65336": {"city": "Pettis County", "rent": 980, "zip": "65336"}, "pettis-county-65337": {"city": "Pettis County", "rent": 890, "zip": "65337"}, "pettis-county-65340": {"city": "Pettis County", "rent": 910, "zip": "65340"}, "pettis-county-65345": {"city": "Pettis County", "rent": 960, "zip": "65345"}, "pettis-county-65347": {"city": "Pettis County", "rent": 910, "zip": "65347"}, "pettis-county-65348": {"city": "Pettis County", "rent": 940, "zip": "65348"}, "pettis-county-65350": {"city": "Pettis County", "rent": 980, "zip": "65350"}, "pettis-county-65351": {"city": "Pettis County", "rent": 1030, "zip": "65351"}, "pettis-county-65360": {"city": "Pettis County", "rent": 900, "zip": "65360"}, "phelps-county-65401": {"city": "Phelps County", "rent": 930, "zip": "65401"}, "phelps-county-65402": {"city": "Phelps County", "rent": 930, "zip": "65402"}, "phelps-county-65409": {"city": "Phelps County", "rent": 930, "zip": "65409"}, "phelps-county-65436": {"city": "Phelps County", "rent": 890, "zip": "65436"}, "phelps-county-65449": {"city": "Phelps County", "rent": 910, "zip": "65449"}, "phelps-county-65453": {"city": "Phelps County", "rent": 990, "zip": "65453"}, "phelps-county-65459": {"city": "Phelps County", "rent": 910, "zip": "65459"}, "phelps-county-65461": {"city": "Phelps County", "rent": 1100, "zip": "65461"}, "phelps-county-65462": {"city": "Phelps County", "rent": 890, "zip": "65462"}, "phelps-county-65529": {"city": "Phelps County", "rent": 910, "zip": "65529"}, "phelps-county-65541": {"city": "Phelps County", "rent": 900, "zip": "65541"}, "phelps-county-65542": {"city": "Phelps County", "rent": 890, "zip": "65542"}, "phelps-county-65550": {"city": "Phelps County", "rent": 940, "zip": "65550"}, "phelps-county-65559": {"city": "Phelps County", "rent": 950, "zip": "65559"}, "phelps-county-65560": {"city": "Phelps County", "rent": 900, "zip": "65560"}, "pike-county-63330": {"city": "Pike County", "rent": 1080, "zip": "63330"}, "pike-county-63334": {"city": "Pike County", "rent": 990, "zip": "63334"}, "pike-county-63336": {"city": "Pike County", "rent": 1010, "zip": "63336"}, "pike-county-63339": {"city": "Pike County", "rent": 920, "zip": "63339"}, "pike-county-63343": {"city": "Pike County", "rent": 1150, "zip": "63343"}, "pike-county-63344": {"city": "Pike County", "rent": 1000, "zip": "63344"}, "pike-county-63353": {"city": "Pike County", "rent": 920, "zip": "63353"}, "pike-county-63359": {"city": "Pike County", "rent": 990, "zip": "63359"}, "pike-county-63382": {"city": "Pike County", "rent": 910, "zip": "63382"}, "pike-county-63433": {"city": "Pike County", "rent": 920, "zip": "63433"}, "pike-county-63441": {"city": "Pike County", "rent": 910, "zip": "63441"}, "pike-county-63459": {"city": "Pike County", "rent": 890, "zip": "63459"}, "pulaski-county-65452": {"city": "Pulaski County", "rent": 910, "zip": "65452"}, "pulaski-county-65457": {"city": "Pulaski County", "rent": 1100, "zip": "65457"}, "pulaski-county-65459": {"city": "Pulaski County", "rent": 910, "zip": "65459"}, "pulaski-county-65461": {"city": "Pulaski County", "rent": 1100, "zip": "65461"}, "pulaski-county-65473": {"city": "Pulaski County", "rent": 1170, "zip": "65473"}, "pulaski-county-65534": {"city": "Pulaski County", "rent": 1000, "zip": "65534"}, "pulaski-county-65550": {"city": "Pulaski County", "rent": 940, "zip": "65550"}, "pulaski-county-65552": {"city": "Pulaski County", "rent": 1140, "zip": "65552"}, "pulaski-county-65556": {"city": "Pulaski County", "rent": 910, "zip": "65556"}, "pulaski-county-65583": {"city": "Pulaski County", "rent": 1050, "zip": "65583"}, "pulaski-county-65584": {"city": "Pulaski County", "rent": 1040, "zip": "65584"}, "putnam-county-63544": {"city": "Putnam County", "rent": 970, "zip": "63544"}, "putnam-county-63551": {"city": "Putnam County", "rent": 970, "zip": "63551"}, "putnam-county-63559": {"city": "Putnam County", "rent": 930, "zip": "63559"}, "putnam-county-63560": {"city": "Putnam County", "rent": 1160, "zip": "63560"}, "putnam-county-63565": {"city": "Putnam County", "rent": 890, "zip": "63565"}, "putnam-county-63567": {"city": "Putnam County", "rent": 900, "zip": "63567"}, "putnam-county-64655": {"city": "Putnam County", "rent": 1140, "zip": "64655"}, "putnam-county-64667": {"city": "Putnam County", "rent": 1250, "zip": "64667"}, "putnam-county-64672": {"city": "Putnam County", "rent": 950, "zip": "64672"}, "ralls-county-63352": {"city": "Ralls County", "rent": 900, "zip": "63352"}, "ralls-county-63382": {"city": "Ralls County", "rent": 910, "zip": "63382"}, "ralls-county-63401": {"city": "Ralls County", "rent": 970, "zip": "63401"}, "ralls-county-63436": {"city": "Ralls County", "rent": 900, "zip": "63436"}, "ralls-county-63441": {"city": "Ralls County", "rent": 910, "zip": "63441"}, "ralls-county-63456": {"city": "Ralls County", "rent": 890, "zip": "63456"}, "ralls-county-63459": {"city": "Ralls County", "rent": 890, "zip": "63459"}, "ralls-county-63461": {"city": "Ralls County", "rent": 910, "zip": "63461"}, "ralls-county-63462": {"city": "Ralls County", "rent": 890, "zip": "63462"}, "ralls-county-63467": {"city": "Ralls County", "rent": 910, "zip": "63467"}, "randolph-county-63534": {"city": "Randolph County", "rent": 890, "zip": "63534"}, "randolph-county-65230": {"city": "Randolph County", "rent": 890, "zip": "65230"}, "randolph-county-65239": {"city": "Randolph County", "rent": 1020, "zip": "65239"}, "randolph-county-65243": {"city": "Randolph County", "rent": 910, "zip": "65243"}, "randolph-county-65244": {"city": "Randolph County", "rent": 910, "zip": "65244"}, "randolph-county-65247": {"city": "Randolph County", "rent": 940, "zip": "65247"}, "randolph-county-65257": {"city": "Randolph County", "rent": 900, "zip": "65257"}, "randolph-county-65259": {"city": "Randolph County", "rent": 890, "zip": "65259"}, "randolph-county-65260": {"city": "Randolph County", "rent": 970, "zip": "65260"}, "randolph-county-65263": {"city": "Randolph County", "rent": 890, "zip": "65263"}, "randolph-county-65270": {"city": "Randolph County", "rent": 910, "zip": "65270"}, "randolph-county-65278": {"city": "Randolph County", "rent": 900, "zip": "65278"}, "randolph-county-65281": {"city": "Randolph County", "rent": 990, "zip": "65281"}, "reynolds-county-63620": {"city": "Reynolds County", "rent": 890, "zip": "63620"}, "reynolds-county-63625": {"city": "Reynolds County", "rent": 970, "zip": "63625"}, "reynolds-county-63629": {"city": "Reynolds County", "rent": 910, "zip": "63629"}, "reynolds-county-63633": {"city": "Reynolds County", "rent": 890, "zip": "63633"}, "reynolds-county-63638": {"city": "Reynolds County", "rent": 890, "zip": "63638"}, "reynolds-county-63654": {"city": "Reynolds County", "rent": 1050, "zip": "63654"}, "reynolds-county-63656": {"city": "Reynolds County", "rent": 1010, "zip": "63656"}, "reynolds-county-63665": {"city": "Reynolds County", "rent": 910, "zip": "63665"}, "reynolds-county-63666": {"city": "Reynolds County", "rent": 890, "zip": "63666"}, "reynolds-county-63957": {"city": "Reynolds County", "rent": 890, "zip": "63957"}, "reynolds-county-63965": {"city": "Reynolds County", "rent": 910, "zip": "63965"}, "reynolds-county-65440": {"city": "Reynolds County", "rent": 890, "zip": "65440"}, "ripley-county-63931": {"city": "Ripley County", "rent": 890, "zip": "63931"}, "ripley-county-63935": {"city": "Ripley County", "rent": 930, "zip": "63935"}, "ripley-county-63939": {"city": "Ripley County", "rent": 940, "zip": "63939"}, "ripley-county-63941": {"city": "Ripley County", "rent": 920, "zip": "63941"}, "ripley-county-63942": {"city": "Ripley County", "rent": 920, "zip": "63942"}, "ripley-county-63943": {"city": "Ripley County", "rent": 1040, "zip": "63943"}, "ripley-county-63945": {"city": "Ripley County", "rent": 890, "zip": "63945"}, "ripley-county-63953": {"city": "Ripley County", "rent": 890, "zip": "63953"}, "ripley-county-63954": {"city": "Ripley County", "rent": 890, "zip": "63954"}, "ripley-county-63955": {"city": "Ripley County", "rent": 900, "zip": "63955"}, "st.-clair-county-64724": {"city": "St. Clair County", "rent": 890, "zip": "64724"}, "st.-clair-county-64738": {"city": "St. Clair County", "rent": 1110, "zip": "64738"}, "st.-clair-county-64740": {"city": "St. Clair County", "rent": 890, "zip": "64740"}, "st.-clair-county-64744": {"city": "St. Clair County", "rent": 940, "zip": "64744"}, "st.-clair-county-64763": {"city": "St. Clair County", "rent": 950, "zip": "64763"}, "st.-clair-county-64770": {"city": "St. Clair County", "rent": 940, "zip": "64770"}, "st.-clair-county-64776": {"city": "St. Clair County", "rent": 890, "zip": "64776"}, "st.-clair-county-64780": {"city": "St. Clair County", "rent": 910, "zip": "64780"}, "st.-clair-county-64781": {"city": "St. Clair County", "rent": 900, "zip": "64781"}, "st.-clair-county-64783": {"city": "St. Clair County", "rent": 920, "zip": "64783"}, "st.-clair-county-65674": {"city": "St. Clair County", "rent": 890, "zip": "65674"}, "st.-clair-county-65735": {"city": "St. Clair County", "rent": 890, "zip": "65735"}, "st.-clair-county-65774": {"city": "St. Clair County", "rent": 890, "zip": "65774"}, "st.-clair-county-65785": {"city": "St. Clair County", "rent": 890, "zip": "65785"}, "ste.-genevieve-county-63028": {"city": "Ste. Genevieve County", "rent": 1070, "zip": "63028"}, "ste.-genevieve-county-63036": {"city": "Ste. Genevieve County", "rent": 1000, "zip": "63036"}, "ste.-genevieve-county-63627": {"city": "Ste. Genevieve County", "rent": 1010, "zip": "63627"}, "ste.-genevieve-county-63628": {"city": "Ste. Genevieve County", "rent": 990, "zip": "63628"}, "ste.-genevieve-county-63640": {"city": "Ste. Genevieve County", "rent": 970, "zip": "63640"}, "ste.-genevieve-county-63645": {"city": "Ste. Genevieve County", "rent": 940, "zip": "63645"}, "ste.-genevieve-county-63670": {"city": "Ste. Genevieve County", "rent": 940, "zip": "63670"}, "ste.-genevieve-county-63673": {"city": "Ste. Genevieve County", "rent": 950, "zip": "63673"}, "st.-francois-county-63020": {"city": "St. Francois County", "rent": 1010, "zip": "63020"}, "st.-francois-county-63028": {"city": "St. Francois County", "rent": 1070, "zip": "63028"}, "st.-francois-county-63036": {"city": "St. Francois County", "rent": 1000, "zip": "63036"}, "st.-francois-county-63087": {"city": "St. Francois County", "rent": 990, "zip": "63087"}, "st.-francois-county-63601": {"city": "St. Francois County", "rent": 890, "zip": "63601"}, "st.-francois-county-63624": {"city": "St. Francois County", "rent": 890, "zip": "63624"}, "st.-francois-county-63626": {"city": "St. Francois County", "rent": 960, "zip": "63626"}, "st.-francois-county-63628": {"city": "St. Francois County", "rent": 990, "zip": "63628"}, "st.-francois-county-63630": {"city": "St. Francois County", "rent": 920, "zip": "63630"}, "st.-francois-county-63637": {"city": "St. Francois County", "rent": 890, "zip": "63637"}, "st.-francois-county-63640": {"city": "St. Francois County", "rent": 970, "zip": "63640"}, "st.-francois-county-63645": {"city": "St. Francois County", "rent": 940, "zip": "63645"}, "st.-francois-county-63648": {"city": "St. Francois County", "rent": 1050, "zip": "63648"}, "st.-francois-county-63650": {"city": "St. Francois County", "rent": 1070, "zip": "63650"}, "st.-francois-county-63651": {"city": "St. Francois County", "rent": 900, "zip": "63651"}, "st.-francois-county-63653": {"city": "St. Francois County", "rent": 960, "zip": "63653"}, "st.-francois-county-63654": {"city": "St. Francois County", "rent": 1050, "zip": "63654"}, "st.-francois-county-63656": {"city": "St. Francois County", "rent": 1010, "zip": "63656"}, "saline-county-64020": {"city": "Saline County", "rent": 1030, "zip": "64020"}, "saline-county-64096": {"city": "Saline County", "rent": 1030, "zip": "64096"}, "saline-county-65320": {"city": "Saline County", "rent": 980, "zip": "65320"}, "saline-county-65321": {"city": "Saline County", "rent": 1030, "zip": "65321"}, "saline-county-65322": {"city": "Saline County", "rent": 1230, "zip": "65322"}, "saline-county-65327": {"city": "Saline County", "rent": 1030, "zip": "65327"}, "saline-county-65330": {"city": "Saline County", "rent": 910, "zip": "65330"}, "saline-county-65333": {"city": "Saline County", "rent": 890, "zip": "65333"}, "saline-county-65339": {"city": "Saline County", "rent": 1070, "zip": "65339"}, "saline-county-65340": {"city": "Saline County", "rent": 910, "zip": "65340"}, "saline-county-65344": {"city": "Saline County", "rent": 930, "zip": "65344"}, "saline-county-65347": {"city": "Saline County", "rent": 910, "zip": "65347"}, "saline-county-65349": {"city": "Saline County", "rent": 890, "zip": "65349"}, "saline-county-65351": {"city": "Saline County", "rent": 1030, "zip": "65351"}, "schuyler-county-63535": {"city": "Schuyler County", "rent": 990, "zip": "63535"}, "schuyler-county-63536": {"city": "Schuyler County", "rent": 890, "zip": "63536"}, "schuyler-county-63541": {"city": "Schuyler County", "rent": 1050, "zip": "63541"}, "schuyler-county-63546": {"city": "Schuyler County", "rent": 1090, "zip": "63546"}, "schuyler-county-63548": {"city": "Schuyler County", "rent": 970, "zip": "63548"}, "schuyler-county-63561": {"city": "Schuyler County", "rent": 910, "zip": "63561"}, "scotland-county-52542": {"city": "Scotland County", "rent": 920, "zip": "52542"}, "scotland-county-52573": {"city": "Scotland County", "rent": 960, "zip": "52573"}, "scotland-county-63432": {"city": "Scotland County", "rent": 890, "zip": "63432"}, "scotland-county-63442": {"city": "Scotland County", "rent": 890, "zip": "63442"}, "scotland-county-63474": {"city": "Scotland County", "rent": 900, "zip": "63474"}, "scotland-county-63531": {"city": "Scotland County", "rent": 980, "zip": "63531"}, "scotland-county-63536": {"city": "Scotland County", "rent": 890, "zip": "63536"}, "scotland-county-63543": {"city": "Scotland County", "rent": 1070, "zip": "63543"}, "scotland-county-63546": {"city": "Scotland County", "rent": 1090, "zip": "63546"}, "scotland-county-63555": {"city": "Scotland County", "rent": 890, "zip": "63555"}, "scotland-county-63563": {"city": "Scotland County", "rent": 1280, "zip": "63563"}, "scott-county-63735": {"city": "Scott County", "rent": 890, "zip": "63735"}, "scott-county-63736": {"city": "Scott County", "rent": 970, "zip": "63736"}, "scott-county-63740": {"city": "Scott County", "rent": 980, "zip": "63740"}, "scott-county-63742": {"city": "Scott County", "rent": 920, "zip": "63742"}, "scott-county-63758": {"city": "Scott County", "rent": 890, "zip": "63758"}, "scott-county-63767": {"city": "Scott County", "rent": 890, "zip": "63767"}, "scott-county-63771": {"city": "Scott County", "rent": 920, "zip": "63771"}, "scott-county-63774": {"city": "Scott County", "rent": 970, "zip": "63774"}, "scott-county-63780": {"city": "Scott County", "rent": 920, "zip": "63780"}, "scott-county-63784": {"city": "Scott County", "rent": 920, "zip": "63784"}, "scott-county-63801": {"city": "Scott County", "rent": 940, "zip": "63801"}, "scott-county-63823": {"city": "Scott County", "rent": 890, "zip": "63823"}, "scott-county-63824": {"city": "Scott County", "rent": 1050, "zip": "63824"}, "scott-county-63834": {"city": "Scott County", "rent": 890, "zip": "63834"}, "shannon-county-63629": {"city": "Shannon County", "rent": 910, "zip": "63629"}, "shannon-county-63638": {"city": "Shannon County", "rent": 890, "zip": "63638"}, "shannon-county-65438": {"city": "Shannon County", "rent": 890, "zip": "65438"}, "shannon-county-65466": {"city": "Shannon County", "rent": 940, "zip": "65466"}, "shannon-county-65479": {"city": "Shannon County", "rent": 900, "zip": "65479"}, "shannon-county-65546": {"city": "Shannon County", "rent": 890, "zip": "65546"}, "shannon-county-65548": {"city": "Shannon County", "rent": 890, "zip": "65548"}, "shannon-county-65560": {"city": "Shannon County", "rent": 900, "zip": "65560"}, "shannon-county-65571": {"city": "Shannon County", "rent": 890, "zip": "65571"}, "shannon-county-65588": {"city": "Shannon County", "rent": 940, "zip": "65588"}, "shelby-county-63434": {"city": "Shelby County", "rent": 1180, "zip": "63434"}, "shelby-county-63437": {"city": "Shelby County", "rent": 890, "zip": "63437"}, "shelby-county-63439": {"city": "Shelby County", "rent": 1010, "zip": "63439"}, "shelby-county-63440": {"city": "Shelby County", "rent": 1020, "zip": "63440"}, "shelby-county-63443": {"city": "Shelby County", "rent": 890, "zip": "63443"}, "shelby-county-63450": {"city": "Shelby County", "rent": 930, "zip": "63450"}, "shelby-county-63451": {"city": "Shelby County", "rent": 1130, "zip": "63451"}, "shelby-county-63468": {"city": "Shelby County", "rent": 980, "zip": "63468"}, "shelby-county-63469": {"city": "Shelby County", "rent": 1280, "zip": "63469"}, "stoddard-county-63730": {"city": "Stoddard County", "rent": 940, "zip": "63730"}, "stoddard-county-63735": {"city": "Stoddard County", "rent": 890, "zip": "63735"}, "stoddard-county-63738": {"city": "Stoddard County", "rent": 890, "zip": "63738"}, "stoddard-county-63771": {"city": "Stoddard County", "rent": 920, "zip": "63771"}, "stoddard-county-63774": {"city": "Stoddard County", "rent": 970, "zip": "63774"}, "stoddard-county-63801": {"city": "Stoddard County", "rent": 940, "zip": "63801"}, "stoddard-county-63822": {"city": "Stoddard County", "rent": 900, "zip": "63822"}, "stoddard-county-63825": {"city": "Stoddard County", "rent": 900, "zip": "63825"}, "stoddard-county-63833": {"city": "Stoddard County", "rent": 890, "zip": "63833"}, "stoddard-county-63841": {"city": "Stoddard County", "rent": 900, "zip": "63841"}, "stoddard-county-63846": {"city": "Stoddard County", "rent": 890, "zip": "63846"}, "stoddard-county-63850": {"city": "Stoddard County", "rent": 890, "zip": "63850"}, "stoddard-county-63870": {"city": "Stoddard County", "rent": 890, "zip": "63870"}, "stoddard-county-63936": {"city": "Stoddard County", "rent": 980, "zip": "63936"}, "stoddard-county-63960": {"city": "Stoddard County", "rent": 920, "zip": "63960"}, "stone-county-65605": {"city": "Stone County", "rent": 950, "zip": "65605"}, "stone-county-65610": {"city": "Stone County", "rent": 960, "zip": "65610"}, "stone-county-65611": {"city": "Stone County", "rent": 910, "zip": "65611"}, "stone-county-65616": {"city": "Stone County", "rent": 1090, "zip": "65616"}, "stone-county-65624": {"city": "Stone County", "rent": 910, "zip": "65624"}, "stone-county-65631": {"city": "Stone County", "rent": 1320, "zip": "65631"}, "stone-county-65633": {"city": "Stone County", "rent": 1130, "zip": "65633"}, "stone-county-65656": {"city": "Stone County", "rent": 900, "zip": "65656"}, "stone-county-65669": {"city": "Stone County", "rent": 1230, "zip": "65669"}, "stone-county-65675": {"city": "Stone County", "rent": 1070, "zip": "65675"}, "stone-county-65681": {"city": "Stone County", "rent": 970, "zip": "65681"}, "stone-county-65686": {"city": "Stone County", "rent": 980, "zip": "65686"}, "stone-county-65705": {"city": "Stone County", "rent": 910, "zip": "65705"}, "stone-county-65714": {"city": "Stone County", "rent": 1160, "zip": "65714"}, "stone-county-65728": {"city": "Stone County", "rent": 1120, "zip": "65728"}, "stone-county-65737": {"city": "Stone County", "rent": 910, "zip": "65737"}, "stone-county-65747": {"city": "Stone County", "rent": 910, "zip": "65747"}, "stone-county-65754": {"city": "Stone County", "rent": 1030, "zip": "65754"}, "sullivan-county-63544": {"city": "Sullivan County", "rent": 970, "zip": "63544"}, "sullivan-county-63545": {"city": "Sullivan County", "rent": 890, "zip": "63545"}, "sullivan-county-63556": {"city": "Sullivan County", "rent": 890, "zip": "63556"}, "sullivan-county-63557": {"city": "Sullivan County", "rent": 910, "zip": "63557"}, "sullivan-county-63560": {"city": "Sullivan County", "rent": 1160, "zip": "63560"}, "sullivan-county-63565": {"city": "Sullivan County", "rent": 890, "zip": "63565"}, "sullivan-county-63566": {"city": "Sullivan County", "rent": 920, "zip": "63566"}, "sullivan-county-64630": {"city": "Sullivan County", "rent": 890, "zip": "64630"}, "sullivan-county-64641": {"city": "Sullivan County", "rent": 890, "zip": "64641"}, "sullivan-county-64645": {"city": "Sullivan County", "rent": 1020, "zip": "64645"}, "sullivan-county-64646": {"city": "Sullivan County", "rent": 890, "zip": "64646"}, "sullivan-county-64652": {"city": "Sullivan County", "rent": 890, "zip": "64652"}, "sullivan-county-64667": {"city": "Sullivan County", "rent": 1250, "zip": "64667"}, "taney-county-65608": {"city": "Taney County", "rent": 890, "zip": "65608"}, "taney-county-65611": {"city": "Taney County", "rent": 910, "zip": "65611"}, "taney-county-65614": {"city": "Taney County", "rent": 980, "zip": "65614"}, "taney-county-65615": {"city": "Taney County", "rent": 1030, "zip": "65615"}, "taney-county-65616": {"city": "Taney County", "rent": 1090, "zip": "65616"}, "taney-county-65627": {"city": "Taney County", "rent": 1030, "zip": "65627"}, "taney-county-65630": {"city": "Taney County", "rent": 1050, "zip": "65630"}, "taney-county-65653": {"city": "Taney County", "rent": 900, "zip": "65653"}, "taney-county-65672": {"city": "Taney County", "rent": 930, "zip": "65672"}, "taney-county-65673": {"city": "Taney County", "rent": 1030, "zip": "65673"}, "taney-county-65679": {"city": "Taney County", "rent": 900, "zip": "65679"}, "taney-county-65680": {"city": "Taney County", "rent": 920, "zip": "65680"}, "taney-county-65726": {"city": "Taney County", "rent": 930, "zip": "65726"}, "taney-county-65731": {"city": "Taney County", "rent": 900, "zip": "65731"}, "taney-county-65733": {"city": "Taney County", "rent": 1010, "zip": "65733"}, "taney-county-65737": {"city": "Taney County", "rent": 910, "zip": "65737"}, "taney-county-65739": {"city": "Taney County", "rent": 940, "zip": "65739"}, "taney-county-65740": {"city": "Taney County", "rent": 1080, "zip": "65740"}, "taney-county-65744": {"city": "Taney County", "rent": 1030, "zip": "65744"}, "taney-county-65759": {"city": "Taney County", "rent": 900, "zip": "65759"}, "taney-county-65761": {"city": "Taney County", "rent": 900, "zip": "65761"}, "taney-county-65771": {"city": "Taney County", "rent": 980, "zip": "65771"}, "texas-county-65436": {"city": "Texas County", "rent": 890, "zip": "65436"}, "texas-county-65444": {"city": "Texas County", "rent": 1010, "zip": "65444"}, "texas-county-65464": {"city": "Texas County", "rent": 920, "zip": "65464"}, "texas-county-65468": {"city": "Texas County", "rent": 890, "zip": "65468"}, "texas-county-65470": {"city": "Texas County", "rent": 970, "zip": "65470"}, "texas-county-65479": {"city": "Texas County", "rent": 900, "zip": "65479"}, "texas-county-65483": {"city": "Texas County", "rent": 920, "zip": "65483"}, "texas-county-65484": {"city": "Texas County", "rent": 890, "zip": "65484"}, "texas-county-65541": {"city": "Texas County", "rent": 900, "zip": "65541"}, "texas-county-65542": {"city": "Texas County", "rent": 890, "zip": "65542"}, "texas-county-65548": {"city": "Texas County", "rent": 890, "zip": "65548"}, "texas-county-65552": {"city": "Texas County", "rent": 1140, "zip": "65552"}, "texas-county-65555": {"city": "Texas County", "rent": 890, "zip": "65555"}, "texas-county-65557": {"city": "Texas County", "rent": 1190, "zip": "65557"}, "texas-county-65560": {"city": "Texas County", "rent": 900, "zip": "65560"}, "texas-county-65564": {"city": "Texas County", "rent": 920, "zip": "65564"}, "texas-county-65570": {"city": "Texas County", "rent": 1320, "zip": "65570"}, "texas-county-65571": {"city": "Texas County", "rent": 890, "zip": "65571"}, "texas-county-65589": {"city": "Texas County", "rent": 890, "zip": "65589"}, "texas-county-65660": {"city": "Texas County", "rent": 1040, "zip": "65660"}, "texas-county-65689": {"city": "Texas County", "rent": 930, "zip": "65689"}, "texas-county-65711": {"city": "Texas County", "rent": 1050, "zip": "65711"}, "texas-county-65793": {"city": "Texas County", "rent": 890, "zip": "65793"}, "vernon-county-64728": {"city": "Vernon County", "rent": 890, "zip": "64728"}, "vernon-county-64741": {"city": "Vernon County", "rent": 900, "zip": "64741"}, "vernon-county-64744": {"city": "Vernon County", "rent": 940, "zip": "64744"}, "vernon-county-64750": {"city": "Vernon County", "rent": 930, "zip": "64750"}, "vernon-county-64752": {"city": "Vernon County", "rent": 1170, "zip": "64752"}, "vernon-county-64765": {"city": "Vernon County", "rent": 890, "zip": "64765"}, "vernon-county-64767": {"city": "Vernon County", "rent": 910, "zip": "64767"}, "vernon-county-64771": {"city": "Vernon County", "rent": 890, "zip": "64771"}, "vernon-county-64772": {"city": "Vernon County", "rent": 910, "zip": "64772"}, "vernon-county-64778": {"city": "Vernon County", "rent": 950, "zip": "64778"}, "vernon-county-64779": {"city": "Vernon County", "rent": 890, "zip": "64779"}, "vernon-county-64783": {"city": "Vernon County", "rent": 920, "zip": "64783"}, "vernon-county-64784": {"city": "Vernon County", "rent": 890, "zip": "64784"}, "vernon-county-64790": {"city": "Vernon County", "rent": 930, "zip": "64790"}, "washington-county-63020": {"city": "Washington County", "rent": 1010, "zip": "63020"}, "washington-county-63023": {"city": "Washington County", "rent": 1230, "zip": "63023"}, "washington-county-63030": {"city": "Washington County", "rent": 1040, "zip": "63030"}, "washington-county-63060": {"city": "Washington County", "rent": 1280, "zip": "63060"}, "washington-county-63071": {"city": "Washington County", "rent": 1070, "zip": "63071"}, "washington-county-63080": {"city": "Washington County", "rent": 990, "zip": "63080"}, "washington-county-63601": {"city": "Washington County", "rent": 890, "zip": "63601"}, "washington-county-63622": {"city": "Washington County", "rent": 890, "zip": "63622"}, "washington-county-63624": {"city": "Washington County", "rent": 890, "zip": "63624"}, "washington-county-63626": {"city": "Washington County", "rent": 960, "zip": "63626"}, "washington-county-63628": {"city": "Washington County", "rent": 990, "zip": "63628"}, "washington-county-63630": {"city": "Washington County", "rent": 920, "zip": "63630"}, "washington-county-63631": {"city": "Washington County", "rent": 960, "zip": "63631"}, "washington-county-63648": {"city": "Washington County", "rent": 1050, "zip": "63648"}, "washington-county-63660": {"city": "Washington County", "rent": 890, "zip": "63660"}, "washington-county-63664": {"city": "Washington County", "rent": 890, "zip": "63664"}, "washington-county-63674": {"city": "Washington County", "rent": 920, "zip": "63674"}, "washington-county-65441": {"city": "Washington County", "rent": 990, "zip": "65441"}, "washington-county-65565": {"city": "Washington County", "rent": 890, "zip": "65565"}, "wayne-county-63636": {"city": "Wayne County", "rent": 890, "zip": "63636"}, "wayne-county-63638": {"city": "Wayne County", "rent": 890, "zip": "63638"}, "wayne-county-63655": {"city": "Wayne County", "rent": 920, "zip": "63655"}, "wayne-county-63763": {"city": "Wayne County", "rent": 890, "zip": "63763"}, "wayne-county-63787": {"city": "Wayne County", "rent": 990, "zip": "63787"}, "wayne-county-63934": {"city": "Wayne County", "rent": 890, "zip": "63934"}, "wayne-county-63944": {"city": "Wayne County", "rent": 890, "zip": "63944"}, "wayne-county-63950": {"city": "Wayne County", "rent": 890, "zip": "63950"}, "wayne-county-63951": {"city": "Wayne County", "rent": 890, "zip": "63951"}, "wayne-county-63952": {"city": "Wayne County", "rent": 890, "zip": "63952"}, "wayne-county-63956": {"city": "Wayne County", "rent": 890, "zip": "63956"}, "wayne-county-63957": {"city": "Wayne County", "rent": 890, "zip": "63957"}, "wayne-county-63960": {"city": "Wayne County", "rent": 920, "zip": "63960"}, "wayne-county-63964": {"city": "Wayne County", "rent": 900, "zip": "63964"}, "wayne-county-63966": {"city": "Wayne County", "rent": 890, "zip": "63966"}, "wayne-county-63967": {"city": "Wayne County", "rent": 890, "zip": "63967"}, "worth-county-64420": {"city": "Worth County", "rent": 890, "zip": "64420"}, "worth-county-64441": {"city": "Worth County", "rent": 890, "zip": "64441"}, "worth-county-64456": {"city": "Worth County", "rent": 890, "zip": "64456"}, "worth-county-64458": {"city": "Worth County", "rent": 920, "zip": "64458"}, "worth-county-64475": {"city": "Worth County", "rent": 910, "zip": "64475"}, "worth-county-64486": {"city": "Worth County", "rent": 940, "zip": "64486"}, "worth-county-64499": {"city": "Worth County", "rent": 890, "zip": "64499"}, "wright-county-65470": {"city": "Wright County", "rent": 970, "zip": "65470"}, "wright-county-65543": {"city": "Wright County", "rent": 900, "zip": "65543"}, "wright-county-65552": {"city": "Wright County", "rent": 1140, "zip": "65552"}, "wright-county-65660": {"city": "Wright County", "rent": 1040, "zip": "65660"}, "wright-county-65662": {"city": "Wright County", "rent": 910, "zip": "65662"}, "wright-county-65667": {"city": "Wright County", "rent": 940, "zip": "65667"}, "wright-county-65702": {"city": "Wright County", "rent": 890, "zip": "65702"}, "wright-county-65704": {"city": "Wright County", "rent": 890, "zip": "65704"}, "wright-county-65706": {"city": "Wright County", "rent": 910, "zip": "65706"}, "wright-county-65711": {"city": "Wright County", "rent": 1050, "zip": "65711"}, "wright-county-65713": {"city": "Wright County", "rent": 900, "zip": "65713"}, "wright-county-65717": {"city": "Wright County", "rent": 890, "zip": "65717"}, "wright-county-65746": {"city": "Wright County", "rent": 900, "zip": "65746"}}