{"billings-59001": {"city": "Billings", "rent": 1280, "zip": "59001"}, "billings-59002": {"city": "Billings", "rent": 1470, "zip": "59002"}, "billings-59006": {"city": "Billings", "rent": 1240, "zip": "59006"}, "billings-59007": {"city": "Billings", "rent": 1240, "zip": "59007"}, "billings-59008": {"city": "Billings", "rent": 1490, "zip": "59008"}, "billings-59013": {"city": "Billings", "rent": 1620, "zip": "59013"}, "billings-59014": {"city": "Billings", "rent": 1240, "zip": "59014"}, "billings-59015": {"city": "Billings", "rent": 1460, "zip": "59015"}, "billings-59019": {"city": "Billings", "rent": 1240, "zip": "59019"}, "billings-59024": {"city": "Billings", "rent": 1430, "zip": "59024"}, "billings-59026": {"city": "Billings", "rent": 1410, "zip": "59026"}, "billings-59029": {"city": "Billings", "rent": 1390, "zip": "59029"}, "billings-59037": {"city": "Billings", "rent": 1370, "zip": "59037"}, "billings-59041": {"city": "Billings", "rent": 1670, "zip": "59041"}, "billings-59044": {"city": "Billings", "rent": 1360, "zip": "59044"}, "billings-59057": {"city": "Billings", "rent": 1440, "zip": "59057"}, "billings-59063": {"city": "Billings", "rent": 1430, "zip": "59063"}, "billings-59064": {"city": "Billings", "rent": 1280, "zip": "59064"}, "billings-59068": {"city": "Billings", "rent": 1240, "zip": "59068"}, "billings-59070": {"city": "Billings", "rent": 1550, "zip": "59070"}, "billings-59071": {"city": "Billings", "rent": 1240, "zip": "59071"}, "billings-59079": {"city": "Billings", "rent": 1980, "zip": "59079"}, "billings-59088": {"city": "Billings", "rent": 1390, "zip": "59088"}, "billings-59101": {"city": "Billings", "rent": 1350, "zip": "59101"}, "billings-59102": {"city": "Billings", "rent": 1480, "zip": "59102"}, "billings-59103": {"city": "Billings", "rent": 1430, "zip": "59103"}, "billings-59104": {"city": "Billings", "rent": 1430, "zip": "59104"}, "billings-59105": {"city": "Billings", "rent": 1600, "zip": "59105"}, "billings-59106": {"city": "Billings", "rent": 1730, "zip": "59106"}, "billings-59107": {"city": "Billings", "rent": 1430, "zip": "59107"}, "billings-59108": {"city": "Billings", "rent": 1430, "zip": "59108"}, "stillwater-county-59001": {"city": "Stillwater County", "rent": 1280, "zip": "59001"}, "stillwater-county-59011": {"city": "Stillwater County", "rent": 1160, "zip": "59011"}, "stillwater-county-59015": {"city": "Stillwater County", "rent": 1460, "zip": "59015"}, "stillwater-county-59019": {"city": "Stillwater County", "rent": 1240, "zip": "59019"}, "stillwater-county-59028": {"city": "Stillwater County", "rent": 1460, "zip": "59028"}, "stillwater-county-59044": {"city": "Stillwater County", "rent": 1360, "zip": "59044"}, "stillwater-county-59046": {"city": "Stillwater County", "rent": 1440, "zip": "59046"}, "stillwater-county-59057": {"city": "Stillwater County", "rent": 1440, "zip": "59057"}, "stillwater-county-59061": {"city": "Stillwater County", "rent": 1530, "zip": "59061"}, "stillwater-county-59063": {"city": "Stillwater County", "rent": 1430, "zip": "59063"}, "stillwater-county-59067": {"city": "Stillwater County", "rent": 1400, "zip": "59067"}, "stillwater-county-59069": {"city": "Stillwater County", "rent": 1840, "zip": "59069"}, "stillwater-county-59074": {"city": "Stillwater County", "rent": 1280, "zip": "59074"}, "bozeman-59086": {"city": "Bozeman", "rent": 1880, "zip": "59086"}, "bozeman-59714": {"city": "Bozeman", "rent": 2030, "zip": "59714"}, "bozeman-59715": {"city": "Bozeman", "rent": 1920, "zip": "59715"}, "bozeman-59716": {"city": "Bozeman", "rent": 2310, "zip": "59716"}, "bozeman-59718": {"city": "Bozeman", "rent": 2420, "zip": "59718"}, "bozeman-59719": {"city": "Bozeman", "rent": 2150, "zip": "59719"}, "bozeman-59729": {"city": "Bozeman", "rent": 1880, "zip": "59729"}, "bozeman-59730": {"city": "Bozeman", "rent": 2290, "zip": "59730"}, "bozeman-59741": {"city": "Bozeman", "rent": 2210, "zip": "59741"}, "bozeman-59752": {"city": "Bozeman", "rent": 1920, "zip": "59752"}, "bozeman-59758": {"city": "Bozeman", "rent": 1880, "zip": "59758"}, "bozeman-59760": {"city": "Bozeman", "rent": 1880, "zip": "59760"}, "bozeman-59771": {"city": "Bozeman", "rent": 2150, "zip": "59771"}, "bozeman-59772": {"city": "Bozeman", "rent": 2150, "zip": "59772"}, "great-falls-59401": {"city": "Great Falls", "rent": 1130, "zip": "59401"}, "great-falls-59403": {"city": "Great Falls", "rent": 1280, "zip": "59403"}, "great-falls-59404": {"city": "Great Falls", "rent": 1430, "zip": "59404"}, "great-falls-59405": {"city": "Great Falls", "rent": 1290, "zip": "59405"}, "great-falls-59406": {"city": "Great Falls", "rent": 1280, "zip": "59406"}, "great-falls-59412": {"city": "Great Falls", "rent": 1300, "zip": "59412"}, "great-falls-59414": {"city": "Great Falls", "rent": 1140, "zip": "59414"}, "great-falls-59421": {"city": "Great Falls", "rent": 1370, "zip": "59421"}, "great-falls-59436": {"city": "Great Falls", "rent": 1500, "zip": "59436"}, "great-falls-59440": {"city": "Great Falls", "rent": 1530, "zip": "59440"}, "great-falls-59443": {"city": "Great Falls", "rent": 1390, "zip": "59443"}, "great-falls-59463": {"city": "Great Falls", "rent": 1280, "zip": "59463"}, "great-falls-59465": {"city": "Great Falls", "rent": 1280, "zip": "59465"}, "great-falls-59468": {"city": "Great Falls", "rent": 1370, "zip": "59468"}, "great-falls-59472": {"city": "Great Falls", "rent": 1290, "zip": "59472"}, "great-falls-59477": {"city": "Great Falls", "rent": 1340, "zip": "59477"}, "great-falls-59480": {"city": "Great Falls", "rent": 1300, "zip": "59480"}, "great-falls-59483": {"city": "Great Falls", "rent": 1340, "zip": "59483"}, "great-falls-59485": {"city": "Great Falls", "rent": 1380, "zip": "59485"}, "great-falls-59487": {"city": "Great Falls", "rent": 1220, "zip": "59487"}, "broadwater-county-59635": {"city": "Broadwater County", "rent": 1550, "zip": "59635"}, "broadwater-county-59641": {"city": "Broadwater County", "rent": 1750, "zip": "59641"}, "broadwater-county-59643": {"city": "Broadwater County", "rent": 1780, "zip": "59643"}, "broadwater-county-59644": {"city": "Broadwater County", "rent": 1780, "zip": "59644"}, "broadwater-county-59645": {"city": "Broadwater County", "rent": 1530, "zip": "59645"}, "broadwater-county-59647": {"city": "Broadwater County", "rent": 1740, "zip": "59647"}, "broadwater-county-59752": {"city": "Broadwater County", "rent": 1920, "zip": "59752"}, "jefferson-county-59601": {"city": "Jefferson County", "rent": 1640, "zip": "59601"}, "jefferson-county-59631": {"city": "Jefferson County", "rent": 1380, "zip": "59631"}, "jefferson-county-59632": {"city": "Jefferson County", "rent": 1230, "zip": "59632"}, "jefferson-county-59634": {"city": "Jefferson County", "rent": 1750, "zip": "59634"}, "jefferson-county-59635": {"city": "Jefferson County", "rent": 1550, "zip": "59635"}, "jefferson-county-59638": {"city": "Jefferson County", "rent": 1560, "zip": "59638"}, "jefferson-county-59701": {"city": "Jefferson County", "rent": 1420, "zip": "59701"}, "jefferson-county-59721": {"city": "Jefferson County", "rent": 1350, "zip": "59721"}, "jefferson-county-59752": {"city": "Jefferson County", "rent": 1920, "zip": "59752"}, "jefferson-county-59759": {"city": "Jefferson County", "rent": 1450, "zip": "59759"}, "lewis-and-clark-county-59410": {"city": "Lewis and Clark County", "rent": 1270, "zip": "59410"}, "lewis-and-clark-county-59421": {"city": "Lewis and Clark County", "rent": 1370, "zip": "59421"}, "lewis-and-clark-county-59601": {"city": "Lewis and Clark County", "rent": 1640, "zip": "59601"}, "lewis-and-clark-county-59602": {"city": "Lewis and Clark County", "rent": 2040, "zip": "59602"}, "lewis-and-clark-county-59604": {"city": "Lewis and Clark County", "rent": 1650, "zip": "59604"}, "lewis-and-clark-county-59620": {"city": "Lewis and Clark County", "rent": 1650, "zip": "59620"}, "lewis-and-clark-county-59623": {"city": "Lewis and Clark County", "rent": 1650, "zip": "59623"}, "lewis-and-clark-county-59624": {"city": "Lewis and Clark County", "rent": 1650, "zip": "59624"}, "lewis-and-clark-county-59625": {"city": "Lewis and Clark County", "rent": 1640, "zip": "59625"}, "lewis-and-clark-county-59626": {"city": "Lewis and Clark County", "rent": 1650, "zip": "59626"}, "lewis-and-clark-county-59633": {"city": "Lewis and Clark County", "rent": 1510, "zip": "59633"}, "lewis-and-clark-county-59634": {"city": "Lewis and Clark County", "rent": 1750, "zip": "59634"}, "lewis-and-clark-county-59635": {"city": "Lewis and Clark County", "rent": 1550, "zip": "59635"}, "lewis-and-clark-county-59636": {"city": "Lewis and Clark County", "rent": 1910, "zip": "59636"}, "lewis-and-clark-county-59639": {"city": "Lewis and Clark County", "rent": 1180, "zip": "59639"}, "lewis-and-clark-county-59640": {"city": "Lewis and Clark County", "rent": 2040, "zip": "59640"}, "lewis-and-clark-county-59648": {"city": "Lewis and Clark County", "rent": 1690, "zip": "59648"}, "missoula-59801": {"city": "Missoula", "rent": 1640, "zip": "59801"}, "missoula-59802": {"city": "Missoula", "rent": 1570, "zip": "59802"}, "missoula-59803": {"city": "Missoula", "rent": 1750, "zip": "59803"}, "missoula-59804": {"city": "Missoula", "rent": 1760, "zip": "59804"}, "missoula-59806": {"city": "Missoula", "rent": 1660, "zip": "59806"}, "missoula-59807": {"city": "Missoula", "rent": 1660, "zip": "59807"}, "missoula-59808": {"city": "Missoula", "rent": 1780, "zip": "59808"}, "missoula-59812": {"city": "Missoula", "rent": 1630, "zip": "59812"}, "missoula-59820": {"city": "Missoula", "rent": 1450, "zip": "59820"}, "missoula-59821": {"city": "Missoula", "rent": 1620, "zip": "59821"}, "missoula-59823": {"city": "Missoula", "rent": 1570, "zip": "59823"}, "missoula-59825": {"city": "Missoula", "rent": 1690, "zip": "59825"}, "missoula-59826": {"city": "Missoula", "rent": 1490, "zip": "59826"}, "missoula-59833": {"city": "Missoula", "rent": 1580, "zip": "59833"}, "missoula-59834": {"city": "Missoula", "rent": 2480, "zip": "59834"}, "missoula-59846": {"city": "Missoula", "rent": 1470, "zip": "59846"}, "missoula-59847": {"city": "Missoula", "rent": 1630, "zip": "59847"}, "missoula-59851": {"city": "Missoula", "rent": 1570, "zip": "59851"}, "missoula-59868": {"city": "Missoula", "rent": 1660, "zip": "59868"}, "mineral-county-59820": {"city": "Mineral County", "rent": 1450, "zip": "59820"}, "mineral-county-59830": {"city": "Mineral County", "rent": 1190, "zip": "59830"}, "mineral-county-59842": {"city": "Mineral County", "rent": 1360, "zip": "59842"}, "mineral-county-59859": {"city": "Mineral County", "rent": 1190, "zip": "59859"}, "mineral-county-59866": {"city": "Mineral County", "rent": 1440, "zip": "59866"}, "mineral-county-59867": {"city": "Mineral County", "rent": 1360, "zip": "59867"}, "mineral-county-59872": {"city": "Mineral County", "rent": 1190, "zip": "59872"}, "beaverhead-county-59724": {"city": "Beaverhead County", "rent": 1070, "zip": "59724"}, "beaverhead-county-59725": {"city": "Beaverhead County", "rent": 1350, "zip": "59725"}, "beaverhead-county-59727": {"city": "Beaverhead County", "rent": 1320, "zip": "59727"}, "beaverhead-county-59732": {"city": "Beaverhead County", "rent": 1350, "zip": "59732"}, "beaverhead-county-59736": {"city": "Beaverhead County", "rent": 1080, "zip": "59736"}, "beaverhead-county-59739": {"city": "Beaverhead County", "rent": 1010, "zip": "59739"}, "beaverhead-county-59743": {"city": "Beaverhead County", "rent": 1350, "zip": "59743"}, "beaverhead-county-59746": {"city": "Beaverhead County", "rent": 1120, "zip": "59746"}, "beaverhead-county-59761": {"city": "Beaverhead County", "rent": 1080, "zip": "59761"}, "beaverhead-county-59762": {"city": "Beaverhead County", "rent": 1240, "zip": "59762"}, "big-horn-county-59010": {"city": "Big Horn County", "rent": 1460, "zip": "59010"}, "big-horn-county-59016": {"city": "Big Horn County", "rent": 1550, "zip": "59016"}, "big-horn-county-59022": {"city": "Big Horn County", "rent": 1490, "zip": "59022"}, "big-horn-county-59024": {"city": "Big Horn County", "rent": 1430, "zip": "59024"}, "big-horn-county-59025": {"city": "Big Horn County", "rent": 1160, "zip": "59025"}, "big-horn-county-59031": {"city": "Big Horn County", "rent": 1460, "zip": "59031"}, "big-horn-county-59034": {"city": "Big Horn County", "rent": 1280, "zip": "59034"}, "big-horn-county-59035": {"city": "Big Horn County", "rent": 1140, "zip": "59035"}, "big-horn-county-59037": {"city": "Big Horn County", "rent": 1370, "zip": "59037"}, "big-horn-county-59038": {"city": "Big Horn County", "rent": 1560, "zip": "59038"}, "big-horn-county-59043": {"city": "Big Horn County", "rent": 1630, "zip": "59043"}, "big-horn-county-59050": {"city": "Big Horn County", "rent": 1480, "zip": "59050"}, "big-horn-county-59064": {"city": "Big Horn County", "rent": 1280, "zip": "59064"}, "big-horn-county-59066": {"city": "Big Horn County", "rent": 1220, "zip": "59066"}, "big-horn-county-59075": {"city": "Big Horn County", "rent": 1340, "zip": "59075"}, "big-horn-county-59089": {"city": "Big Horn County", "rent": 1140, "zip": "59089"}, "big-horn-county-59101": {"city": "Big Horn County", "rent": 1350, "zip": "59101"}, "blaine-county-59501": {"city": "Blaine County", "rent": 1320, "zip": "59501"}, "blaine-county-59520": {"city": "Blaine County", "rent": 1500, "zip": "59520"}, "blaine-county-59523": {"city": "Blaine County", "rent": 1160, "zip": "59523"}, "blaine-county-59524": {"city": "Blaine County", "rent": 1040, "zip": "59524"}, "blaine-county-59526": {"city": "Blaine County", "rent": 1190, "zip": "59526"}, "blaine-county-59527": {"city": "Blaine County", "rent": 1260, "zip": "59527"}, "blaine-county-59529": {"city": "Blaine County", "rent": 1180, "zip": "59529"}, "blaine-county-59535": {"city": "Blaine County", "rent": 1230, "zip": "59535"}, "blaine-county-59542": {"city": "Blaine County", "rent": 1040, "zip": "59542"}, "blaine-county-59547": {"city": "Blaine County", "rent": 1170, "zip": "59547"}, "carter-county-57717": {"city": "Carter County", "rent": 1090, "zip": "57717"}, "carter-county-57724": {"city": "Carter County", "rent": 1090, "zip": "57724"}, "carter-county-59311": {"city": "Carter County", "rent": 1090, "zip": "59311"}, "carter-county-59313": {"city": "Carter County", "rent": 1430, "zip": "59313"}, "carter-county-59316": {"city": "Carter County", "rent": 1090, "zip": "59316"}, "carter-county-59319": {"city": "Carter County", "rent": 1090, "zip": "59319"}, "carter-county-59324": {"city": "Carter County", "rent": 1090, "zip": "59324"}, "carter-county-59332": {"city": "Carter County", "rent": 1240, "zip": "59332"}, "carter-county-59336": {"city": "Carter County", "rent": 1450, "zip": "59336"}, "carter-county-59344": {"city": "Carter County", "rent": 1390, "zip": "59344"}, "chouteau-county-59404": {"city": "Chouteau County", "rent": 1430, "zip": "59404"}, "chouteau-county-59405": {"city": "Chouteau County", "rent": 1290, "zip": "59405"}, "chouteau-county-59416": {"city": "Chouteau County", "rent": 1310, "zip": "59416"}, "chouteau-county-59420": {"city": "Chouteau County", "rent": 1230, "zip": "59420"}, "chouteau-county-59433": {"city": "Chouteau County", "rent": 1340, "zip": "59433"}, "chouteau-county-59440": {"city": "Chouteau County", "rent": 1530, "zip": "59440"}, "chouteau-county-59442": {"city": "Chouteau County", "rent": 1170, "zip": "59442"}, "chouteau-county-59446": {"city": "Chouteau County", "rent": 1400, "zip": "59446"}, "chouteau-county-59447": {"city": "Chouteau County", "rent": 1180, "zip": "59447"}, "chouteau-county-59450": {"city": "Chouteau County", "rent": 1960, "zip": "59450"}, "chouteau-county-59460": {"city": "Chouteau County", "rent": 1290, "zip": "59460"}, "chouteau-county-59520": {"city": "Chouteau County", "rent": 1500, "zip": "59520"}, "chouteau-county-59521": {"city": "Chouteau County", "rent": 1440, "zip": "59521"}, "chouteau-county-59540": {"city": "Chouteau County", "rent": 1140, "zip": "59540"}, "custer-county-59301": {"city": "Custer County", "rent": 1610, "zip": "59301"}, "custer-county-59336": {"city": "Custer County", "rent": 1450, "zip": "59336"}, "custer-county-59338": {"city": "Custer County", "rent": 1610, "zip": "59338"}, "custer-county-59345": {"city": "Custer County", "rent": 1410, "zip": "59345"}, "custer-county-59347": {"city": "Custer County", "rent": 1440, "zip": "59347"}, "custer-county-59349": {"city": "Custer County", "rent": 1550, "zip": "59349"}, "custer-county-59351": {"city": "Custer County", "rent": 1470, "zip": "59351"}, "daniels-county-59201": {"city": "Daniels County", "rent": 1350, "zip": "59201"}, "daniels-county-59222": {"city": "Daniels County", "rent": 1050, "zip": "59222"}, "daniels-county-59253": {"city": "Daniels County", "rent": 1080, "zip": "59253"}, "daniels-county-59257": {"city": "Daniels County", "rent": 1210, "zip": "59257"}, "daniels-county-59260": {"city": "Daniels County", "rent": 1170, "zip": "59260"}, "daniels-county-59263": {"city": "Daniels County", "rent": 1050, "zip": "59263"}, "daniels-county-59276": {"city": "Daniels County", "rent": 1020, "zip": "59276"}, "dawson-county-59215": {"city": "Dawson County", "rent": 1540, "zip": "59215"}, "dawson-county-59259": {"city": "Dawson County", "rent": 1560, "zip": "59259"}, "dawson-county-59262": {"city": "Dawson County", "rent": 1150, "zip": "59262"}, "dawson-county-59315": {"city": "Dawson County", "rent": 1200, "zip": "59315"}, "dawson-county-59326": {"city": "Dawson County", "rent": 1570, "zip": "59326"}, "dawson-county-59330": {"city": "Dawson County", "rent": 1350, "zip": "59330"}, "dawson-county-59339": {"city": "Dawson County", "rent": 1350, "zip": "59339"}, "dawson-county-59353": {"city": "Dawson County", "rent": 1550, "zip": "59353"}, "deer-lodge-county-59701": {"city": "Deer Lodge County", "rent": 1420, "zip": "59701"}, "deer-lodge-county-59711": {"city": "Deer Lodge County", "rent": 1240, "zip": "59711"}, "deer-lodge-county-59722": {"city": "Deer Lodge County", "rent": 1130, "zip": "59722"}, "deer-lodge-county-59756": {"city": "Deer Lodge County", "rent": 1080, "zip": "59756"}, "deer-lodge-county-59762": {"city": "Deer Lodge County", "rent": 1240, "zip": "59762"}, "fallon-county-59313": {"city": "Fallon County", "rent": 1430, "zip": "59313"}, "fallon-county-59336": {"city": "Fallon County", "rent": 1450, "zip": "59336"}, "fallon-county-59344": {"city": "Fallon County", "rent": 1390, "zip": "59344"}, "fallon-county-59353": {"city": "Fallon County", "rent": 1550, "zip": "59353"}, "fallon-county-59354": {"city": "Fallon County", "rent": 1430, "zip": "59354"}, "fergus-county-59032": {"city": "Fergus County", "rent": 1350, "zip": "59032"}, "fergus-county-59072": {"city": "Fergus County", "rent": 1370, "zip": "59072"}, "fergus-county-59087": {"city": "Fergus County", "rent": 1350, "zip": "59087"}, "fergus-county-59418": {"city": "Fergus County", "rent": 1600, "zip": "59418"}, "fergus-county-59424": {"city": "Fergus County", "rent": 1410, "zip": "59424"}, "fergus-county-59430": {"city": "Fergus County", "rent": 1490, "zip": "59430"}, "fergus-county-59441": {"city": "Fergus County", "rent": 1390, "zip": "59441"}, "fergus-county-59451": {"city": "Fergus County", "rent": 1420, "zip": "59451"}, "fergus-county-59453": {"city": "Fergus County", "rent": 1270, "zip": "59453"}, "fergus-county-59457": {"city": "Fergus County", "rent": 1440, "zip": "59457"}, "fergus-county-59462": {"city": "Fergus County", "rent": 1340, "zip": "59462"}, "fergus-county-59464": {"city": "Fergus County", "rent": 1460, "zip": "59464"}, "fergus-county-59471": {"city": "Fergus County", "rent": 1360, "zip": "59471"}, "fergus-county-59489": {"city": "Fergus County", "rent": 1400, "zip": "59489"}, "flathead-county-59845": {"city": "Flathead County", "rent": 1480, "zip": "59845"}, "flathead-county-59901": {"city": "Flathead County", "rent": 1630, "zip": "59901"}, "flathead-county-59903": {"city": "Flathead County", "rent": 1690, "zip": "59903"}, "flathead-county-59904": {"city": "Flathead County", "rent": 1690, "zip": "59904"}, "flathead-county-59911": {"city": "Flathead County", "rent": 1780, "zip": "59911"}, "flathead-county-59912": {"city": "Flathead County", "rent": 1600, "zip": "59912"}, "flathead-county-59913": {"city": "Flathead County", "rent": 1480, "zip": "59913"}, "flathead-county-59916": {"city": "Flathead County", "rent": 1480, "zip": "59916"}, "flathead-county-59917": {"city": "Flathead County", "rent": 1480, "zip": "59917"}, "flathead-county-59919": {"city": "Flathead County", "rent": 1850, "zip": "59919"}, "flathead-county-59920": {"city": "Flathead County", "rent": 1510, "zip": "59920"}, "flathead-county-59922": {"city": "Flathead County", "rent": 1750, "zip": "59922"}, "flathead-county-59925": {"city": "Flathead County", "rent": 1480, "zip": "59925"}, "flathead-county-59926": {"city": "Flathead County", "rent": 1850, "zip": "59926"}, "flathead-county-59927": {"city": "Flathead County", "rent": 1710, "zip": "59927"}, "flathead-county-59928": {"city": "Flathead County", "rent": 1480, "zip": "59928"}, "flathead-county-59932": {"city": "Flathead County", "rent": 1730, "zip": "59932"}, "flathead-county-59936": {"city": "Flathead County", "rent": 1480, "zip": "59936"}, "flathead-county-59937": {"city": "Flathead County", "rent": 1990, "zip": "59937"}, "garfield-county-59058": {"city": "Garfield County", "rent": 1350, "zip": "59058"}, "garfield-county-59077": {"city": "Garfield County", "rent": 1100, "zip": "59077"}, "garfield-county-59223": {"city": "Garfield County", "rent": 1350, "zip": "59223"}, "garfield-county-59301": {"city": "Garfield County", "rent": 1610, "zip": "59301"}, "garfield-county-59312": {"city": "Garfield County", "rent": 1100, "zip": "59312"}, "garfield-county-59318": {"city": "Garfield County", "rent": 1060, "zip": "59318"}, "garfield-county-59322": {"city": "Garfield County", "rent": 1230, "zip": "59322"}, "garfield-county-59337": {"city": "Garfield County", "rent": 1100, "zip": "59337"}, "glacier-county-59411": {"city": "Glacier County", "rent": 1290, "zip": "59411"}, "glacier-county-59417": {"city": "Glacier County", "rent": 1180, "zip": "59417"}, "glacier-county-59427": {"city": "Glacier County", "rent": 1340, "zip": "59427"}, "glacier-county-59434": {"city": "Glacier County", "rent": 1370, "zip": "59434"}, "glacier-county-59448": {"city": "Glacier County", "rent": 1150, "zip": "59448"}, "glacier-county-59486": {"city": "Glacier County", "rent": 1120, "zip": "59486"}, "golden-valley-county-59015": {"city": "Golden Valley County", "rent": 1460, "zip": "59015"}, "golden-valley-county-59046": {"city": "Golden Valley County", "rent": 1440, "zip": "59046"}, "golden-valley-county-59072": {"city": "Golden Valley County", "rent": 1370, "zip": "59072"}, "golden-valley-county-59074": {"city": "Golden Valley County", "rent": 1280, "zip": "59074"}, "golden-valley-county-59078": {"city": "Golden Valley County", "rent": 1220, "zip": "59078"}, "granite-county-59711": {"city": "Granite County", "rent": 1240, "zip": "59711"}, "granite-county-59825": {"city": "Granite County", "rent": 1690, "zip": "59825"}, "granite-county-59832": {"city": "Granite County", "rent": 990, "zip": "59832"}, "granite-county-59837": {"city": "Granite County", "rent": 1210, "zip": "59837"}, "granite-county-59858": {"city": "Granite County", "rent": 1260, "zip": "59858"}, "hill-county-59501": {"city": "Hill County", "rent": 1320, "zip": "59501"}, "hill-county-59520": {"city": "Hill County", "rent": 1500, "zip": "59520"}, "hill-county-59521": {"city": "Hill County", "rent": 1440, "zip": "59521"}, "hill-county-59523": {"city": "Hill County", "rent": 1160, "zip": "59523"}, "hill-county-59525": {"city": "Hill County", "rent": 1340, "zip": "59525"}, "hill-county-59528": {"city": "Hill County", "rent": 1140, "zip": "59528"}, "hill-county-59530": {"city": "Hill County", "rent": 1140, "zip": "59530"}, "hill-county-59531": {"city": "Hill County", "rent": 1140, "zip": "59531"}, "hill-county-59532": {"city": "Hill County", "rent": 1350, "zip": "59532"}, "hill-county-59540": {"city": "Hill County", "rent": 1140, "zip": "59540"}, "judith-basin-county-59412": {"city": "Judith Basin County", "rent": 1300, "zip": "59412"}, "judith-basin-county-59418": {"city": "Judith Basin County", "rent": 1600, "zip": "59418"}, "judith-basin-county-59424": {"city": "Judith Basin County", "rent": 1410, "zip": "59424"}, "judith-basin-county-59430": {"city": "Judith Basin County", "rent": 1490, "zip": "59430"}, "judith-basin-county-59447": {"city": "Judith Basin County", "rent": 1180, "zip": "59447"}, "judith-basin-county-59452": {"city": "Judith Basin County", "rent": 1160, "zip": "59452"}, "judith-basin-county-59453": {"city": "Judith Basin County", "rent": 1270, "zip": "59453"}, "judith-basin-county-59462": {"city": "Judith Basin County", "rent": 1340, "zip": "59462"}, "judith-basin-county-59463": {"city": "Judith Basin County", "rent": 1280, "zip": "59463"}, "judith-basin-county-59464": {"city": "Judith Basin County", "rent": 1460, "zip": "59464"}, "judith-basin-county-59469": {"city": "Judith Basin County", "rent": 1160, "zip": "59469"}, "judith-basin-county-59479": {"city": "Judith Basin County", "rent": 1160, "zip": "59479"}, "lake-county-59821": {"city": "Lake County", "rent": 1620, "zip": "59821"}, "lake-county-59824": {"city": "Lake County", "rent": 1420, "zip": "59824"}, "lake-county-59826": {"city": "Lake County", "rent": 1490, "zip": "59826"}, "lake-county-59845": {"city": "Lake County", "rent": 1480, "zip": "59845"}, "lake-county-59855": {"city": "Lake County", "rent": 1310, "zip": "59855"}, "lake-county-59860": {"city": "Lake County", "rent": 1450, "zip": "59860"}, "lake-county-59863": {"city": "Lake County", "rent": 1370, "zip": "59863"}, "lake-county-59864": {"city": "Lake County", "rent": 1400, "zip": "59864"}, "lake-county-59865": {"city": "Lake County", "rent": 1260, "zip": "59865"}, "lake-county-59910": {"city": "Lake County", "rent": 1540, "zip": "59910"}, "lake-county-59911": {"city": "Lake County", "rent": 1780, "zip": "59911"}, "lake-county-59914": {"city": "Lake County", "rent": 1900, "zip": "59914"}, "lake-county-59915": {"city": "Lake County", "rent": 1480, "zip": "59915"}, "lake-county-59922": {"city": "Lake County", "rent": 1750, "zip": "59922"}, "lake-county-59929": {"city": "Lake County", "rent": 1440, "zip": "59929"}, "lake-county-59931": {"city": "Lake County", "rent": 1540, "zip": "59931"}, "liberty-county-59416": {"city": "Liberty County", "rent": 1310, "zip": "59416"}, "liberty-county-59444": {"city": "Liberty County", "rent": 1390, "zip": "59444"}, "liberty-county-59456": {"city": "Liberty County", "rent": 1210, "zip": "59456"}, "liberty-county-59461": {"city": "Liberty County", "rent": 1290, "zip": "59461"}, "liberty-county-59522": {"city": "Liberty County", "rent": 1030, "zip": "59522"}, "liberty-county-59531": {"city": "Liberty County", "rent": 1140, "zip": "59531"}, "liberty-county-59545": {"city": "Liberty County", "rent": 1170, "zip": "59545"}, "lincoln-county-59917": {"city": "Lincoln County", "rent": 1480, "zip": "59917"}, "lincoln-county-59918": {"city": "Lincoln County", "rent": 1610, "zip": "59918"}, "lincoln-county-59923": {"city": "Lincoln County", "rent": 1060, "zip": "59923"}, "lincoln-county-59925": {"city": "Lincoln County", "rent": 1480, "zip": "59925"}, "lincoln-county-59930": {"city": "Lincoln County", "rent": 1460, "zip": "59930"}, "lincoln-county-59933": {"city": "Lincoln County", "rent": 1490, "zip": "59933"}, "lincoln-county-59934": {"city": "Lincoln County", "rent": 1200, "zip": "59934"}, "lincoln-county-59935": {"city": "Lincoln County", "rent": 1190, "zip": "59935"}, "mccone-county-59201": {"city": "McCone County", "rent": 1350, "zip": "59201"}, "mccone-county-59214": {"city": "McCone County", "rent": 1420, "zip": "59214"}, "mccone-county-59215": {"city": "McCone County", "rent": 1540, "zip": "59215"}, "mccone-county-59223": {"city": "McCone County", "rent": 1350, "zip": "59223"}, "mccone-county-59255": {"city": "McCone County", "rent": 1350, "zip": "59255"}, "mccone-county-59274": {"city": "McCone County", "rent": 1350, "zip": "59274"}, "madison-county-59710": {"city": "Madison County", "rent": 1350, "zip": "59710"}, "madison-county-59716": {"city": "Madison County", "rent": 2310, "zip": "59716"}, "madison-county-59718": {"city": "Madison County", "rent": 2420, "zip": "59718"}, "madison-county-59720": {"city": "Madison County", "rent": 1440, "zip": "59720"}, "madison-county-59721": {"city": "Madison County", "rent": 1350, "zip": "59721"}, "madison-county-59725": {"city": "Madison County", "rent": 1350, "zip": "59725"}, "madison-county-59729": {"city": "Madison County", "rent": 1880, "zip": "59729"}, "madison-county-59730": {"city": "Madison County", "rent": 2290, "zip": "59730"}, "madison-county-59732": {"city": "Madison County", "rent": 1350, "zip": "59732"}, "madison-county-59735": {"city": "Madison County", "rent": 1470, "zip": "59735"}, "madison-county-59740": {"city": "Madison County", "rent": 1350, "zip": "59740"}, "madison-county-59741": {"city": "Madison County", "rent": 2210, "zip": "59741"}, "madison-county-59743": {"city": "Madison County", "rent": 1350, "zip": "59743"}, "madison-county-59745": {"city": "Madison County", "rent": 1790, "zip": "59745"}, "madison-county-59747": {"city": "Madison County", "rent": 1350, "zip": "59747"}, "madison-county-59749": {"city": "Madison County", "rent": 1350, "zip": "59749"}, "madison-county-59751": {"city": "Madison County", "rent": 1510, "zip": "59751"}, "madison-county-59754": {"city": "Madison County", "rent": 1550, "zip": "59754"}, "madison-county-59755": {"city": "Madison County", "rent": 1350, "zip": "59755"}, "madison-county-59759": {"city": "Madison County", "rent": 1450, "zip": "59759"}, "meagher-county-59053": {"city": "Meagher County", "rent": 1330, "zip": "59053"}, "meagher-county-59086": {"city": "Meagher County", "rent": 1880, "zip": "59086"}, "meagher-county-59642": {"city": "Meagher County", "rent": 1570, "zip": "59642"}, "meagher-county-59645": {"city": "Meagher County", "rent": 1530, "zip": "59645"}, "musselshell-county-59015": {"city": "Musselshell County", "rent": 1460, "zip": "59015"}, "musselshell-county-59046": {"city": "Musselshell County", "rent": 1440, "zip": "59046"}, "musselshell-county-59054": {"city": "Musselshell County", "rent": 1320, "zip": "59054"}, "musselshell-county-59059": {"city": "Musselshell County", "rent": 1340, "zip": "59059"}, "musselshell-county-59072": {"city": "Musselshell County", "rent": 1370, "zip": "59072"}, "park-county-59018": {"city": "Park County", "rent": 1660, "zip": "59018"}, "park-county-59020": {"city": "Park County", "rent": 1910, "zip": "59020"}, "park-county-59027": {"city": "Park County", "rent": 1770, "zip": "59027"}, "park-county-59030": {"city": "Park County", "rent": 1400, "zip": "59030"}, "park-county-59047": {"city": "Park County", "rent": 1650, "zip": "59047"}, "park-county-59052": {"city": "Park County", "rent": 1500, "zip": "59052"}, "park-county-59065": {"city": "Park County", "rent": 1540, "zip": "59065"}, "park-county-59081": {"city": "Park County", "rent": 1710, "zip": "59081"}, "park-county-59082": {"city": "Park County", "rent": 1410, "zip": "59082"}, "park-county-59086": {"city": "Park County", "rent": 1880, "zip": "59086"}, "park-county-59715": {"city": "Park County", "rent": 1920, "zip": "59715"}, "petroleum-county-59032": {"city": "Petroleum County", "rent": 1350, "zip": "59032"}, "petroleum-county-59058": {"city": "Petroleum County", "rent": 1350, "zip": "59058"}, "petroleum-county-59072": {"city": "Petroleum County", "rent": 1370, "zip": "59072"}, "petroleum-county-59084": {"city": "Petroleum County", "rent": 1550, "zip": "59084"}, "petroleum-county-59087": {"city": "Petroleum County", "rent": 1350, "zip": "59087"}, "phillips-county-59241": {"city": "Phillips County", "rent": 1050, "zip": "59241"}, "phillips-county-59261": {"city": "Phillips County", "rent": 1290, "zip": "59261"}, "phillips-county-59524": {"city": "Phillips County", "rent": 1040, "zip": "59524"}, "phillips-county-59537": {"city": "Phillips County", "rent": 980, "zip": "59537"}, "phillips-county-59538": {"city": "Phillips County", "rent": 980, "zip": "59538"}, "phillips-county-59542": {"city": "Phillips County", "rent": 1040, "zip": "59542"}, "phillips-county-59544": {"city": "Phillips County", "rent": 1220, "zip": "59544"}, "phillips-county-59546": {"city": "Phillips County", "rent": 1000, "zip": "59546"}, "pondera-county-59416": {"city": "Pondera County", "rent": 1310, "zip": "59416"}, "pondera-county-59425": {"city": "Pondera County", "rent": 1300, "zip": "59425"}, "pondera-county-59432": {"city": "Pondera County", "rent": 1200, "zip": "59432"}, "pondera-county-59448": {"city": "Pondera County", "rent": 1150, "zip": "59448"}, "pondera-county-59456": {"city": "Pondera County", "rent": 1210, "zip": "59456"}, "pondera-county-59486": {"city": "Pondera County", "rent": 1120, "zip": "59486"}, "powder-river-county-59003": {"city": "Powder River County", "rent": 1070, "zip": "59003"}, "powder-river-county-59062": {"city": "Powder River County", "rent": 1090, "zip": "59062"}, "powder-river-county-59301": {"city": "Powder River County", "rent": 1610, "zip": "59301"}, "powder-river-county-59314": {"city": "Powder River County", "rent": 1000, "zip": "59314"}, "powder-river-county-59316": {"city": "Powder River County", "rent": 1090, "zip": "59316"}, "powder-river-county-59317": {"city": "Powder River County", "rent": 1010, "zip": "59317"}, "powder-river-county-59343": {"city": "Powder River County", "rent": 1030, "zip": "59343"}, "powder-river-county-59345": {"city": "Powder River County", "rent": 1410, "zip": "59345"}, "powder-river-county-59351": {"city": "Powder River County", "rent": 1470, "zip": "59351"}, "powell-county-59711": {"city": "Powell County", "rent": 1240, "zip": "59711"}, "powell-county-59713": {"city": "Powell County", "rent": 1240, "zip": "59713"}, "powell-county-59722": {"city": "Powell County", "rent": 1130, "zip": "59722"}, "powell-county-59728": {"city": "Powell County", "rent": 1190, "zip": "59728"}, "powell-county-59731": {"city": "Powell County", "rent": 1230, "zip": "59731"}, "powell-county-59733": {"city": "Powell County", "rent": 1210, "zip": "59733"}, "powell-county-59832": {"city": "Powell County", "rent": 990, "zip": "59832"}, "powell-county-59843": {"city": "Powell County", "rent": 1520, "zip": "59843"}, "powell-county-59854": {"city": "Powell County", "rent": 1350, "zip": "59854"}, "powell-county-59868": {"city": "Powell County", "rent": 1660, "zip": "59868"}, "prairie-county-59214": {"city": "Prairie County", "rent": 1420, "zip": "59214"}, "prairie-county-59301": {"city": "Prairie County", "rent": 1610, "zip": "59301"}, "prairie-county-59326": {"city": "Prairie County", "rent": 1570, "zip": "59326"}, "prairie-county-59330": {"city": "Prairie County", "rent": 1350, "zip": "59330"}, "prairie-county-59336": {"city": "Prairie County", "rent": 1450, "zip": "59336"}, "prairie-county-59339": {"city": "Prairie County", "rent": 1350, "zip": "59339"}, "prairie-county-59341": {"city": "Prairie County", "rent": 1550, "zip": "59341"}, "prairie-county-59349": {"city": "Prairie County", "rent": 1550, "zip": "59349"}, "ravalli-county-59827": {"city": "Ravalli County", "rent": 1320, "zip": "59827"}, "ravalli-county-59828": {"city": "Ravalli County", "rent": 1650, "zip": "59828"}, "ravalli-county-59829": {"city": "Ravalli County", "rent": 1320, "zip": "59829"}, "ravalli-county-59833": {"city": "Ravalli County", "rent": 1580, "zip": "59833"}, "ravalli-county-59835": {"city": "Ravalli County", "rent": 1420, "zip": "59835"}, "ravalli-county-59840": {"city": "Ravalli County", "rent": 1410, "zip": "59840"}, "ravalli-county-59841": {"city": "Ravalli County", "rent": 1910, "zip": "59841"}, "ravalli-county-59870": {"city": "Ravalli County", "rent": 1410, "zip": "59870"}, "ravalli-county-59871": {"city": "Ravalli County", "rent": 1250, "zip": "59871"}, "ravalli-county-59875": {"city": "Ravalli County", "rent": 1360, "zip": "59875"}, "richland-county-59213": {"city": "Richland County", "rent": 1410, "zip": "59213"}, "richland-county-59217": {"city": "Richland County", "rent": 1210, "zip": "59217"}, "richland-county-59218": {"city": "Richland County", "rent": 1530, "zip": "59218"}, "richland-county-59221": {"city": "Richland County", "rent": 1540, "zip": "59221"}, "richland-county-59243": {"city": "Richland County", "rent": 1740, "zip": "59243"}, "richland-county-59255": {"city": "Richland County", "rent": 1350, "zip": "59255"}, "richland-county-59259": {"city": "Richland County", "rent": 1560, "zip": "59259"}, "richland-county-59262": {"city": "Richland County", "rent": 1150, "zip": "59262"}, "richland-county-59270": {"city": "Richland County", "rent": 1310, "zip": "59270"}, "roosevelt-county-59201": {"city": "Roosevelt County", "rent": 1350, "zip": "59201"}, "roosevelt-county-59212": {"city": "Roosevelt County", "rent": 1230, "zip": "59212"}, "roosevelt-county-59213": {"city": "Roosevelt County", "rent": 1410, "zip": "59213"}, "roosevelt-county-59218": {"city": "Roosevelt County", "rent": 1530, "zip": "59218"}, "roosevelt-county-59222": {"city": "Roosevelt County", "rent": 1050, "zip": "59222"}, "roosevelt-county-59226": {"city": "Roosevelt County", "rent": 1220, "zip": "59226"}, "roosevelt-county-59242": {"city": "Roosevelt County", "rent": 1210, "zip": "59242"}, "roosevelt-county-59255": {"city": "Roosevelt County", "rent": 1350, "zip": "59255"}, "roosevelt-county-59258": {"city": "Roosevelt County", "rent": 1210, "zip": "59258"}, "roosevelt-county-59263": {"city": "Roosevelt County", "rent": 1050, "zip": "59263"}, "rosebud-county-59003": {"city": "Rosebud County", "rent": 1070, "zip": "59003"}, "rosebud-county-59012": {"city": "Rosebud County", "rent": 1190, "zip": "59012"}, "rosebud-county-59039": {"city": "Rosebud County", "rent": 1190, "zip": "59039"}, "rosebud-county-59043": {"city": "Rosebud County", "rent": 1630, "zip": "59043"}, "rosebud-county-59054": {"city": "Rosebud County", "rent": 1320, "zip": "59054"}, "rosebud-county-59062": {"city": "Rosebud County", "rent": 1090, "zip": "59062"}, "rosebud-county-59083": {"city": "Rosebud County", "rent": 1190, "zip": "59083"}, "rosebud-county-59301": {"city": "Rosebud County", "rent": 1610, "zip": "59301"}, "rosebud-county-59312": {"city": "Rosebud County", "rent": 1100, "zip": "59312"}, "rosebud-county-59323": {"city": "Rosebud County", "rent": 1250, "zip": "59323"}, "rosebud-county-59327": {"city": "Rosebud County", "rent": 1350, "zip": "59327"}, "rosebud-county-59333": {"city": "Rosebud County", "rent": 1610, "zip": "59333"}, "rosebud-county-59347": {"city": "Rosebud County", "rent": 1440, "zip": "59347"}, "sanders-county-59821": {"city": "Sanders County", "rent": 1620, "zip": "59821"}, "sanders-county-59831": {"city": "Sanders County", "rent": 1120, "zip": "59831"}, "sanders-county-59844": {"city": "Sanders County", "rent": 1670, "zip": "59844"}, "sanders-county-59845": {"city": "Sanders County", "rent": 1480, "zip": "59845"}, "sanders-county-59848": {"city": "Sanders County", "rent": 1000, "zip": "59848"}, "sanders-county-59853": {"city": "Sanders County", "rent": 1670, "zip": "59853"}, "sanders-county-59856": {"city": "Sanders County", "rent": 1130, "zip": "59856"}, "sanders-county-59859": {"city": "Sanders County", "rent": 1190, "zip": "59859"}, "sanders-county-59866": {"city": "Sanders County", "rent": 1440, "zip": "59866"}, "sanders-county-59873": {"city": "Sanders County", "rent": 980, "zip": "59873"}, "sanders-county-59874": {"city": "Sanders County", "rent": 980, "zip": "59874"}, "sheridan-county-59211": {"city": "Sheridan County", "rent": 1210, "zip": "59211"}, "sheridan-county-59219": {"city": "Sheridan County", "rent": 1210, "zip": "59219"}, "sheridan-county-59226": {"city": "Sheridan County", "rent": 1220, "zip": "59226"}, "sheridan-county-59242": {"city": "Sheridan County", "rent": 1210, "zip": "59242"}, "sheridan-county-59247": {"city": "Sheridan County", "rent": 1170, "zip": "59247"}, "sheridan-county-59252": {"city": "Sheridan County", "rent": 1210, "zip": "59252"}, "sheridan-county-59254": {"city": "Sheridan County", "rent": 1080, "zip": "59254"}, "sheridan-county-59256": {"city": "Sheridan County", "rent": 1210, "zip": "59256"}, "sheridan-county-59257": {"city": "Sheridan County", "rent": 1210, "zip": "59257"}, "sheridan-county-59258": {"city": "Sheridan County", "rent": 1210, "zip": "59258"}, "sheridan-county-59275": {"city": "Sheridan County", "rent": 1280, "zip": "59275"}, "silver-bow-county-59701": {"city": "Silver Bow County", "rent": 1420, "zip": "59701"}, "silver-bow-county-59702": {"city": "Silver Bow County", "rent": 1410, "zip": "59702"}, "silver-bow-county-59703": {"city": "Silver Bow County", "rent": 1410, "zip": "59703"}, "silver-bow-county-59711": {"city": "Silver Bow County", "rent": 1240, "zip": "59711"}, "silver-bow-county-59727": {"city": "Silver Bow County", "rent": 1320, "zip": "59727"}, "silver-bow-county-59743": {"city": "Silver Bow County", "rent": 1350, "zip": "59743"}, "silver-bow-county-59748": {"city": "Silver Bow County", "rent": 1260, "zip": "59748"}, "silver-bow-county-59750": {"city": "Silver Bow County", "rent": 1320, "zip": "59750"}, "silver-bow-county-59759": {"city": "Silver Bow County", "rent": 1450, "zip": "59759"}, "silver-bow-county-59762": {"city": "Silver Bow County", "rent": 1240, "zip": "59762"}, "sweet-grass-county-59011": {"city": "Sweet Grass County", "rent": 1160, "zip": "59011"}, "sweet-grass-county-59033": {"city": "Sweet Grass County", "rent": 1460, "zip": "59033"}, "sweet-grass-county-59052": {"city": "Sweet Grass County", "rent": 1500, "zip": "59052"}, "sweet-grass-county-59055": {"city": "Sweet Grass County", "rent": 1170, "zip": "59055"}, "sweet-grass-county-59069": {"city": "Sweet Grass County", "rent": 1840, "zip": "59069"}, "sweet-grass-county-59078": {"city": "Sweet Grass County", "rent": 1220, "zip": "59078"}, "sweet-grass-county-59082": {"city": "Sweet Grass County", "rent": 1410, "zip": "59082"}, "teton-county-59410": {"city": "Teton County", "rent": 1270, "zip": "59410"}, "teton-county-59416": {"city": "Teton County", "rent": 1310, "zip": "59416"}, "teton-county-59419": {"city": "Teton County", "rent": 1300, "zip": "59419"}, "teton-county-59422": {"city": "Teton County", "rent": 1300, "zip": "59422"}, "teton-county-59425": {"city": "Teton County", "rent": 1300, "zip": "59425"}, "teton-county-59432": {"city": "Teton County", "rent": 1200, "zip": "59432"}, "teton-county-59433": {"city": "Teton County", "rent": 1340, "zip": "59433"}, "teton-county-59436": {"city": "Teton County", "rent": 1500, "zip": "59436"}, "teton-county-59443": {"city": "Teton County", "rent": 1390, "zip": "59443"}, "teton-county-59467": {"city": "Teton County", "rent": 1360, "zip": "59467"}, "teton-county-59468": {"city": "Teton County", "rent": 1370, "zip": "59468"}, "teton-county-59487": {"city": "Teton County", "rent": 1220, "zip": "59487"}, "toole-county-59427": {"city": "Toole County", "rent": 1340, "zip": "59427"}, "toole-county-59435": {"city": "Toole County", "rent": 1200, "zip": "59435"}, "toole-county-59444": {"city": "Toole County", "rent": 1390, "zip": "59444"}, "toole-county-59454": {"city": "Toole County", "rent": 1380, "zip": "59454"}, "toole-county-59456": {"city": "Toole County", "rent": 1210, "zip": "59456"}, "toole-county-59461": {"city": "Toole County", "rent": 1290, "zip": "59461"}, "toole-county-59466": {"city": "Toole County", "rent": 1380, "zip": "59466"}, "toole-county-59474": {"city": "Toole County", "rent": 1190, "zip": "59474"}, "toole-county-59482": {"city": "Toole County", "rent": 1490, "zip": "59482"}, "toole-county-59484": {"city": "Toole County", "rent": 1460, "zip": "59484"}, "toole-county-59545": {"city": "Toole County", "rent": 1170, "zip": "59545"}, "treasure-county-59010": {"city": "Treasure County", "rent": 1460, "zip": "59010"}, "treasure-county-59038": {"city": "Treasure County", "rent": 1560, "zip": "59038"}, "treasure-county-59076": {"city": "Treasure County", "rent": 1520, "zip": "59076"}, "treasure-county-59327": {"city": "Treasure County", "rent": 1350, "zip": "59327"}, "valley-county-59201": {"city": "Valley County", "rent": 1350, "zip": "59201"}, "valley-county-59223": {"city": "Valley County", "rent": 1350, "zip": "59223"}, "valley-county-59225": {"city": "Valley County", "rent": 1410, "zip": "59225"}, "valley-county-59230": {"city": "Valley County", "rent": 1200, "zip": "59230"}, "valley-county-59231": {"city": "Valley County", "rent": 1200, "zip": "59231"}, "valley-county-59240": {"city": "Valley County", "rent": 1200, "zip": "59240"}, "valley-county-59241": {"city": "Valley County", "rent": 1050, "zip": "59241"}, "valley-county-59244": {"city": "Valley County", "rent": 1200, "zip": "59244"}, "valley-county-59248": {"city": "Valley County", "rent": 1440, "zip": "59248"}, "valley-county-59250": {"city": "Valley County", "rent": 1050, "zip": "59250"}, "valley-county-59253": {"city": "Valley County", "rent": 1080, "zip": "59253"}, "valley-county-59260": {"city": "Valley County", "rent": 1170, "zip": "59260"}, "valley-county-59261": {"city": "Valley County", "rent": 1290, "zip": "59261"}, "valley-county-59273": {"city": "Valley County", "rent": 1050, "zip": "59273"}, "wheatland-county-59036": {"city": "Wheatland County", "rent": 1180, "zip": "59036"}, "wheatland-county-59053": {"city": "Wheatland County", "rent": 1330, "zip": "59053"}, "wheatland-county-59074": {"city": "Wheatland County", "rent": 1280, "zip": "59074"}, "wheatland-county-59078": {"city": "Wheatland County", "rent": 1220, "zip": "59078"}, "wheatland-county-59085": {"city": "Wheatland County", "rent": 1170, "zip": "59085"}, "wheatland-county-59453": {"city": "Wheatland County", "rent": 1270, "zip": "59453"}, "wibaux-county-59353": {"city": "Wibaux County", "rent": 1550, "zip": "59353"}}