{"hall-county-68801": {"city": "Hall County", "rent": 1220, "zip": "68801"}, "hall-county-68802": {"city": "Hall County", "rent": 1220, "zip": "68802"}, "hall-county-68803": {"city": "Hall County", "rent": 1220, "zip": "68803"}, "hall-county-68810": {"city": "Hall County", "rent": 1200, "zip": "68810"}, "hall-county-68824": {"city": "Hall County", "rent": 1080, "zip": "68824"}, "hall-county-68831": {"city": "Hall County", "rent": 1180, "zip": "68831"}, "hall-county-68832": {"city": "Hall County", "rent": 1320, "zip": "68832"}, "hall-county-68865": {"city": "Hall County", "rent": 1020, "zip": "68865"}, "hall-county-68869": {"city": "Hall County", "rent": 1020, "zip": "68869"}, "hall-county-68872": {"city": "Hall County", "rent": 1270, "zip": "68872"}, "hall-county-68876": {"city": "Hall County", "rent": 1020, "zip": "68876"}, "hall-county-68883": {"city": "Hall County", "rent": 1210, "zip": "68883"}, "hall-county-68901": {"city": "Hall County", "rent": 1020, "zip": "68901"}, "hall-county-68956": {"city": "Hall County", "rent": 1020, "zip": "68956"}, "hall-county-68980": {"city": "Hall County", "rent": 1420, "zip": "68980"}, "howard-county-68801": {"city": "Howard County", "rent": 1220, "zip": "68801"}, "howard-county-68803": {"city": "Howard County", "rent": 1220, "zip": "68803"}, "howard-county-68816": {"city": "Howard County", "rent": 1130, "zip": "68816"}, "howard-county-68817": {"city": "Howard County", "rent": 960, "zip": "68817"}, "howard-county-68820": {"city": "Howard County", "rent": 960, "zip": "68820"}, "howard-county-68824": {"city": "Howard County", "rent": 1080, "zip": "68824"}, "howard-county-68831": {"city": "Howard County", "rent": 1180, "zip": "68831"}, "howard-county-68835": {"city": "Howard County", "rent": 1030, "zip": "68835"}, "howard-county-68838": {"city": "Howard County", "rent": 1020, "zip": "68838"}, "howard-county-68864": {"city": "Howard County", "rent": 1230, "zip": "68864"}, "howard-county-68872": {"city": "Howard County", "rent": 1270, "zip": "68872"}, "howard-county-68873": {"city": "Howard County", "rent": 1020, "zip": "68873"}, "howard-county-68875": {"city": "Howard County", "rent": 960, "zip": "68875"}, "howard-county-68882": {"city": "Howard County", "rent": 1020, "zip": "68882"}, "merrick-county-68601": {"city": "Merrick County", "rent": 1060, "zip": "68601"}, "merrick-county-68628": {"city": "Merrick County", "rent": 1160, "zip": "68628"}, "merrick-county-68638": {"city": "Merrick County", "rent": 960, "zip": "68638"}, "merrick-county-68640": {"city": "Merrick County", "rent": 1070, "zip": "68640"}, "merrick-county-68663": {"city": "Merrick County", "rent": 1060, "zip": "68663"}, "merrick-county-68801": {"city": "Merrick County", "rent": 1220, "zip": "68801"}, "merrick-county-68816": {"city": "Merrick County", "rent": 1130, "zip": "68816"}, "merrick-county-68826": {"city": "Merrick County", "rent": 960, "zip": "68826"}, "merrick-county-68827": {"city": "Merrick County", "rent": 1290, "zip": "68827"}, "merrick-county-68864": {"city": "Merrick County", "rent": 1230, "zip": "68864"}, "merrick-county-68872": {"city": "Merrick County", "rent": 1270, "zip": "68872"}, "lincoln-68003": {"city": "Lincoln", "rent": 1040, "zip": "68003"}, "lincoln-68017": {"city": "Lincoln", "rent": 1140, "zip": "68017"}, "lincoln-68065": {"city": "Lincoln", "rent": 1020, "zip": "68065"}, "lincoln-68301": {"city": "Lincoln", "rent": 1140, "zip": "68301"}, "lincoln-68317": {"city": "Lincoln", "rent": 1280, "zip": "68317"}, "lincoln-68331": {"city": "Lincoln", "rent": 1390, "zip": "68331"}, "lincoln-68333": {"city": "Lincoln", "rent": 1020, "zip": "68333"}, "lincoln-68336": {"city": "Lincoln", "rent": 1220, "zip": "68336"}, "lincoln-68339": {"city": "Lincoln", "rent": 1020, "zip": "68339"}, "lincoln-68347": {"city": "Lincoln", "rent": 960, "zip": "68347"}, "lincoln-68358": {"city": "Lincoln", "rent": 1070, "zip": "68358"}, "lincoln-68360": {"city": "Lincoln", "rent": 1160, "zip": "68360"}, "lincoln-68366": {"city": "Lincoln", "rent": 1260, "zip": "68366"}, "lincoln-68368": {"city": "Lincoln", "rent": 1080, "zip": "68368"}, "lincoln-68372": {"city": "Lincoln", "rent": 1560, "zip": "68372"}, "lincoln-68402": {"city": "Lincoln", "rent": 1130, "zip": "68402"}, "lincoln-68404": {"city": "Lincoln", "rent": 1100, "zip": "68404"}, "lincoln-68419": {"city": "Lincoln", "rent": 1270, "zip": "68419"}, "lincoln-68423": {"city": "Lincoln", "rent": 1020, "zip": "68423"}, "lincoln-68428": {"city": "Lincoln", "rent": 1530, "zip": "68428"}, "lincoln-68430": {"city": "Lincoln", "rent": 1120, "zip": "68430"}, "lincoln-68438": {"city": "Lincoln", "rent": 1450, "zip": "68438"}, "lincoln-68461": {"city": "Lincoln", "rent": 1410, "zip": "68461"}, "lincoln-68462": {"city": "Lincoln", "rent": 1120, "zip": "68462"}, "lincoln-68465": {"city": "Lincoln", "rent": 1050, "zip": "68465"}, "lincoln-68501": {"city": "Lincoln", "rent": 1140, "zip": "68501"}, "lincoln-68502": {"city": "Lincoln", "rent": 1020, "zip": "68502"}, "lincoln-68503": {"city": "Lincoln", "rent": 1030, "zip": "68503"}, "lincoln-68504": {"city": "Lincoln", "rent": 1040, "zip": "68504"}, "lincoln-68505": {"city": "Lincoln", "rent": 1210, "zip": "68505"}, "lincoln-68506": {"city": "Lincoln", "rent": 1220, "zip": "68506"}, "lincoln-68507": {"city": "Lincoln", "rent": 1020, "zip": "68507"}, "lincoln-68508": {"city": "Lincoln", "rent": 1020, "zip": "68508"}, "lincoln-68510": {"city": "Lincoln", "rent": 1020, "zip": "68510"}, "lincoln-68512": {"city": "Lincoln", "rent": 1370, "zip": "68512"}, "lincoln-68514": {"city": "Lincoln", "rent": 1190, "zip": "68514"}, "lincoln-68516": {"city": "Lincoln", "rent": 1320, "zip": "68516"}, "lincoln-68517": {"city": "Lincoln", "rent": 1100, "zip": "68517"}, "lincoln-68520": {"city": "Lincoln", "rent": 1660, "zip": "68520"}, "lincoln-68521": {"city": "Lincoln", "rent": 1290, "zip": "68521"}, "lincoln-68522": {"city": "Lincoln", "rent": 1330, "zip": "68522"}, "lincoln-68523": {"city": "Lincoln", "rent": 1270, "zip": "68523"}, "lincoln-68524": {"city": "Lincoln", "rent": 1050, "zip": "68524"}, "lincoln-68526": {"city": "Lincoln", "rent": 1440, "zip": "68526"}, "lincoln-68527": {"city": "Lincoln", "rent": 1240, "zip": "68527"}, "lincoln-68528": {"city": "Lincoln", "rent": 1380, "zip": "68528"}, "lincoln-68529": {"city": "Lincoln", "rent": 1140, "zip": "68529"}, "lincoln-68531": {"city": "Lincoln", "rent": 1210, "zip": "68531"}, "lincoln-68532": {"city": "Lincoln", "rent": 1330, "zip": "68532"}, "lincoln-68542": {"city": "Lincoln", "rent": 1140, "zip": "68542"}, "lincoln-68588": {"city": "Lincoln", "rent": 1140, "zip": "68588"}, "seward-county-68065": {"city": "Seward County", "rent": 1020, "zip": "68065"}, "seward-county-68313": {"city": "Seward County", "rent": 1450, "zip": "68313"}, "seward-county-68314": {"city": "Seward County", "rent": 980, "zip": "68314"}, "seward-county-68330": {"city": "Seward County", "rent": 1040, "zip": "68330"}, "seward-county-68339": {"city": "Seward County", "rent": 1020, "zip": "68339"}, "seward-county-68343": {"city": "Seward County", "rent": 960, "zip": "68343"}, "seward-county-68359": {"city": "Seward County", "rent": 1040, "zip": "68359"}, "seward-county-68360": {"city": "Seward County", "rent": 1160, "zip": "68360"}, "seward-county-68364": {"city": "Seward County", "rent": 970, "zip": "68364"}, "seward-county-68367": {"city": "Seward County", "rent": 960, "zip": "68367"}, "seward-county-68405": {"city": "Seward County", "rent": 960, "zip": "68405"}, "seward-county-68423": {"city": "Seward County", "rent": 1020, "zip": "68423"}, "seward-county-68428": {"city": "Seward County", "rent": 1530, "zip": "68428"}, "seward-county-68434": {"city": "Seward County", "rent": 970, "zip": "68434"}, "seward-county-68439": {"city": "Seward County", "rent": 960, "zip": "68439"}, "seward-county-68456": {"city": "Seward County", "rent": 960, "zip": "68456"}, "seward-county-68460": {"city": "Seward County", "rent": 1050, "zip": "68460"}, "seward-county-68528": {"city": "Seward County", "rent": 1380, "zip": "68528"}, "seward-county-68532": {"city": "Seward County", "rent": 1330, "zip": "68532"}, "seward-county-68669": {"city": "Seward County", "rent": 1250, "zip": "68669"}, "omaha-council-bluffs-51501": {"city": "Omaha-Council Bluffs", "rent": 1210, "zip": "51501"}, "omaha-council-bluffs-51503": {"city": "Omaha-Council Bluffs", "rent": 1160, "zip": "51503"}, "omaha-council-bluffs-51510": {"city": "Omaha-Council Bluffs", "rent": 1340, "zip": "51510"}, "omaha-council-bluffs-51521": {"city": "Omaha-Council Bluffs", "rent": 1010, "zip": "51521"}, "omaha-council-bluffs-51523": {"city": "Omaha-Council Bluffs", "rent": 980, "zip": "51523"}, "omaha-council-bluffs-51525": {"city": "Omaha-Council Bluffs", "rent": 960, "zip": "51525"}, "omaha-council-bluffs-51526": {"city": "Omaha-Council Bluffs", "rent": 1170, "zip": "51526"}, "omaha-council-bluffs-51529": {"city": "Omaha-Council Bluffs", "rent": 1040, "zip": "51529"}, "omaha-council-bluffs-51532": {"city": "Omaha-Council Bluffs", "rent": 960, "zip": "51532"}, "omaha-council-bluffs-51533": {"city": "Omaha-Council Bluffs", "rent": 1220, "zip": "51533"}, "omaha-council-bluffs-51534": {"city": "Omaha-Council Bluffs", "rent": 1040, "zip": "51534"}, "omaha-council-bluffs-51535": {"city": "Omaha-Council Bluffs", "rent": 1020, "zip": "51535"}, "omaha-council-bluffs-51536": {"city": "Omaha-Council Bluffs", "rent": 1020, "zip": "51536"}, "omaha-council-bluffs-51540": {"city": "Omaha-Council Bluffs", "rent": 1090, "zip": "51540"}, "omaha-council-bluffs-51541": {"city": "Omaha-Council Bluffs", "rent": 1060, "zip": "51541"}, "omaha-council-bluffs-51542": {"city": "Omaha-Council Bluffs", "rent": 1070, "zip": "51542"}, "omaha-council-bluffs-51544": {"city": "Omaha-Council Bluffs", "rent": 960, "zip": "51544"}, "omaha-council-bluffs-51545": {"city": "Omaha-Council Bluffs", "rent": 1000, "zip": "51545"}, "omaha-council-bluffs-51546": {"city": "Omaha-Council Bluffs", "rent": 1040, "zip": "51546"}, "omaha-council-bluffs-51548": {"city": "Omaha-Council Bluffs", "rent": 1110, "zip": "51548"}, "omaha-council-bluffs-51549": {"city": "Omaha-Council Bluffs", "rent": 960, "zip": "51549"}, "omaha-council-bluffs-51550": {"city": "Omaha-Council Bluffs", "rent": 1040, "zip": "51550"}, "omaha-council-bluffs-51551": {"city": "Omaha-Council Bluffs", "rent": 1090, "zip": "51551"}, "omaha-council-bluffs-51552": {"city": "Omaha-Council Bluffs", "rent": 960, "zip": "51552"}, "omaha-council-bluffs-51553": {"city": "Omaha-Council Bluffs", "rent": 960, "zip": "51553"}, "omaha-council-bluffs-51554": {"city": "Omaha-Council Bluffs", "rent": 1060, "zip": "51554"}, "omaha-council-bluffs-51555": {"city": "Omaha-Council Bluffs", "rent": 1040, "zip": "51555"}, "omaha-council-bluffs-51556": {"city": "Omaha-Council Bluffs", "rent": 1370, "zip": "51556"}, "omaha-council-bluffs-51557": {"city": "Omaha-Council Bluffs", "rent": 1080, "zip": "51557"}, "omaha-council-bluffs-51558": {"city": "Omaha-Council Bluffs", "rent": 960, "zip": "51558"}, "omaha-council-bluffs-51559": {"city": "Omaha-Council Bluffs", "rent": 1150, "zip": "51559"}, "omaha-council-bluffs-51560": {"city": "Omaha-Council Bluffs", "rent": 1060, "zip": "51560"}, "omaha-council-bluffs-51561": {"city": "Omaha-Council Bluffs", "rent": 1320, "zip": "51561"}, "omaha-council-bluffs-51562": {"city": "Omaha-Council Bluffs", "rent": 980, "zip": "51562"}, "omaha-council-bluffs-51563": {"city": "Omaha-Council Bluffs", "rent": 1180, "zip": "51563"}, "omaha-council-bluffs-51564": {"city": "Omaha-Council Bluffs", "rent": 960, "zip": "51564"}, "omaha-council-bluffs-51565": {"city": "Omaha-Council Bluffs", "rent": 960, "zip": "51565"}, "omaha-council-bluffs-51566": {"city": "Omaha-Council Bluffs", "rent": 960, "zip": "51566"}, "omaha-council-bluffs-51570": {"city": "Omaha-Council Bluffs", "rent": 960, "zip": "51570"}, "omaha-council-bluffs-51571": {"city": "Omaha-Council Bluffs", "rent": 1110, "zip": "51571"}, "omaha-council-bluffs-51575": {"city": "Omaha-Council Bluffs", "rent": 1220, "zip": "51575"}, "omaha-council-bluffs-51576": {"city": "Omaha-Council Bluffs", "rent": 1040, "zip": "51576"}, "omaha-council-bluffs-51577": {"city": "Omaha-Council Bluffs", "rent": 970, "zip": "51577"}, "omaha-council-bluffs-51579": {"city": "Omaha-Council Bluffs", "rent": 1060, "zip": "51579"}, "omaha-council-bluffs-51645": {"city": "Omaha-Council Bluffs", "rent": 1060, "zip": "51645"}, "omaha-council-bluffs-51649": {"city": "Omaha-Council Bluffs", "rent": 1260, "zip": "51649"}, "omaha-council-bluffs-51653": {"city": "Omaha-Council Bluffs", "rent": 1170, "zip": "51653"}, "omaha-council-bluffs-68002": {"city": "Omaha-Council Bluffs", "rent": 1130, "zip": "68002"}, "omaha-council-bluffs-68003": {"city": "Omaha-Council Bluffs", "rent": 1040, "zip": "68003"}, "omaha-council-bluffs-68005": {"city": "Omaha-Council Bluffs", "rent": 1240, "zip": "68005"}, "omaha-council-bluffs-68007": {"city": "Omaha-Council Bluffs", "rent": 1720, "zip": "68007"}, "omaha-council-bluffs-68008": {"city": "Omaha-Council Bluffs", "rent": 1160, "zip": "68008"}, "omaha-council-bluffs-68010": {"city": "Omaha-Council Bluffs", "rent": 1390, "zip": "68010"}, "omaha-council-bluffs-68016": {"city": "Omaha-Council Bluffs", "rent": 1560, "zip": "68016"}, "omaha-council-bluffs-68019": {"city": "Omaha-Council Bluffs", "rent": 1160, "zip": "68019"}, "omaha-council-bluffs-68022": {"city": "Omaha-Council Bluffs", "rent": 1600, "zip": "68022"}, "omaha-council-bluffs-68023": {"city": "Omaha-Council Bluffs", "rent": 1160, "zip": "68023"}, "omaha-council-bluffs-68025": {"city": "Omaha-Council Bluffs", "rent": 1120, "zip": "68025"}, "omaha-council-bluffs-68028": {"city": "Omaha-Council Bluffs", "rent": 1720, "zip": "68028"}, "omaha-council-bluffs-68029": {"city": "Omaha-Council Bluffs", "rent": 1180, "zip": "68029"}, "omaha-council-bluffs-68031": {"city": "Omaha-Council Bluffs", "rent": 1010, "zip": "68031"}, "omaha-council-bluffs-68034": {"city": "Omaha-Council Bluffs", "rent": 1300, "zip": "68034"}, "omaha-council-bluffs-68037": {"city": "Omaha-Council Bluffs", "rent": 1240, "zip": "68037"}, "omaha-council-bluffs-68044": {"city": "Omaha-Council Bluffs", "rent": 1170, "zip": "68044"}, "omaha-council-bluffs-68046": {"city": "Omaha-Council Bluffs", "rent": 1440, "zip": "68046"}, "omaha-council-bluffs-68048": {"city": "Omaha-Council Bluffs", "rent": 1200, "zip": "68048"}, "omaha-council-bluffs-68056": {"city": "Omaha-Council Bluffs", "rent": 1240, "zip": "68056"}, "omaha-council-bluffs-68058": {"city": "Omaha-Council Bluffs", "rent": 1190, "zip": "68058"}, "omaha-council-bluffs-68059": {"city": "Omaha-Council Bluffs", "rent": 1480, "zip": "68059"}, "omaha-council-bluffs-68064": {"city": "Omaha-Council Bluffs", "rent": 1150, "zip": "68064"}, "omaha-council-bluffs-68068": {"city": "Omaha-Council Bluffs", "rent": 1610, "zip": "68068"}, "omaha-council-bluffs-68069": {"city": "Omaha-Council Bluffs", "rent": 1380, "zip": "68069"}, "omaha-council-bluffs-68102": {"city": "Omaha-Council Bluffs", "rent": 1700, "zip": "68102"}, "omaha-council-bluffs-68103": {"city": "Omaha-Council Bluffs", "rent": 1370, "zip": "68103"}, "omaha-council-bluffs-68104": {"city": "Omaha-Council Bluffs", "rent": 1250, "zip": "68104"}, "omaha-council-bluffs-68105": {"city": "Omaha-Council Bluffs", "rent": 1270, "zip": "68105"}, "omaha-council-bluffs-68106": {"city": "Omaha-Council Bluffs", "rent": 1470, "zip": "68106"}, "omaha-council-bluffs-68107": {"city": "Omaha-Council Bluffs", "rent": 1270, "zip": "68107"}, "omaha-council-bluffs-68108": {"city": "Omaha-Council Bluffs", "rent": 1360, "zip": "68108"}, "omaha-council-bluffs-68109": {"city": "Omaha-Council Bluffs", "rent": 1370, "zip": "68109"}, "omaha-council-bluffs-68110": {"city": "Omaha-Council Bluffs", "rent": 1140, "zip": "68110"}, "omaha-council-bluffs-68111": {"city": "Omaha-Council Bluffs", "rent": 1180, "zip": "68111"}, "omaha-council-bluffs-68112": {"city": "Omaha-Council Bluffs", "rent": 1450, "zip": "68112"}, "omaha-council-bluffs-68113": {"city": "Omaha-Council Bluffs", "rent": 1680, "zip": "68113"}, "omaha-council-bluffs-68114": {"city": "Omaha-Council Bluffs", "rent": 1550, "zip": "68114"}, "omaha-council-bluffs-68116": {"city": "Omaha-Council Bluffs", "rent": 1650, "zip": "68116"}, "omaha-council-bluffs-68117": {"city": "Omaha-Council Bluffs", "rent": 1560, "zip": "68117"}, "omaha-council-bluffs-68118": {"city": "Omaha-Council Bluffs", "rent": 2050, "zip": "68118"}, "omaha-council-bluffs-68122": {"city": "Omaha-Council Bluffs", "rent": 1560, "zip": "68122"}, "omaha-council-bluffs-68123": {"city": "Omaha-Council Bluffs", "rent": 1530, "zip": "68123"}, "omaha-council-bluffs-68124": {"city": "Omaha-Council Bluffs", "rent": 1440, "zip": "68124"}, "omaha-council-bluffs-68127": {"city": "Omaha-Council Bluffs", "rent": 1360, "zip": "68127"}, "omaha-council-bluffs-68128": {"city": "Omaha-Council Bluffs", "rent": 1470, "zip": "68128"}, "omaha-council-bluffs-68130": {"city": "Omaha-Council Bluffs", "rent": 1850, "zip": "68130"}, "omaha-council-bluffs-68131": {"city": "Omaha-Council Bluffs", "rent": 1280, "zip": "68131"}, "omaha-council-bluffs-68132": {"city": "Omaha-Council Bluffs", "rent": 1180, "zip": "68132"}, "omaha-council-bluffs-68133": {"city": "Omaha-Council Bluffs", "rent": 1580, "zip": "68133"}, "omaha-council-bluffs-68134": {"city": "Omaha-Council Bluffs", "rent": 1320, "zip": "68134"}, "omaha-council-bluffs-68135": {"city": "Omaha-Council Bluffs", "rent": 2050, "zip": "68135"}, "omaha-council-bluffs-68136": {"city": "Omaha-Council Bluffs", "rent": 1900, "zip": "68136"}, "omaha-council-bluffs-68137": {"city": "Omaha-Council Bluffs", "rent": 1590, "zip": "68137"}, "omaha-council-bluffs-68138": {"city": "Omaha-Council Bluffs", "rent": 1320, "zip": "68138"}, "omaha-council-bluffs-68139": {"city": "Omaha-Council Bluffs", "rent": 1370, "zip": "68139"}, "omaha-council-bluffs-68142": {"city": "Omaha-Council Bluffs", "rent": 1890, "zip": "68142"}, "omaha-council-bluffs-68144": {"city": "Omaha-Council Bluffs", "rent": 1300, "zip": "68144"}, "omaha-council-bluffs-68145": {"city": "Omaha-Council Bluffs", "rent": 1370, "zip": "68145"}, "omaha-council-bluffs-68147": {"city": "Omaha-Council Bluffs", "rent": 1410, "zip": "68147"}, "omaha-council-bluffs-68152": {"city": "Omaha-Council Bluffs", "rent": 1230, "zip": "68152"}, "omaha-council-bluffs-68154": {"city": "Omaha-Council Bluffs", "rent": 1370, "zip": "68154"}, "omaha-council-bluffs-68157": {"city": "Omaha-Council Bluffs", "rent": 1640, "zip": "68157"}, "omaha-council-bluffs-68164": {"city": "Omaha-Council Bluffs", "rent": 1560, "zip": "68164"}, "omaha-council-bluffs-68175": {"city": "Omaha-Council Bluffs", "rent": 1370, "zip": "68175"}, "omaha-council-bluffs-68178": {"city": "Omaha-Council Bluffs", "rent": 1150, "zip": "68178"}, "omaha-council-bluffs-68179": {"city": "Omaha-Council Bluffs", "rent": 1370, "zip": "68179"}, "omaha-council-bluffs-68182": {"city": "Omaha-Council Bluffs", "rent": 1320, "zip": "68182"}, "omaha-council-bluffs-68183": {"city": "Omaha-Council Bluffs", "rent": 1370, "zip": "68183"}, "omaha-council-bluffs-68197": {"city": "Omaha-Council Bluffs", "rent": 1370, "zip": "68197"}, "omaha-council-bluffs-68198": {"city": "Omaha-Council Bluffs", "rent": 1370, "zip": "68198"}, "omaha-council-bluffs-68304": {"city": "Omaha-Council Bluffs", "rent": 1110, "zip": "68304"}, "omaha-council-bluffs-68307": {"city": "Omaha-Council Bluffs", "rent": 1060, "zip": "68307"}, "omaha-council-bluffs-68347": {"city": "Omaha-Council Bluffs", "rent": 960, "zip": "68347"}, "omaha-council-bluffs-68349": {"city": "Omaha-Council Bluffs", "rent": 1010, "zip": "68349"}, "omaha-council-bluffs-68366": {"city": "Omaha-Council Bluffs", "rent": 1260, "zip": "68366"}, "omaha-council-bluffs-68403": {"city": "Omaha-Council Bluffs", "rent": 1080, "zip": "68403"}, "omaha-council-bluffs-68407": {"city": "Omaha-Council Bluffs", "rent": 1140, "zip": "68407"}, "omaha-council-bluffs-68409": {"city": "Omaha-Council Bluffs", "rent": 1360, "zip": "68409"}, "omaha-council-bluffs-68413": {"city": "Omaha-Council Bluffs", "rent": 1340, "zip": "68413"}, "omaha-council-bluffs-68418": {"city": "Omaha-Council Bluffs", "rent": 1380, "zip": "68418"}, "omaha-council-bluffs-68454": {"city": "Omaha-Council Bluffs", "rent": 1210, "zip": "68454"}, "omaha-council-bluffs-68455": {"city": "Omaha-Council Bluffs", "rent": 1880, "zip": "68455"}, "omaha-council-bluffs-68462": {"city": "Omaha-Council Bluffs", "rent": 1120, "zip": "68462"}, "omaha-council-bluffs-68463": {"city": "Omaha-Council Bluffs", "rent": 1020, "zip": "68463"}, "omaha-council-bluffs-68527": {"city": "Omaha-Council Bluffs", "rent": 1240, "zip": "68527"}, "saunders-county-68003": {"city": "Saunders County", "rent": 1040, "zip": "68003"}, "saunders-county-68014": {"city": "Saunders County", "rent": 1000, "zip": "68014"}, "saunders-county-68015": {"city": "Saunders County", "rent": 1230, "zip": "68015"}, "saunders-county-68017": {"city": "Saunders County", "rent": 1140, "zip": "68017"}, "saunders-county-68018": {"city": "Saunders County", "rent": 1330, "zip": "68018"}, "saunders-county-68025": {"city": "Saunders County", "rent": 1120, "zip": "68025"}, "saunders-county-68033": {"city": "Saunders County", "rent": 1090, "zip": "68033"}, "saunders-county-68036": {"city": "Saunders County", "rent": 1410, "zip": "68036"}, "saunders-county-68040": {"city": "Saunders County", "rent": 1240, "zip": "68040"}, "saunders-county-68041": {"city": "Saunders County", "rent": 1130, "zip": "68041"}, "saunders-county-68042": {"city": "Saunders County", "rent": 1040, "zip": "68042"}, "saunders-county-68050": {"city": "Saunders County", "rent": 1180, "zip": "68050"}, "saunders-county-68064": {"city": "Saunders County", "rent": 1150, "zip": "68064"}, "saunders-county-68065": {"city": "Saunders County", "rent": 1020, "zip": "68065"}, "saunders-county-68066": {"city": "Saunders County", "rent": 1100, "zip": "68066"}, "saunders-county-68070": {"city": "Saunders County", "rent": 1140, "zip": "68070"}, "saunders-county-68073": {"city": "Saunders County", "rent": 1470, "zip": "68073"}, "saunders-county-68366": {"city": "Saunders County", "rent": 1260, "zip": "68366"}, "saunders-county-68626": {"city": "Saunders County", "rent": 1030, "zip": "68626"}, "saunders-county-68648": {"city": "Saunders County", "rent": 1240, "zip": "68648"}, "adams-county-68883": {"city": "Adams County", "rent": 1210, "zip": "68883"}, "adams-county-68901": {"city": "Adams County", "rent": 1020, "zip": "68901"}, "adams-county-68902": {"city": "Adams County", "rent": 960, "zip": "68902"}, "adams-county-68925": {"city": "Adams County", "rent": 990, "zip": "68925"}, "adams-county-68928": {"city": "Adams County", "rent": 1050, "zip": "68928"}, "adams-county-68930": {"city": "Adams County", "rent": 1030, "zip": "68930"}, "adams-county-68932": {"city": "Adams County", "rent": 1160, "zip": "68932"}, "adams-county-68941": {"city": "Adams County", "rent": 970, "zip": "68941"}, "adams-county-68945": {"city": "Adams County", "rent": 970, "zip": "68945"}, "adams-county-68950": {"city": "Adams County", "rent": 960, "zip": "68950"}, "adams-county-68955": {"city": "Adams County", "rent": 960, "zip": "68955"}, "adams-county-68956": {"city": "Adams County", "rent": 1020, "zip": "68956"}, "adams-county-68957": {"city": "Adams County", "rent": 1000, "zip": "68957"}, "adams-county-68973": {"city": "Adams County", "rent": 960, "zip": "68973"}, "adams-county-68980": {"city": "Adams County", "rent": 1420, "zip": "68980"}, "antelope-county-68636": {"city": "Antelope County", "rent": 960, "zip": "68636"}, "antelope-county-68652": {"city": "Antelope County", "rent": 1000, "zip": "68652"}, "antelope-county-68720": {"city": "Antelope County", "rent": 1140, "zip": "68720"}, "antelope-county-68726": {"city": "Antelope County", "rent": 1070, "zip": "68726"}, "antelope-county-68729": {"city": "Antelope County", "rent": 1050, "zip": "68729"}, "antelope-county-68735": {"city": "Antelope County", "rent": 960, "zip": "68735"}, "antelope-county-68756": {"city": "Antelope County", "rent": 1090, "zip": "68756"}, "antelope-county-68761": {"city": "Antelope County", "rent": 1090, "zip": "68761"}, "antelope-county-68764": {"city": "Antelope County", "rent": 990, "zip": "68764"}, "antelope-county-68769": {"city": "Antelope County", "rent": 980, "zip": "68769"}, "antelope-county-68773": {"city": "Antelope County", "rent": 960, "zip": "68773"}, "antelope-county-68781": {"city": "Antelope County", "rent": 960, "zip": "68781"}, "arthur-county-69121": {"city": "Arthur County", "rent": 960, "zip": "69121"}, "arthur-county-69144": {"city": "Arthur County", "rent": 980, "zip": "69144"}, "arthur-county-69146": {"city": "Arthur County", "rent": 960, "zip": "69146"}, "arthur-county-69147": {"city": "Arthur County", "rent": 960, "zip": "69147"}, "arthur-county-69155": {"city": "Arthur County", "rent": 1000, "zip": "69155"}, "arthur-county-69165": {"city": "Arthur County", "rent": 1040, "zip": "69165"}, "arthur-county-69350": {"city": "Arthur County", "rent": 960, "zip": "69350"}, "arthur-county-69366": {"city": "Arthur County", "rent": 970, "zip": "69366"}, "banner-county-69128": {"city": "Banner County", "rent": 990, "zip": "69128"}, "banner-county-69133": {"city": "Banner County", "rent": 960, "zip": "69133"}, "banner-county-69145": {"city": "Banner County", "rent": 960, "zip": "69145"}, "banner-county-69156": {"city": "Banner County", "rent": 1050, "zip": "69156"}, "banner-county-69334": {"city": "Banner County", "rent": 960, "zip": "69334"}, "banner-county-69336": {"city": "Banner County", "rent": 980, "zip": "69336"}, "banner-county-69341": {"city": "Banner County", "rent": 960, "zip": "69341"}, "banner-county-69345": {"city": "Banner County", "rent": 960, "zip": "69345"}, "banner-county-82082": {"city": "Banner County", "rent": 1380, "zip": "82082"}, "blaine-county-68813": {"city": "Blaine County", "rent": 1080, "zip": "68813"}, "blaine-county-68821": {"city": "Blaine County", "rent": 990, "zip": "68821"}, "blaine-county-68833": {"city": "Blaine County", "rent": 990, "zip": "68833"}, "blaine-county-68879": {"city": "Blaine County", "rent": 1190, "zip": "68879"}, "blaine-county-69142": {"city": "Blaine County", "rent": 970, "zip": "69142"}, "blaine-county-69157": {"city": "Blaine County", "rent": 960, "zip": "69157"}, "blaine-county-69163": {"city": "Blaine County", "rent": 960, "zip": "69163"}, "boone-county-68620": {"city": "Boone County", "rent": 1020, "zip": "68620"}, "boone-county-68623": {"city": "Boone County", "rent": 960, "zip": "68623"}, "boone-county-68627": {"city": "Boone County", "rent": 960, "zip": "68627"}, "boone-county-68636": {"city": "Boone County", "rent": 960, "zip": "68636"}, "boone-county-68638": {"city": "Boone County", "rent": 960, "zip": "68638"}, "boone-county-68652": {"city": "Boone County", "rent": 1000, "zip": "68652"}, "boone-county-68655": {"city": "Boone County", "rent": 1040, "zip": "68655"}, "boone-county-68660": {"city": "Boone County", "rent": 960, "zip": "68660"}, "boone-county-68758": {"city": "Boone County", "rent": 960, "zip": "68758"}, "boone-county-68781": {"city": "Boone County", "rent": 960, "zip": "68781"}, "boone-county-68882": {"city": "Boone County", "rent": 1020, "zip": "68882"}, "box-butte-county-69301": {"city": "Box Butte County", "rent": 960, "zip": "69301"}, "box-butte-county-69348": {"city": "Box Butte County", "rent": 1040, "zip": "69348"}, "box-butte-county-69354": {"city": "Box Butte County", "rent": 1010, "zip": "69354"}, "boyd-county-68719": {"city": "Boyd County", "rent": 980, "zip": "68719"}, "boyd-county-68722": {"city": "Boyd County", "rent": 960, "zip": "68722"}, "boyd-county-68746": {"city": "Boyd County", "rent": 960, "zip": "68746"}, "boyd-county-68755": {"city": "Boyd County", "rent": 960, "zip": "68755"}, "boyd-county-68777": {"city": "Boyd County", "rent": 1000, "zip": "68777"}, "brown-county-68714": {"city": "Brown County", "rent": 960, "zip": "68714"}, "brown-county-69210": {"city": "Brown County", "rent": 960, "zip": "69210"}, "brown-county-69214": {"city": "Brown County", "rent": 970, "zip": "69214"}, "brown-county-69217": {"city": "Brown County", "rent": 960, "zip": "69217"}, "brown-county-69221": {"city": "Brown County", "rent": 1060, "zip": "69221"}, "buffalo-county-68812": {"city": "Buffalo County", "rent": 960, "zip": "68812"}, "buffalo-county-68836": {"city": "Buffalo County", "rent": 970, "zip": "68836"}, "buffalo-county-68840": {"city": "Buffalo County", "rent": 1050, "zip": "68840"}, "buffalo-county-68844": {"city": "Buffalo County", "rent": 960, "zip": "68844"}, "buffalo-county-68845": {"city": "Buffalo County", "rent": 1010, "zip": "68845"}, "buffalo-county-68847": {"city": "Buffalo County", "rent": 1080, "zip": "68847"}, "buffalo-county-68848": {"city": "Buffalo County", "rent": 1030, "zip": "68848"}, "buffalo-county-68849": {"city": "Buffalo County", "rent": 1010, "zip": "68849"}, "buffalo-county-68855": {"city": "Buffalo County", "rent": 960, "zip": "68855"}, "buffalo-county-68858": {"city": "Buffalo County", "rent": 960, "zip": "68858"}, "buffalo-county-68861": {"city": "Buffalo County", "rent": 990, "zip": "68861"}, "buffalo-county-68866": {"city": "Buffalo County", "rent": 960, "zip": "68866"}, "buffalo-county-68869": {"city": "Buffalo County", "rent": 1020, "zip": "68869"}, "buffalo-county-68870": {"city": "Buffalo County", "rent": 1210, "zip": "68870"}, "buffalo-county-68876": {"city": "Buffalo County", "rent": 1020, "zip": "68876"}, "buffalo-county-68947": {"city": "Buffalo County", "rent": 960, "zip": "68947"}, "buffalo-county-68956": {"city": "Buffalo County", "rent": 1020, "zip": "68956"}, "burt-county-51557": {"city": "Burt County", "rent": 1080, "zip": "51557"}, "burt-county-68004": {"city": "Burt County", "rent": 970, "zip": "68004"}, "burt-county-68019": {"city": "Burt County", "rent": 1160, "zip": "68019"}, "burt-county-68020": {"city": "Burt County", "rent": 960, "zip": "68020"}, "burt-county-68029": {"city": "Burt County", "rent": 1180, "zip": "68029"}, "burt-county-68031": {"city": "Burt County", "rent": 1010, "zip": "68031"}, "burt-county-68038": {"city": "Burt County", "rent": 960, "zip": "68038"}, "burt-county-68045": {"city": "Burt County", "rent": 960, "zip": "68045"}, "burt-county-68061": {"city": "Burt County", "rent": 970, "zip": "68061"}, "butler-county-68001": {"city": "Butler County", "rent": 1340, "zip": "68001"}, "butler-county-68014": {"city": "Butler County", "rent": 1000, "zip": "68014"}, "butler-county-68036": {"city": "Butler County", "rent": 1410, "zip": "68036"}, "butler-county-68065": {"city": "Butler County", "rent": 1020, "zip": "68065"}, "butler-county-68314": {"city": "Butler County", "rent": 980, "zip": "68314"}, "butler-county-68367": {"city": "Butler County", "rent": 960, "zip": "68367"}, "butler-county-68601": {"city": "Butler County", "rent": 1060, "zip": "68601"}, "butler-county-68624": {"city": "Butler County", "rent": 970, "zip": "68624"}, "butler-county-68626": {"city": "Butler County", "rent": 1030, "zip": "68626"}, "butler-county-68632": {"city": "Butler County", "rent": 960, "zip": "68632"}, "butler-county-68635": {"city": "Butler County", "rent": 990, "zip": "68635"}, "butler-county-68658": {"city": "Butler County", "rent": 960, "zip": "68658"}, "butler-county-68662": {"city": "Butler County", "rent": 1070, "zip": "68662"}, "butler-county-68667": {"city": "Butler County", "rent": 1130, "zip": "68667"}, "butler-county-68669": {"city": "Butler County", "rent": 1250, "zip": "68669"}, "cedar-county-68717": {"city": "Cedar County", "rent": 1010, "zip": "68717"}, "cedar-county-68718": {"city": "Cedar County", "rent": 1080, "zip": "68718"}, "cedar-county-68727": {"city": "Cedar County", "rent": 960, "zip": "68727"}, "cedar-county-68730": {"city": "Cedar County", "rent": 960, "zip": "68730"}, "cedar-county-68736": {"city": "Cedar County", "rent": 960, "zip": "68736"}, "cedar-county-68739": {"city": "Cedar County", "rent": 960, "zip": "68739"}, "cedar-county-68745": {"city": "Cedar County", "rent": 1020, "zip": "68745"}, "cedar-county-68749": {"city": "Cedar County", "rent": 980, "zip": "68749"}, "cedar-county-68757": {"city": "Cedar County", "rent": 960, "zip": "68757"}, "cedar-county-68771": {"city": "Cedar County", "rent": 1020, "zip": "68771"}, "cedar-county-68774": {"city": "Cedar County", "rent": 960, "zip": "68774"}, "cedar-county-68786": {"city": "Cedar County", "rent": 960, "zip": "68786"}, "cedar-county-68792": {"city": "Cedar County", "rent": 960, "zip": "68792"}, "chase-county-69023": {"city": "Chase County", "rent": 1060, "zip": "69023"}, "chase-county-69027": {"city": "Chase County", "rent": 1000, "zip": "69027"}, "chase-county-69030": {"city": "Chase County", "rent": 1010, "zip": "69030"}, "chase-county-69033": {"city": "Chase County", "rent": 1030, "zip": "69033"}, "chase-county-69045": {"city": "Chase County", "rent": 960, "zip": "69045"}, "chase-county-69134": {"city": "Chase County", "rent": 960, "zip": "69134"}, "chase-county-69168": {"city": "Chase County", "rent": 1210, "zip": "69168"}, "cherry-county-69135": {"city": "Cherry County", "rent": 1000, "zip": "69135"}, "cherry-county-69152": {"city": "Cherry County", "rent": 960, "zip": "69152"}, "cherry-county-69157": {"city": "Cherry County", "rent": 960, "zip": "69157"}, "cherry-county-69161": {"city": "Cherry County", "rent": 960, "zip": "69161"}, "cherry-county-69166": {"city": "Cherry County", "rent": 960, "zip": "69166"}, "cherry-county-69201": {"city": "Cherry County", "rent": 1060, "zip": "69201"}, "cherry-county-69211": {"city": "Cherry County", "rent": 960, "zip": "69211"}, "cherry-county-69212": {"city": "Cherry County", "rent": 1020, "zip": "69212"}, "cherry-county-69214": {"city": "Cherry County", "rent": 970, "zip": "69214"}, "cherry-county-69216": {"city": "Cherry County", "rent": 1020, "zip": "69216"}, "cherry-county-69218": {"city": "Cherry County", "rent": 980, "zip": "69218"}, "cherry-county-69219": {"city": "Cherry County", "rent": 1000, "zip": "69219"}, "cherry-county-69220": {"city": "Cherry County", "rent": 1000, "zip": "69220"}, "cherry-county-69221": {"city": "Cherry County", "rent": 1060, "zip": "69221"}, "cherry-county-69333": {"city": "Cherry County", "rent": 960, "zip": "69333"}, "cherry-county-69343": {"city": "Cherry County", "rent": 960, "zip": "69343"}, "cherry-county-69350": {"city": "Cherry County", "rent": 960, "zip": "69350"}, "cherry-county-69366": {"city": "Cherry County", "rent": 970, "zip": "69366"}, "cheyenne-county-69131": {"city": "Cheyenne County", "rent": 1090, "zip": "69131"}, "cheyenne-county-69141": {"city": "Cheyenne County", "rent": 970, "zip": "69141"}, "cheyenne-county-69149": {"city": "Cheyenne County", "rent": 960, "zip": "69149"}, "cheyenne-county-69156": {"city": "Cheyenne County", "rent": 1050, "zip": "69156"}, "cheyenne-county-69162": {"city": "Cheyenne County", "rent": 1080, "zip": "69162"}, "clay-county-68436": {"city": "Clay County", "rent": 1190, "zip": "68436"}, "clay-county-68452": {"city": "Clay County", "rent": 1030, "zip": "68452"}, "clay-county-68818": {"city": "Clay County", "rent": 1010, "zip": "68818"}, "clay-county-68901": {"city": "Clay County", "rent": 1020, "zip": "68901"}, "clay-county-68930": {"city": "Clay County", "rent": 1030, "zip": "68930"}, "clay-county-68933": {"city": "Clay County", "rent": 960, "zip": "68933"}, "clay-county-68934": {"city": "Clay County", "rent": 960, "zip": "68934"}, "clay-county-68935": {"city": "Clay County", "rent": 960, "zip": "68935"}, "clay-county-68938": {"city": "Clay County", "rent": 960, "zip": "68938"}, "clay-county-68941": {"city": "Clay County", "rent": 970, "zip": "68941"}, "clay-county-68944": {"city": "Clay County", "rent": 960, "zip": "68944"}, "clay-county-68954": {"city": "Clay County", "rent": 1090, "zip": "68954"}, "clay-county-68957": {"city": "Clay County", "rent": 1000, "zip": "68957"}, "clay-county-68975": {"city": "Clay County", "rent": 1020, "zip": "68975"}, "clay-county-68979": {"city": "Clay County", "rent": 1080, "zip": "68979"}, "clay-county-68980": {"city": "Clay County", "rent": 1420, "zip": "68980"}, "colfax-county-68601": {"city": "Colfax County", "rent": 1060, "zip": "68601"}, "colfax-county-68629": {"city": "Colfax County", "rent": 1020, "zip": "68629"}, "colfax-county-68633": {"city": "Colfax County", "rent": 960, "zip": "68633"}, "colfax-county-68641": {"city": "Colfax County", "rent": 960, "zip": "68641"}, "colfax-county-68643": {"city": "Colfax County", "rent": 1000, "zip": "68643"}, "colfax-county-68659": {"city": "Colfax County", "rent": 1050, "zip": "68659"}, "colfax-county-68661": {"city": "Colfax County", "rent": 1120, "zip": "68661"}, "cuming-county-68004": {"city": "Cuming County", "rent": 970, "zip": "68004"}, "cuming-county-68038": {"city": "Cuming County", "rent": 960, "zip": "68038"}, "cuming-county-68045": {"city": "Cuming County", "rent": 960, "zip": "68045"}, "cuming-county-68047": {"city": "Cuming County", "rent": 1040, "zip": "68047"}, "cuming-county-68055": {"city": "Cuming County", "rent": 1000, "zip": "68055"}, "cuming-county-68057": {"city": "Cuming County", "rent": 1020, "zip": "68057"}, "cuming-county-68633": {"city": "Cuming County", "rent": 960, "zip": "68633"}, "cuming-county-68641": {"city": "Cuming County", "rent": 960, "zip": "68641"}, "cuming-county-68716": {"city": "Cuming County", "rent": 960, "zip": "68716"}, "cuming-county-68768": {"city": "Cuming County", "rent": 960, "zip": "68768"}, "cuming-county-68788": {"city": "Cuming County", "rent": 1070, "zip": "68788"}, "cuming-county-68791": {"city": "Cuming County", "rent": 960, "zip": "68791"}, "custer-county-68813": {"city": "Custer County", "rent": 1080, "zip": "68813"}, "custer-county-68814": {"city": "Custer County", "rent": 1290, "zip": "68814"}, "custer-county-68815": {"city": "Custer County", "rent": 1140, "zip": "68815"}, "custer-county-68822": {"city": "Custer County", "rent": 960, "zip": "68822"}, "custer-county-68823": {"city": "Custer County", "rent": 960, "zip": "68823"}, "custer-county-68825": {"city": "Custer County", "rent": 960, "zip": "68825"}, "custer-county-68828": {"city": "Custer County", "rent": 1440, "zip": "68828"}, "custer-county-68833": {"city": "Custer County", "rent": 990, "zip": "68833"}, "custer-county-68834": {"city": "Custer County", "rent": 990, "zip": "68834"}, "custer-county-68850": {"city": "Custer County", "rent": 1040, "zip": "68850"}, "custer-county-68852": {"city": "Custer County", "rent": 960, "zip": "68852"}, "custer-county-68855": {"city": "Custer County", "rent": 960, "zip": "68855"}, "custer-county-68856": {"city": "Custer County", "rent": 1220, "zip": "68856"}, "custer-county-68858": {"city": "Custer County", "rent": 960, "zip": "68858"}, "custer-county-68860": {"city": "Custer County", "rent": 960, "zip": "68860"}, "custer-county-68866": {"city": "Custer County", "rent": 960, "zip": "68866"}, "custer-county-68874": {"city": "Custer County", "rent": 1090, "zip": "68874"}, "custer-county-68878": {"city": "Custer County", "rent": 970, "zip": "68878"}, "custer-county-68881": {"city": "Custer County", "rent": 1170, "zip": "68881"}, "custer-county-69120": {"city": "Custer County", "rent": 980, "zip": "69120"}, "custer-county-69138": {"city": "Custer County", "rent": 960, "zip": "69138"}, "dawes-county-69337": {"city": "Dawes County", "rent": 1040, "zip": "69337"}, "dawes-county-69339": {"city": "Dawes County", "rent": 960, "zip": "69339"}, "dawes-county-69347": {"city": "Dawes County", "rent": 960, "zip": "69347"}, "dawes-county-69348": {"city": "Dawes County", "rent": 1040, "zip": "69348"}, "dawes-county-69354": {"city": "Dawes County", "rent": 1010, "zip": "69354"}, "dawes-county-69367": {"city": "Dawes County", "rent": 960, "zip": "69367"}, "dawson-county-68834": {"city": "Dawson County", "rent": 990, "zip": "68834"}, "dawson-county-68836": {"city": "Dawson County", "rent": 970, "zip": "68836"}, "dawson-county-68850": {"city": "Dawson County", "rent": 1040, "zip": "68850"}, "dawson-county-68858": {"city": "Dawson County", "rent": 960, "zip": "68858"}, "dawson-county-68863": {"city": "Dawson County", "rent": 960, "zip": "68863"}, "dawson-county-68878": {"city": "Dawson County", "rent": 970, "zip": "68878"}, "dawson-county-68937": {"city": "Dawson County", "rent": 960, "zip": "68937"}, "dawson-county-69028": {"city": "Dawson County", "rent": 1130, "zip": "69028"}, "dawson-county-69029": {"city": "Dawson County", "rent": 1020, "zip": "69029"}, "dawson-county-69130": {"city": "Dawson County", "rent": 960, "zip": "69130"}, "dawson-county-69138": {"city": "Dawson County", "rent": 960, "zip": "69138"}, "dawson-county-69171": {"city": "Dawson County", "rent": 1000, "zip": "69171"}, "deuel-county-69122": {"city": "Deuel County", "rent": 1020, "zip": "69122"}, "deuel-county-69129": {"city": "Deuel County", "rent": 960, "zip": "69129"}, "deuel-county-69149": {"city": "Deuel County", "rent": 960, "zip": "69149"}, "dixon-county-68710": {"city": "Dixon County", "rent": 960, "zip": "68710"}, "dixon-county-68728": {"city": "Dixon County", "rent": 970, "zip": "68728"}, "dixon-county-68732": {"city": "Dixon County", "rent": 990, "zip": "68732"}, "dixon-county-68733": {"city": "Dixon County", "rent": 960, "zip": "68733"}, "dixon-county-68739": {"city": "Dixon County", "rent": 960, "zip": "68739"}, "dixon-county-68745": {"city": "Dixon County", "rent": 1020, "zip": "68745"}, "dixon-county-68751": {"city": "Dixon County", "rent": 960, "zip": "68751"}, "dixon-county-68757": {"city": "Dixon County", "rent": 960, "zip": "68757"}, "dixon-county-68770": {"city": "Dixon County", "rent": 960, "zip": "68770"}, "dixon-county-68784": {"city": "Dixon County", "rent": 960, "zip": "68784"}, "dixon-county-68785": {"city": "Dixon County", "rent": 1020, "zip": "68785"}, "dixon-county-68787": {"city": "Dixon County", "rent": 960, "zip": "68787"}, "dixon-county-68792": {"city": "Dixon County", "rent": 960, "zip": "68792"}, "dodge-county-68019": {"city": "Dodge County", "rent": 1160, "zip": "68019"}, "dodge-county-68025": {"city": "Dodge County", "rent": 1120, "zip": "68025"}, "dodge-county-68026": {"city": "Dodge County", "rent": 1130, "zip": "68026"}, "dodge-county-68031": {"city": "Dodge County", "rent": 1010, "zip": "68031"}, "dodge-county-68044": {"city": "Dodge County", "rent": 1170, "zip": "68044"}, "dodge-county-68045": {"city": "Dodge County", "rent": 960, "zip": "68045"}, "dodge-county-68057": {"city": "Dodge County", "rent": 1020, "zip": "68057"}, "dodge-county-68063": {"city": "Dodge County", "rent": 1330, "zip": "68063"}, "dodge-county-68064": {"city": "Dodge County", "rent": 1150, "zip": "68064"}, "dodge-county-68072": {"city": "Dodge County", "rent": 1010, "zip": "68072"}, "dodge-county-68621": {"city": "Dodge County", "rent": 1120, "zip": "68621"}, "dodge-county-68633": {"city": "Dodge County", "rent": 960, "zip": "68633"}, "dodge-county-68649": {"city": "Dodge County", "rent": 1160, "zip": "68649"}, "dodge-county-68659": {"city": "Dodge County", "rent": 1050, "zip": "68659"}, "dodge-county-68664": {"city": "Dodge County", "rent": 1100, "zip": "68664"}, "dodge-county-68788": {"city": "Dodge County", "rent": 1070, "zip": "68788"}, "dundy-county-69021": {"city": "Dundy County", "rent": 960, "zip": "69021"}, "dundy-county-69027": {"city": "Dundy County", "rent": 1000, "zip": "69027"}, "dundy-county-69030": {"city": "Dundy County", "rent": 1010, "zip": "69030"}, "dundy-county-69037": {"city": "Dundy County", "rent": 960, "zip": "69037"}, "dundy-county-69041": {"city": "Dundy County", "rent": 960, "zip": "69041"}, "dundy-county-69043": {"city": "Dundy County", "rent": 960, "zip": "69043"}, "dundy-county-69045": {"city": "Dundy County", "rent": 960, "zip": "69045"}, "fillmore-county-68322": {"city": "Fillmore County", "rent": 960, "zip": "68322"}, "fillmore-county-68326": {"city": "Fillmore County", "rent": 990, "zip": "68326"}, "fillmore-county-68335": {"city": "Fillmore County", "rent": 960, "zip": "68335"}, "fillmore-county-68351": {"city": "Fillmore County", "rent": 1020, "zip": "68351"}, "fillmore-county-68354": {"city": "Fillmore County", "rent": 960, "zip": "68354"}, "fillmore-county-68359": {"city": "Fillmore County", "rent": 1040, "zip": "68359"}, "fillmore-county-68361": {"city": "Fillmore County", "rent": 960, "zip": "68361"}, "fillmore-county-68365": {"city": "Fillmore County", "rent": 1020, "zip": "68365"}, "fillmore-county-68406": {"city": "Fillmore County", "rent": 960, "zip": "68406"}, "fillmore-county-68416": {"city": "Fillmore County", "rent": 960, "zip": "68416"}, "fillmore-county-68436": {"city": "Fillmore County", "rent": 1190, "zip": "68436"}, "fillmore-county-68444": {"city": "Fillmore County", "rent": 990, "zip": "68444"}, "fillmore-county-68452": {"city": "Fillmore County", "rent": 1030, "zip": "68452"}, "fillmore-county-68453": {"city": "Fillmore County", "rent": 960, "zip": "68453"}, "fillmore-county-68979": {"city": "Fillmore County", "rent": 1080, "zip": "68979"}, "franklin-county-68929": {"city": "Franklin County", "rent": 980, "zip": "68929"}, "franklin-county-68932": {"city": "Franklin County", "rent": 1160, "zip": "68932"}, "franklin-county-68939": {"city": "Franklin County", "rent": 1210, "zip": "68939"}, "franklin-county-68947": {"city": "Franklin County", "rent": 960, "zip": "68947"}, "franklin-county-68952": {"city": "Franklin County", "rent": 1090, "zip": "68952"}, "franklin-county-68960": {"city": "Franklin County", "rent": 960, "zip": "68960"}, "franklin-county-68972": {"city": "Franklin County", "rent": 1240, "zip": "68972"}, "franklin-county-68981": {"city": "Franklin County", "rent": 1050, "zip": "68981"}, "franklin-county-68982": {"city": "Franklin County", "rent": 1030, "zip": "68982"}, "frontier-county-68937": {"city": "Frontier County", "rent": 960, "zip": "68937"}, "frontier-county-68948": {"city": "Frontier County", "rent": 1390, "zip": "68948"}, "frontier-county-69001": {"city": "Frontier County", "rent": 960, "zip": "69001"}, "frontier-county-69022": {"city": "Frontier County", "rent": 960, "zip": "69022"}, "frontier-county-69024": {"city": "Frontier County", "rent": 1180, "zip": "69024"}, "frontier-county-69025": {"city": "Frontier County", "rent": 1020, "zip": "69025"}, "frontier-county-69028": {"city": "Frontier County", "rent": 1130, "zip": "69028"}, "frontier-county-69029": {"city": "Frontier County", "rent": 1020, "zip": "69029"}, "frontier-county-69034": {"city": "Frontier County", "rent": 960, "zip": "69034"}, "frontier-county-69038": {"city": "Frontier County", "rent": 960, "zip": "69038"}, "frontier-county-69039": {"city": "Frontier County", "rent": 1010, "zip": "69039"}, "frontier-county-69042": {"city": "Frontier County", "rent": 1040, "zip": "69042"}, "furnas-county-68922": {"city": "Furnas County", "rent": 990, "zip": "68922"}, "furnas-county-68926": {"city": "Furnas County", "rent": 960, "zip": "68926"}, "furnas-county-68936": {"city": "Furnas County", "rent": 960, "zip": "68936"}, "furnas-county-68946": {"city": "Furnas County", "rent": 1110, "zip": "68946"}, "furnas-county-68948": {"city": "Furnas County", "rent": 1390, "zip": "68948"}, "furnas-county-68967": {"city": "Furnas County", "rent": 1090, "zip": "68967"}, "furnas-county-68977": {"city": "Furnas County", "rent": 980, "zip": "68977"}, "furnas-county-69020": {"city": "Furnas County", "rent": 1130, "zip": "69020"}, "furnas-county-69022": {"city": "Furnas County", "rent": 960, "zip": "69022"}, "furnas-county-69046": {"city": "Furnas County", "rent": 1040, "zip": "69046"}, "gage-county-68301": {"city": "Gage County", "rent": 1140, "zip": "68301"}, "gage-county-68309": {"city": "Gage County", "rent": 960, "zip": "68309"}, "gage-county-68310": {"city": "Gage County", "rent": 960, "zip": "68310"}, "gage-county-68318": {"city": "Gage County", "rent": 960, "zip": "68318"}, "gage-county-68323": {"city": "Gage County", "rent": 960, "zip": "68323"}, "gage-county-68328": {"city": "Gage County", "rent": 1130, "zip": "68328"}, "gage-county-68331": {"city": "Gage County", "rent": 1390, "zip": "68331"}, "gage-county-68332": {"city": "Gage County", "rent": 980, "zip": "68332"}, "gage-county-68341": {"city": "Gage County", "rent": 960, "zip": "68341"}, "gage-county-68342": {"city": "Gage County", "rent": 960, "zip": "68342"}, "gage-county-68357": {"city": "Gage County", "rent": 1090, "zip": "68357"}, "gage-county-68358": {"city": "Gage County", "rent": 1070, "zip": "68358"}, "gage-county-68368": {"city": "Gage County", "rent": 1080, "zip": "68368"}, "gage-county-68381": {"city": "Gage County", "rent": 960, "zip": "68381"}, "gage-county-68404": {"city": "Gage County", "rent": 1100, "zip": "68404"}, "gage-county-68415": {"city": "Gage County", "rent": 960, "zip": "68415"}, "gage-county-68422": {"city": "Gage County", "rent": 1360, "zip": "68422"}, "gage-county-68424": {"city": "Gage County", "rent": 1220, "zip": "68424"}, "gage-county-68458": {"city": "Gage County", "rent": 960, "zip": "68458"}, "gage-county-68465": {"city": "Gage County", "rent": 1050, "zip": "68465"}, "gage-county-68466": {"city": "Gage County", "rent": 960, "zip": "68466"}, "garden-county-69122": {"city": "Garden County", "rent": 1020, "zip": "69122"}, "garden-county-69129": {"city": "Garden County", "rent": 960, "zip": "69129"}, "garden-county-69147": {"city": "Garden County", "rent": 960, "zip": "69147"}, "garden-county-69148": {"city": "Garden County", "rent": 1020, "zip": "69148"}, "garden-county-69149": {"city": "Garden County", "rent": 960, "zip": "69149"}, "garden-county-69154": {"city": "Garden County", "rent": 1040, "zip": "69154"}, "garden-county-69333": {"city": "Garden County", "rent": 960, "zip": "69333"}, "garden-county-69335": {"city": "Garden County", "rent": 960, "zip": "69335"}, "garden-county-69340": {"city": "Garden County", "rent": 960, "zip": "69340"}, "garden-county-69351": {"city": "Garden County", "rent": 980, "zip": "69351"}, "garfield-county-68637": {"city": "Garfield County", "rent": 1060, "zip": "68637"}, "garfield-county-68725": {"city": "Garfield County", "rent": 1030, "zip": "68725"}, "garfield-county-68823": {"city": "Garfield County", "rent": 960, "zip": "68823"}, "garfield-county-68862": {"city": "Garfield County", "rent": 960, "zip": "68862"}, "gosper-county-68850": {"city": "Gosper County", "rent": 1040, "zip": "68850"}, "gosper-county-68922": {"city": "Gosper County", "rent": 990, "zip": "68922"}, "gosper-county-68927": {"city": "Gosper County", "rent": 1160, "zip": "68927"}, "gosper-county-68936": {"city": "Gosper County", "rent": 960, "zip": "68936"}, "gosper-county-68937": {"city": "Gosper County", "rent": 960, "zip": "68937"}, "gosper-county-68948": {"city": "Gosper County", "rent": 1390, "zip": "68948"}, "gosper-county-68967": {"city": "Gosper County", "rent": 1090, "zip": "68967"}, "gosper-county-68976": {"city": "Gosper County", "rent": 1080, "zip": "68976"}, "gosper-county-69022": {"city": "Gosper County", "rent": 960, "zip": "69022"}, "gosper-county-69028": {"city": "Gosper County", "rent": 1130, "zip": "69028"}, "grant-county-69333": {"city": "Grant County", "rent": 960, "zip": "69333"}, "grant-county-69350": {"city": "Grant County", "rent": 960, "zip": "69350"}, "grant-county-69366": {"city": "Grant County", "rent": 970, "zip": "69366"}, "greeley-county-68627": {"city": "Greeley County", "rent": 960, "zip": "68627"}, "greeley-county-68637": {"city": "Greeley County", "rent": 1060, "zip": "68637"}, "greeley-county-68655": {"city": "Greeley County", "rent": 1040, "zip": "68655"}, "greeley-county-68665": {"city": "Greeley County", "rent": 1090, "zip": "68665"}, "greeley-county-68835": {"city": "Greeley County", "rent": 1030, "zip": "68835"}, "greeley-county-68842": {"city": "Greeley County", "rent": 1080, "zip": "68842"}, "greeley-county-68859": {"city": "Greeley County", "rent": 960, "zip": "68859"}, "greeley-county-68875": {"city": "Greeley County", "rent": 960, "zip": "68875"}, "greeley-county-68882": {"city": "Greeley County", "rent": 1020, "zip": "68882"}, "hamilton-county-68319": {"city": "Hamilton County", "rent": 1070, "zip": "68319"}, "hamilton-county-68371": {"city": "Hamilton County", "rent": 1010, "zip": "68371"}, "hamilton-county-68628": {"city": "Hamilton County", "rent": 1160, "zip": "68628"}, "hamilton-county-68654": {"city": "Hamilton County", "rent": 1060, "zip": "68654"}, "hamilton-county-68818": {"city": "Hamilton County", "rent": 1010, "zip": "68818"}, "hamilton-county-68832": {"city": "Hamilton County", "rent": 1320, "zip": "68832"}, "hamilton-county-68841": {"city": "Hamilton County", "rent": 960, "zip": "68841"}, "hamilton-county-68843": {"city": "Hamilton County", "rent": 960, "zip": "68843"}, "hamilton-county-68846": {"city": "Hamilton County", "rent": 960, "zip": "68846"}, "hamilton-county-68854": {"city": "Hamilton County", "rent": 970, "zip": "68854"}, "hamilton-county-68865": {"city": "Hamilton County", "rent": 1020, "zip": "68865"}, "hamilton-county-68944": {"city": "Hamilton County", "rent": 960, "zip": "68944"}, "hamilton-county-68979": {"city": "Hamilton County", "rent": 1080, "zip": "68979"}, "hamilton-county-68980": {"city": "Hamilton County", "rent": 1420, "zip": "68980"}, "harlan-county-68920": {"city": "Harlan County", "rent": 980, "zip": "68920"}, "harlan-county-68949": {"city": "Harlan County", "rent": 960, "zip": "68949"}, "harlan-county-68960": {"city": "Harlan County", "rent": 960, "zip": "68960"}, "harlan-county-68966": {"city": "Harlan County", "rent": 960, "zip": "68966"}, "harlan-county-68967": {"city": "Harlan County", "rent": 1090, "zip": "68967"}, "harlan-county-68969": {"city": "Harlan County", "rent": 960, "zip": "68969"}, "harlan-county-68971": {"city": "Harlan County", "rent": 970, "zip": "68971"}, "harlan-county-68977": {"city": "Harlan County", "rent": 980, "zip": "68977"}, "harlan-county-68982": {"city": "Harlan County", "rent": 1030, "zip": "68982"}, "hayes-county-69001": {"city": "Hayes County", "rent": 960, "zip": "69001"}, "hayes-county-69024": {"city": "Hayes County", "rent": 1180, "zip": "69024"}, "hayes-county-69032": {"city": "Hayes County", "rent": 960, "zip": "69032"}, "hayes-county-69038": {"city": "Hayes County", "rent": 960, "zip": "69038"}, "hayes-county-69040": {"city": "Hayes County", "rent": 960, "zip": "69040"}, "hayes-county-69045": {"city": "Hayes County", "rent": 960, "zip": "69045"}, "hayes-county-69134": {"city": "Hayes County", "rent": 960, "zip": "69134"}, "hayes-county-69169": {"city": "Hayes County", "rent": 960, "zip": "69169"}, "hitchcock-county-69001": {"city": "Hitchcock County", "rent": 960, "zip": "69001"}, "hitchcock-county-69024": {"city": "Hitchcock County", "rent": 1180, "zip": "69024"}, "hitchcock-county-69038": {"city": "Hitchcock County", "rent": 960, "zip": "69038"}, "hitchcock-county-69040": {"city": "Hitchcock County", "rent": 960, "zip": "69040"}, "hitchcock-county-69043": {"city": "Hitchcock County", "rent": 960, "zip": "69043"}, "hitchcock-county-69044": {"city": "Hitchcock County", "rent": 960, "zip": "69044"}, "hitchcock-county-69045": {"city": "Hitchcock County", "rent": 960, "zip": "69045"}, "holt-county-68711": {"city": "Holt County", "rent": 980, "zip": "68711"}, "holt-county-68713": {"city": "Holt County", "rent": 960, "zip": "68713"}, "holt-county-68725": {"city": "Holt County", "rent": 1030, "zip": "68725"}, "holt-county-68726": {"city": "Holt County", "rent": 1070, "zip": "68726"}, "holt-county-68734": {"city": "Holt County", "rent": 970, "zip": "68734"}, "holt-county-68735": {"city": "Holt County", "rent": 960, "zip": "68735"}, "holt-county-68742": {"city": "Holt County", "rent": 960, "zip": "68742"}, "holt-county-68746": {"city": "Holt County", "rent": 960, "zip": "68746"}, "holt-county-68759": {"city": "Holt County", "rent": 980, "zip": "68759"}, "holt-county-68763": {"city": "Holt County", "rent": 960, "zip": "68763"}, "holt-county-68764": {"city": "Holt County", "rent": 990, "zip": "68764"}, "holt-county-68766": {"city": "Holt County", "rent": 960, "zip": "68766"}, "holt-county-68777": {"city": "Holt County", "rent": 1000, "zip": "68777"}, "holt-county-68780": {"city": "Holt County", "rent": 970, "zip": "68780"}, "holt-county-68823": {"city": "Holt County", "rent": 960, "zip": "68823"}, "hooker-county-69152": {"city": "Hooker County", "rent": 960, "zip": "69152"}, "hooker-county-69167": {"city": "Hooker County", "rent": 980, "zip": "69167"}, "jefferson-county-68303": {"city": "Jefferson County", "rent": 960, "zip": "68303"}, "jefferson-county-68310": {"city": "Jefferson County", "rent": 960, "zip": "68310"}, "jefferson-county-68338": {"city": "Jefferson County", "rent": 990, "zip": "68338"}, "jefferson-county-68341": {"city": "Jefferson County", "rent": 960, "zip": "68341"}, "jefferson-county-68342": {"city": "Jefferson County", "rent": 960, "zip": "68342"}, "jefferson-county-68350": {"city": "Jefferson County", "rent": 960, "zip": "68350"}, "jefferson-county-68352": {"city": "Jefferson County", "rent": 960, "zip": "68352"}, "jefferson-county-68370": {"city": "Jefferson County", "rent": 980, "zip": "68370"}, "jefferson-county-68377": {"city": "Jefferson County", "rent": 1090, "zip": "68377"}, "jefferson-county-68424": {"city": "Jefferson County", "rent": 1220, "zip": "68424"}, "jefferson-county-68429": {"city": "Jefferson County", "rent": 960, "zip": "68429"}, "jefferson-county-68440": {"city": "Jefferson County", "rent": 960, "zip": "68440"}, "jefferson-county-68453": {"city": "Jefferson County", "rent": 960, "zip": "68453"}, "jefferson-county-68464": {"city": "Jefferson County", "rent": 960, "zip": "68464"}, "johnson-county-68301": {"city": "Johnson County", "rent": 1140, "zip": "68301"}, "johnson-county-68324": {"city": "Johnson County", "rent": 1070, "zip": "68324"}, "johnson-county-68329": {"city": "Johnson County", "rent": 960, "zip": "68329"}, "johnson-county-68332": {"city": "Johnson County", "rent": 980, "zip": "68332"}, "johnson-county-68348": {"city": "Johnson County", "rent": 1050, "zip": "68348"}, "johnson-county-68357": {"city": "Johnson County", "rent": 1090, "zip": "68357"}, "johnson-county-68378": {"city": "Johnson County", "rent": 960, "zip": "68378"}, "johnson-county-68443": {"city": "Johnson County", "rent": 960, "zip": "68443"}, "johnson-county-68447": {"city": "Johnson County", "rent": 1190, "zip": "68447"}, "johnson-county-68448": {"city": "Johnson County", "rent": 1330, "zip": "68448"}, "johnson-county-68450": {"city": "Johnson County", "rent": 1020, "zip": "68450"}, "johnson-county-68458": {"city": "Johnson County", "rent": 960, "zip": "68458"}, "kearney-county-68840": {"city": "Kearney County", "rent": 1050, "zip": "68840"}, "kearney-county-68845": {"city": "Kearney County", "rent": 1010, "zip": "68845"}, "kearney-county-68847": {"city": "Kearney County", "rent": 1080, "zip": "68847"}, "kearney-county-68924": {"city": "Kearney County", "rent": 1410, "zip": "68924"}, "kearney-county-68932": {"city": "Kearney County", "rent": 1160, "zip": "68932"}, "kearney-county-68939": {"city": "Kearney County", "rent": 1210, "zip": "68939"}, "kearney-county-68945": {"city": "Kearney County", "rent": 970, "zip": "68945"}, "kearney-county-68947": {"city": "Kearney County", "rent": 960, "zip": "68947"}, "kearney-county-68956": {"city": "Kearney County", "rent": 1020, "zip": "68956"}, "kearney-county-68959": {"city": "Kearney County", "rent": 960, "zip": "68959"}, "kearney-county-68972": {"city": "Kearney County", "rent": 1240, "zip": "68972"}, "kearney-county-68981": {"city": "Kearney County", "rent": 1050, "zip": "68981"}, "kearney-county-68982": {"city": "Kearney County", "rent": 1030, "zip": "68982"}, "keith-county-69121": {"city": "Keith County", "rent": 960, "zip": "69121"}, "keith-county-69122": {"city": "Keith County", "rent": 1020, "zip": "69122"}, "keith-county-69127": {"city": "Keith County", "rent": 960, "zip": "69127"}, "keith-county-69144": {"city": "Keith County", "rent": 980, "zip": "69144"}, "keith-county-69146": {"city": "Keith County", "rent": 960, "zip": "69146"}, "keith-county-69147": {"city": "Keith County", "rent": 960, "zip": "69147"}, "keith-county-69153": {"city": "Keith County", "rent": 960, "zip": "69153"}, "keith-county-69155": {"city": "Keith County", "rent": 1000, "zip": "69155"}, "keith-county-69165": {"city": "Keith County", "rent": 1040, "zip": "69165"}, "keya-paha-county-68753": {"city": "Keya Paha County", "rent": 960, "zip": "68753"}, "keya-paha-county-68759": {"city": "Keya Paha County", "rent": 980, "zip": "68759"}, "keya-paha-county-68778": {"city": "Keya Paha County", "rent": 960, "zip": "68778"}, "keya-paha-county-69220": {"city": "Keya Paha County", "rent": 1000, "zip": "69220"}, "kimball-county-69128": {"city": "Kimball County", "rent": 990, "zip": "69128"}, "kimball-county-69133": {"city": "Kimball County", "rent": 960, "zip": "69133"}, "kimball-county-69145": {"city": "Kimball County", "rent": 960, "zip": "69145"}, "kimball-county-69156": {"city": "Kimball County", "rent": 1050, "zip": "69156"}, "knox-county-68718": {"city": "Knox County", "rent": 1080, "zip": "68718"}, "knox-county-68724": {"city": "Knox County", "rent": 1030, "zip": "68724"}, "knox-county-68729": {"city": "Knox County", "rent": 1050, "zip": "68729"}, "knox-county-68730": {"city": "Knox County", "rent": 960, "zip": "68730"}, "knox-county-68760": {"city": "Knox County", "rent": 960, "zip": "68760"}, "knox-county-68763": {"city": "Knox County", "rent": 960, "zip": "68763"}, "knox-county-68764": {"city": "Knox County", "rent": 990, "zip": "68764"}, "knox-county-68766": {"city": "Knox County", "rent": 960, "zip": "68766"}, "knox-county-68769": {"city": "Knox County", "rent": 980, "zip": "68769"}, "knox-county-68773": {"city": "Knox County", "rent": 960, "zip": "68773"}, "knox-county-68783": {"city": "Knox County", "rent": 960, "zip": "68783"}, "knox-county-68786": {"city": "Knox County", "rent": 960, "zip": "68786"}, "knox-county-68789": {"city": "Knox County", "rent": 1010, "zip": "68789"}, "lincoln-county-69025": {"city": "Lincoln County", "rent": 1020, "zip": "69025"}, "lincoln-county-69029": {"city": "Lincoln County", "rent": 1020, "zip": "69029"}, "lincoln-county-69038": {"city": "Lincoln County", "rent": 960, "zip": "69038"}, "lincoln-county-69039": {"city": "Lincoln County", "rent": 1010, "zip": "69039"}, "lincoln-county-69101": {"city": "Lincoln County", "rent": 1070, "zip": "69101"}, "lincoln-county-69103": {"city": "Lincoln County", "rent": 1050, "zip": "69103"}, "lincoln-county-69120": {"city": "Lincoln County", "rent": 980, "zip": "69120"}, "lincoln-county-69123": {"city": "Lincoln County", "rent": 990, "zip": "69123"}, "lincoln-county-69132": {"city": "Lincoln County", "rent": 990, "zip": "69132"}, "lincoln-county-69138": {"city": "Lincoln County", "rent": 960, "zip": "69138"}, "lincoln-county-69143": {"city": "Lincoln County", "rent": 970, "zip": "69143"}, "lincoln-county-69151": {"city": "Lincoln County", "rent": 960, "zip": "69151"}, "lincoln-county-69163": {"city": "Lincoln County", "rent": 960, "zip": "69163"}, "lincoln-county-69165": {"city": "Lincoln County", "rent": 1040, "zip": "69165"}, "lincoln-county-69169": {"city": "Lincoln County", "rent": 960, "zip": "69169"}, "lincoln-county-69170": {"city": "Lincoln County", "rent": 1000, "zip": "69170"}, "logan-county-68833": {"city": "Logan County", "rent": 990, "zip": "68833"}, "logan-county-69120": {"city": "Logan County", "rent": 980, "zip": "69120"}, "logan-county-69163": {"city": "Logan County", "rent": 960, "zip": "69163"}, "loup-county-68714": {"city": "Loup County", "rent": 960, "zip": "68714"}, "loup-county-68813": {"city": "Loup County", "rent": 1080, "zip": "68813"}, "loup-county-68823": {"city": "Loup County", "rent": 960, "zip": "68823"}, "loup-county-68874": {"city": "Loup County", "rent": 1090, "zip": "68874"}, "loup-county-68879": {"city": "Loup County", "rent": 1190, "zip": "68879"}, "mcpherson-county-69101": {"city": "McPherson County", "rent": 1070, "zip": "69101"}, "mcpherson-county-69155": {"city": "McPherson County", "rent": 1000, "zip": "69155"}, "mcpherson-county-69163": {"city": "McPherson County", "rent": 960, "zip": "69163"}, "mcpherson-county-69165": {"city": "McPherson County", "rent": 1040, "zip": "69165"}, "mcpherson-county-69167": {"city": "McPherson County", "rent": 980, "zip": "69167"}, "madison-county-68642": {"city": "Madison County", "rent": 960, "zip": "68642"}, "madison-county-68644": {"city": "Madison County", "rent": 960, "zip": "68644"}, "madison-county-68701": {"city": "Madison County", "rent": 1020, "zip": "68701"}, "madison-county-68702": {"city": "Madison County", "rent": 990, "zip": "68702"}, "madison-county-68715": {"city": "Madison County", "rent": 1000, "zip": "68715"}, "madison-county-68748": {"city": "Madison County", "rent": 970, "zip": "68748"}, "madison-county-68752": {"city": "Madison County", "rent": 980, "zip": "68752"}, "madison-county-68758": {"city": "Madison County", "rent": 960, "zip": "68758"}, "madison-county-68781": {"city": "Madison County", "rent": 960, "zip": "68781"}, "morrill-county-69125": {"city": "Morrill County", "rent": 1050, "zip": "69125"}, "morrill-county-69131": {"city": "Morrill County", "rent": 1090, "zip": "69131"}, "morrill-county-69148": {"city": "Morrill County", "rent": 1020, "zip": "69148"}, "morrill-county-69301": {"city": "Morrill County", "rent": 960, "zip": "69301"}, "morrill-county-69331": {"city": "Morrill County", "rent": 980, "zip": "69331"}, "morrill-county-69334": {"city": "Morrill County", "rent": 960, "zip": "69334"}, "morrill-county-69336": {"city": "Morrill County", "rent": 980, "zip": "69336"}, "morrill-county-69356": {"city": "Morrill County", "rent": 960, "zip": "69356"}, "nance-county-68623": {"city": "Nance County", "rent": 960, "zip": "68623"}, "nance-county-68627": {"city": "Nance County", "rent": 960, "zip": "68627"}, "nance-county-68628": {"city": "Nance County", "rent": 1160, "zip": "68628"}, "nance-county-68638": {"city": "Nance County", "rent": 960, "zip": "68638"}, "nance-county-68640": {"city": "Nance County", "rent": 1070, "zip": "68640"}, "nance-county-68660": {"city": "Nance County", "rent": 960, "zip": "68660"}, "nance-county-68663": {"city": "Nance County", "rent": 1060, "zip": "68663"}, "nance-county-68864": {"city": "Nance County", "rent": 1230, "zip": "68864"}, "nance-county-68882": {"city": "Nance County", "rent": 1020, "zip": "68882"}, "nemaha-county-68305": {"city": "Nemaha County", "rent": 1000, "zip": "68305"}, "nemaha-county-68320": {"city": "Nemaha County", "rent": 960, "zip": "68320"}, "nemaha-county-68321": {"city": "Nemaha County", "rent": 1040, "zip": "68321"}, "nemaha-county-68329": {"city": "Nemaha County", "rent": 960, "zip": "68329"}, "nemaha-county-68348": {"city": "Nemaha County", "rent": 1050, "zip": "68348"}, "nemaha-county-68376": {"city": "Nemaha County", "rent": 960, "zip": "68376"}, "nemaha-county-68378": {"city": "Nemaha County", "rent": 960, "zip": "68378"}, "nemaha-county-68379": {"city": "Nemaha County", "rent": 1010, "zip": "68379"}, "nemaha-county-68414": {"city": "Nemaha County", "rent": 1080, "zip": "68414"}, "nemaha-county-68421": {"city": "Nemaha County", "rent": 1050, "zip": "68421"}, "nemaha-county-68437": {"city": "Nemaha County", "rent": 1010, "zip": "68437"}, "nemaha-county-68442": {"city": "Nemaha County", "rent": 1000, "zip": "68442"}, "nemaha-county-68447": {"city": "Nemaha County", "rent": 1190, "zip": "68447"}, "nemaha-county-68448": {"city": "Nemaha County", "rent": 1330, "zip": "68448"}, "nuckolls-county-68325": {"city": "Nuckolls County", "rent": 960, "zip": "68325"}, "nuckolls-county-68335": {"city": "Nuckolls County", "rent": 960, "zip": "68335"}, "nuckolls-county-68934": {"city": "Nuckolls County", "rent": 960, "zip": "68934"}, "nuckolls-county-68935": {"city": "Nuckolls County", "rent": 960, "zip": "68935"}, "nuckolls-county-68938": {"city": "Nuckolls County", "rent": 960, "zip": "68938"}, "nuckolls-county-68942": {"city": "Nuckolls County", "rent": 1050, "zip": "68942"}, "nuckolls-county-68943": {"city": "Nuckolls County", "rent": 960, "zip": "68943"}, "nuckolls-county-68957": {"city": "Nuckolls County", "rent": 1000, "zip": "68957"}, "nuckolls-county-68961": {"city": "Nuckolls County", "rent": 960, "zip": "68961"}, "nuckolls-county-68964": {"city": "Nuckolls County", "rent": 960, "zip": "68964"}, "nuckolls-county-68974": {"city": "Nuckolls County", "rent": 960, "zip": "68974"}, "nuckolls-county-68978": {"city": "Nuckolls County", "rent": 980, "zip": "68978"}, "otoe-county-68301": {"city": "Otoe County", "rent": 1140, "zip": "68301"}, "otoe-county-68307": {"city": "Otoe County", "rent": 1060, "zip": "68307"}, "otoe-county-68317": {"city": "Otoe County", "rent": 1280, "zip": "68317"}, "otoe-county-68324": {"city": "Otoe County", "rent": 1070, "zip": "68324"}, "otoe-county-68329": {"city": "Otoe County", "rent": 960, "zip": "68329"}, "otoe-county-68344": {"city": "Otoe County", "rent": 1190, "zip": "68344"}, "otoe-county-68346": {"city": "Otoe County", "rent": 960, "zip": "68346"}, "otoe-county-68347": {"city": "Otoe County", "rent": 960, "zip": "68347"}, "otoe-county-68379": {"city": "Otoe County", "rent": 1010, "zip": "68379"}, "otoe-county-68382": {"city": "Otoe County", "rent": 960, "zip": "68382"}, "otoe-county-68410": {"city": "Otoe County", "rent": 1040, "zip": "68410"}, "otoe-county-68413": {"city": "Otoe County", "rent": 1340, "zip": "68413"}, "otoe-county-68417": {"city": "Otoe County", "rent": 1350, "zip": "68417"}, "otoe-county-68418": {"city": "Otoe County", "rent": 1380, "zip": "68418"}, "otoe-county-68421": {"city": "Otoe County", "rent": 1050, "zip": "68421"}, "otoe-county-68443": {"city": "Otoe County", "rent": 960, "zip": "68443"}, "otoe-county-68446": {"city": "Otoe County", "rent": 960, "zip": "68446"}, "otoe-county-68448": {"city": "Otoe County", "rent": 1330, "zip": "68448"}, "otoe-county-68454": {"city": "Otoe County", "rent": 1210, "zip": "68454"}, "otoe-county-68455": {"city": "Otoe County", "rent": 1880, "zip": "68455"}, "otoe-county-68461": {"city": "Otoe County", "rent": 1410, "zip": "68461"}, "pawnee-county-66541": {"city": "Pawnee County", "rent": 1160, "zip": "66541"}, "pawnee-county-68323": {"city": "Pawnee County", "rent": 960, "zip": "68323"}, "pawnee-county-68345": {"city": "Pawnee County", "rent": 970, "zip": "68345"}, "pawnee-county-68348": {"city": "Pawnee County", "rent": 1050, "zip": "68348"}, "pawnee-county-68376": {"city": "Pawnee County", "rent": 960, "zip": "68376"}, "pawnee-county-68380": {"city": "Pawnee County", "rent": 960, "zip": "68380"}, "pawnee-county-68381": {"city": "Pawnee County", "rent": 960, "zip": "68381"}, "pawnee-county-68420": {"city": "Pawnee County", "rent": 960, "zip": "68420"}, "pawnee-county-68441": {"city": "Pawnee County", "rent": 960, "zip": "68441"}, "pawnee-county-68447": {"city": "Pawnee County", "rent": 1190, "zip": "68447"}, "pawnee-county-68458": {"city": "Pawnee County", "rent": 960, "zip": "68458"}, "perkins-county-69033": {"city": "Perkins County", "rent": 1030, "zip": "69033"}, "perkins-county-69122": {"city": "Perkins County", "rent": 1020, "zip": "69122"}, "perkins-county-69127": {"city": "Perkins County", "rent": 960, "zip": "69127"}, "perkins-county-69134": {"city": "Perkins County", "rent": 960, "zip": "69134"}, "perkins-county-69140": {"city": "Perkins County", "rent": 980, "zip": "69140"}, "perkins-county-69150": {"city": "Perkins County", "rent": 1080, "zip": "69150"}, "perkins-county-69153": {"city": "Perkins County", "rent": 960, "zip": "69153"}, "perkins-county-69155": {"city": "Perkins County", "rent": 1000, "zip": "69155"}, "perkins-county-69168": {"city": "Perkins County", "rent": 1210, "zip": "69168"}, "perkins-county-69169": {"city": "Perkins County", "rent": 960, "zip": "69169"}, "phelps-county-68836": {"city": "Phelps County", "rent": 970, "zip": "68836"}, "phelps-county-68845": {"city": "Phelps County", "rent": 1010, "zip": "68845"}, "phelps-county-68863": {"city": "Phelps County", "rent": 960, "zip": "68863"}, "phelps-county-68923": {"city": "Phelps County", "rent": 960, "zip": "68923"}, "phelps-county-68924": {"city": "Phelps County", "rent": 1410, "zip": "68924"}, "phelps-county-68927": {"city": "Phelps County", "rent": 1160, "zip": "68927"}, "phelps-county-68940": {"city": "Phelps County", "rent": 980, "zip": "68940"}, "phelps-county-68949": {"city": "Phelps County", "rent": 960, "zip": "68949"}, "phelps-county-68958": {"city": "Phelps County", "rent": 960, "zip": "68958"}, "phelps-county-68982": {"city": "Phelps County", "rent": 1030, "zip": "68982"}, "pierce-county-68701": {"city": "Pierce County", "rent": 1020, "zip": "68701"}, "pierce-county-68729": {"city": "Pierce County", "rent": 1050, "zip": "68729"}, "pierce-county-68738": {"city": "Pierce County", "rent": 960, "zip": "68738"}, "pierce-county-68747": {"city": "Pierce County", "rent": 980, "zip": "68747"}, "pierce-county-68752": {"city": "Pierce County", "rent": 980, "zip": "68752"}, "pierce-county-68765": {"city": "Pierce County", "rent": 960, "zip": "68765"}, "pierce-county-68767": {"city": "Pierce County", "rent": 990, "zip": "68767"}, "pierce-county-68769": {"city": "Pierce County", "rent": 980, "zip": "68769"}, "pierce-county-68771": {"city": "Pierce County", "rent": 1020, "zip": "68771"}, "pierce-county-68781": {"city": "Pierce County", "rent": 960, "zip": "68781"}, "pierce-county-68786": {"city": "Pierce County", "rent": 960, "zip": "68786"}, "platte-county-68601": {"city": "Platte County", "rent": 1060, "zip": "68601"}, "platte-county-68602": {"city": "Platte County", "rent": 1060, "zip": "68602"}, "platte-county-68631": {"city": "Platte County", "rent": 1170, "zip": "68631"}, "platte-county-68634": {"city": "Platte County", "rent": 1060, "zip": "68634"}, "platte-county-68640": {"city": "Platte County", "rent": 1070, "zip": "68640"}, "platte-county-68642": {"city": "Platte County", "rent": 960, "zip": "68642"}, "platte-county-68643": {"city": "Platte County", "rent": 1000, "zip": "68643"}, "platte-county-68644": {"city": "Platte County", "rent": 960, "zip": "68644"}, "platte-county-68647": {"city": "Platte County", "rent": 1070, "zip": "68647"}, "platte-county-68653": {"city": "Platte County", "rent": 1220, "zip": "68653"}, "platte-county-68660": {"city": "Platte County", "rent": 960, "zip": "68660"}, "platte-county-68663": {"city": "Platte County", "rent": 1060, "zip": "68663"}, "platte-county-68748": {"city": "Platte County", "rent": 970, "zip": "68748"}, "platte-county-68758": {"city": "Platte County", "rent": 960, "zip": "68758"}, "polk-county-68316": {"city": "Polk County", "rent": 960, "zip": "68316"}, "polk-county-68367": {"city": "Polk County", "rent": 960, "zip": "68367"}, "polk-county-68601": {"city": "Polk County", "rent": 1060, "zip": "68601"}, "polk-county-68628": {"city": "Polk County", "rent": 1160, "zip": "68628"}, "polk-county-68651": {"city": "Polk County", "rent": 960, "zip": "68651"}, "polk-county-68654": {"city": "Polk County", "rent": 1060, "zip": "68654"}, "polk-county-68658": {"city": "Polk County", "rent": 960, "zip": "68658"}, "polk-county-68662": {"city": "Polk County", "rent": 1070, "zip": "68662"}, "polk-county-68663": {"city": "Polk County", "rent": 1060, "zip": "68663"}, "polk-county-68666": {"city": "Polk County", "rent": 1130, "zip": "68666"}, "red-willow-county-69001": {"city": "Red Willow County", "rent": 960, "zip": "69001"}, "red-willow-county-69020": {"city": "Red Willow County", "rent": 1130, "zip": "69020"}, "red-willow-county-69022": {"city": "Red Willow County", "rent": 960, "zip": "69022"}, "red-willow-county-69024": {"city": "Red Willow County", "rent": 1180, "zip": "69024"}, "red-willow-county-69026": {"city": "Red Willow County", "rent": 960, "zip": "69026"}, "red-willow-county-69034": {"city": "Red Willow County", "rent": 960, "zip": "69034"}, "red-willow-county-69036": {"city": "Red Willow County", "rent": 960, "zip": "69036"}, "red-willow-county-69046": {"city": "Red Willow County", "rent": 1040, "zip": "69046"}, "richardson-county-68337": {"city": "Richardson County", "rent": 1010, "zip": "68337"}, "richardson-county-68345": {"city": "Richardson County", "rent": 970, "zip": "68345"}, "richardson-county-68355": {"city": "Richardson County", "rent": 970, "zip": "68355"}, "richardson-county-68376": {"city": "Richardson County", "rent": 960, "zip": "68376"}, "richardson-county-68431": {"city": "Richardson County", "rent": 990, "zip": "68431"}, "richardson-county-68433": {"city": "Richardson County", "rent": 970, "zip": "68433"}, "richardson-county-68437": {"city": "Richardson County", "rent": 1010, "zip": "68437"}, "richardson-county-68442": {"city": "Richardson County", "rent": 1000, "zip": "68442"}, "richardson-county-68457": {"city": "Richardson County", "rent": 980, "zip": "68457"}, "rock-county-68714": {"city": "Rock County", "rent": 960, "zip": "68714"}, "rock-county-68759": {"city": "Rock County", "rent": 980, "zip": "68759"}, "rock-county-68823": {"city": "Rock County", "rent": 960, "zip": "68823"}, "rock-county-69217": {"city": "Rock County", "rent": 960, "zip": "69217"}, "saline-county-68333": {"city": "Saline County", "rent": 1020, "zip": "68333"}, "saline-county-68338": {"city": "Saline County", "rent": 990, "zip": "68338"}, "saline-county-68339": {"city": "Saline County", "rent": 1020, "zip": "68339"}, "saline-county-68341": {"city": "Saline County", "rent": 960, "zip": "68341"}, "saline-county-68343": {"city": "Saline County", "rent": 960, "zip": "68343"}, "saline-county-68359": {"city": "Saline County", "rent": 1040, "zip": "68359"}, "saline-county-68405": {"city": "Saline County", "rent": 960, "zip": "68405"}, "saline-county-68406": {"city": "Saline County", "rent": 960, "zip": "68406"}, "saline-county-68423": {"city": "Saline County", "rent": 1020, "zip": "68423"}, "saline-county-68424": {"city": "Saline County", "rent": 1220, "zip": "68424"}, "saline-county-68445": {"city": "Saline County", "rent": 1010, "zip": "68445"}, "saline-county-68453": {"city": "Saline County", "rent": 960, "zip": "68453"}, "saline-county-68464": {"city": "Saline County", "rent": 960, "zip": "68464"}, "saline-county-68465": {"city": "Saline County", "rent": 1050, "zip": "68465"}, "scotts-bluff-county-69334": {"city": "Scotts Bluff County", "rent": 960, "zip": "69334"}, "scotts-bluff-county-69341": {"city": "Scotts Bluff County", "rent": 960, "zip": "69341"}, "scotts-bluff-county-69352": {"city": "Scotts Bluff County", "rent": 1000, "zip": "69352"}, "scotts-bluff-county-69353": {"city": "Scotts Bluff County", "rent": 960, "zip": "69353"}, "scotts-bluff-county-69355": {"city": "Scotts Bluff County", "rent": 960, "zip": "69355"}, "scotts-bluff-county-69356": {"city": "Scotts Bluff County", "rent": 960, "zip": "69356"}, "scotts-bluff-county-69357": {"city": "Scotts Bluff County", "rent": 1080, "zip": "69357"}, "scotts-bluff-county-69358": {"city": "Scotts Bluff County", "rent": 1000, "zip": "69358"}, "scotts-bluff-county-69361": {"city": "Scotts Bluff County", "rent": 1020, "zip": "69361"}, "scotts-bluff-county-69363": {"city": "Scotts Bluff County", "rent": 990, "zip": "69363"}, "sheridan-county-69301": {"city": "Sheridan County", "rent": 960, "zip": "69301"}, "sheridan-county-69333": {"city": "Sheridan County", "rent": 960, "zip": "69333"}, "sheridan-county-69335": {"city": "Sheridan County", "rent": 960, "zip": "69335"}, "sheridan-county-69337": {"city": "Sheridan County", "rent": 1040, "zip": "69337"}, "sheridan-county-69340": {"city": "Sheridan County", "rent": 960, "zip": "69340"}, "sheridan-county-69343": {"city": "Sheridan County", "rent": 960, "zip": "69343"}, "sheridan-county-69347": {"city": "Sheridan County", "rent": 960, "zip": "69347"}, "sheridan-county-69351": {"city": "Sheridan County", "rent": 980, "zip": "69351"}, "sheridan-county-69360": {"city": "Sheridan County", "rent": 1010, "zip": "69360"}, "sheridan-county-69365": {"city": "Sheridan County", "rent": 980, "zip": "69365"}, "sherman-county-68815": {"city": "Sherman County", "rent": 1140, "zip": "68815"}, "sherman-county-68817": {"city": "Sherman County", "rent": 960, "zip": "68817"}, "sherman-county-68820": {"city": "Sherman County", "rent": 960, "zip": "68820"}, "sherman-county-68844": {"city": "Sherman County", "rent": 960, "zip": "68844"}, "sherman-county-68852": {"city": "Sherman County", "rent": 960, "zip": "68852"}, "sherman-county-68853": {"city": "Sherman County", "rent": 960, "zip": "68853"}, "sherman-county-68859": {"city": "Sherman County", "rent": 960, "zip": "68859"}, "sherman-county-68869": {"city": "Sherman County", "rent": 1020, "zip": "68869"}, "sherman-county-68871": {"city": "Sherman County", "rent": 960, "zip": "68871"}, "sioux-county-69301": {"city": "Sioux County", "rent": 960, "zip": "69301"}, "sioux-county-69339": {"city": "Sioux County", "rent": 960, "zip": "69339"}, "sioux-county-69346": {"city": "Sioux County", "rent": 1010, "zip": "69346"}, "sioux-county-69348": {"city": "Sioux County", "rent": 1040, "zip": "69348"}, "sioux-county-69354": {"city": "Sioux County", "rent": 1010, "zip": "69354"}, "sioux-county-69357": {"city": "Sioux County", "rent": 1080, "zip": "69357"}, "sioux-county-69358": {"city": "Sioux County", "rent": 1000, "zip": "69358"}, "sioux-county-69361": {"city": "Sioux County", "rent": 1020, "zip": "69361"}, "stanton-county-68629": {"city": "Stanton County", "rent": 1020, "zip": "68629"}, "stanton-county-68631": {"city": "Stanton County", "rent": 1170, "zip": "68631"}, "stanton-county-68641": {"city": "Stanton County", "rent": 960, "zip": "68641"}, "stanton-county-68643": {"city": "Stanton County", "rent": 1000, "zip": "68643"}, "stanton-county-68701": {"city": "Stanton County", "rent": 1020, "zip": "68701"}, "stanton-county-68740": {"city": "Stanton County", "rent": 1440, "zip": "68740"}, "stanton-county-68748": {"city": "Stanton County", "rent": 970, "zip": "68748"}, "stanton-county-68768": {"city": "Stanton County", "rent": 960, "zip": "68768"}, "stanton-county-68779": {"city": "Stanton County", "rent": 1000, "zip": "68779"}, "stanton-county-68791": {"city": "Stanton County", "rent": 960, "zip": "68791"}, "thayer-county-68303": {"city": "Thayer County", "rent": 960, "zip": "68303"}, "thayer-county-68315": {"city": "Thayer County", "rent": 970, "zip": "68315"}, "thayer-county-68322": {"city": "Thayer County", "rent": 960, "zip": "68322"}, "thayer-county-68325": {"city": "Thayer County", "rent": 960, "zip": "68325"}, "thayer-county-68326": {"city": "Thayer County", "rent": 990, "zip": "68326"}, "thayer-county-68327": {"city": "Thayer County", "rent": 1050, "zip": "68327"}, "thayer-county-68335": {"city": "Thayer County", "rent": 960, "zip": "68335"}, "thayer-county-68340": {"city": "Thayer County", "rent": 970, "zip": "68340"}, "thayer-county-68362": {"city": "Thayer County", "rent": 980, "zip": "68362"}, "thayer-county-68370": {"city": "Thayer County", "rent": 980, "zip": "68370"}, "thayer-county-68375": {"city": "Thayer County", "rent": 960, "zip": "68375"}, "thayer-county-68429": {"city": "Thayer County", "rent": 960, "zip": "68429"}, "thayer-county-68453": {"city": "Thayer County", "rent": 960, "zip": "68453"}, "thayer-county-68943": {"city": "Thayer County", "rent": 960, "zip": "68943"}, "thayer-county-68964": {"city": "Thayer County", "rent": 960, "zip": "68964"}, "thayer-county-68974": {"city": "Thayer County", "rent": 960, "zip": "68974"}, "thomas-county-69142": {"city": "Thomas County", "rent": 970, "zip": "69142"}, "thomas-county-69157": {"city": "Thomas County", "rent": 960, "zip": "69157"}, "thomas-county-69161": {"city": "Thomas County", "rent": 960, "zip": "69161"}, "thomas-county-69163": {"city": "Thomas County", "rent": 960, "zip": "69163"}, "thomas-county-69166": {"city": "Thomas County", "rent": 960, "zip": "69166"}, "thurston-county-68004": {"city": "Thurston County", "rent": 970, "zip": "68004"}, "thurston-county-68020": {"city": "Thurston County", "rent": 960, "zip": "68020"}, "thurston-county-68038": {"city": "Thurston County", "rent": 960, "zip": "68038"}, "thurston-county-68039": {"city": "Thurston County", "rent": 1030, "zip": "68039"}, "thurston-county-68047": {"city": "Thurston County", "rent": 1040, "zip": "68047"}, "thurston-county-68055": {"city": "Thurston County", "rent": 1000, "zip": "68055"}, "thurston-county-68062": {"city": "Thurston County", "rent": 960, "zip": "68062"}, "thurston-county-68067": {"city": "Thurston County", "rent": 960, "zip": "68067"}, "thurston-county-68071": {"city": "Thurston County", "rent": 960, "zip": "68071"}, "thurston-county-68733": {"city": "Thurston County", "rent": 960, "zip": "68733"}, "thurston-county-68784": {"city": "Thurston County", "rent": 960, "zip": "68784"}, "valley-county-68637": {"city": "Valley County", "rent": 1060, "zip": "68637"}, "valley-county-68815": {"city": "Valley County", "rent": 1140, "zip": "68815"}, "valley-county-68823": {"city": "Valley County", "rent": 960, "zip": "68823"}, "valley-county-68828": {"city": "Valley County", "rent": 1440, "zip": "68828"}, "valley-county-68837": {"city": "Valley County", "rent": 970, "zip": "68837"}, "valley-county-68859": {"city": "Valley County", "rent": 960, "zip": "68859"}, "valley-county-68862": {"city": "Valley County", "rent": 960, "zip": "68862"}, "wayne-county-68047": {"city": "Wayne County", "rent": 1040, "zip": "68047"}, "wayne-county-68701": {"city": "Wayne County", "rent": 1020, "zip": "68701"}, "wayne-county-68723": {"city": "Wayne County", "rent": 1010, "zip": "68723"}, "wayne-county-68733": {"city": "Wayne County", "rent": 960, "zip": "68733"}, "wayne-county-68740": {"city": "Wayne County", "rent": 1440, "zip": "68740"}, "wayne-county-68745": {"city": "Wayne County", "rent": 1020, "zip": "68745"}, "wayne-county-68767": {"city": "Wayne County", "rent": 990, "zip": "68767"}, "wayne-county-68768": {"city": "Wayne County", "rent": 960, "zip": "68768"}, "wayne-county-68771": {"city": "Wayne County", "rent": 1020, "zip": "68771"}, "wayne-county-68784": {"city": "Wayne County", "rent": 960, "zip": "68784"}, "wayne-county-68787": {"city": "Wayne County", "rent": 960, "zip": "68787"}, "wayne-county-68790": {"city": "Wayne County", "rent": 980, "zip": "68790"}, "wayne-county-68791": {"city": "Wayne County", "rent": 960, "zip": "68791"}, "webster-county-68928": {"city": "Webster County", "rent": 1050, "zip": "68928"}, "webster-county-68930": {"city": "Webster County", "rent": 1030, "zip": "68930"}, "webster-county-68932": {"city": "Webster County", "rent": 1160, "zip": "68932"}, "webster-county-68942": {"city": "Webster County", "rent": 1050, "zip": "68942"}, "webster-county-68952": {"city": "Webster County", "rent": 1090, "zip": "68952"}, "webster-county-68957": {"city": "Webster County", "rent": 1000, "zip": "68957"}, "webster-county-68970": {"city": "Webster County", "rent": 960, "zip": "68970"}, "wheeler-county-68622": {"city": "Wheeler County", "rent": 970, "zip": "68622"}, "wheeler-county-68636": {"city": "Wheeler County", "rent": 960, "zip": "68636"}, "wheeler-county-68637": {"city": "Wheeler County", "rent": 1060, "zip": "68637"}, "wheeler-county-68665": {"city": "Wheeler County", "rent": 1090, "zip": "68665"}, "wheeler-county-68725": {"city": "Wheeler County", "rent": 1030, "zip": "68725"}, "wheeler-county-68735": {"city": "Wheeler County", "rent": 960, "zip": "68735"}, "york-county-68313": {"city": "York County", "rent": 1450, "zip": "68313"}, "york-county-68316": {"city": "York County", "rent": 960, "zip": "68316"}, "york-county-68319": {"city": "York County", "rent": 1070, "zip": "68319"}, "york-county-68351": {"city": "York County", "rent": 1020, "zip": "68351"}, "york-county-68354": {"city": "York County", "rent": 960, "zip": "68354"}, "york-county-68365": {"city": "York County", "rent": 1020, "zip": "68365"}, "york-county-68367": {"city": "York County", "rent": 960, "zip": "68367"}, "york-county-68371": {"city": "York County", "rent": 1010, "zip": "68371"}, "york-county-68401": {"city": "York County", "rent": 990, "zip": "68401"}, "york-county-68456": {"city": "York County", "rent": 960, "zip": "68456"}, "york-county-68460": {"city": "York County", "rent": 1050, "zip": "68460"}, "york-county-68467": {"city": "York County", "rent": 1010, "zip": "68467"}, "york-county-68654": {"city": "York County", "rent": 1060, "zip": "68654"}, "york-county-68666": {"city": "York County", "rent": 1130, "zip": "68666"}, "york-county-68843": {"city": "York County", "rent": 960, "zip": "68843"}, "york-county-68979": {"city": "York County", "rent": 1080, "zip": "68979"}}