{"albany-schenectady-troy-12007": {"city": "Albany-Schenectady-Troy", "rent": 1730, "zip": "12007"}, "albany-schenectady-troy-12008": {"city": "Albany-Schenectady-Troy", "rent": 1680, "zip": "12008"}, "albany-schenectady-troy-12009": {"city": "Albany-Schenectady-Troy", "rent": 1710, "zip": "12009"}, "albany-schenectady-troy-12010": {"city": "Albany-Schenectady-Troy", "rent": 1340, "zip": "12010"}, "albany-schenectady-troy-12018": {"city": "Albany-Schenectady-Troy", "rent": 1930, "zip": "12018"}, "albany-schenectady-troy-12019": {"city": "Albany-Schenectady-Troy", "rent": 1700, "zip": "12019"}, "albany-schenectady-troy-12020": {"city": "Albany-Schenectady-Troy", "rent": 2110, "zip": "12020"}, "albany-schenectady-troy-12022": {"city": "Albany-Schenectady-Troy", "rent": 1710, "zip": "12022"}, "albany-schenectady-troy-12023": {"city": "Albany-Schenectady-Troy", "rent": 1540, "zip": "12023"}, "albany-schenectady-troy-12024": {"city": "Albany-Schenectady-Troy", "rent": 1560, "zip": "12024"}, "albany-schenectady-troy-12025": {"city": "Albany-Schenectady-Troy", "rent": 1340, "zip": "12025"}, "albany-schenectady-troy-12027": {"city": "Albany-Schenectady-Troy", "rent": 1970, "zip": "12027"}, "albany-schenectady-troy-12028": {"city": "Albany-Schenectady-Troy", "rent": 1340, "zip": "12028"}, "albany-schenectady-troy-12031": {"city": "Albany-Schenectady-Troy", "rent": 1340, "zip": "12031"}, "albany-schenectady-troy-12033": {"city": "Albany-Schenectady-Troy", "rent": 1830, "zip": "12033"}, "albany-schenectady-troy-12035": {"city": "Albany-Schenectady-Troy", "rent": 1410, "zip": "12035"}, "albany-schenectady-troy-12036": {"city": "Albany-Schenectady-Troy", "rent": 1340, "zip": "12036"}, "albany-schenectady-troy-12040": {"city": "Albany-Schenectady-Troy", "rent": 1690, "zip": "12040"}, "albany-schenectady-troy-12041": {"city": "Albany-Schenectady-Troy", "rent": 1590, "zip": "12041"}, "albany-schenectady-troy-12043": {"city": "Albany-Schenectady-Troy", "rent": 1340, "zip": "12043"}, "albany-schenectady-troy-12045": {"city": "Albany-Schenectady-Troy", "rent": 2050, "zip": "12045"}, "albany-schenectady-troy-12046": {"city": "Albany-Schenectady-Troy", "rent": 1520, "zip": "12046"}, "albany-schenectady-troy-12047": {"city": "Albany-Schenectady-Troy", "rent": 1820, "zip": "12047"}, "albany-schenectady-troy-12052": {"city": "Albany-Schenectady-Troy", "rent": 1880, "zip": "12052"}, "albany-schenectady-troy-12053": {"city": "Albany-Schenectady-Troy", "rent": 1340, "zip": "12053"}, "albany-schenectady-troy-12054": {"city": "Albany-Schenectady-Troy", "rent": 2190, "zip": "12054"}, "albany-schenectady-troy-12055": {"city": "Albany-Schenectady-Troy", "rent": 1730, "zip": "12055"}, "albany-schenectady-troy-12056": {"city": "Albany-Schenectady-Troy", "rent": 1710, "zip": "12056"}, "albany-schenectady-troy-12057": {"city": "Albany-Schenectady-Troy", "rent": 1410, "zip": "12057"}, "albany-schenectady-troy-12059": {"city": "Albany-Schenectady-Troy", "rent": 1500, "zip": "12059"}, "albany-schenectady-troy-12061": {"city": "Albany-Schenectady-Troy", "rent": 2260, "zip": "12061"}, "albany-schenectady-troy-12062": {"city": "Albany-Schenectady-Troy", "rent": 1450, "zip": "12062"}, "albany-schenectady-troy-12063": {"city": "Albany-Schenectady-Troy", "rent": 1800, "zip": "12063"}, "albany-schenectady-troy-12064": {"city": "Albany-Schenectady-Troy", "rent": 1370, "zip": "12064"}, "albany-schenectady-troy-12065": {"city": "Albany-Schenectady-Troy", "rent": 1840, "zip": "12065"}, "albany-schenectady-troy-12066": {"city": "Albany-Schenectady-Troy", "rent": 1410, "zip": "12066"}, "albany-schenectady-troy-12067": {"city": "Albany-Schenectady-Troy", "rent": 1480, "zip": "12067"}, "albany-schenectady-troy-12071": {"city": "Albany-Schenectady-Troy", "rent": 1340, "zip": "12071"}, "albany-schenectady-troy-12073": {"city": "Albany-Schenectady-Troy", "rent": 1340, "zip": "12073"}, "albany-schenectady-troy-12074": {"city": "Albany-Schenectady-Troy", "rent": 2000, "zip": "12074"}, "albany-schenectady-troy-12076": {"city": "Albany-Schenectady-Troy", "rent": 1510, "zip": "12076"}, "albany-schenectady-troy-12077": {"city": "Albany-Schenectady-Troy", "rent": 1940, "zip": "12077"}, "albany-schenectady-troy-12082": {"city": "Albany-Schenectady-Troy", "rent": 1880, "zip": "12082"}, "albany-schenectady-troy-12083": {"city": "Albany-Schenectady-Troy", "rent": 1340, "zip": "12083"}, "albany-schenectady-troy-12084": {"city": "Albany-Schenectady-Troy", "rent": 2100, "zip": "12084"}, "albany-schenectady-troy-12085": {"city": "Albany-Schenectady-Troy", "rent": 1490, "zip": "12085"}, "albany-schenectady-troy-12086": {"city": "Albany-Schenectady-Troy", "rent": 1340, "zip": "12086"}, "albany-schenectady-troy-12087": {"city": "Albany-Schenectady-Troy", "rent": 1400, "zip": "12087"}, "albany-schenectady-troy-12089": {"city": "Albany-Schenectady-Troy", "rent": 1660, "zip": "12089"}, "albany-schenectady-troy-12090": {"city": "Albany-Schenectady-Troy", "rent": 1340, "zip": "12090"}, "albany-schenectady-troy-12092": {"city": "Albany-Schenectady-Troy", "rent": 1440, "zip": "12092"}, "albany-schenectady-troy-12093": {"city": "Albany-Schenectady-Troy", "rent": 1340, "zip": "12093"}, "albany-schenectady-troy-12094": {"city": "Albany-Schenectady-Troy", "rent": 1530, "zip": "12094"}, "albany-schenectady-troy-12107": {"city": "Albany-Schenectady-Troy", "rent": 1730, "zip": "12107"}, "albany-schenectady-troy-12110": {"city": "Albany-Schenectady-Troy", "rent": 1990, "zip": "12110"}, "albany-schenectady-troy-12118": {"city": "Albany-Schenectady-Troy", "rent": 1520, "zip": "12118"}, "albany-schenectady-troy-12120": {"city": "Albany-Schenectady-Troy", "rent": 1730, "zip": "12120"}, "albany-schenectady-troy-12121": {"city": "Albany-Schenectady-Troy", "rent": 1470, "zip": "12121"}, "albany-schenectady-troy-12122": {"city": "Albany-Schenectady-Troy", "rent": 1340, "zip": "12122"}, "albany-schenectady-troy-12123": {"city": "Albany-Schenectady-Troy", "rent": 1370, "zip": "12123"}, "albany-schenectady-troy-12128": {"city": "Albany-Schenectady-Troy", "rent": 1730, "zip": "12128"}, "albany-schenectady-troy-12131": {"city": "Albany-Schenectady-Troy", "rent": 1340, "zip": "12131"}, "albany-schenectady-troy-12133": {"city": "Albany-Schenectady-Troy", "rent": 1660, "zip": "12133"}, "albany-schenectady-troy-12134": {"city": "Albany-Schenectady-Troy", "rent": 1340, "zip": "12134"}, "albany-schenectady-troy-12137": {"city": "Albany-Schenectady-Troy", "rent": 1340, "zip": "12137"}, "albany-schenectady-troy-12138": {"city": "Albany-Schenectady-Troy", "rent": 1650, "zip": "12138"}, "albany-schenectady-troy-12140": {"city": "Albany-Schenectady-Troy", "rent": 1340, "zip": "12140"}, "albany-schenectady-troy-12141": {"city": "Albany-Schenectady-Troy", "rent": 1590, "zip": "12141"}, "albany-schenectady-troy-12143": {"city": "Albany-Schenectady-Troy", "rent": 1450, "zip": "12143"}, "albany-schenectady-troy-12144": {"city": "Albany-Schenectady-Troy", "rent": 1940, "zip": "12144"}, "albany-schenectady-troy-12147": {"city": "Albany-Schenectady-Troy", "rent": 1730, "zip": "12147"}, "albany-schenectady-troy-12148": {"city": "Albany-Schenectady-Troy", "rent": 1360, "zip": "12148"}, "albany-schenectady-troy-12149": {"city": "Albany-Schenectady-Troy", "rent": 1340, "zip": "12149"}, "albany-schenectady-troy-12150": {"city": "Albany-Schenectady-Troy", "rent": 1660, "zip": "12150"}, "albany-schenectady-troy-12151": {"city": "Albany-Schenectady-Troy", "rent": 2290, "zip": "12151"}, "albany-schenectady-troy-12153": {"city": "Albany-Schenectady-Troy", "rent": 1820, "zip": "12153"}, "albany-schenectady-troy-12154": {"city": "Albany-Schenectady-Troy", "rent": 1340, "zip": "12154"}, "albany-schenectady-troy-12156": {"city": "Albany-Schenectady-Troy", "rent": 1650, "zip": "12156"}, "albany-schenectady-troy-12157": {"city": "Albany-Schenectady-Troy", "rent": 1340, "zip": "12157"}, "albany-schenectady-troy-12158": {"city": "Albany-Schenectady-Troy", "rent": 2270, "zip": "12158"}, "albany-schenectady-troy-12159": {"city": "Albany-Schenectady-Troy", "rent": 1990, "zip": "12159"}, "albany-schenectady-troy-12160": {"city": "Albany-Schenectady-Troy", "rent": 1440, "zip": "12160"}, "albany-schenectady-troy-12161": {"city": "Albany-Schenectady-Troy", "rent": 2270, "zip": "12161"}, "albany-schenectady-troy-12166": {"city": "Albany-Schenectady-Troy", "rent": 1340, "zip": "12166"}, "albany-schenectady-troy-12167": {"city": "Albany-Schenectady-Troy", "rent": 1340, "zip": "12167"}, "albany-schenectady-troy-12168": {"city": "Albany-Schenectady-Troy", "rent": 1630, "zip": "12168"}, "albany-schenectady-troy-12169": {"city": "Albany-Schenectady-Troy", "rent": 1710, "zip": "12169"}, "albany-schenectady-troy-12170": {"city": "Albany-Schenectady-Troy", "rent": 1790, "zip": "12170"}, "albany-schenectady-troy-12175": {"city": "Albany-Schenectady-Troy", "rent": 1340, "zip": "12175"}, "albany-schenectady-troy-12180": {"city": "Albany-Schenectady-Troy", "rent": 1680, "zip": "12180"}, "albany-schenectady-troy-12181": {"city": "Albany-Schenectady-Troy", "rent": 1660, "zip": "12181"}, "albany-schenectady-troy-12182": {"city": "Albany-Schenectady-Troy", "rent": 1450, "zip": "12182"}, "albany-schenectady-troy-12183": {"city": "Albany-Schenectady-Troy", "rent": 1420, "zip": "12183"}, "albany-schenectady-troy-12184": {"city": "Albany-Schenectady-Troy", "rent": 1340, "zip": "12184"}, "albany-schenectady-troy-12185": {"city": "Albany-Schenectady-Troy", "rent": 1540, "zip": "12185"}, "albany-schenectady-troy-12186": {"city": "Albany-Schenectady-Troy", "rent": 1590, "zip": "12186"}, "albany-schenectady-troy-12187": {"city": "Albany-Schenectady-Troy", "rent": 1340, "zip": "12187"}, "albany-schenectady-troy-12188": {"city": "Albany-Schenectady-Troy", "rent": 1630, "zip": "12188"}, "albany-schenectady-troy-12189": {"city": "Albany-Schenectady-Troy", "rent": 1500, "zip": "12189"}, "albany-schenectady-troy-12193": {"city": "Albany-Schenectady-Troy", "rent": 1370, "zip": "12193"}, "albany-schenectady-troy-12194": {"city": "Albany-Schenectady-Troy", "rent": 1340, "zip": "12194"}, "albany-schenectady-troy-12196": {"city": "Albany-Schenectady-Troy", "rent": 1450, "zip": "12196"}, "albany-schenectady-troy-12197": {"city": "Albany-Schenectady-Troy", "rent": 1340, "zip": "12197"}, "albany-schenectady-troy-12198": {"city": "Albany-Schenectady-Troy", "rent": 1550, "zip": "12198"}, "albany-schenectady-troy-12201": {"city": "Albany-Schenectady-Troy", "rent": 1730, "zip": "12201"}, "albany-schenectady-troy-12202": {"city": "Albany-Schenectady-Troy", "rent": 1420, "zip": "12202"}, "albany-schenectady-troy-12203": {"city": "Albany-Schenectady-Troy", "rent": 1900, "zip": "12203"}, "albany-schenectady-troy-12204": {"city": "Albany-Schenectady-Troy", "rent": 1740, "zip": "12204"}, "albany-schenectady-troy-12205": {"city": "Albany-Schenectady-Troy", "rent": 1890, "zip": "12205"}, "albany-schenectady-troy-12206": {"city": "Albany-Schenectady-Troy", "rent": 1690, "zip": "12206"}, "albany-schenectady-troy-12207": {"city": "Albany-Schenectady-Troy", "rent": 1970, "zip": "12207"}, "albany-schenectady-troy-12208": {"city": "Albany-Schenectady-Troy", "rent": 1720, "zip": "12208"}, "albany-schenectady-troy-12209": {"city": "Albany-Schenectady-Troy", "rent": 1580, "zip": "12209"}, "albany-schenectady-troy-12210": {"city": "Albany-Schenectady-Troy", "rent": 1580, "zip": "12210"}, "albany-schenectady-troy-12211": {"city": "Albany-Schenectady-Troy", "rent": 2250, "zip": "12211"}, "albany-schenectady-troy-12212": {"city": "Albany-Schenectady-Troy", "rent": 1730, "zip": "12212"}, "albany-schenectady-troy-12220": {"city": "Albany-Schenectady-Troy", "rent": 1730, "zip": "12220"}, "albany-schenectady-troy-12222": {"city": "Albany-Schenectady-Troy", "rent": 1850, "zip": "12222"}, "albany-schenectady-troy-12223": {"city": "Albany-Schenectady-Troy", "rent": 1730, "zip": "12223"}, "albany-schenectady-troy-12226": {"city": "Albany-Schenectady-Troy", "rent": 1730, "zip": "12226"}, "albany-schenectady-troy-12227": {"city": "Albany-Schenectady-Troy", "rent": 1730, "zip": "12227"}, "albany-schenectady-troy-12236": {"city": "Albany-Schenectady-Troy", "rent": 1730, "zip": "12236"}, "albany-schenectady-troy-12237": {"city": "Albany-Schenectady-Troy", "rent": 1730, "zip": "12237"}, "albany-schenectady-troy-12247": {"city": "Albany-Schenectady-Troy", "rent": 1730, "zip": "12247"}, "albany-schenectady-troy-12260": {"city": "Albany-Schenectady-Troy", "rent": 1730, "zip": "12260"}, "albany-schenectady-troy-12288": {"city": "Albany-Schenectady-Troy", "rent": 1730, "zip": "12288"}, "albany-schenectady-troy-12301": {"city": "Albany-Schenectady-Troy", "rent": 1590, "zip": "12301"}, "albany-schenectady-troy-12302": {"city": "Albany-Schenectady-Troy", "rent": 1690, "zip": "12302"}, "albany-schenectady-troy-12303": {"city": "Albany-Schenectady-Troy", "rent": 1530, "zip": "12303"}, "albany-schenectady-troy-12304": {"city": "Albany-Schenectady-Troy", "rent": 1520, "zip": "12304"}, "albany-schenectady-troy-12305": {"city": "Albany-Schenectady-Troy", "rent": 1440, "zip": "12305"}, "albany-schenectady-troy-12306": {"city": "Albany-Schenectady-Troy", "rent": 1610, "zip": "12306"}, "albany-schenectady-troy-12307": {"city": "Albany-Schenectady-Troy", "rent": 1550, "zip": "12307"}, "albany-schenectady-troy-12308": {"city": "Albany-Schenectady-Troy", "rent": 1570, "zip": "12308"}, "albany-schenectady-troy-12309": {"city": "Albany-Schenectady-Troy", "rent": 1910, "zip": "12309"}, "albany-schenectady-troy-12345": {"city": "Albany-Schenectady-Troy", "rent": 1590, "zip": "12345"}, "albany-schenectady-troy-12434": {"city": "Albany-Schenectady-Troy", "rent": 1340, "zip": "12434"}, "albany-schenectady-troy-12460": {"city": "Albany-Schenectady-Troy", "rent": 1480, "zip": "12460"}, "albany-schenectady-troy-12469": {"city": "Albany-Schenectady-Troy", "rent": 1590, "zip": "12469"}, "albany-schenectady-troy-12803": {"city": "Albany-Schenectady-Troy", "rent": 1570, "zip": "12803"}, "albany-schenectady-troy-12822": {"city": "Albany-Schenectady-Troy", "rent": 1370, "zip": "12822"}, "albany-schenectady-troy-12828": {"city": "Albany-Schenectady-Troy", "rent": 1530, "zip": "12828"}, "albany-schenectady-troy-12831": {"city": "Albany-Schenectady-Troy", "rent": 1790, "zip": "12831"}, "albany-schenectady-troy-12833": {"city": "Albany-Schenectady-Troy", "rent": 1560, "zip": "12833"}, "albany-schenectady-troy-12835": {"city": "Albany-Schenectady-Troy", "rent": 1340, "zip": "12835"}, "albany-schenectady-troy-12850": {"city": "Albany-Schenectady-Troy", "rent": 1560, "zip": "12850"}, "albany-schenectady-troy-12859": {"city": "Albany-Schenectady-Troy", "rent": 1870, "zip": "12859"}, "albany-schenectady-troy-12863": {"city": "Albany-Schenectady-Troy", "rent": 1520, "zip": "12863"}, "albany-schenectady-troy-12866": {"city": "Albany-Schenectady-Troy", "rent": 2300, "zip": "12866"}, "albany-schenectady-troy-12871": {"city": "Albany-Schenectady-Troy", "rent": 1500, "zip": "12871"}, "albany-schenectady-troy-12884": {"city": "Albany-Schenectady-Troy", "rent": 1340, "zip": "12884"}, "albany-schenectady-troy-13320": {"city": "Albany-Schenectady-Troy", "rent": 1340, "zip": "13320"}, "albany-schenectady-troy-13459": {"city": "Albany-Schenectady-Troy", "rent": 1440, "zip": "13459"}, "binghamton-13730": {"city": "Binghamton", "rent": 1070, "zip": "13730"}, "binghamton-13732": {"city": "Binghamton", "rent": 1170, "zip": "13732"}, "binghamton-13734": {"city": "Binghamton", "rent": 1170, "zip": "13734"}, "binghamton-13736": {"city": "Binghamton", "rent": 1540, "zip": "13736"}, "binghamton-13737": {"city": "Binghamton", "rent": 1100, "zip": "13737"}, "binghamton-13743": {"city": "Binghamton", "rent": 1070, "zip": "13743"}, "binghamton-13744": {"city": "Binghamton", "rent": 1070, "zip": "13744"}, "binghamton-13745": {"city": "Binghamton", "rent": 1100, "zip": "13745"}, "binghamton-13746": {"city": "Binghamton", "rent": 1070, "zip": "13746"}, "binghamton-13748": {"city": "Binghamton", "rent": 1070, "zip": "13748"}, "binghamton-13749": {"city": "Binghamton", "rent": 1100, "zip": "13749"}, "binghamton-13754": {"city": "Binghamton", "rent": 1070, "zip": "13754"}, "binghamton-13760": {"city": "Binghamton", "rent": 1080, "zip": "13760"}, "binghamton-13761": {"city": "Binghamton", "rent": 1100, "zip": "13761"}, "binghamton-13762": {"city": "Binghamton", "rent": 1100, "zip": "13762"}, "binghamton-13777": {"city": "Binghamton", "rent": 1070, "zip": "13777"}, "binghamton-13778": {"city": "Binghamton", "rent": 1070, "zip": "13778"}, "binghamton-13783": {"city": "Binghamton", "rent": 1210, "zip": "13783"}, "binghamton-13787": {"city": "Binghamton", "rent": 1070, "zip": "13787"}, "binghamton-13790": {"city": "Binghamton", "rent": 1130, "zip": "13790"}, "binghamton-13794": {"city": "Binghamton", "rent": 1100, "zip": "13794"}, "binghamton-13795": {"city": "Binghamton", "rent": 1120, "zip": "13795"}, "binghamton-13797": {"city": "Binghamton", "rent": 1070, "zip": "13797"}, "binghamton-13802": {"city": "Binghamton", "rent": 1070, "zip": "13802"}, "binghamton-13803": {"city": "Binghamton", "rent": 1140, "zip": "13803"}, "binghamton-13811": {"city": "Binghamton", "rent": 1120, "zip": "13811"}, "binghamton-13812": {"city": "Binghamton", "rent": 1280, "zip": "13812"}, "binghamton-13813": {"city": "Binghamton", "rent": 1070, "zip": "13813"}, "binghamton-13826": {"city": "Binghamton", "rent": 1070, "zip": "13826"}, "binghamton-13827": {"city": "Binghamton", "rent": 1110, "zip": "13827"}, "binghamton-13833": {"city": "Binghamton", "rent": 1310, "zip": "13833"}, "binghamton-13835": {"city": "Binghamton", "rent": 1170, "zip": "13835"}, "binghamton-13840": {"city": "Binghamton", "rent": 1110, "zip": "13840"}, "binghamton-13841": {"city": "Binghamton", "rent": 1210, "zip": "13841"}, "binghamton-13845": {"city": "Binghamton", "rent": 1110, "zip": "13845"}, "binghamton-13848": {"city": "Binghamton", "rent": 1100, "zip": "13848"}, "binghamton-13850": {"city": "Binghamton", "rent": 1270, "zip": "13850"}, "binghamton-13851": {"city": "Binghamton", "rent": 1100, "zip": "13851"}, "binghamton-13862": {"city": "Binghamton", "rent": 1070, "zip": "13862"}, "binghamton-13863": {"city": "Binghamton", "rent": 1250, "zip": "13863"}, "binghamton-13864": {"city": "Binghamton", "rent": 1540, "zip": "13864"}, "binghamton-13865": {"city": "Binghamton", "rent": 1070, "zip": "13865"}, "binghamton-13901": {"city": "Binghamton", "rent": 1070, "zip": "13901"}, "binghamton-13902": {"city": "Binghamton", "rent": 1270, "zip": "13902"}, "binghamton-13903": {"city": "Binghamton", "rent": 1070, "zip": "13903"}, "binghamton-13904": {"city": "Binghamton", "rent": 1090, "zip": "13904"}, "binghamton-13905": {"city": "Binghamton", "rent": 1190, "zip": "13905"}, "binghamton-14817": {"city": "Binghamton", "rent": 2030, "zip": "14817"}, "binghamton-14859": {"city": "Binghamton", "rent": 1390, "zip": "14859"}, "binghamton-14883": {"city": "Binghamton", "rent": 1540, "zip": "14883"}, "binghamton-14889": {"city": "Binghamton", "rent": 1310, "zip": "14889"}, "binghamton-14892": {"city": "Binghamton", "rent": 1160, "zip": "14892"}, "buffalo-cheektowaga-14001": {"city": "Buffalo-Cheektowaga", "rent": 1110, "zip": "14001"}, "buffalo-cheektowaga-14004": {"city": "Buffalo-Cheektowaga", "rent": 1100, "zip": "14004"}, "buffalo-cheektowaga-14006": {"city": "Buffalo-Cheektowaga", "rent": 1330, "zip": "14006"}, "buffalo-cheektowaga-14008": {"city": "Buffalo-Cheektowaga", "rent": 1200, "zip": "14008"}, "buffalo-cheektowaga-14009": {"city": "Buffalo-Cheektowaga", "rent": 1090, "zip": "14009"}, "buffalo-cheektowaga-14010": {"city": "Buffalo-Cheektowaga", "rent": 1380, "zip": "14010"}, "buffalo-cheektowaga-14012": {"city": "Buffalo-Cheektowaga", "rent": 1070, "zip": "14012"}, "buffalo-cheektowaga-14013": {"city": "Buffalo-Cheektowaga", "rent": 1200, "zip": "14013"}, "buffalo-cheektowaga-14025": {"city": "Buffalo-Cheektowaga", "rent": 1180, "zip": "14025"}, "buffalo-cheektowaga-14026": {"city": "Buffalo-Cheektowaga", "rent": 2010, "zip": "14026"}, "buffalo-cheektowaga-14027": {"city": "Buffalo-Cheektowaga", "rent": 1250, "zip": "14027"}, "buffalo-cheektowaga-14028": {"city": "Buffalo-Cheektowaga", "rent": 1320, "zip": "14028"}, "buffalo-cheektowaga-14030": {"city": "Buffalo-Cheektowaga", "rent": 1040, "zip": "14030"}, "buffalo-cheektowaga-14031": {"city": "Buffalo-Cheektowaga", "rent": 1220, "zip": "14031"}, "buffalo-cheektowaga-14032": {"city": "Buffalo-Cheektowaga", "rent": 2010, "zip": "14032"}, "buffalo-cheektowaga-14033": {"city": "Buffalo-Cheektowaga", "rent": 1390, "zip": "14033"}, "buffalo-cheektowaga-14034": {"city": "Buffalo-Cheektowaga", "rent": 1280, "zip": "14034"}, "buffalo-cheektowaga-14035": {"city": "Buffalo-Cheektowaga", "rent": 1280, "zip": "14035"}, "buffalo-cheektowaga-14036": {"city": "Buffalo-Cheektowaga", "rent": 1160, "zip": "14036"}, "buffalo-cheektowaga-14037": {"city": "Buffalo-Cheektowaga", "rent": 1120, "zip": "14037"}, "buffalo-cheektowaga-14038": {"city": "Buffalo-Cheektowaga", "rent": 1380, "zip": "14038"}, "buffalo-cheektowaga-14043": {"city": "Buffalo-Cheektowaga", "rent": 1380, "zip": "14043"}, "buffalo-cheektowaga-14047": {"city": "Buffalo-Cheektowaga", "rent": 1280, "zip": "14047"}, "buffalo-cheektowaga-14051": {"city": "Buffalo-Cheektowaga", "rent": 2010, "zip": "14051"}, "buffalo-cheektowaga-14052": {"city": "Buffalo-Cheektowaga", "rent": 1260, "zip": "14052"}, "buffalo-cheektowaga-14055": {"city": "Buffalo-Cheektowaga", "rent": 1160, "zip": "14055"}, "buffalo-cheektowaga-14057": {"city": "Buffalo-Cheektowaga", "rent": 1290, "zip": "14057"}, "buffalo-cheektowaga-14059": {"city": "Buffalo-Cheektowaga", "rent": 1760, "zip": "14059"}, "buffalo-cheektowaga-14061": {"city": "Buffalo-Cheektowaga", "rent": 1220, "zip": "14061"}, "buffalo-cheektowaga-14067": {"city": "Buffalo-Cheektowaga", "rent": 1310, "zip": "14067"}, "buffalo-cheektowaga-14068": {"city": "Buffalo-Cheektowaga", "rent": 1760, "zip": "14068"}, "buffalo-cheektowaga-14069": {"city": "Buffalo-Cheektowaga", "rent": 1170, "zip": "14069"}, "buffalo-cheektowaga-14070": {"city": "Buffalo-Cheektowaga", "rent": 980, "zip": "14070"}, "buffalo-cheektowaga-14072": {"city": "Buffalo-Cheektowaga", "rent": 1630, "zip": "14072"}, "buffalo-cheektowaga-14075": {"city": "Buffalo-Cheektowaga", "rent": 1520, "zip": "14075"}, "buffalo-cheektowaga-14080": {"city": "Buffalo-Cheektowaga", "rent": 1130, "zip": "14080"}, "buffalo-cheektowaga-14081": {"city": "Buffalo-Cheektowaga", "rent": 1220, "zip": "14081"}, "buffalo-cheektowaga-14085": {"city": "Buffalo-Cheektowaga", "rent": 1940, "zip": "14085"}, "buffalo-cheektowaga-14086": {"city": "Buffalo-Cheektowaga", "rent": 1290, "zip": "14086"}, "buffalo-cheektowaga-14091": {"city": "Buffalo-Cheektowaga", "rent": 2010, "zip": "14091"}, "buffalo-cheektowaga-14092": {"city": "Buffalo-Cheektowaga", "rent": 1310, "zip": "14092"}, "buffalo-cheektowaga-14094": {"city": "Buffalo-Cheektowaga", "rent": 1240, "zip": "14094"}, "buffalo-cheektowaga-14095": {"city": "Buffalo-Cheektowaga", "rent": 1180, "zip": "14095"}, "buffalo-cheektowaga-14098": {"city": "Buffalo-Cheektowaga", "rent": 1400, "zip": "14098"}, "buffalo-cheektowaga-14102": {"city": "Buffalo-Cheektowaga", "rent": 1330, "zip": "14102"}, "buffalo-cheektowaga-14103": {"city": "Buffalo-Cheektowaga", "rent": 1320, "zip": "14103"}, "buffalo-cheektowaga-14105": {"city": "Buffalo-Cheektowaga", "rent": 1070, "zip": "14105"}, "buffalo-cheektowaga-14107": {"city": "Buffalo-Cheektowaga", "rent": 1180, "zip": "14107"}, "buffalo-cheektowaga-14108": {"city": "Buffalo-Cheektowaga", "rent": 1090, "zip": "14108"}, "buffalo-cheektowaga-14109": {"city": "Buffalo-Cheektowaga", "rent": 1270, "zip": "14109"}, "buffalo-cheektowaga-14110": {"city": "Buffalo-Cheektowaga", "rent": 1380, "zip": "14110"}, "buffalo-cheektowaga-14111": {"city": "Buffalo-Cheektowaga", "rent": 1170, "zip": "14111"}, "buffalo-cheektowaga-14112": {"city": "Buffalo-Cheektowaga", "rent": 1580, "zip": "14112"}, "buffalo-cheektowaga-14120": {"city": "Buffalo-Cheektowaga", "rent": 1270, "zip": "14120"}, "buffalo-cheektowaga-14126": {"city": "Buffalo-Cheektowaga", "rent": 1320, "zip": "14126"}, "buffalo-cheektowaga-14127": {"city": "Buffalo-Cheektowaga", "rent": 1540, "zip": "14127"}, "buffalo-cheektowaga-14129": {"city": "Buffalo-Cheektowaga", "rent": 1060, "zip": "14129"}, "buffalo-cheektowaga-14131": {"city": "Buffalo-Cheektowaga", "rent": 1170, "zip": "14131"}, "buffalo-cheektowaga-14132": {"city": "Buffalo-Cheektowaga", "rent": 1240, "zip": "14132"}, "buffalo-cheektowaga-14134": {"city": "Buffalo-Cheektowaga", "rent": 1050, "zip": "14134"}, "buffalo-cheektowaga-14139": {"city": "Buffalo-Cheektowaga", "rent": 1030, "zip": "14139"}, "buffalo-cheektowaga-14140": {"city": "Buffalo-Cheektowaga", "rent": 1380, "zip": "14140"}, "buffalo-cheektowaga-14141": {"city": "Buffalo-Cheektowaga", "rent": 990, "zip": "14141"}, "buffalo-cheektowaga-14144": {"city": "Buffalo-Cheektowaga", "rent": 1180, "zip": "14144"}, "buffalo-cheektowaga-14145": {"city": "Buffalo-Cheektowaga", "rent": 970, "zip": "14145"}, "buffalo-cheektowaga-14150": {"city": "Buffalo-Cheektowaga", "rent": 1420, "zip": "14150"}, "buffalo-cheektowaga-14151": {"city": "Buffalo-Cheektowaga", "rent": 1380, "zip": "14151"}, "buffalo-cheektowaga-14169": {"city": "Buffalo-Cheektowaga", "rent": 1260, "zip": "14169"}, "buffalo-cheektowaga-14170": {"city": "Buffalo-Cheektowaga", "rent": 1220, "zip": "14170"}, "buffalo-cheektowaga-14172": {"city": "Buffalo-Cheektowaga", "rent": 1290, "zip": "14172"}, "buffalo-cheektowaga-14173": {"city": "Buffalo-Cheektowaga", "rent": 1050, "zip": "14173"}, "buffalo-cheektowaga-14174": {"city": "Buffalo-Cheektowaga", "rent": 1440, "zip": "14174"}, "buffalo-cheektowaga-14201": {"city": "Buffalo-Cheektowaga", "rent": 1360, "zip": "14201"}, "buffalo-cheektowaga-14202": {"city": "Buffalo-Cheektowaga", "rent": 1370, "zip": "14202"}, "buffalo-cheektowaga-14203": {"city": "Buffalo-Cheektowaga", "rent": 1910, "zip": "14203"}, "buffalo-cheektowaga-14204": {"city": "Buffalo-Cheektowaga", "rent": 1140, "zip": "14204"}, "buffalo-cheektowaga-14205": {"city": "Buffalo-Cheektowaga", "rent": 1380, "zip": "14205"}, "buffalo-cheektowaga-14206": {"city": "Buffalo-Cheektowaga", "rent": 1180, "zip": "14206"}, "buffalo-cheektowaga-14207": {"city": "Buffalo-Cheektowaga", "rent": 1160, "zip": "14207"}, "buffalo-cheektowaga-14208": {"city": "Buffalo-Cheektowaga", "rent": 1260, "zip": "14208"}, "buffalo-cheektowaga-14209": {"city": "Buffalo-Cheektowaga", "rent": 1340, "zip": "14209"}, "buffalo-cheektowaga-14210": {"city": "Buffalo-Cheektowaga", "rent": 1200, "zip": "14210"}, "buffalo-cheektowaga-14211": {"city": "Buffalo-Cheektowaga", "rent": 1300, "zip": "14211"}, "buffalo-cheektowaga-14212": {"city": "Buffalo-Cheektowaga", "rent": 1180, "zip": "14212"}, "buffalo-cheektowaga-14213": {"city": "Buffalo-Cheektowaga", "rent": 1310, "zip": "14213"}, "buffalo-cheektowaga-14214": {"city": "Buffalo-Cheektowaga", "rent": 1440, "zip": "14214"}, "buffalo-cheektowaga-14215": {"city": "Buffalo-Cheektowaga", "rent": 1210, "zip": "14215"}, "buffalo-cheektowaga-14216": {"city": "Buffalo-Cheektowaga", "rent": 1510, "zip": "14216"}, "buffalo-cheektowaga-14217": {"city": "Buffalo-Cheektowaga", "rent": 1310, "zip": "14217"}, "buffalo-cheektowaga-14218": {"city": "Buffalo-Cheektowaga", "rent": 1160, "zip": "14218"}, "buffalo-cheektowaga-14219": {"city": "Buffalo-Cheektowaga", "rent": 1230, "zip": "14219"}, "buffalo-cheektowaga-14220": {"city": "Buffalo-Cheektowaga", "rent": 1260, "zip": "14220"}, "buffalo-cheektowaga-14221": {"city": "Buffalo-Cheektowaga", "rent": 1820, "zip": "14221"}, "buffalo-cheektowaga-14222": {"city": "Buffalo-Cheektowaga", "rent": 1520, "zip": "14222"}, "buffalo-cheektowaga-14223": {"city": "Buffalo-Cheektowaga", "rent": 1270, "zip": "14223"}, "buffalo-cheektowaga-14224": {"city": "Buffalo-Cheektowaga", "rent": 1480, "zip": "14224"}, "buffalo-cheektowaga-14225": {"city": "Buffalo-Cheektowaga", "rent": 1260, "zip": "14225"}, "buffalo-cheektowaga-14226": {"city": "Buffalo-Cheektowaga", "rent": 1500, "zip": "14226"}, "buffalo-cheektowaga-14227": {"city": "Buffalo-Cheektowaga", "rent": 1510, "zip": "14227"}, "buffalo-cheektowaga-14228": {"city": "Buffalo-Cheektowaga", "rent": 1700, "zip": "14228"}, "buffalo-cheektowaga-14231": {"city": "Buffalo-Cheektowaga", "rent": 1380, "zip": "14231"}, "buffalo-cheektowaga-14233": {"city": "Buffalo-Cheektowaga", "rent": 1380, "zip": "14233"}, "buffalo-cheektowaga-14240": {"city": "Buffalo-Cheektowaga", "rent": 1380, "zip": "14240"}, "buffalo-cheektowaga-14260": {"city": "Buffalo-Cheektowaga", "rent": 1700, "zip": "14260"}, "buffalo-cheektowaga-14261": {"city": "Buffalo-Cheektowaga", "rent": 1730, "zip": "14261"}, "buffalo-cheektowaga-14263": {"city": "Buffalo-Cheektowaga", "rent": 1380, "zip": "14263"}, "buffalo-cheektowaga-14272": {"city": "Buffalo-Cheektowaga", "rent": 1380, "zip": "14272"}, "buffalo-cheektowaga-14273": {"city": "Buffalo-Cheektowaga", "rent": 1380, "zip": "14273"}, "buffalo-cheektowaga-14280": {"city": "Buffalo-Cheektowaga", "rent": 1380, "zip": "14280"}, "buffalo-cheektowaga-14301": {"city": "Buffalo-Cheektowaga", "rent": 1070, "zip": "14301"}, "buffalo-cheektowaga-14302": {"city": "Buffalo-Cheektowaga", "rent": 1070, "zip": "14302"}, "buffalo-cheektowaga-14303": {"city": "Buffalo-Cheektowaga", "rent": 1130, "zip": "14303"}, "buffalo-cheektowaga-14304": {"city": "Buffalo-Cheektowaga", "rent": 1180, "zip": "14304"}, "buffalo-cheektowaga-14305": {"city": "Buffalo-Cheektowaga", "rent": 1230, "zip": "14305"}, "elmira-14805": {"city": "Elmira", "rent": 1370, "zip": "14805"}, "elmira-14812": {"city": "Elmira", "rent": 1240, "zip": "14812"}, "elmira-14814": {"city": "Elmira", "rent": 1450, "zip": "14814"}, "elmira-14816": {"city": "Elmira", "rent": 1250, "zip": "14816"}, "elmira-14824": {"city": "Elmira", "rent": 1580, "zip": "14824"}, "elmira-14825": {"city": "Elmira", "rent": 1160, "zip": "14825"}, "elmira-14830": {"city": "Elmira", "rent": 1250, "zip": "14830"}, "elmira-14838": {"city": "Elmira", "rent": 1160, "zip": "14838"}, "elmira-14845": {"city": "Elmira", "rent": 1430, "zip": "14845"}, "elmira-14859": {"city": "Elmira", "rent": 1390, "zip": "14859"}, "elmira-14861": {"city": "Elmira", "rent": 1360, "zip": "14861"}, "elmira-14864": {"city": "Elmira", "rent": 1530, "zip": "14864"}, "elmira-14867": {"city": "Elmira", "rent": 1540, "zip": "14867"}, "elmira-14871": {"city": "Elmira", "rent": 1350, "zip": "14871"}, "elmira-14872": {"city": "Elmira", "rent": 1160, "zip": "14872"}, "elmira-14883": {"city": "Elmira", "rent": 1540, "zip": "14883"}, "elmira-14889": {"city": "Elmira", "rent": 1310, "zip": "14889"}, "elmira-14892": {"city": "Elmira", "rent": 1160, "zip": "14892"}, "elmira-14894": {"city": "Elmira", "rent": 1420, "zip": "14894"}, "elmira-14901": {"city": "Elmira", "rent": 1160, "zip": "14901"}, "elmira-14902": {"city": "Elmira", "rent": 1280, "zip": "14902"}, "elmira-14903": {"city": "Elmira", "rent": 1170, "zip": "14903"}, "elmira-14904": {"city": "Elmira", "rent": 1260, "zip": "14904"}, "elmira-14905": {"city": "Elmira", "rent": 1370, "zip": "14905"}, "glens-falls-12028": {"city": "Glens Falls", "rent": 1340, "zip": "12028"}, "glens-falls-12057": {"city": "Glens Falls", "rent": 1410, "zip": "12057"}, "glens-falls-12090": {"city": "Glens Falls", "rent": 1340, "zip": "12090"}, "glens-falls-12094": {"city": "Glens Falls", "rent": 1530, "zip": "12094"}, "glens-falls-12154": {"city": "Glens Falls", "rent": 1340, "zip": "12154"}, "glens-falls-12185": {"city": "Glens Falls", "rent": 1540, "zip": "12185"}, "glens-falls-12801": {"city": "Glens Falls", "rent": 1340, "zip": "12801"}, "glens-falls-12804": {"city": "Glens Falls", "rent": 1570, "zip": "12804"}, "glens-falls-12808": {"city": "Glens Falls", "rent": 1260, "zip": "12808"}, "glens-falls-12809": {"city": "Glens Falls", "rent": 1240, "zip": "12809"}, "glens-falls-12810": {"city": "Glens Falls", "rent": 1390, "zip": "12810"}, "glens-falls-12811": {"city": "Glens Falls", "rent": 1310, "zip": "12811"}, "glens-falls-12814": {"city": "Glens Falls", "rent": 1310, "zip": "12814"}, "glens-falls-12815": {"city": "Glens Falls", "rent": 1270, "zip": "12815"}, "glens-falls-12816": {"city": "Glens Falls", "rent": 1260, "zip": "12816"}, "glens-falls-12817": {"city": "Glens Falls", "rent": 1220, "zip": "12817"}, "glens-falls-12819": {"city": "Glens Falls", "rent": 1470, "zip": "12819"}, "glens-falls-12820": {"city": "Glens Falls", "rent": 1470, "zip": "12820"}, "glens-falls-12821": {"city": "Glens Falls", "rent": 1240, "zip": "12821"}, "glens-falls-12823": {"city": "Glens Falls", "rent": 1280, "zip": "12823"}, "glens-falls-12824": {"city": "Glens Falls", "rent": 1330, "zip": "12824"}, "glens-falls-12827": {"city": "Glens Falls", "rent": 1300, "zip": "12827"}, "glens-falls-12828": {"city": "Glens Falls", "rent": 1530, "zip": "12828"}, "glens-falls-12832": {"city": "Glens Falls", "rent": 1220, "zip": "12832"}, "glens-falls-12834": {"city": "Glens Falls", "rent": 1450, "zip": "12834"}, "glens-falls-12835": {"city": "Glens Falls", "rent": 1340, "zip": "12835"}, "glens-falls-12836": {"city": "Glens Falls", "rent": 1350, "zip": "12836"}, "glens-falls-12837": {"city": "Glens Falls", "rent": 1410, "zip": "12837"}, "glens-falls-12838": {"city": "Glens Falls", "rent": 1320, "zip": "12838"}, "glens-falls-12839": {"city": "Glens Falls", "rent": 1300, "zip": "12839"}, "glens-falls-12841": {"city": "Glens Falls", "rent": 1390, "zip": "12841"}, "glens-falls-12843": {"city": "Glens Falls", "rent": 1340, "zip": "12843"}, "glens-falls-12844": {"city": "Glens Falls", "rent": 1340, "zip": "12844"}, "glens-falls-12845": {"city": "Glens Falls", "rent": 1360, "zip": "12845"}, "glens-falls-12846": {"city": "Glens Falls", "rent": 1220, "zip": "12846"}, "glens-falls-12848": {"city": "Glens Falls", "rent": 1270, "zip": "12848"}, "glens-falls-12849": {"city": "Glens Falls", "rent": 1220, "zip": "12849"}, "glens-falls-12853": {"city": "Glens Falls", "rent": 1320, "zip": "12853"}, "glens-falls-12854": {"city": "Glens Falls", "rent": 1220, "zip": "12854"}, "glens-falls-12856": {"city": "Glens Falls", "rent": 1220, "zip": "12856"}, "glens-falls-12857": {"city": "Glens Falls", "rent": 1220, "zip": "12857"}, "glens-falls-12860": {"city": "Glens Falls", "rent": 1240, "zip": "12860"}, "glens-falls-12861": {"city": "Glens Falls", "rent": 1220, "zip": "12861"}, "glens-falls-12862": {"city": "Glens Falls", "rent": 1220, "zip": "12862"}, "glens-falls-12865": {"city": "Glens Falls", "rent": 1280, "zip": "12865"}, "glens-falls-12870": {"city": "Glens Falls", "rent": 1260, "zip": "12870"}, "glens-falls-12873": {"city": "Glens Falls", "rent": 1220, "zip": "12873"}, "glens-falls-12874": {"city": "Glens Falls", "rent": 1330, "zip": "12874"}, "glens-falls-12878": {"city": "Glens Falls", "rent": 1250, "zip": "12878"}, "glens-falls-12883": {"city": "Glens Falls", "rent": 1220, "zip": "12883"}, "glens-falls-12885": {"city": "Glens Falls", "rent": 1340, "zip": "12885"}, "glens-falls-12886": {"city": "Glens Falls", "rent": 1320, "zip": "12886"}, "glens-falls-12887": {"city": "Glens Falls", "rent": 1240, "zip": "12887"}, "ithaca-13045": {"city": "Ithaca", "rent": 1540, "zip": "13045"}, "ithaca-13053": {"city": "Ithaca", "rent": 1540, "zip": "13053"}, "ithaca-13062": {"city": "Ithaca", "rent": 1540, "zip": "13062"}, "ithaca-13068": {"city": "Ithaca", "rent": 1540, "zip": "13068"}, "ithaca-13073": {"city": "Ithaca", "rent": 1540, "zip": "13073"}, "ithaca-13081": {"city": "Ithaca", "rent": 1690, "zip": "13081"}, "ithaca-13092": {"city": "Ithaca", "rent": 1540, "zip": "13092"}, "ithaca-13102": {"city": "Ithaca", "rent": 1540, "zip": "13102"}, "ithaca-13736": {"city": "Ithaca", "rent": 1540, "zip": "13736"}, "ithaca-13864": {"city": "Ithaca", "rent": 1540, "zip": "13864"}, "ithaca-14817": {"city": "Ithaca", "rent": 2030, "zip": "14817"}, "ithaca-14850": {"city": "Ithaca", "rent": 1890, "zip": "14850"}, "ithaca-14851": {"city": "Ithaca", "rent": 1750, "zip": "14851"}, "ithaca-14852": {"city": "Ithaca", "rent": 1750, "zip": "14852"}, "ithaca-14853": {"city": "Ithaca", "rent": 1890, "zip": "14853"}, "ithaca-14854": {"city": "Ithaca", "rent": 1650, "zip": "14854"}, "ithaca-14867": {"city": "Ithaca", "rent": 1540, "zip": "14867"}, "ithaca-14881": {"city": "Ithaca", "rent": 1980, "zip": "14881"}, "ithaca-14882": {"city": "Ithaca", "rent": 1740, "zip": "14882"}, "ithaca-14883": {"city": "Ithaca", "rent": 1540, "zip": "14883"}, "ithaca-14886": {"city": "Ithaca", "rent": 1560, "zip": "14886"}, "kingston-12401": {"city": "Kingston", "rent": 1870, "zip": "12401"}, "kingston-12402": {"city": "Kingston", "rent": 1820, "zip": "12402"}, "kingston-12404": {"city": "Kingston", "rent": 1620, "zip": "12404"}, "kingston-12406": {"city": "Kingston", "rent": 1620, "zip": "12406"}, "kingston-12409": {"city": "Kingston", "rent": 2030, "zip": "12409"}, "kingston-12410": {"city": "Kingston", "rent": 1820, "zip": "12410"}, "kingston-12411": {"city": "Kingston", "rent": 1770, "zip": "12411"}, "kingston-12412": {"city": "Kingston", "rent": 1870, "zip": "12412"}, "kingston-12414": {"city": "Kingston", "rent": 1620, "zip": "12414"}, "kingston-12416": {"city": "Kingston", "rent": 1820, "zip": "12416"}, "kingston-12417": {"city": "Kingston", "rent": 1990, "zip": "12417"}, "kingston-12419": {"city": "Kingston", "rent": 1950, "zip": "12419"}, "kingston-12420": {"city": "Kingston", "rent": 1720, "zip": "12420"}, "kingston-12428": {"city": "Kingston", "rent": 1620, "zip": "12428"}, "kingston-12429": {"city": "Kingston", "rent": 2010, "zip": "12429"}, "kingston-12432": {"city": "Kingston", "rent": 1680, "zip": "12432"}, "kingston-12433": {"city": "Kingston", "rent": 2140, "zip": "12433"}, "kingston-12435": {"city": "Kingston", "rent": 1620, "zip": "12435"}, "kingston-12440": {"city": "Kingston", "rent": 1890, "zip": "12440"}, "kingston-12441": {"city": "Kingston", "rent": 1620, "zip": "12441"}, "kingston-12443": {"city": "Kingston", "rent": 1720, "zip": "12443"}, "kingston-12446": {"city": "Kingston", "rent": 1620, "zip": "12446"}, "kingston-12448": {"city": "Kingston", "rent": 1820, "zip": "12448"}, "kingston-12449": {"city": "Kingston", "rent": 2120, "zip": "12449"}, "kingston-12453": {"city": "Kingston", "rent": 1680, "zip": "12453"}, "kingston-12455": {"city": "Kingston", "rent": 1620, "zip": "12455"}, "kingston-12456": {"city": "Kingston", "rent": 1680, "zip": "12456"}, "kingston-12457": {"city": "Kingston", "rent": 1960, "zip": "12457"}, "kingston-12458": {"city": "Kingston", "rent": 1620, "zip": "12458"}, "kingston-12461": {"city": "Kingston", "rent": 1620, "zip": "12461"}, "kingston-12463": {"city": "Kingston", "rent": 1620, "zip": "12463"}, "kingston-12464": {"city": "Kingston", "rent": 1680, "zip": "12464"}, "kingston-12465": {"city": "Kingston", "rent": 1620, "zip": "12465"}, "kingston-12466": {"city": "Kingston", "rent": 2100, "zip": "12466"}, "kingston-12471": {"city": "Kingston", "rent": 2150, "zip": "12471"}, "kingston-12472": {"city": "Kingston", "rent": 1620, "zip": "12472"}, "kingston-12475": {"city": "Kingston", "rent": 2080, "zip": "12475"}, "kingston-12477": {"city": "Kingston", "rent": 1680, "zip": "12477"}, "kingston-12480": {"city": "Kingston", "rent": 1640, "zip": "12480"}, "kingston-12481": {"city": "Kingston", "rent": 1820, "zip": "12481"}, "kingston-12483": {"city": "Kingston", "rent": 1620, "zip": "12483"}, "kingston-12484": {"city": "Kingston", "rent": 1750, "zip": "12484"}, "kingston-12486": {"city": "Kingston", "rent": 2380, "zip": "12486"}, "kingston-12487": {"city": "Kingston", "rent": 2010, "zip": "12487"}, "kingston-12489": {"city": "Kingston", "rent": 1620, "zip": "12489"}, "kingston-12490": {"city": "Kingston", "rent": 1820, "zip": "12490"}, "kingston-12491": {"city": "Kingston", "rent": 1890, "zip": "12491"}, "kingston-12493": {"city": "Kingston", "rent": 2210, "zip": "12493"}, "kingston-12494": {"city": "Kingston", "rent": 1620, "zip": "12494"}, "kingston-12495": {"city": "Kingston", "rent": 1820, "zip": "12495"}, "kingston-12498": {"city": "Kingston", "rent": 2180, "zip": "12498"}, "kingston-12515": {"city": "Kingston", "rent": 1620, "zip": "12515"}, "kingston-12525": {"city": "Kingston", "rent": 1940, "zip": "12525"}, "kingston-12528": {"city": "Kingston", "rent": 2240, "zip": "12528"}, "kingston-12542": {"city": "Kingston", "rent": 1970, "zip": "12542"}, "kingston-12547": {"city": "Kingston", "rent": 2590, "zip": "12547"}, "kingston-12548": {"city": "Kingston", "rent": 2090, "zip": "12548"}, "kingston-12561": {"city": "Kingston", "rent": 2120, "zip": "12561"}, "kingston-12566": {"city": "Kingston", "rent": 2000, "zip": "12566"}, "kingston-12568": {"city": "Kingston", "rent": 1820, "zip": "12568"}, "kingston-12586": {"city": "Kingston", "rent": 1900, "zip": "12586"}, "kingston-12588": {"city": "Kingston", "rent": 1820, "zip": "12588"}, "kingston-12589": {"city": "Kingston", "rent": 1720, "zip": "12589"}, "kingston-12725": {"city": "Kingston", "rent": 1730, "zip": "12725"}, "kingston-12740": {"city": "Kingston", "rent": 1620, "zip": "12740"}, "kingston-12758": {"city": "Kingston", "rent": 1620, "zip": "12758"}, "kingston-12763": {"city": "Kingston", "rent": 1950, "zip": "12763"}, "kingston-12789": {"city": "Kingston", "rent": 1620, "zip": "12789"}, "kingston-13731": {"city": "Kingston", "rent": 1620, "zip": "13731"}, "kiryas-joel-poughkeepsie-newburgh-10512": {"city": "Kiryas Joel-Poughkeepsie-Newburgh", "rent": 2510, "zip": "10512"}, "kiryas-joel-poughkeepsie-newburgh-10910": {"city": "Kiryas Joel-Poughkeepsie-Newburgh", "rent": 2020, "zip": "10910"}, "kiryas-joel-poughkeepsie-newburgh-10912": {"city": "Kiryas Joel-Poughkeepsie-Newburgh", "rent": 2020, "zip": "10912"}, "kiryas-joel-poughkeepsie-newburgh-10914": {"city": "Kiryas Joel-Poughkeepsie-Newburgh", "rent": 2050, "zip": "10914"}, "kiryas-joel-poughkeepsie-newburgh-10915": {"city": "Kiryas Joel-Poughkeepsie-Newburgh", "rent": 2020, "zip": "10915"}, "kiryas-joel-poughkeepsie-newburgh-10916": {"city": "Kiryas Joel-Poughkeepsie-Newburgh", "rent": 2000, "zip": "10916"}, "kiryas-joel-poughkeepsie-newburgh-10917": {"city": "Kiryas Joel-Poughkeepsie-Newburgh", "rent": 2430, "zip": "10917"}, "kiryas-joel-poughkeepsie-newburgh-10918": {"city": "Kiryas Joel-Poughkeepsie-Newburgh", "rent": 2130, "zip": "10918"}, "kiryas-joel-poughkeepsie-newburgh-10919": {"city": "Kiryas Joel-Poughkeepsie-Newburgh", "rent": 2020, "zip": "10919"}, "kiryas-joel-poughkeepsie-newburgh-10921": {"city": "Kiryas Joel-Poughkeepsie-Newburgh", "rent": 2370, "zip": "10921"}, "kiryas-joel-poughkeepsie-newburgh-10922": {"city": "Kiryas Joel-Poughkeepsie-Newburgh", "rent": 1890, "zip": "10922"}, "kiryas-joel-poughkeepsie-newburgh-10924": {"city": "Kiryas Joel-Poughkeepsie-Newburgh", "rent": 1950, "zip": "10924"}, "kiryas-joel-poughkeepsie-newburgh-10925": {"city": "Kiryas Joel-Poughkeepsie-Newburgh", "rent": 1880, "zip": "10925"}, "kiryas-joel-poughkeepsie-newburgh-10926": {"city": "Kiryas Joel-Poughkeepsie-Newburgh", "rent": 2550, "zip": "10926"}, "kiryas-joel-poughkeepsie-newburgh-10928": {"city": "Kiryas Joel-Poughkeepsie-Newburgh", "rent": 2200, "zip": "10928"}, "kiryas-joel-poughkeepsie-newburgh-10930": {"city": "Kiryas Joel-Poughkeepsie-Newburgh", "rent": 2440, "zip": "10930"}, "kiryas-joel-poughkeepsie-newburgh-10932": {"city": "Kiryas Joel-Poughkeepsie-Newburgh", "rent": 2050, "zip": "10932"}, "kiryas-joel-poughkeepsie-newburgh-10933": {"city": "Kiryas Joel-Poughkeepsie-Newburgh", "rent": 2170, "zip": "10933"}, "kiryas-joel-poughkeepsie-newburgh-10940": {"city": "Kiryas Joel-Poughkeepsie-Newburgh", "rent": 2050, "zip": "10940"}, "kiryas-joel-poughkeepsie-newburgh-10941": {"city": "Kiryas Joel-Poughkeepsie-Newburgh", "rent": 2070, "zip": "10941"}, "kiryas-joel-poughkeepsie-newburgh-10949": {"city": "Kiryas Joel-Poughkeepsie-Newburgh", "rent": 2020, "zip": "10949"}, "kiryas-joel-poughkeepsie-newburgh-10950": {"city": "Kiryas Joel-Poughkeepsie-Newburgh", "rent": 2140, "zip": "10950"}, "kiryas-joel-poughkeepsie-newburgh-10953": {"city": "Kiryas Joel-Poughkeepsie-Newburgh", "rent": 2150, "zip": "10953"}, "kiryas-joel-poughkeepsie-newburgh-10958": {"city": "Kiryas Joel-Poughkeepsie-Newburgh", "rent": 2640, "zip": "10958"}, "kiryas-joel-poughkeepsie-newburgh-10959": {"city": "Kiryas Joel-Poughkeepsie-Newburgh", "rent": 2020, "zip": "10959"}, "kiryas-joel-poughkeepsie-newburgh-10963": {"city": "Kiryas Joel-Poughkeepsie-Newburgh", "rent": 1720, "zip": "10963"}, "kiryas-joel-poughkeepsie-newburgh-10969": {"city": "Kiryas Joel-Poughkeepsie-Newburgh", "rent": 1960, "zip": "10969"}, "kiryas-joel-poughkeepsie-newburgh-10973": {"city": "Kiryas Joel-Poughkeepsie-Newburgh", "rent": 2390, "zip": "10973"}, "kiryas-joel-poughkeepsie-newburgh-10974": {"city": "Kiryas Joel-Poughkeepsie-Newburgh", "rent": 3530, "zip": "10974"}, "kiryas-joel-poughkeepsie-newburgh-10975": {"city": "Kiryas Joel-Poughkeepsie-Newburgh", "rent": 2730, "zip": "10975"}, "kiryas-joel-poughkeepsie-newburgh-10979": {"city": "Kiryas Joel-Poughkeepsie-Newburgh", "rent": 2040, "zip": "10979"}, "kiryas-joel-poughkeepsie-newburgh-10981": {"city": "Kiryas Joel-Poughkeepsie-Newburgh", "rent": 2020, "zip": "10981"}, "kiryas-joel-poughkeepsie-newburgh-10985": {"city": "Kiryas Joel-Poughkeepsie-Newburgh", "rent": 1960, "zip": "10985"}, "kiryas-joel-poughkeepsie-newburgh-10987": {"city": "Kiryas Joel-Poughkeepsie-Newburgh", "rent": 2510, "zip": "10987"}, "kiryas-joel-poughkeepsie-newburgh-10988": {"city": "Kiryas Joel-Poughkeepsie-Newburgh", "rent": 1860, "zip": "10988"}, "kiryas-joel-poughkeepsie-newburgh-10990": {"city": "Kiryas Joel-Poughkeepsie-Newburgh", "rent": 1740, "zip": "10990"}, "kiryas-joel-poughkeepsie-newburgh-10992": {"city": "Kiryas Joel-Poughkeepsie-Newburgh", "rent": 1940, "zip": "10992"}, "kiryas-joel-poughkeepsie-newburgh-10996": {"city": "Kiryas Joel-Poughkeepsie-Newburgh", "rent": 2970, "zip": "10996"}, "kiryas-joel-poughkeepsie-newburgh-10998": {"city": "Kiryas Joel-Poughkeepsie-Newburgh", "rent": 2080, "zip": "10998"}, "kiryas-joel-poughkeepsie-newburgh-12501": {"city": "Kiryas Joel-Poughkeepsie-Newburgh", "rent": 1720, "zip": "12501"}, "kiryas-joel-poughkeepsie-newburgh-12504": {"city": "Kiryas Joel-Poughkeepsie-Newburgh", "rent": 1950, "zip": "12504"}, "kiryas-joel-poughkeepsie-newburgh-12506": {"city": "Kiryas Joel-Poughkeepsie-Newburgh", "rent": 1940, "zip": "12506"}, "kiryas-joel-poughkeepsie-newburgh-12507": {"city": "Kiryas Joel-Poughkeepsie-Newburgh", "rent": 2650, "zip": "12507"}, "kiryas-joel-poughkeepsie-newburgh-12508": {"city": "Kiryas Joel-Poughkeepsie-Newburgh", "rent": 2150, "zip": "12508"}, "kiryas-joel-poughkeepsie-newburgh-12510": {"city": "Kiryas Joel-Poughkeepsie-Newburgh", "rent": 1940, "zip": "12510"}, "kiryas-joel-poughkeepsie-newburgh-12511": {"city": "Kiryas Joel-Poughkeepsie-Newburgh", "rent": 1940, "zip": "12511"}, "kiryas-joel-poughkeepsie-newburgh-12512": {"city": "Kiryas Joel-Poughkeepsie-Newburgh", "rent": 2120, "zip": "12512"}, "kiryas-joel-poughkeepsie-newburgh-12514": {"city": "Kiryas Joel-Poughkeepsie-Newburgh", "rent": 1730, "zip": "12514"}, "kiryas-joel-poughkeepsie-newburgh-12518": {"city": "Kiryas Joel-Poughkeepsie-Newburgh", "rent": 2200, "zip": "12518"}, "kiryas-joel-poughkeepsie-newburgh-12520": {"city": "Kiryas Joel-Poughkeepsie-Newburgh", "rent": 1830, "zip": "12520"}, "kiryas-joel-poughkeepsie-newburgh-12522": {"city": "Kiryas Joel-Poughkeepsie-Newburgh", "rent": 1720, "zip": "12522"}, "kiryas-joel-poughkeepsie-newburgh-12524": {"city": "Kiryas Joel-Poughkeepsie-Newburgh", "rent": 2510, "zip": "12524"}, "kiryas-joel-poughkeepsie-newburgh-12527": {"city": "Kiryas Joel-Poughkeepsie-Newburgh", "rent": 2150, "zip": "12527"}, "kiryas-joel-poughkeepsie-newburgh-12531": {"city": "Kiryas Joel-Poughkeepsie-Newburgh", "rent": 2510, "zip": "12531"}, "kiryas-joel-poughkeepsie-newburgh-12533": {"city": "Kiryas Joel-Poughkeepsie-Newburgh", "rent": 2510, "zip": "12533"}, "kiryas-joel-poughkeepsie-newburgh-12537": {"city": "Kiryas Joel-Poughkeepsie-Newburgh", "rent": 1940, "zip": "12537"}, "kiryas-joel-poughkeepsie-newburgh-12538": {"city": "Kiryas Joel-Poughkeepsie-Newburgh", "rent": 1720, "zip": "12538"}, "kiryas-joel-poughkeepsie-newburgh-12540": {"city": "Kiryas Joel-Poughkeepsie-Newburgh", "rent": 2500, "zip": "12540"}, "kiryas-joel-poughkeepsie-newburgh-12542": {"city": "Kiryas Joel-Poughkeepsie-Newburgh", "rent": 1970, "zip": "12542"}, "kiryas-joel-poughkeepsie-newburgh-12543": {"city": "Kiryas Joel-Poughkeepsie-Newburgh", "rent": 1970, "zip": "12543"}, "kiryas-joel-poughkeepsie-newburgh-12545": {"city": "Kiryas Joel-Poughkeepsie-Newburgh", "rent": 1720, "zip": "12545"}, "kiryas-joel-poughkeepsie-newburgh-12546": {"city": "Kiryas Joel-Poughkeepsie-Newburgh", "rent": 1720, "zip": "12546"}, "kiryas-joel-poughkeepsie-newburgh-12549": {"city": "Kiryas Joel-Poughkeepsie-Newburgh", "rent": 2040, "zip": "12549"}, "kiryas-joel-poughkeepsie-newburgh-12550": {"city": "Kiryas Joel-Poughkeepsie-Newburgh", "rent": 1880, "zip": "12550"}, "kiryas-joel-poughkeepsie-newburgh-12551": {"city": "Kiryas Joel-Poughkeepsie-Newburgh", "rent": 2020, "zip": "12551"}, "kiryas-joel-poughkeepsie-newburgh-12552": {"city": "Kiryas Joel-Poughkeepsie-Newburgh", "rent": 2020, "zip": "12552"}, "kiryas-joel-poughkeepsie-newburgh-12553": {"city": "Kiryas Joel-Poughkeepsie-Newburgh", "rent": 1960, "zip": "12553"}, "kiryas-joel-poughkeepsie-newburgh-12555": {"city": "Kiryas Joel-Poughkeepsie-Newburgh", "rent": 2020, "zip": "12555"}, "kiryas-joel-poughkeepsie-newburgh-12564": {"city": "Kiryas Joel-Poughkeepsie-Newburgh", "rent": 2510, "zip": "12564"}, "kiryas-joel-poughkeepsie-newburgh-12566": {"city": "Kiryas Joel-Poughkeepsie-Newburgh", "rent": 2000, "zip": "12566"}, "kiryas-joel-poughkeepsie-newburgh-12567": {"city": "Kiryas Joel-Poughkeepsie-Newburgh", "rent": 1910, "zip": "12567"}, "kiryas-joel-poughkeepsie-newburgh-12569": {"city": "Kiryas Joel-Poughkeepsie-Newburgh", "rent": 2330, "zip": "12569"}, "kiryas-joel-poughkeepsie-newburgh-12570": {"city": "Kiryas Joel-Poughkeepsie-Newburgh", "rent": 2210, "zip": "12570"}, "kiryas-joel-poughkeepsie-newburgh-12571": {"city": "Kiryas Joel-Poughkeepsie-Newburgh", "rent": 1770, "zip": "12571"}, "kiryas-joel-poughkeepsie-newburgh-12572": {"city": "Kiryas Joel-Poughkeepsie-Newburgh", "rent": 1990, "zip": "12572"}, "kiryas-joel-poughkeepsie-newburgh-12574": {"city": "Kiryas Joel-Poughkeepsie-Newburgh", "rent": 1990, "zip": "12574"}, "kiryas-joel-poughkeepsie-newburgh-12575": {"city": "Kiryas Joel-Poughkeepsie-Newburgh", "rent": 1960, "zip": "12575"}, "kiryas-joel-poughkeepsie-newburgh-12577": {"city": "Kiryas Joel-Poughkeepsie-Newburgh", "rent": 2420, "zip": "12577"}, "kiryas-joel-poughkeepsie-newburgh-12578": {"city": "Kiryas Joel-Poughkeepsie-Newburgh", "rent": 2040, "zip": "12578"}, "kiryas-joel-poughkeepsie-newburgh-12580": {"city": "Kiryas Joel-Poughkeepsie-Newburgh", "rent": 1720, "zip": "12580"}, "kiryas-joel-poughkeepsie-newburgh-12581": {"city": "Kiryas Joel-Poughkeepsie-Newburgh", "rent": 1720, "zip": "12581"}, "kiryas-joel-poughkeepsie-newburgh-12582": {"city": "Kiryas Joel-Poughkeepsie-Newburgh", "rent": 2510, "zip": "12582"}, "kiryas-joel-poughkeepsie-newburgh-12583": {"city": "Kiryas Joel-Poughkeepsie-Newburgh", "rent": 2160, "zip": "12583"}, "kiryas-joel-poughkeepsie-newburgh-12584": {"city": "Kiryas Joel-Poughkeepsie-Newburgh", "rent": 2020, "zip": "12584"}, "kiryas-joel-poughkeepsie-newburgh-12585": {"city": "Kiryas Joel-Poughkeepsie-Newburgh", "rent": 2030, "zip": "12585"}, "kiryas-joel-poughkeepsie-newburgh-12586": {"city": "Kiryas Joel-Poughkeepsie-Newburgh", "rent": 1900, "zip": "12586"}, "kiryas-joel-poughkeepsie-newburgh-12589": {"city": "Kiryas Joel-Poughkeepsie-Newburgh", "rent": 1720, "zip": "12589"}, "kiryas-joel-poughkeepsie-newburgh-12590": {"city": "Kiryas Joel-Poughkeepsie-Newburgh", "rent": 2120, "zip": "12590"}, "kiryas-joel-poughkeepsie-newburgh-12592": {"city": "Kiryas Joel-Poughkeepsie-Newburgh", "rent": 1720, "zip": "12592"}, "kiryas-joel-poughkeepsie-newburgh-12594": {"city": "Kiryas Joel-Poughkeepsie-Newburgh", "rent": 1720, "zip": "12594"}, "kiryas-joel-poughkeepsie-newburgh-12601": {"city": "Kiryas Joel-Poughkeepsie-Newburgh", "rent": 1780, "zip": "12601"}, "kiryas-joel-poughkeepsie-newburgh-12602": {"city": "Kiryas Joel-Poughkeepsie-Newburgh", "rent": 1940, "zip": "12602"}, "kiryas-joel-poughkeepsie-newburgh-12603": {"city": "Kiryas Joel-Poughkeepsie-Newburgh", "rent": 2050, "zip": "12603"}, "kiryas-joel-poughkeepsie-newburgh-12604": {"city": "Kiryas Joel-Poughkeepsie-Newburgh", "rent": 2050, "zip": "12604"}, "kiryas-joel-poughkeepsie-newburgh-12721": {"city": "Kiryas Joel-Poughkeepsie-Newburgh", "rent": 1720, "zip": "12721"}, "kiryas-joel-poughkeepsie-newburgh-12729": {"city": "Kiryas Joel-Poughkeepsie-Newburgh", "rent": 1780, "zip": "12729"}, "kiryas-joel-poughkeepsie-newburgh-12746": {"city": "Kiryas Joel-Poughkeepsie-Newburgh", "rent": 1720, "zip": "12746"}, "kiryas-joel-poughkeepsie-newburgh-12771": {"city": "Kiryas Joel-Poughkeepsie-Newburgh", "rent": 1720, "zip": "12771"}, "kiryas-joel-poughkeepsie-newburgh-12780": {"city": "Kiryas Joel-Poughkeepsie-Newburgh", "rent": 1720, "zip": "12780"}, "kiryas-joel-poughkeepsie-newburgh-12785": {"city": "Kiryas Joel-Poughkeepsie-Newburgh", "rent": 1720, "zip": "12785"}, "nassau-suffolk-06390": {"city": "Nassau-Suffolk", "rent": 2720, "zip": "06390"}, "nassau-suffolk-11001": {"city": "Nassau-Suffolk", "rent": 2750, "zip": "11001"}, "nassau-suffolk-11002": {"city": "Nassau-Suffolk", "rent": 2780, "zip": "11002"}, "nassau-suffolk-11003": {"city": "Nassau-Suffolk", "rent": 2890, "zip": "11003"}, "nassau-suffolk-11004": {"city": "Nassau-Suffolk", "rent": 3060, "zip": "11004"}, "nassau-suffolk-11005": {"city": "Nassau-Suffolk", "rent": 3480, "zip": "11005"}, "nassau-suffolk-11010": {"city": "Nassau-Suffolk", "rent": 2580, "zip": "11010"}, "nassau-suffolk-11020": {"city": "Nassau-Suffolk", "rent": 3310, "zip": "11020"}, "nassau-suffolk-11021": {"city": "Nassau-Suffolk", "rent": 2680, "zip": "11021"}, "nassau-suffolk-11022": {"city": "Nassau-Suffolk", "rent": 2780, "zip": "11022"}, "nassau-suffolk-11023": {"city": "Nassau-Suffolk", "rent": 2890, "zip": "11023"}, "nassau-suffolk-11024": {"city": "Nassau-Suffolk", "rent": 3230, "zip": "11024"}, "nassau-suffolk-11030": {"city": "Nassau-Suffolk", "rent": 3010, "zip": "11030"}, "nassau-suffolk-11040": {"city": "Nassau-Suffolk", "rent": 3060, "zip": "11040"}, "nassau-suffolk-11042": {"city": "Nassau-Suffolk", "rent": 3190, "zip": "11042"}, "nassau-suffolk-11050": {"city": "Nassau-Suffolk", "rent": 3120, "zip": "11050"}, "nassau-suffolk-11096": {"city": "Nassau-Suffolk", "rent": 2410, "zip": "11096"}, "nassau-suffolk-11363": {"city": "Nassau-Suffolk", "rent": 3580, "zip": "11363"}, "nassau-suffolk-11501": {"city": "Nassau-Suffolk", "rent": 2760, "zip": "11501"}, "nassau-suffolk-11507": {"city": "Nassau-Suffolk", "rent": 3360, "zip": "11507"}, "nassau-suffolk-11509": {"city": "Nassau-Suffolk", "rent": 3060, "zip": "11509"}, "nassau-suffolk-11510": {"city": "Nassau-Suffolk", "rent": 2400, "zip": "11510"}, "nassau-suffolk-11514": {"city": "Nassau-Suffolk", "rent": 2830, "zip": "11514"}, "nassau-suffolk-11516": {"city": "Nassau-Suffolk", "rent": 2650, "zip": "11516"}, "nassau-suffolk-11518": {"city": "Nassau-Suffolk", "rent": 2710, "zip": "11518"}, "nassau-suffolk-11520": {"city": "Nassau-Suffolk", "rent": 2510, "zip": "11520"}, "nassau-suffolk-11530": {"city": "Nassau-Suffolk", "rent": 3500, "zip": "11530"}, "nassau-suffolk-11531": {"city": "Nassau-Suffolk", "rent": 2780, "zip": "11531"}, "nassau-suffolk-11542": {"city": "Nassau-Suffolk", "rent": 2850, "zip": "11542"}, "nassau-suffolk-11545": {"city": "Nassau-Suffolk", "rent": 2620, "zip": "11545"}, "nassau-suffolk-11547": {"city": "Nassau-Suffolk", "rent": 2330, "zip": "11547"}, "nassau-suffolk-11548": {"city": "Nassau-Suffolk", "rent": 3380, "zip": "11548"}, "nassau-suffolk-11549": {"city": "Nassau-Suffolk", "rent": 2740, "zip": "11549"}, "nassau-suffolk-11550": {"city": "Nassau-Suffolk", "rent": 2380, "zip": "11550"}, "nassau-suffolk-11551": {"city": "Nassau-Suffolk", "rent": 2780, "zip": "11551"}, "nassau-suffolk-11552": {"city": "Nassau-Suffolk", "rent": 3380, "zip": "11552"}, "nassau-suffolk-11553": {"city": "Nassau-Suffolk", "rent": 2740, "zip": "11553"}, "nassau-suffolk-11554": {"city": "Nassau-Suffolk", "rent": 3440, "zip": "11554"}, "nassau-suffolk-11556": {"city": "Nassau-Suffolk", "rent": 2780, "zip": "11556"}, "nassau-suffolk-11557": {"city": "Nassau-Suffolk", "rent": 2840, "zip": "11557"}, "nassau-suffolk-11558": {"city": "Nassau-Suffolk", "rent": 2750, "zip": "11558"}, "nassau-suffolk-11559": {"city": "Nassau-Suffolk", "rent": 2560, "zip": "11559"}, "nassau-suffolk-11560": {"city": "Nassau-Suffolk", "rent": 2920, "zip": "11560"}, "nassau-suffolk-11561": {"city": "Nassau-Suffolk", "rent": 3080, "zip": "11561"}, "nassau-suffolk-11563": {"city": "Nassau-Suffolk", "rent": 2670, "zip": "11563"}, "nassau-suffolk-11565": {"city": "Nassau-Suffolk", "rent": 2380, "zip": "11565"}, "nassau-suffolk-11566": {"city": "Nassau-Suffolk", "rent": 3350, "zip": "11566"}, "nassau-suffolk-11568": {"city": "Nassau-Suffolk", "rent": 2870, "zip": "11568"}, "nassau-suffolk-11569": {"city": "Nassau-Suffolk", "rent": 3080, "zip": "11569"}, "nassau-suffolk-11570": {"city": "Nassau-Suffolk", "rent": 2470, "zip": "11570"}, "nassau-suffolk-11571": {"city": "Nassau-Suffolk", "rent": 2780, "zip": "11571"}, "nassau-suffolk-11572": {"city": "Nassau-Suffolk", "rent": 2670, "zip": "11572"}, "nassau-suffolk-11575": {"city": "Nassau-Suffolk", "rent": 3150, "zip": "11575"}, "nassau-suffolk-11576": {"city": "Nassau-Suffolk", "rent": 2890, "zip": "11576"}, "nassau-suffolk-11577": {"city": "Nassau-Suffolk", "rent": 2990, "zip": "11577"}, "nassau-suffolk-11579": {"city": "Nassau-Suffolk", "rent": 2860, "zip": "11579"}, "nassau-suffolk-11580": {"city": "Nassau-Suffolk", "rent": 2610, "zip": "11580"}, "nassau-suffolk-11581": {"city": "Nassau-Suffolk", "rent": 2550, "zip": "11581"}, "nassau-suffolk-11582": {"city": "Nassau-Suffolk", "rent": 2780, "zip": "11582"}, "nassau-suffolk-11590": {"city": "Nassau-Suffolk", "rent": 2980, "zip": "11590"}, "nassau-suffolk-11596": {"city": "Nassau-Suffolk", "rent": 2560, "zip": "11596"}, "nassau-suffolk-11598": {"city": "Nassau-Suffolk", "rent": 3110, "zip": "11598"}, "nassau-suffolk-11691": {"city": "Nassau-Suffolk", "rent": 2920, "zip": "11691"}, "nassau-suffolk-11701": {"city": "Nassau-Suffolk", "rent": 2630, "zip": "11701"}, "nassau-suffolk-11702": {"city": "Nassau-Suffolk", "rent": 2940, "zip": "11702"}, "nassau-suffolk-11703": {"city": "Nassau-Suffolk", "rent": 2690, "zip": "11703"}, "nassau-suffolk-11704": {"city": "Nassau-Suffolk", "rent": 2680, "zip": "11704"}, "nassau-suffolk-11705": {"city": "Nassau-Suffolk", "rent": 2710, "zip": "11705"}, "nassau-suffolk-11706": {"city": "Nassau-Suffolk", "rent": 2450, "zip": "11706"}, "nassau-suffolk-11709": {"city": "Nassau-Suffolk", "rent": 2480, "zip": "11709"}, "nassau-suffolk-11710": {"city": "Nassau-Suffolk", "rent": 3080, "zip": "11710"}, "nassau-suffolk-11713": {"city": "Nassau-Suffolk", "rent": 3510, "zip": "11713"}, "nassau-suffolk-11714": {"city": "Nassau-Suffolk", "rent": 2970, "zip": "11714"}, "nassau-suffolk-11715": {"city": "Nassau-Suffolk", "rent": 2660, "zip": "11715"}, "nassau-suffolk-11716": {"city": "Nassau-Suffolk", "rent": 2980, "zip": "11716"}, "nassau-suffolk-11717": {"city": "Nassau-Suffolk", "rent": 2330, "zip": "11717"}, "nassau-suffolk-11718": {"city": "Nassau-Suffolk", "rent": 2450, "zip": "11718"}, "nassau-suffolk-11719": {"city": "Nassau-Suffolk", "rent": 2480, "zip": "11719"}, "nassau-suffolk-11720": {"city": "Nassau-Suffolk", "rent": 2710, "zip": "11720"}, "nassau-suffolk-11721": {"city": "Nassau-Suffolk", "rent": 4120, "zip": "11721"}, "nassau-suffolk-11722": {"city": "Nassau-Suffolk", "rent": 2780, "zip": "11722"}, "nassau-suffolk-11724": {"city": "Nassau-Suffolk", "rent": 3170, "zip": "11724"}, "nassau-suffolk-11725": {"city": "Nassau-Suffolk", "rent": 3010, "zip": "11725"}, "nassau-suffolk-11726": {"city": "Nassau-Suffolk", "rent": 2390, "zip": "11726"}, "nassau-suffolk-11727": {"city": "Nassau-Suffolk", "rent": 3120, "zip": "11727"}, "nassau-suffolk-11729": {"city": "Nassau-Suffolk", "rent": 2330, "zip": "11729"}, "nassau-suffolk-11730": {"city": "Nassau-Suffolk", "rent": 3070, "zip": "11730"}, "nassau-suffolk-11731": {"city": "Nassau-Suffolk", "rent": 2790, "zip": "11731"}, "nassau-suffolk-11732": {"city": "Nassau-Suffolk", "rent": 3560, "zip": "11732"}, "nassau-suffolk-11733": {"city": "Nassau-Suffolk", "rent": 3080, "zip": "11733"}, "nassau-suffolk-11735": {"city": "Nassau-Suffolk", "rent": 2710, "zip": "11735"}, "nassau-suffolk-11738": {"city": "Nassau-Suffolk", "rent": 3410, "zip": "11738"}, "nassau-suffolk-11739": {"city": "Nassau-Suffolk", "rent": 3000, "zip": "11739"}, "nassau-suffolk-11740": {"city": "Nassau-Suffolk", "rent": 2670, "zip": "11740"}, "nassau-suffolk-11741": {"city": "Nassau-Suffolk", "rent": 2930, "zip": "11741"}, "nassau-suffolk-11742": {"city": "Nassau-Suffolk", "rent": 2790, "zip": "11742"}, "nassau-suffolk-11743": {"city": "Nassau-Suffolk", "rent": 2890, "zip": "11743"}, "nassau-suffolk-11746": {"city": "Nassau-Suffolk", "rent": 2600, "zip": "11746"}, "nassau-suffolk-11747": {"city": "Nassau-Suffolk", "rent": 3730, "zip": "11747"}, "nassau-suffolk-11749": {"city": "Nassau-Suffolk", "rent": 2330, "zip": "11749"}, "nassau-suffolk-11751": {"city": "Nassau-Suffolk", "rent": 2810, "zip": "11751"}, "nassau-suffolk-11752": {"city": "Nassau-Suffolk", "rent": 3100, "zip": "11752"}, "nassau-suffolk-11753": {"city": "Nassau-Suffolk", "rent": 3080, "zip": "11753"}, "nassau-suffolk-11754": {"city": "Nassau-Suffolk", "rent": 2330, "zip": "11754"}, "nassau-suffolk-11755": {"city": "Nassau-Suffolk", "rent": 2840, "zip": "11755"}, "nassau-suffolk-11756": {"city": "Nassau-Suffolk", "rent": 3000, "zip": "11756"}, "nassau-suffolk-11757": {"city": "Nassau-Suffolk", "rent": 2540, "zip": "11757"}, "nassau-suffolk-11758": {"city": "Nassau-Suffolk", "rent": 2970, "zip": "11758"}, "nassau-suffolk-11762": {"city": "Nassau-Suffolk", "rent": 3110, "zip": "11762"}, "nassau-suffolk-11763": {"city": "Nassau-Suffolk", "rent": 2920, "zip": "11763"}, "nassau-suffolk-11764": {"city": "Nassau-Suffolk", "rent": 3100, "zip": "11764"}, "nassau-suffolk-11765": {"city": "Nassau-Suffolk", "rent": 3060, "zip": "11765"}, "nassau-suffolk-11766": {"city": "Nassau-Suffolk", "rent": 3880, "zip": "11766"}, "nassau-suffolk-11767": {"city": "Nassau-Suffolk", "rent": 2750, "zip": "11767"}, "nassau-suffolk-11768": {"city": "Nassau-Suffolk", "rent": 2860, "zip": "11768"}, "nassau-suffolk-11769": {"city": "Nassau-Suffolk", "rent": 2890, "zip": "11769"}, "nassau-suffolk-11770": {"city": "Nassau-Suffolk", "rent": 2460, "zip": "11770"}, "nassau-suffolk-11771": {"city": "Nassau-Suffolk", "rent": 2490, "zip": "11771"}, "nassau-suffolk-11772": {"city": "Nassau-Suffolk", "rent": 2470, "zip": "11772"}, "nassau-suffolk-11773": {"city": "Nassau-Suffolk", "rent": 2780, "zip": "11773"}, "nassau-suffolk-11776": {"city": "Nassau-Suffolk", "rent": 2780, "zip": "11776"}, "nassau-suffolk-11777": {"city": "Nassau-Suffolk", "rent": 2830, "zip": "11777"}, "nassau-suffolk-11778": {"city": "Nassau-Suffolk", "rent": 2330, "zip": "11778"}, "nassau-suffolk-11779": {"city": "Nassau-Suffolk", "rent": 2600, "zip": "11779"}, "nassau-suffolk-11780": {"city": "Nassau-Suffolk", "rent": 2690, "zip": "11780"}, "nassau-suffolk-11782": {"city": "Nassau-Suffolk", "rent": 2820, "zip": "11782"}, "nassau-suffolk-11783": {"city": "Nassau-Suffolk", "rent": 3350, "zip": "11783"}, "nassau-suffolk-11784": {"city": "Nassau-Suffolk", "rent": 2770, "zip": "11784"}, "nassau-suffolk-11786": {"city": "Nassau-Suffolk", "rent": 3420, "zip": "11786"}, "nassau-suffolk-11787": {"city": "Nassau-Suffolk", "rent": 3160, "zip": "11787"}, "nassau-suffolk-11788": {"city": "Nassau-Suffolk", "rent": 3230, "zip": "11788"}, "nassau-suffolk-11789": {"city": "Nassau-Suffolk", "rent": 3330, "zip": "11789"}, "nassau-suffolk-11790": {"city": "Nassau-Suffolk", "rent": 3410, "zip": "11790"}, "nassau-suffolk-11791": {"city": "Nassau-Suffolk", "rent": 4120, "zip": "11791"}, "nassau-suffolk-11792": {"city": "Nassau-Suffolk", "rent": 3760, "zip": "11792"}, "nassau-suffolk-11793": {"city": "Nassau-Suffolk", "rent": 2960, "zip": "11793"}, "nassau-suffolk-11794": {"city": "Nassau-Suffolk", "rent": 3410, "zip": "11794"}, "nassau-suffolk-11795": {"city": "Nassau-Suffolk", "rent": 3010, "zip": "11795"}, "nassau-suffolk-11796": {"city": "Nassau-Suffolk", "rent": 2920, "zip": "11796"}, "nassau-suffolk-11797": {"city": "Nassau-Suffolk", "rent": 4120, "zip": "11797"}, "nassau-suffolk-11798": {"city": "Nassau-Suffolk", "rent": 2630, "zip": "11798"}, "nassau-suffolk-11801": {"city": "Nassau-Suffolk", "rent": 3470, "zip": "11801"}, "nassau-suffolk-11802": {"city": "Nassau-Suffolk", "rent": 2780, "zip": "11802"}, "nassau-suffolk-11803": {"city": "Nassau-Suffolk", "rent": 3340, "zip": "11803"}, "nassau-suffolk-11804": {"city": "Nassau-Suffolk", "rent": 3110, "zip": "11804"}, "nassau-suffolk-11901": {"city": "Nassau-Suffolk", "rent": 2580, "zip": "11901"}, "nassau-suffolk-11930": {"city": "Nassau-Suffolk", "rent": 3400, "zip": "11930"}, "nassau-suffolk-11931": {"city": "Nassau-Suffolk", "rent": 2580, "zip": "11931"}, "nassau-suffolk-11932": {"city": "Nassau-Suffolk", "rent": 2790, "zip": "11932"}, "nassau-suffolk-11933": {"city": "Nassau-Suffolk", "rent": 2780, "zip": "11933"}, "nassau-suffolk-11934": {"city": "Nassau-Suffolk", "rent": 2680, "zip": "11934"}, "nassau-suffolk-11935": {"city": "Nassau-Suffolk", "rent": 2760, "zip": "11935"}, "nassau-suffolk-11937": {"city": "Nassau-Suffolk", "rent": 3540, "zip": "11937"}, "nassau-suffolk-11939": {"city": "Nassau-Suffolk", "rent": 3000, "zip": "11939"}, "nassau-suffolk-11940": {"city": "Nassau-Suffolk", "rent": 2770, "zip": "11940"}, "nassau-suffolk-11941": {"city": "Nassau-Suffolk", "rent": 2690, "zip": "11941"}, "nassau-suffolk-11942": {"city": "Nassau-Suffolk", "rent": 2430, "zip": "11942"}, "nassau-suffolk-11944": {"city": "Nassau-Suffolk", "rent": 2560, "zip": "11944"}, "nassau-suffolk-11946": {"city": "Nassau-Suffolk", "rent": 2900, "zip": "11946"}, "nassau-suffolk-11947": {"city": "Nassau-Suffolk", "rent": 2580, "zip": "11947"}, "nassau-suffolk-11948": {"city": "Nassau-Suffolk", "rent": 2330, "zip": "11948"}, "nassau-suffolk-11949": {"city": "Nassau-Suffolk", "rent": 2700, "zip": "11949"}, "nassau-suffolk-11950": {"city": "Nassau-Suffolk", "rent": 2630, "zip": "11950"}, "nassau-suffolk-11951": {"city": "Nassau-Suffolk", "rent": 2700, "zip": "11951"}, "nassau-suffolk-11952": {"city": "Nassau-Suffolk", "rent": 2330, "zip": "11952"}, "nassau-suffolk-11953": {"city": "Nassau-Suffolk", "rent": 2580, "zip": "11953"}, "nassau-suffolk-11954": {"city": "Nassau-Suffolk", "rent": 3140, "zip": "11954"}, "nassau-suffolk-11955": {"city": "Nassau-Suffolk", "rent": 2670, "zip": "11955"}, "nassau-suffolk-11956": {"city": "Nassau-Suffolk", "rent": 2760, "zip": "11956"}, "nassau-suffolk-11957": {"city": "Nassau-Suffolk", "rent": 3000, "zip": "11957"}, "nassau-suffolk-11958": {"city": "Nassau-Suffolk", "rent": 2700, "zip": "11958"}, "nassau-suffolk-11959": {"city": "Nassau-Suffolk", "rent": 3830, "zip": "11959"}, "nassau-suffolk-11960": {"city": "Nassau-Suffolk", "rent": 2720, "zip": "11960"}, "nassau-suffolk-11961": {"city": "Nassau-Suffolk", "rent": 2330, "zip": "11961"}, "nassau-suffolk-11962": {"city": "Nassau-Suffolk", "rent": 2720, "zip": "11962"}, "nassau-suffolk-11963": {"city": "Nassau-Suffolk", "rent": 3720, "zip": "11963"}, "nassau-suffolk-11964": {"city": "Nassau-Suffolk", "rent": 3680, "zip": "11964"}, "nassau-suffolk-11965": {"city": "Nassau-Suffolk", "rent": 2910, "zip": "11965"}, "nassau-suffolk-11967": {"city": "Nassau-Suffolk", "rent": 2840, "zip": "11967"}, "nassau-suffolk-11968": {"city": "Nassau-Suffolk", "rent": 2750, "zip": "11968"}, "nassau-suffolk-11969": {"city": "Nassau-Suffolk", "rent": 2720, "zip": "11969"}, "nassau-suffolk-11970": {"city": "Nassau-Suffolk", "rent": 2720, "zip": "11970"}, "nassau-suffolk-11971": {"city": "Nassau-Suffolk", "rent": 2650, "zip": "11971"}, "nassau-suffolk-11972": {"city": "Nassau-Suffolk", "rent": 2720, "zip": "11972"}, "nassau-suffolk-11973": {"city": "Nassau-Suffolk", "rent": 2670, "zip": "11973"}, "nassau-suffolk-11975": {"city": "Nassau-Suffolk", "rent": 3550, "zip": "11975"}, "nassau-suffolk-11976": {"city": "Nassau-Suffolk", "rent": 3030, "zip": "11976"}, "nassau-suffolk-11977": {"city": "Nassau-Suffolk", "rent": 2690, "zip": "11977"}, "nassau-suffolk-11978": {"city": "Nassau-Suffolk", "rent": 2700, "zip": "11978"}, "nassau-suffolk-11980": {"city": "Nassau-Suffolk", "rent": 3200, "zip": "11980"}, "new-york-10001": {"city": "New York", "rent": 4370, "zip": "10001"}, "new-york-10002": {"city": "New York", "rent": 2510, "zip": "10002"}, "new-york-10003": {"city": "New York", "rent": 4370, "zip": "10003"}, "new-york-10004": {"city": "New York", "rent": 3590, "zip": "10004"}, "new-york-10005": {"city": "New York", "rent": 3760, "zip": "10005"}, "new-york-10006": {"city": "New York", "rent": 3760, "zip": "10006"}, "new-york-10007": {"city": "New York", "rent": 3590, "zip": "10007"}, "new-york-10008": {"city": "New York", "rent": 3590, "zip": "10008"}, "new-york-10009": {"city": "New York", "rent": 3110, "zip": "10009"}, "new-york-10010": {"city": "New York", "rent": 3760, "zip": "10010"}, "new-york-10011": {"city": "New York", "rent": 4370, "zip": "10011"}, "new-york-10012": {"city": "New York", "rent": 4370, "zip": "10012"}, "new-york-10013": {"city": "New York", "rent": 4370, "zip": "10013"}, "new-york-10014": {"city": "New York", "rent": 4370, "zip": "10014"}, "new-york-10016": {"city": "New York", "rent": 4370, "zip": "10016"}, "new-york-10017": {"city": "New York", "rent": 4370, "zip": "10017"}, "new-york-10018": {"city": "New York", "rent": 4240, "zip": "10018"}, "new-york-10019": {"city": "New York", "rent": 4080, "zip": "10019"}, "new-york-10020": {"city": "New York", "rent": 3590, "zip": "10020"}, "new-york-10021": {"city": "New York", "rent": 4370, "zip": "10021"}, "new-york-10022": {"city": "New York", "rent": 4370, "zip": "10022"}, "new-york-10023": {"city": "New York", "rent": 4370, "zip": "10023"}, "new-york-10024": {"city": "New York", "rent": 4370, "zip": "10024"}, "new-york-10025": {"city": "New York", "rent": 3060, "zip": "10025"}, "new-york-10026": {"city": "New York", "rent": 3070, "zip": "10026"}, "new-york-10027": {"city": "New York", "rent": 2700, "zip": "10027"}, "new-york-10028": {"city": "New York", "rent": 4370, "zip": "10028"}, "new-york-10029": {"city": "New York", "rent": 2510, "zip": "10029"}, "new-york-10030": {"city": "New York", "rent": 2510, "zip": "10030"}, "new-york-10031": {"city": "New York", "rent": 2740, "zip": "10031"}, "new-york-10032": {"city": "New York", "rent": 2510, "zip": "10032"}, "new-york-10033": {"city": "New York", "rent": 2600, "zip": "10033"}, "new-york-10034": {"city": "New York", "rent": 2760, "zip": "10034"}, "new-york-10035": {"city": "New York", "rent": 2560, "zip": "10035"}, "new-york-10036": {"city": "New York", "rent": 4040, "zip": "10036"}, "new-york-10037": {"city": "New York", "rent": 2580, "zip": "10037"}, "new-york-10038": {"city": "New York", "rent": 4370, "zip": "10038"}, "new-york-10039": {"city": "New York", "rent": 2510, "zip": "10039"}, "new-york-10040": {"city": "New York", "rent": 2710, "zip": "10040"}, "new-york-10041": {"city": "New York", "rent": 3590, "zip": "10041"}, "new-york-10043": {"city": "New York", "rent": 3590, "zip": "10043"}, "new-york-10044": {"city": "New York", "rent": 4370, "zip": "10044"}, "new-york-10045": {"city": "New York", "rent": 3590, "zip": "10045"}, "new-york-10055": {"city": "New York", "rent": 3590, "zip": "10055"}, "new-york-10065": {"city": "New York", "rent": 4370, "zip": "10065"}, "new-york-10069": {"city": "New York", "rent": 4370, "zip": "10069"}, "new-york-10075": {"city": "New York", "rent": 3710, "zip": "10075"}, "new-york-10080": {"city": "New York", "rent": 3590, "zip": "10080"}, "new-york-10081": {"city": "New York", "rent": 3590, "zip": "10081"}, "new-york-10101": {"city": "New York", "rent": 3590, "zip": "10101"}, "new-york-10103": {"city": "New York", "rent": 3590, "zip": "10103"}, "new-york-10104": {"city": "New York", "rent": 3590, "zip": "10104"}, "new-york-10105": {"city": "New York", "rent": 3590, "zip": "10105"}, "new-york-10106": {"city": "New York", "rent": 3590, "zip": "10106"}, "new-york-10107": {"city": "New York", "rent": 3590, "zip": "10107"}, "new-york-10108": {"city": "New York", "rent": 3590, "zip": "10108"}, "new-york-10110": {"city": "New York", "rent": 3590, "zip": "10110"}, "new-york-10111": {"city": "New York", "rent": 3590, "zip": "10111"}, "new-york-10112": {"city": "New York", "rent": 3590, "zip": "10112"}, "new-york-10113": {"city": "New York", "rent": 3590, "zip": "10113"}, "new-york-10115": {"city": "New York", "rent": 3590, "zip": "10115"}, "new-york-10116": {"city": "New York", "rent": 3590, "zip": "10116"}, "new-york-10117": {"city": "New York", "rent": 3590, "zip": "10117"}, "new-york-10118": {"city": "New York", "rent": 3590, "zip": "10118"}, "new-york-10119": {"city": "New York", "rent": 3590, "zip": "10119"}, "new-york-10120": {"city": "New York", "rent": 3590, "zip": "10120"}, "new-york-10121": {"city": "New York", "rent": 3590, "zip": "10121"}, "new-york-10122": {"city": "New York", "rent": 3590, "zip": "10122"}, "new-york-10123": {"city": "New York", "rent": 3590, "zip": "10123"}, "new-york-10124": {"city": "New York", "rent": 3590, "zip": "10124"}, "new-york-10125": {"city": "New York", "rent": 3590, "zip": "10125"}, "new-york-10126": {"city": "New York", "rent": 3590, "zip": "10126"}, "new-york-10128": {"city": "New York", "rent": 4370, "zip": "10128"}, "new-york-10129": {"city": "New York", "rent": 3590, "zip": "10129"}, "new-york-10131": {"city": "New York", "rent": 3590, "zip": "10131"}, "new-york-10133": {"city": "New York", "rent": 3590, "zip": "10133"}, "new-york-10138": {"city": "New York", "rent": 3590, "zip": "10138"}, "new-york-10150": {"city": "New York", "rent": 3590, "zip": "10150"}, "new-york-10151": {"city": "New York", "rent": 3590, "zip": "10151"}, "new-york-10152": {"city": "New York", "rent": 4370, "zip": "10152"}, "new-york-10153": {"city": "New York", "rent": 3590, "zip": "10153"}, "new-york-10154": {"city": "New York", "rent": 3590, "zip": "10154"}, "new-york-10155": {"city": "New York", "rent": 3590, "zip": "10155"}, "new-york-10156": {"city": "New York", "rent": 3590, "zip": "10156"}, "new-york-10157": {"city": "New York", "rent": 3590, "zip": "10157"}, "new-york-10158": {"city": "New York", "rent": 3590, "zip": "10158"}, "new-york-10159": {"city": "New York", "rent": 3590, "zip": "10159"}, "new-york-10160": {"city": "New York", "rent": 3590, "zip": "10160"}, "new-york-10162": {"city": "New York", "rent": 3970, "zip": "10162"}, "new-york-10163": {"city": "New York", "rent": 3590, "zip": "10163"}, "new-york-10164": {"city": "New York", "rent": 3590, "zip": "10164"}, "new-york-10165": {"city": "New York", "rent": 3590, "zip": "10165"}, "new-york-10166": {"city": "New York", "rent": 3590, "zip": "10166"}, "new-york-10167": {"city": "New York", "rent": 3590, "zip": "10167"}, "new-york-10168": {"city": "New York", "rent": 3590, "zip": "10168"}, "new-york-10169": {"city": "New York", "rent": 3590, "zip": "10169"}, "new-york-10170": {"city": "New York", "rent": 3590, "zip": "10170"}, "new-york-10171": {"city": "New York", "rent": 3590, "zip": "10171"}, "new-york-10172": {"city": "New York", "rent": 3590, "zip": "10172"}, "new-york-10173": {"city": "New York", "rent": 3590, "zip": "10173"}, "new-york-10174": {"city": "New York", "rent": 3590, "zip": "10174"}, "new-york-10175": {"city": "New York", "rent": 3590, "zip": "10175"}, "new-york-10176": {"city": "New York", "rent": 3590, "zip": "10176"}, "new-york-10177": {"city": "New York", "rent": 3590, "zip": "10177"}, "new-york-10178": {"city": "New York", "rent": 3590, "zip": "10178"}, "new-york-10179": {"city": "New York", "rent": 3590, "zip": "10179"}, "new-york-10185": {"city": "New York", "rent": 3590, "zip": "10185"}, "new-york-10199": {"city": "New York", "rent": 3590, "zip": "10199"}, "new-york-10203": {"city": "New York", "rent": 3590, "zip": "10203"}, "new-york-10211": {"city": "New York", "rent": 3590, "zip": "10211"}, "new-york-10212": {"city": "New York", "rent": 3590, "zip": "10212"}, "new-york-10213": {"city": "New York", "rent": 3590, "zip": "10213"}, "new-york-10258": {"city": "New York", "rent": 3590, "zip": "10258"}, "new-york-10268": {"city": "New York", "rent": 3590, "zip": "10268"}, "new-york-10269": {"city": "New York", "rent": 3590, "zip": "10269"}, "new-york-10271": {"city": "New York", "rent": 3590, "zip": "10271"}, "new-york-10272": {"city": "New York", "rent": 3590, "zip": "10272"}, "new-york-10274": {"city": "New York", "rent": 3590, "zip": "10274"}, "new-york-10275": {"city": "New York", "rent": 3590, "zip": "10275"}, "new-york-10276": {"city": "New York", "rent": 3590, "zip": "10276"}, "new-york-10277": {"city": "New York", "rent": 3590, "zip": "10277"}, "new-york-10278": {"city": "New York", "rent": 3590, "zip": "10278"}, "new-york-10279": {"city": "New York", "rent": 3590, "zip": "10279"}, "new-york-10280": {"city": "New York", "rent": 3590, "zip": "10280"}, "new-york-10281": {"city": "New York", "rent": 3590, "zip": "10281"}, "new-york-10282": {"city": "New York", "rent": 3760, "zip": "10282"}, "new-york-10285": {"city": "New York", "rent": 3590, "zip": "10285"}, "new-york-10301": {"city": "New York", "rent": 3040, "zip": "10301"}, "new-york-10302": {"city": "New York", "rent": 2810, "zip": "10302"}, "new-york-10303": {"city": "New York", "rent": 2840, "zip": "10303"}, "new-york-10304": {"city": "New York", "rent": 2640, "zip": "10304"}, "new-york-10305": {"city": "New York", "rent": 2630, "zip": "10305"}, "new-york-10306": {"city": "New York", "rent": 2670, "zip": "10306"}, "new-york-10307": {"city": "New York", "rent": 2510, "zip": "10307"}, "new-york-10308": {"city": "New York", "rent": 2780, "zip": "10308"}, "new-york-10309": {"city": "New York", "rent": 3290, "zip": "10309"}, "new-york-10310": {"city": "New York", "rent": 2710, "zip": "10310"}, "new-york-10311": {"city": "New York", "rent": 2720, "zip": "10311"}, "new-york-10312": {"city": "New York", "rent": 2830, "zip": "10312"}, "new-york-10313": {"city": "New York", "rent": 2720, "zip": "10313"}, "new-york-10314": {"city": "New York", "rent": 2890, "zip": "10314"}, "new-york-10451": {"city": "New York", "rent": 2510, "zip": "10451"}, "new-york-10452": {"city": "New York", "rent": 2510, "zip": "10452"}, "new-york-10453": {"city": "New York", "rent": 2510, "zip": "10453"}, "new-york-10454": {"city": "New York", "rent": 2520, "zip": "10454"}, "new-york-10455": {"city": "New York", "rent": 2510, "zip": "10455"}, "new-york-10456": {"city": "New York", "rent": 2510, "zip": "10456"}, "new-york-10457": {"city": "New York", "rent": 2530, "zip": "10457"}, "new-york-10458": {"city": "New York", "rent": 2650, "zip": "10458"}, "new-york-10459": {"city": "New York", "rent": 2510, "zip": "10459"}, "new-york-10460": {"city": "New York", "rent": 2510, "zip": "10460"}, "new-york-10461": {"city": "New York", "rent": 3020, "zip": "10461"}, "new-york-10462": {"city": "New York", "rent": 2850, "zip": "10462"}, "new-york-10463": {"city": "New York", "rent": 2860, "zip": "10463"}, "new-york-10464": {"city": "New York", "rent": 2940, "zip": "10464"}, "new-york-10465": {"city": "New York", "rent": 3040, "zip": "10465"}, "new-york-10466": {"city": "New York", "rent": 2750, "zip": "10466"}, "new-york-10467": {"city": "New York", "rent": 2730, "zip": "10467"}, "new-york-10468": {"city": "New York", "rent": 2670, "zip": "10468"}, "new-york-10469": {"city": "New York", "rent": 2830, "zip": "10469"}, "new-york-10470": {"city": "New York", "rent": 2570, "zip": "10470"}, "new-york-10471": {"city": "New York", "rent": 2720, "zip": "10471"}, "new-york-10472": {"city": "New York", "rent": 2620, "zip": "10472"}, "new-york-10473": {"city": "New York", "rent": 2510, "zip": "10473"}, "new-york-10474": {"city": "New York", "rent": 2510, "zip": "10474"}, "new-york-10475": {"city": "New York", "rent": 2510, "zip": "10475"}, "new-york-10501": {"city": "New York", "rent": 3870, "zip": "10501"}, "new-york-10502": {"city": "New York", "rent": 3430, "zip": "10502"}, "new-york-10503": {"city": "New York", "rent": 3550, "zip": "10503"}, "new-york-10504": {"city": "New York", "rent": 3760, "zip": "10504"}, "new-york-10505": {"city": "New York", "rent": 2840, "zip": "10505"}, "new-york-10506": {"city": "New York", "rent": 4370, "zip": "10506"}, "new-york-10507": {"city": "New York", "rent": 2950, "zip": "10507"}, "new-york-10509": {"city": "New York", "rent": 2820, "zip": "10509"}, "new-york-10510": {"city": "New York", "rent": 3610, "zip": "10510"}, "new-york-10511": {"city": "New York", "rent": 2700, "zip": "10511"}, "new-york-10512": {"city": "New York", "rent": 2510, "zip": "10512"}, "new-york-10514": {"city": "New York", "rent": 4200, "zip": "10514"}, "new-york-10516": {"city": "New York", "rent": 2750, "zip": "10516"}, "new-york-10517": {"city": "New York", "rent": 2510, "zip": "10517"}, "new-york-10518": {"city": "New York", "rent": 3980, "zip": "10518"}, "new-york-10519": {"city": "New York", "rent": 3700, "zip": "10519"}, "new-york-10520": {"city": "New York", "rent": 2840, "zip": "10520"}, "new-york-10521": {"city": "New York", "rent": 2950, "zip": "10521"}, "new-york-10522": {"city": "New York", "rent": 3520, "zip": "10522"}, "new-york-10523": {"city": "New York", "rent": 4370, "zip": "10523"}, "new-york-10524": {"city": "New York", "rent": 3690, "zip": "10524"}, "new-york-10526": {"city": "New York", "rent": 3440, "zip": "10526"}, "new-york-10527": {"city": "New York", "rent": 3730, "zip": "10527"}, "new-york-10528": {"city": "New York", "rent": 4040, "zip": "10528"}, "new-york-10530": {"city": "New York", "rent": 3390, "zip": "10530"}, "new-york-10532": {"city": "New York", "rent": 3700, "zip": "10532"}, "new-york-10533": {"city": "New York", "rent": 3550, "zip": "10533"}, "new-york-10535": {"city": "New York", "rent": 3060, "zip": "10535"}, "new-york-10536": {"city": "New York", "rent": 4370, "zip": "10536"}, "new-york-10537": {"city": "New York", "rent": 3510, "zip": "10537"}, "new-york-10538": {"city": "New York", "rent": 3280, "zip": "10538"}, "new-york-10540": {"city": "New York", "rent": 3590, "zip": "10540"}, "new-york-10541": {"city": "New York", "rent": 2940, "zip": "10541"}, "new-york-10542": {"city": "New York", "rent": 2790, "zip": "10542"}, "new-york-10543": {"city": "New York", "rent": 3210, "zip": "10543"}, "new-york-10545": {"city": "New York", "rent": 3220, "zip": "10545"}, "new-york-10546": {"city": "New York", "rent": 3610, "zip": "10546"}, "new-york-10547": {"city": "New York", "rent": 3250, "zip": "10547"}, "new-york-10548": {"city": "New York", "rent": 2760, "zip": "10548"}, "new-york-10549": {"city": "New York", "rent": 2850, "zip": "10549"}, "new-york-10550": {"city": "New York", "rent": 2730, "zip": "10550"}, "new-york-10551": {"city": "New York", "rent": 2950, "zip": "10551"}, "new-york-10552": {"city": "New York", "rent": 2730, "zip": "10552"}, "new-york-10553": {"city": "New York", "rent": 2750, "zip": "10553"}, "new-york-10560": {"city": "New York", "rent": 3520, "zip": "10560"}, "new-york-10562": {"city": "New York", "rent": 3220, "zip": "10562"}, "new-york-10566": {"city": "New York", "rent": 2960, "zip": "10566"}, "new-york-10567": {"city": "New York", "rent": 3260, "zip": "10567"}, "new-york-10570": {"city": "New York", "rent": 2970, "zip": "10570"}, "new-york-10573": {"city": "New York", "rent": 3170, "zip": "10573"}, "new-york-10576": {"city": "New York", "rent": 4000, "zip": "10576"}, "new-york-10577": {"city": "New York", "rent": 3340, "zip": "10577"}, "new-york-10578": {"city": "New York", "rent": 3950, "zip": "10578"}, "new-york-10579": {"city": "New York", "rent": 3640, "zip": "10579"}, "new-york-10580": {"city": "New York", "rent": 4370, "zip": "10580"}, "new-york-10583": {"city": "New York", "rent": 3770, "zip": "10583"}, "new-york-10587": {"city": "New York", "rent": 2950, "zip": "10587"}, "new-york-10588": {"city": "New York", "rent": 2510, "zip": "10588"}, "new-york-10589": {"city": "New York", "rent": 4370, "zip": "10589"}, "new-york-10590": {"city": "New York", "rent": 3670, "zip": "10590"}, "new-york-10591": {"city": "New York", "rent": 2980, "zip": "10591"}, "new-york-10594": {"city": "New York", "rent": 3150, "zip": "10594"}, "new-york-10595": {"city": "New York", "rent": 2540, "zip": "10595"}, "new-york-10596": {"city": "New York", "rent": 2650, "zip": "10596"}, "new-york-10597": {"city": "New York", "rent": 3650, "zip": "10597"}, "new-york-10598": {"city": "New York", "rent": 3730, "zip": "10598"}, "new-york-10601": {"city": "New York", "rent": 3360, "zip": "10601"}, "new-york-10602": {"city": "New York", "rent": 2950, "zip": "10602"}, "new-york-10603": {"city": "New York", "rent": 3060, "zip": "10603"}, "new-york-10604": {"city": "New York", "rent": 3230, "zip": "10604"}, "new-york-10605": {"city": "New York", "rent": 3400, "zip": "10605"}, "new-york-10606": {"city": "New York", "rent": 3770, "zip": "10606"}, "new-york-10607": {"city": "New York", "rent": 3130, "zip": "10607"}, "new-york-10701": {"city": "New York", "rent": 2970, "zip": "10701"}, "new-york-10702": {"city": "New York", "rent": 2950, "zip": "10702"}, "new-york-10703": {"city": "New York", "rent": 2630, "zip": "10703"}, "new-york-10704": {"city": "New York", "rent": 2890, "zip": "10704"}, "new-york-10705": {"city": "New York", "rent": 2860, "zip": "10705"}, "new-york-10706": {"city": "New York", "rent": 3150, "zip": "10706"}, "new-york-10707": {"city": "New York", "rent": 3740, "zip": "10707"}, "new-york-10708": {"city": "New York", "rent": 3210, "zip": "10708"}, "new-york-10709": {"city": "New York", "rent": 3130, "zip": "10709"}, "new-york-10710": {"city": "New York", "rent": 2790, "zip": "10710"}, "new-york-10801": {"city": "New York", "rent": 2940, "zip": "10801"}, "new-york-10802": {"city": "New York", "rent": 2950, "zip": "10802"}, "new-york-10803": {"city": "New York", "rent": 3370, "zip": "10803"}, "new-york-10804": {"city": "New York", "rent": 3470, "zip": "10804"}, "new-york-10805": {"city": "New York", "rent": 2980, "zip": "10805"}, "new-york-10901": {"city": "New York", "rent": 2920, "zip": "10901"}, "new-york-10911": {"city": "New York", "rent": 3030, "zip": "10911"}, "new-york-10913": {"city": "New York", "rent": 3420, "zip": "10913"}, "new-york-10920": {"city": "New York", "rent": 3180, "zip": "10920"}, "new-york-10923": {"city": "New York", "rent": 2820, "zip": "10923"}, "new-york-10927": {"city": "New York", "rent": 2820, "zip": "10927"}, "new-york-10931": {"city": "New York", "rent": 3130, "zip": "10931"}, "new-york-10952": {"city": "New York", "rent": 2750, "zip": "10952"}, "new-york-10954": {"city": "New York", "rent": 3510, "zip": "10954"}, "new-york-10956": {"city": "New York", "rent": 3160, "zip": "10956"}, "new-york-10960": {"city": "New York", "rent": 3390, "zip": "10960"}, "new-york-10962": {"city": "New York", "rent": 2510, "zip": "10962"}, "new-york-10964": {"city": "New York", "rent": 2870, "zip": "10964"}, "new-york-10965": {"city": "New York", "rent": 2960, "zip": "10965"}, "new-york-10968": {"city": "New York", "rent": 3240, "zip": "10968"}, "new-york-10970": {"city": "New York", "rent": 2720, "zip": "10970"}, "new-york-10974": {"city": "New York", "rent": 3530, "zip": "10974"}, "new-york-10976": {"city": "New York", "rent": 2930, "zip": "10976"}, "new-york-10977": {"city": "New York", "rent": 2540, "zip": "10977"}, "new-york-10980": {"city": "New York", "rent": 2720, "zip": "10980"}, "new-york-10982": {"city": "New York", "rent": 2910, "zip": "10982"}, "new-york-10983": {"city": "New York", "rent": 3380, "zip": "10983"}, "new-york-10984": {"city": "New York", "rent": 2770, "zip": "10984"}, "new-york-10986": {"city": "New York", "rent": 3030, "zip": "10986"}, "new-york-10987": {"city": "New York", "rent": 2510, "zip": "10987"}, "new-york-10989": {"city": "New York", "rent": 3460, "zip": "10989"}, "new-york-10993": {"city": "New York", "rent": 2580, "zip": "10993"}, "new-york-10994": {"city": "New York", "rent": 2850, "zip": "10994"}, "new-york-11001": {"city": "New York", "rent": 2750, "zip": "11001"}, "new-york-11004": {"city": "New York", "rent": 3060, "zip": "11004"}, "new-york-11005": {"city": "New York", "rent": 3480, "zip": "11005"}, "new-york-11020": {"city": "New York", "rent": 3310, "zip": "11020"}, "new-york-11040": {"city": "New York", "rent": 3060, "zip": "11040"}, "new-york-11101": {"city": "New York", "rent": 3850, "zip": "11101"}, "new-york-11102": {"city": "New York", "rent": 3870, "zip": "11102"}, "new-york-11103": {"city": "New York", "rent": 3460, "zip": "11103"}, "new-york-11104": {"city": "New York", "rent": 3220, "zip": "11104"}, "new-york-11105": {"city": "New York", "rent": 3670, "zip": "11105"}, "new-york-11106": {"city": "New York", "rent": 3320, "zip": "11106"}, "new-york-11109": {"city": "New York", "rent": 3850, "zip": "11109"}, "new-york-11201": {"city": "New York", "rent": 4370, "zip": "11201"}, "new-york-11202": {"city": "New York", "rent": 2910, "zip": "11202"}, "new-york-11203": {"city": "New York", "rent": 2700, "zip": "11203"}, "new-york-11204": {"city": "New York", "rent": 2800, "zip": "11204"}, "new-york-11205": {"city": "New York", "rent": 3470, "zip": "11205"}, "new-york-11206": {"city": "New York", "rent": 2650, "zip": "11206"}, "new-york-11207": {"city": "New York", "rent": 2570, "zip": "11207"}, "new-york-11208": {"city": "New York", "rent": 2680, "zip": "11208"}, "new-york-11209": {"city": "New York", "rent": 3240, "zip": "11209"}, "new-york-11210": {"city": "New York", "rent": 2800, "zip": "11210"}, "new-york-11211": {"city": "New York", "rent": 3610, "zip": "11211"}, "new-york-11212": {"city": "New York", "rent": 2510, "zip": "11212"}, "new-york-11213": {"city": "New York", "rent": 2810, "zip": "11213"}, "new-york-11214": {"city": "New York", "rent": 2810, "zip": "11214"}, "new-york-11215": {"city": "New York", "rent": 4370, "zip": "11215"}, "new-york-11216": {"city": "New York", "rent": 3670, "zip": "11216"}, "new-york-11217": {"city": "New York", "rent": 4370, "zip": "11217"}, "new-york-11218": {"city": "New York", "rent": 3190, "zip": "11218"}, "new-york-11219": {"city": "New York", "rent": 2680, "zip": "11219"}, "new-york-11220": {"city": "New York", "rent": 2590, "zip": "11220"}, "new-york-11221": {"city": "New York", "rent": 3160, "zip": "11221"}, "new-york-11222": {"city": "New York", "rent": 3980, "zip": "11222"}, "new-york-11223": {"city": "New York", "rent": 2880, "zip": "11223"}, "new-york-11224": {"city": "New York", "rent": 2510, "zip": "11224"}, "new-york-11225": {"city": "New York", "rent": 2900, "zip": "11225"}, "new-york-11226": {"city": "New York", "rent": 2800, "zip": "11226"}, "new-york-11228": {"city": "New York", "rent": 2800, "zip": "11228"}, "new-york-11229": {"city": "New York", "rent": 2860, "zip": "11229"}, "new-york-11230": {"city": "New York", "rent": 3050, "zip": "11230"}, "new-york-11231": {"city": "New York", "rent": 4370, "zip": "11231"}, "new-york-11232": {"city": "New York", "rent": 2860, "zip": "11232"}, "new-york-11233": {"city": "New York", "rent": 2730, "zip": "11233"}, "new-york-11234": {"city": "New York", "rent": 2900, "zip": "11234"}, "new-york-11235": {"city": "New York", "rent": 2850, "zip": "11235"}, "new-york-11236": {"city": "New York", "rent": 2810, "zip": "11236"}, "new-york-11237": {"city": "New York", "rent": 3020, "zip": "11237"}, "new-york-11238": {"city": "New York", "rent": 4160, "zip": "11238"}, "new-york-11239": {"city": "New York", "rent": 2510, "zip": "11239"}, "new-york-11241": {"city": "New York", "rent": 2910, "zip": "11241"}, "new-york-11242": {"city": "New York", "rent": 2910, "zip": "11242"}, "new-york-11243": {"city": "New York", "rent": 2910, "zip": "11243"}, "new-york-11247": {"city": "New York", "rent": 2910, "zip": "11247"}, "new-york-11249": {"city": "New York", "rent": 3440, "zip": "11249"}, "new-york-11252": {"city": "New York", "rent": 2910, "zip": "11252"}, "new-york-11256": {"city": "New York", "rent": 2910, "zip": "11256"}, "new-york-11351": {"city": "New York", "rent": 2990, "zip": "11351"}, "new-york-11352": {"city": "New York", "rent": 2990, "zip": "11352"}, "new-york-11354": {"city": "New York", "rent": 3020, "zip": "11354"}, "new-york-11355": {"city": "New York", "rent": 3010, "zip": "11355"}, "new-york-11356": {"city": "New York", "rent": 3250, "zip": "11356"}, "new-york-11357": {"city": "New York", "rent": 3390, "zip": "11357"}, "new-york-11358": {"city": "New York", "rent": 3230, "zip": "11358"}, "new-york-11359": {"city": "New York", "rent": 2990, "zip": "11359"}, "new-york-11360": {"city": "New York", "rent": 3670, "zip": "11360"}, "new-york-11361": {"city": "New York", "rent": 3600, "zip": "11361"}, "new-york-11362": {"city": "New York", "rent": 3910, "zip": "11362"}, "new-york-11363": {"city": "New York", "rent": 3580, "zip": "11363"}, "new-york-11364": {"city": "New York", "rent": 3530, "zip": "11364"}, "new-york-11365": {"city": "New York", "rent": 2720, "zip": "11365"}, "new-york-11366": {"city": "New York", "rent": 3120, "zip": "11366"}, "new-york-11367": {"city": "New York", "rent": 2730, "zip": "11367"}, "new-york-11368": {"city": "New York", "rent": 3100, "zip": "11368"}, "new-york-11369": {"city": "New York", "rent": 3060, "zip": "11369"}, "new-york-11370": {"city": "New York", "rent": 3190, "zip": "11370"}, "new-york-11371": {"city": "New York", "rent": 2990, "zip": "11371"}, "new-york-11372": {"city": "New York", "rent": 3100, "zip": "11372"}, "new-york-11373": {"city": "New York", "rent": 3170, "zip": "11373"}, "new-york-11374": {"city": "New York", "rent": 3600, "zip": "11374"}, "new-york-11375": {"city": "New York", "rent": 3650, "zip": "11375"}, "new-york-11377": {"city": "New York", "rent": 3020, "zip": "11377"}, "new-york-11378": {"city": "New York", "rent": 3090, "zip": "11378"}, "new-york-11379": {"city": "New York", "rent": 3240, "zip": "11379"}, "new-york-11380": {"city": "New York", "rent": 2990, "zip": "11380"}, "new-york-11385": {"city": "New York", "rent": 2960, "zip": "11385"}, "new-york-11386": {"city": "New York", "rent": 2990, "zip": "11386"}, "new-york-11411": {"city": "New York", "rent": 2590, "zip": "11411"}, "new-york-11412": {"city": "New York", "rent": 2580, "zip": "11412"}, "new-york-11413": {"city": "New York", "rent": 3120, "zip": "11413"}, "new-york-11414": {"city": "New York", "rent": 3090, "zip": "11414"}, "new-york-11415": {"city": "New York", "rent": 3210, "zip": "11415"}, "new-york-11416": {"city": "New York", "rent": 2930, "zip": "11416"}, "new-york-11417": {"city": "New York", "rent": 2930, "zip": "11417"}, "new-york-11418": {"city": "New York", "rent": 3010, "zip": "11418"}, "new-york-11419": {"city": "New York", "rent": 3110, "zip": "11419"}, "new-york-11420": {"city": "New York", "rent": 3150, "zip": "11420"}, "new-york-11421": {"city": "New York", "rent": 3080, "zip": "11421"}, "new-york-11422": {"city": "New York", "rent": 3460, "zip": "11422"}, "new-york-11423": {"city": "New York", "rent": 2600, "zip": "11423"}, "new-york-11424": {"city": "New York", "rent": 2990, "zip": "11424"}, "new-york-11426": {"city": "New York", "rent": 3330, "zip": "11426"}, "new-york-11427": {"city": "New York", "rent": 2650, "zip": "11427"}, "new-york-11428": {"city": "New York", "rent": 2780, "zip": "11428"}, "new-york-11429": {"city": "New York", "rent": 2600, "zip": "11429"}, "new-york-11430": {"city": "New York", "rent": 2810, "zip": "11430"}, "new-york-11431": {"city": "New York", "rent": 2990, "zip": "11431"}, "new-york-11432": {"city": "New York", "rent": 3170, "zip": "11432"}, "new-york-11433": {"city": "New York", "rent": 2610, "zip": "11433"}, "new-york-11434": {"city": "New York", "rent": 2510, "zip": "11434"}, "new-york-11435": {"city": "New York", "rent": 2940, "zip": "11435"}, "new-york-11436": {"city": "New York", "rent": 3200, "zip": "11436"}, "new-york-11437": {"city": "New York", "rent": 2990, "zip": "11437"}, "new-york-11439": {"city": "New York", "rent": 3160, "zip": "11439"}, "new-york-11451": {"city": "New York", "rent": 2990, "zip": "11451"}, "new-york-11559": {"city": "New York", "rent": 2560, "zip": "11559"}, "new-york-11580": {"city": "New York", "rent": 2610, "zip": "11580"}, "new-york-11691": {"city": "New York", "rent": 2920, "zip": "11691"}, "new-york-11692": {"city": "New York", "rent": 2510, "zip": "11692"}, "new-york-11693": {"city": "New York", "rent": 2510, "zip": "11693"}, "new-york-11694": {"city": "New York", "rent": 2710, "zip": "11694"}, "new-york-11697": {"city": "New York", "rent": 2710, "zip": "11697"}, "new-york-12524": {"city": "New York", "rent": 2510, "zip": "12524"}, "new-york-12531": {"city": "New York", "rent": 2510, "zip": "12531"}, "new-york-12533": {"city": "New York", "rent": 2510, "zip": "12533"}, "new-york-12563": {"city": "New York", "rent": 2620, "zip": "12563"}, "new-york-12564": {"city": "New York", "rent": 2510, "zip": "12564"}, "new-york-12582": {"city": "New York", "rent": 2510, "zip": "12582"}, "rochester-13143": {"city": "Rochester", "rent": 1350, "zip": "13143"}, "rochester-13146": {"city": "Rochester", "rent": 1290, "zip": "13146"}, "rochester-13148": {"city": "Rochester", "rent": 1290, "zip": "13148"}, "rochester-13154": {"city": "Rochester", "rent": 1290, "zip": "13154"}, "rochester-13156": {"city": "Rochester", "rent": 1290, "zip": "13156"}, "rochester-13165": {"city": "Rochester", "rent": 1290, "zip": "13165"}, "rochester-14012": {"city": "Rochester", "rent": 1070, "zip": "14012"}, "rochester-14058": {"city": "Rochester", "rent": 1290, "zip": "14058"}, "rochester-14098": {"city": "Rochester", "rent": 1400, "zip": "14098"}, "rochester-14103": {"city": "Rochester", "rent": 1320, "zip": "14103"}, "rochester-14105": {"city": "Rochester", "rent": 1070, "zip": "14105"}, "rochester-14125": {"city": "Rochester", "rent": 1290, "zip": "14125"}, "rochester-14410": {"city": "Rochester", "rent": 1610, "zip": "14410"}, "rochester-14411": {"city": "Rochester", "rent": 1290, "zip": "14411"}, "rochester-14413": {"city": "Rochester", "rent": 1740, "zip": "14413"}, "rochester-14414": {"city": "Rochester", "rent": 1410, "zip": "14414"}, "rochester-14416": {"city": "Rochester", "rent": 1290, "zip": "14416"}, "rochester-14420": {"city": "Rochester", "rent": 1460, "zip": "14420"}, "rochester-14422": {"city": "Rochester", "rent": 1290, "zip": "14422"}, "rochester-14423": {"city": "Rochester", "rent": 1330, "zip": "14423"}, "rochester-14424": {"city": "Rochester", "rent": 1610, "zip": "14424"}, "rochester-14425": {"city": "Rochester", "rent": 2000, "zip": "14425"}, "rochester-14428": {"city": "Rochester", "rent": 1640, "zip": "14428"}, "rochester-14429": {"city": "Rochester", "rent": 1290, "zip": "14429"}, "rochester-14430": {"city": "Rochester", "rent": 1610, "zip": "14430"}, "rochester-14432": {"city": "Rochester", "rent": 1290, "zip": "14432"}, "rochester-14433": {"city": "Rochester", "rent": 1290, "zip": "14433"}, "rochester-14435": {"city": "Rochester", "rent": 1630, "zip": "14435"}, "rochester-14437": {"city": "Rochester", "rent": 1310, "zip": "14437"}, "rochester-14445": {"city": "Rochester", "rent": 1580, "zip": "14445"}, "rochester-14449": {"city": "Rochester", "rent": 1350, "zip": "14449"}, "rochester-14450": {"city": "Rochester", "rent": 1790, "zip": "14450"}, "rochester-14452": {"city": "Rochester", "rent": 1290, "zip": "14452"}, "rochester-14453": {"city": "Rochester", "rent": 1550, "zip": "14453"}, "rochester-14454": {"city": "Rochester", "rent": 1620, "zip": "14454"}, "rochester-14456": {"city": "Rochester", "rent": 1370, "zip": "14456"}, "rochester-14461": {"city": "Rochester", "rent": 1550, "zip": "14461"}, "rochester-14462": {"city": "Rochester", "rent": 1540, "zip": "14462"}, "rochester-14463": {"city": "Rochester", "rent": 1370, "zip": "14463"}, "rochester-14464": {"city": "Rochester", "rent": 1330, "zip": "14464"}, "rochester-14466": {"city": "Rochester", "rent": 1290, "zip": "14466"}, "rochester-14467": {"city": "Rochester", "rent": 1610, "zip": "14467"}, "rochester-14468": {"city": "Rochester", "rent": 1630, "zip": "14468"}, "rochester-14469": {"city": "Rochester", "rent": 1290, "zip": "14469"}, "rochester-14470": {"city": "Rochester", "rent": 1290, "zip": "14470"}, "rochester-14471": {"city": "Rochester", "rent": 1630, "zip": "14471"}, "rochester-14472": {"city": "Rochester", "rent": 1500, "zip": "14472"}, "rochester-14475": {"city": "Rochester", "rent": 1430, "zip": "14475"}, "rochester-14476": {"city": "Rochester", "rent": 1290, "zip": "14476"}, "rochester-14477": {"city": "Rochester", "rent": 1380, "zip": "14477"}, "rochester-14479": {"city": "Rochester", "rent": 1290, "zip": "14479"}, "rochester-14480": {"city": "Rochester", "rent": 1310, "zip": "14480"}, "rochester-14481": {"city": "Rochester", "rent": 1340, "zip": "14481"}, "rochester-14482": {"city": "Rochester", "rent": 1290, "zip": "14482"}, "rochester-14485": {"city": "Rochester", "rent": 1290, "zip": "14485"}, "rochester-14486": {"city": "Rochester", "rent": 1290, "zip": "14486"}, "rochester-14487": {"city": "Rochester", "rent": 1290, "zip": "14487"}, "rochester-14488": {"city": "Rochester", "rent": 1370, "zip": "14488"}, "rochester-14489": {"city": "Rochester", "rent": 1400, "zip": "14489"}, "rochester-14502": {"city": "Rochester", "rent": 1350, "zip": "14502"}, "rochester-14504": {"city": "Rochester", "rent": 1600, "zip": "14504"}, "rochester-14505": {"city": "Rochester", "rent": 1290, "zip": "14505"}, "rochester-14506": {"city": "Rochester", "rent": 1880, "zip": "14506"}, "rochester-14508": {"city": "Rochester", "rent": 1610, "zip": "14508"}, "rochester-14510": {"city": "Rochester", "rent": 1290, "zip": "14510"}, "rochester-14511": {"city": "Rochester", "rent": 1500, "zip": "14511"}, "rochester-14512": {"city": "Rochester", "rent": 1290, "zip": "14512"}, "rochester-14513": {"city": "Rochester", "rent": 1440, "zip": "14513"}, "rochester-14514": {"city": "Rochester", "rent": 2100, "zip": "14514"}, "rochester-14515": {"city": "Rochester", "rent": 1550, "zip": "14515"}, "rochester-14516": {"city": "Rochester", "rent": 1760, "zip": "14516"}, "rochester-14517": {"city": "Rochester", "rent": 1290, "zip": "14517"}, "rochester-14518": {"city": "Rochester", "rent": 1550, "zip": "14518"}, "rochester-14519": {"city": "Rochester", "rent": 1430, "zip": "14519"}, "rochester-14520": {"city": "Rochester", "rent": 1350, "zip": "14520"}, "rochester-14522": {"city": "Rochester", "rent": 1290, "zip": "14522"}, "rochester-14525": {"city": "Rochester", "rent": 1290, "zip": "14525"}, "rochester-14526": {"city": "Rochester", "rent": 1630, "zip": "14526"}, "rochester-14530": {"city": "Rochester", "rent": 1290, "zip": "14530"}, "rochester-14532": {"city": "Rochester", "rent": 1290, "zip": "14532"}, "rochester-14533": {"city": "Rochester", "rent": 1290, "zip": "14533"}, "rochester-14534": {"city": "Rochester", "rent": 2360, "zip": "14534"}, "rochester-14537": {"city": "Rochester", "rent": 1290, "zip": "14537"}, "rochester-14538": {"city": "Rochester", "rent": 1350, "zip": "14538"}, "rochester-14539": {"city": "Rochester", "rent": 1290, "zip": "14539"}, "rochester-14542": {"city": "Rochester", "rent": 1560, "zip": "14542"}, "rochester-14543": {"city": "Rochester", "rent": 1410, "zip": "14543"}, "rochester-14544": {"city": "Rochester", "rent": 1780, "zip": "14544"}, "rochester-14545": {"city": "Rochester", "rent": 1410, "zip": "14545"}, "rochester-14546": {"city": "Rochester", "rent": 1780, "zip": "14546"}, "rochester-14547": {"city": "Rochester", "rent": 1550, "zip": "14547"}, "rochester-14548": {"city": "Rochester", "rent": 1360, "zip": "14548"}, "rochester-14551": {"city": "Rochester", "rent": 1290, "zip": "14551"}, "rochester-14555": {"city": "Rochester", "rent": 1390, "zip": "14555"}, "rochester-14556": {"city": "Rochester", "rent": 1290, "zip": "14556"}, "rochester-14558": {"city": "Rochester", "rent": 1370, "zip": "14558"}, "rochester-14559": {"city": "Rochester", "rent": 1680, "zip": "14559"}, "rochester-14560": {"city": "Rochester", "rent": 1550, "zip": "14560"}, "rochester-14561": {"city": "Rochester", "rent": 1460, "zip": "14561"}, "rochester-14563": {"city": "Rochester", "rent": 1350, "zip": "14563"}, "rochester-14564": {"city": "Rochester", "rent": 1910, "zip": "14564"}, "rochester-14568": {"city": "Rochester", "rent": 1300, "zip": "14568"}, "rochester-14571": {"city": "Rochester", "rent": 2040, "zip": "14571"}, "rochester-14572": {"city": "Rochester", "rent": 1290, "zip": "14572"}, "rochester-14580": {"city": "Rochester", "rent": 1980, "zip": "14580"}, "rochester-14585": {"city": "Rochester", "rent": 1290, "zip": "14585"}, "rochester-14586": {"city": "Rochester", "rent": 2200, "zip": "14586"}, "rochester-14589": {"city": "Rochester", "rent": 1420, "zip": "14589"}, "rochester-14590": {"city": "Rochester", "rent": 1320, "zip": "14590"}, "rochester-14592": {"city": "Rochester", "rent": 1290, "zip": "14592"}, "rochester-14602": {"city": "Rochester", "rent": 1610, "zip": "14602"}, "rochester-14603": {"city": "Rochester", "rent": 1610, "zip": "14603"}, "rochester-14604": {"city": "Rochester", "rent": 1870, "zip": "14604"}, "rochester-14605": {"city": "Rochester", "rent": 1310, "zip": "14605"}, "rochester-14606": {"city": "Rochester", "rent": 1430, "zip": "14606"}, "rochester-14607": {"city": "Rochester", "rent": 1780, "zip": "14607"}, "rochester-14608": {"city": "Rochester", "rent": 1430, "zip": "14608"}, "rochester-14609": {"city": "Rochester", "rent": 1480, "zip": "14609"}, "rochester-14610": {"city": "Rochester", "rent": 1650, "zip": "14610"}, "rochester-14611": {"city": "Rochester", "rent": 1500, "zip": "14611"}, "rochester-14612": {"city": "Rochester", "rent": 1510, "zip": "14612"}, "rochester-14613": {"city": "Rochester", "rent": 1330, "zip": "14613"}, "rochester-14614": {"city": "Rochester", "rent": 2360, "zip": "14614"}, "rochester-14615": {"city": "Rochester", "rent": 1510, "zip": "14615"}, "rochester-14616": {"city": "Rochester", "rent": 1570, "zip": "14616"}, "rochester-14617": {"city": "Rochester", "rent": 1620, "zip": "14617"}, "rochester-14618": {"city": "Rochester", "rent": 1880, "zip": "14618"}, "rochester-14619": {"city": "Rochester", "rent": 1690, "zip": "14619"}, "rochester-14620": {"city": "Rochester", "rent": 1740, "zip": "14620"}, "rochester-14621": {"city": "Rochester", "rent": 1430, "zip": "14621"}, "rochester-14622": {"city": "Rochester", "rent": 1490, "zip": "14622"}, "rochester-14623": {"city": "Rochester", "rent": 1740, "zip": "14623"}, "rochester-14624": {"city": "Rochester", "rent": 1770, "zip": "14624"}, "rochester-14625": {"city": "Rochester", "rent": 1960, "zip": "14625"}, "rochester-14626": {"city": "Rochester", "rent": 1630, "zip": "14626"}, "rochester-14627": {"city": "Rochester", "rent": 1610, "zip": "14627"}, "rochester-14638": {"city": "Rochester", "rent": 1610, "zip": "14638"}, "rochester-14639": {"city": "Rochester", "rent": 1610, "zip": "14639"}, "rochester-14642": {"city": "Rochester", "rent": 1610, "zip": "14642"}, "rochester-14643": {"city": "Rochester", "rent": 1610, "zip": "14643"}, "rochester-14646": {"city": "Rochester", "rent": 1610, "zip": "14646"}, "rochester-14647": {"city": "Rochester", "rent": 1610, "zip": "14647"}, "rochester-14649": {"city": "Rochester", "rent": 1610, "zip": "14649"}, "rochester-14651": {"city": "Rochester", "rent": 1610, "zip": "14651"}, "rochester-14652": {"city": "Rochester", "rent": 1610, "zip": "14652"}, "rochester-14653": {"city": "Rochester", "rent": 1610, "zip": "14653"}, "rochester-14692": {"city": "Rochester", "rent": 1610, "zip": "14692"}, "rochester-14822": {"city": "Rochester", "rent": 1470, "zip": "14822"}, "rochester-14836": {"city": "Rochester", "rent": 1290, "zip": "14836"}, "rochester-14846": {"city": "Rochester", "rent": 1290, "zip": "14846"}, "rochester-14884": {"city": "Rochester", "rent": 1290, "zip": "14884"}, "syracuse-13020": {"city": "Syracuse", "rent": 1520, "zip": "13020"}, "syracuse-13021": {"city": "Syracuse", "rent": 1190, "zip": "13021"}, "syracuse-13027": {"city": "Syracuse", "rent": 1640, "zip": "13027"}, "syracuse-13028": {"city": "Syracuse", "rent": 1250, "zip": "13028"}, "syracuse-13029": {"city": "Syracuse", "rent": 1390, "zip": "13029"}, "syracuse-13030": {"city": "Syracuse", "rent": 1190, "zip": "13030"}, "syracuse-13031": {"city": "Syracuse", "rent": 1670, "zip": "13031"}, "syracuse-13032": {"city": "Syracuse", "rent": 1260, "zip": "13032"}, "syracuse-13033": {"city": "Syracuse", "rent": 1270, "zip": "13033"}, "syracuse-13035": {"city": "Syracuse", "rent": 1570, "zip": "13035"}, "syracuse-13036": {"city": "Syracuse", "rent": 1350, "zip": "13036"}, "syracuse-13037": {"city": "Syracuse", "rent": 1190, "zip": "13037"}, "syracuse-13039": {"city": "Syracuse", "rent": 1500, "zip": "13039"}, "syracuse-13041": {"city": "Syracuse", "rent": 1840, "zip": "13041"}, "syracuse-13042": {"city": "Syracuse", "rent": 1490, "zip": "13042"}, "syracuse-13043": {"city": "Syracuse", "rent": 1230, "zip": "13043"}, "syracuse-13044": {"city": "Syracuse", "rent": 1250, "zip": "13044"}, "syracuse-13051": {"city": "Syracuse", "rent": 1450, "zip": "13051"}, "syracuse-13052": {"city": "Syracuse", "rent": 1190, "zip": "13052"}, "syracuse-13057": {"city": "Syracuse", "rent": 1310, "zip": "13057"}, "syracuse-13060": {"city": "Syracuse", "rent": 1250, "zip": "13060"}, "syracuse-13061": {"city": "Syracuse", "rent": 1290, "zip": "13061"}, "syracuse-13063": {"city": "Syracuse", "rent": 1190, "zip": "13063"}, "syracuse-13066": {"city": "Syracuse", "rent": 1590, "zip": "13066"}, "syracuse-13069": {"city": "Syracuse", "rent": 1210, "zip": "13069"}, "syracuse-13072": {"city": "Syracuse", "rent": 1190, "zip": "13072"}, "syracuse-13074": {"city": "Syracuse", "rent": 1360, "zip": "13074"}, "syracuse-13076": {"city": "Syracuse", "rent": 1370, "zip": "13076"}, "syracuse-13077": {"city": "Syracuse", "rent": 1380, "zip": "13077"}, "syracuse-13078": {"city": "Syracuse", "rent": 1650, "zip": "13078"}, "syracuse-13080": {"city": "Syracuse", "rent": 1190, "zip": "13080"}, "syracuse-13082": {"city": "Syracuse", "rent": 1260, "zip": "13082"}, "syracuse-13083": {"city": "Syracuse", "rent": 1230, "zip": "13083"}, "syracuse-13084": {"city": "Syracuse", "rent": 1660, "zip": "13084"}, "syracuse-13088": {"city": "Syracuse", "rent": 1510, "zip": "13088"}, "syracuse-13089": {"city": "Syracuse", "rent": 1430, "zip": "13089"}, "syracuse-13090": {"city": "Syracuse", "rent": 1660, "zip": "13090"}, "syracuse-13093": {"city": "Syracuse", "rent": 1280, "zip": "13093"}, "syracuse-13103": {"city": "Syracuse", "rent": 1790, "zip": "13103"}, "syracuse-13104": {"city": "Syracuse", "rent": 1420, "zip": "13104"}, "syracuse-13108": {"city": "Syracuse", "rent": 1370, "zip": "13108"}, "syracuse-13110": {"city": "Syracuse", "rent": 1410, "zip": "13110"}, "syracuse-13111": {"city": "Syracuse", "rent": 1260, "zip": "13111"}, "syracuse-13112": {"city": "Syracuse", "rent": 1430, "zip": "13112"}, "syracuse-13114": {"city": "Syracuse", "rent": 1190, "zip": "13114"}, "syracuse-13115": {"city": "Syracuse", "rent": 1550, "zip": "13115"}, "syracuse-13116": {"city": "Syracuse", "rent": 1430, "zip": "13116"}, "syracuse-13119": {"city": "Syracuse", "rent": 1430, "zip": "13119"}, "syracuse-13120": {"city": "Syracuse", "rent": 1560, "zip": "13120"}, "syracuse-13121": {"city": "Syracuse", "rent": 1280, "zip": "13121"}, "syracuse-13122": {"city": "Syracuse", "rent": 1300, "zip": "13122"}, "syracuse-13126": {"city": "Syracuse", "rent": 1360, "zip": "13126"}, "syracuse-13131": {"city": "Syracuse", "rent": 1420, "zip": "13131"}, "syracuse-13132": {"city": "Syracuse", "rent": 1450, "zip": "13132"}, "syracuse-13134": {"city": "Syracuse", "rent": 1300, "zip": "13134"}, "syracuse-13135": {"city": "Syracuse", "rent": 1290, "zip": "13135"}, "syracuse-13137": {"city": "Syracuse", "rent": 1430, "zip": "13137"}, "syracuse-13138": {"city": "Syracuse", "rent": 1450, "zip": "13138"}, "syracuse-13141": {"city": "Syracuse", "rent": 1300, "zip": "13141"}, "syracuse-13142": {"city": "Syracuse", "rent": 1190, "zip": "13142"}, "syracuse-13144": {"city": "Syracuse", "rent": 1190, "zip": "13144"}, "syracuse-13145": {"city": "Syracuse", "rent": 1190, "zip": "13145"}, "syracuse-13152": {"city": "Syracuse", "rent": 1740, "zip": "13152"}, "syracuse-13153": {"city": "Syracuse", "rent": 1430, "zip": "13153"}, "syracuse-13156": {"city": "Syracuse", "rent": 1290, "zip": "13156"}, "syracuse-13158": {"city": "Syracuse", "rent": 1190, "zip": "13158"}, "syracuse-13159": {"city": "Syracuse", "rent": 1500, "zip": "13159"}, "syracuse-13163": {"city": "Syracuse", "rent": 1250, "zip": "13163"}, "syracuse-13164": {"city": "Syracuse", "rent": 1430, "zip": "13164"}, "syracuse-13166": {"city": "Syracuse", "rent": 1190, "zip": "13166"}, "syracuse-13167": {"city": "Syracuse", "rent": 1720, "zip": "13167"}, "syracuse-13201": {"city": "Syracuse", "rent": 1430, "zip": "13201"}, "syracuse-13202": {"city": "Syracuse", "rent": 1580, "zip": "13202"}, "syracuse-13203": {"city": "Syracuse", "rent": 1320, "zip": "13203"}, "syracuse-13204": {"city": "Syracuse", "rent": 1260, "zip": "13204"}, "syracuse-13205": {"city": "Syracuse", "rent": 1230, "zip": "13205"}, "syracuse-13206": {"city": "Syracuse", "rent": 1250, "zip": "13206"}, "syracuse-13207": {"city": "Syracuse", "rent": 1440, "zip": "13207"}, "syracuse-13208": {"city": "Syracuse", "rent": 1330, "zip": "13208"}, "syracuse-13209": {"city": "Syracuse", "rent": 1320, "zip": "13209"}, "syracuse-13210": {"city": "Syracuse", "rent": 1500, "zip": "13210"}, "syracuse-13211": {"city": "Syracuse", "rent": 1500, "zip": "13211"}, "syracuse-13212": {"city": "Syracuse", "rent": 1420, "zip": "13212"}, "syracuse-13214": {"city": "Syracuse", "rent": 1360, "zip": "13214"}, "syracuse-13215": {"city": "Syracuse", "rent": 1540, "zip": "13215"}, "syracuse-13217": {"city": "Syracuse", "rent": 1430, "zip": "13217"}, "syracuse-13218": {"city": "Syracuse", "rent": 1430, "zip": "13218"}, "syracuse-13219": {"city": "Syracuse", "rent": 1430, "zip": "13219"}, "syracuse-13220": {"city": "Syracuse", "rent": 1430, "zip": "13220"}, "syracuse-13224": {"city": "Syracuse", "rent": 1380, "zip": "13224"}, "syracuse-13225": {"city": "Syracuse", "rent": 1430, "zip": "13225"}, "syracuse-13235": {"city": "Syracuse", "rent": 1430, "zip": "13235"}, "syracuse-13244": {"city": "Syracuse", "rent": 1500, "zip": "13244"}, "syracuse-13261": {"city": "Syracuse", "rent": 1430, "zip": "13261"}, "syracuse-13290": {"city": "Syracuse", "rent": 1430, "zip": "13290"}, "syracuse-13302": {"city": "Syracuse", "rent": 1400, "zip": "13302"}, "syracuse-13310": {"city": "Syracuse", "rent": 1390, "zip": "13310"}, "syracuse-13314": {"city": "Syracuse", "rent": 1270, "zip": "13314"}, "syracuse-13316": {"city": "Syracuse", "rent": 1190, "zip": "13316"}, "syracuse-13332": {"city": "Syracuse", "rent": 1410, "zip": "13332"}, "syracuse-13334": {"city": "Syracuse", "rent": 1190, "zip": "13334"}, "syracuse-13346": {"city": "Syracuse", "rent": 1620, "zip": "13346"}, "syracuse-13355": {"city": "Syracuse", "rent": 1190, "zip": "13355"}, "syracuse-13364": {"city": "Syracuse", "rent": 1190, "zip": "13364"}, "syracuse-13402": {"city": "Syracuse", "rent": 1270, "zip": "13402"}, "syracuse-13408": {"city": "Syracuse", "rent": 1260, "zip": "13408"}, "syracuse-13409": {"city": "Syracuse", "rent": 1220, "zip": "13409"}, "syracuse-13418": {"city": "Syracuse", "rent": 2090, "zip": "13418"}, "syracuse-13421": {"city": "Syracuse", "rent": 1190, "zip": "13421"}, "syracuse-13425": {"city": "Syracuse", "rent": 1190, "zip": "13425"}, "syracuse-13426": {"city": "Syracuse", "rent": 1280, "zip": "13426"}, "syracuse-13437": {"city": "Syracuse", "rent": 1190, "zip": "13437"}, "syracuse-13460": {"city": "Syracuse", "rent": 1190, "zip": "13460"}, "syracuse-13464": {"city": "Syracuse", "rent": 1280, "zip": "13464"}, "syracuse-13480": {"city": "Syracuse", "rent": 1190, "zip": "13480"}, "syracuse-13483": {"city": "Syracuse", "rent": 1190, "zip": "13483"}, "syracuse-13484": {"city": "Syracuse", "rent": 1190, "zip": "13484"}, "syracuse-13485": {"city": "Syracuse", "rent": 1210, "zip": "13485"}, "syracuse-13491": {"city": "Syracuse", "rent": 1190, "zip": "13491"}, "syracuse-13493": {"city": "Syracuse", "rent": 1190, "zip": "13493"}, "syracuse-13661": {"city": "Syracuse", "rent": 1190, "zip": "13661"}, "utica-rome-13032": {"city": "Utica-Rome", "rent": 1260, "zip": "13032"}, "utica-rome-13042": {"city": "Utica-Rome", "rent": 1490, "zip": "13042"}, "utica-rome-13054": {"city": "Utica-Rome", "rent": 1140, "zip": "13054"}, "utica-rome-13123": {"city": "Utica-Rome", "rent": 1420, "zip": "13123"}, "utica-rome-13157": {"city": "Utica-Rome", "rent": 1250, "zip": "13157"}, "utica-rome-13162": {"city": "Utica-Rome", "rent": 1180, "zip": "13162"}, "utica-rome-13301": {"city": "Utica-Rome", "rent": 1290, "zip": "13301"}, "utica-rome-13303": {"city": "Utica-Rome", "rent": 1090, "zip": "13303"}, "utica-rome-13304": {"city": "Utica-Rome", "rent": 1070, "zip": "13304"}, "utica-rome-13308": {"city": "Utica-Rome", "rent": 1370, "zip": "13308"}, "utica-rome-13309": {"city": "Utica-Rome", "rent": 1050, "zip": "13309"}, "utica-rome-13313": {"city": "Utica-Rome", "rent": 1050, "zip": "13313"}, "utica-rome-13316": {"city": "Utica-Rome", "rent": 1190, "zip": "13316"}, "utica-rome-13318": {"city": "Utica-Rome", "rent": 1100, "zip": "13318"}, "utica-rome-13319": {"city": "Utica-Rome", "rent": 1050, "zip": "13319"}, "utica-rome-13321": {"city": "Utica-Rome", "rent": 1330, "zip": "13321"}, "utica-rome-13322": {"city": "Utica-Rome", "rent": 1340, "zip": "13322"}, "utica-rome-13323": {"city": "Utica-Rome", "rent": 1410, "zip": "13323"}, "utica-rome-13324": {"city": "Utica-Rome", "rent": 1050, "zip": "13324"}, "utica-rome-13328": {"city": "Utica-Rome", "rent": 1200, "zip": "13328"}, "utica-rome-13329": {"city": "Utica-Rome", "rent": 1050, "zip": "13329"}, "utica-rome-13331": {"city": "Utica-Rome", "rent": 1200, "zip": "13331"}, "utica-rome-13338": {"city": "Utica-Rome", "rent": 1450, "zip": "13338"}, "utica-rome-13339": {"city": "Utica-Rome", "rent": 1070, "zip": "13339"}, "utica-rome-13340": {"city": "Utica-Rome", "rent": 1100, "zip": "13340"}, "utica-rome-13341": {"city": "Utica-Rome", "rent": 1190, "zip": "13341"}, "utica-rome-13350": {"city": "Utica-Rome", "rent": 1140, "zip": "13350"}, "utica-rome-13352": {"city": "Utica-Rome", "rent": 1080, "zip": "13352"}, "utica-rome-13354": {"city": "Utica-Rome", "rent": 1050, "zip": "13354"}, "utica-rome-13357": {"city": "Utica-Rome", "rent": 1090, "zip": "13357"}, "utica-rome-13360": {"city": "Utica-Rome", "rent": 1430, "zip": "13360"}, "utica-rome-13361": {"city": "Utica-Rome", "rent": 1070, "zip": "13361"}, "utica-rome-13362": {"city": "Utica-Rome", "rent": 1190, "zip": "13362"}, "utica-rome-13363": {"city": "Utica-Rome", "rent": 1580, "zip": "13363"}, "utica-rome-13365": {"city": "Utica-Rome", "rent": 1050, "zip": "13365"}, "utica-rome-13367": {"city": "Utica-Rome", "rent": 1050, "zip": "13367"}, "utica-rome-13401": {"city": "Utica-Rome", "rent": 1190, "zip": "13401"}, "utica-rome-13402": {"city": "Utica-Rome", "rent": 1270, "zip": "13402"}, "utica-rome-13403": {"city": "Utica-Rome", "rent": 1450, "zip": "13403"}, "utica-rome-13406": {"city": "Utica-Rome", "rent": 1050, "zip": "13406"}, "utica-rome-13407": {"city": "Utica-Rome", "rent": 1050, "zip": "13407"}, "utica-rome-13409": {"city": "Utica-Rome", "rent": 1220, "zip": "13409"}, "utica-rome-13413": {"city": "Utica-Rome", "rent": 1440, "zip": "13413"}, "utica-rome-13416": {"city": "Utica-Rome", "rent": 1050, "zip": "13416"}, "utica-rome-13417": {"city": "Utica-Rome", "rent": 1090, "zip": "13417"}, "utica-rome-13420": {"city": "Utica-Rome", "rent": 1070, "zip": "13420"}, "utica-rome-13421": {"city": "Utica-Rome", "rent": 1190, "zip": "13421"}, "utica-rome-13424": {"city": "Utica-Rome", "rent": 1090, "zip": "13424"}, "utica-rome-13425": {"city": "Utica-Rome", "rent": 1190, "zip": "13425"}, "utica-rome-13431": {"city": "Utica-Rome", "rent": 1080, "zip": "13431"}, "utica-rome-13435": {"city": "Utica-Rome", "rent": 1080, "zip": "13435"}, "utica-rome-13438": {"city": "Utica-Rome", "rent": 1080, "zip": "13438"}, "utica-rome-13439": {"city": "Utica-Rome", "rent": 1070, "zip": "13439"}, "utica-rome-13440": {"city": "Utica-Rome", "rent": 1190, "zip": "13440"}, "utica-rome-13441": {"city": "Utica-Rome", "rent": 1160, "zip": "13441"}, "utica-rome-13442": {"city": "Utica-Rome", "rent": 1190, "zip": "13442"}, "utica-rome-13454": {"city": "Utica-Rome", "rent": 1050, "zip": "13454"}, "utica-rome-13455": {"city": "Utica-Rome", "rent": 1110, "zip": "13455"}, "utica-rome-13456": {"city": "Utica-Rome", "rent": 1050, "zip": "13456"}, "utica-rome-13461": {"city": "Utica-Rome", "rent": 1390, "zip": "13461"}, "utica-rome-13469": {"city": "Utica-Rome", "rent": 1210, "zip": "13469"}, "utica-rome-13470": {"city": "Utica-Rome", "rent": 1050, "zip": "13470"}, "utica-rome-13471": {"city": "Utica-Rome", "rent": 1360, "zip": "13471"}, "utica-rome-13472": {"city": "Utica-Rome", "rent": 1070, "zip": "13472"}, "utica-rome-13475": {"city": "Utica-Rome", "rent": 1070, "zip": "13475"}, "utica-rome-13476": {"city": "Utica-Rome", "rent": 1140, "zip": "13476"}, "utica-rome-13477": {"city": "Utica-Rome", "rent": 1050, "zip": "13477"}, "utica-rome-13478": {"city": "Utica-Rome", "rent": 1120, "zip": "13478"}, "utica-rome-13479": {"city": "Utica-Rome", "rent": 1190, "zip": "13479"}, "utica-rome-13480": {"city": "Utica-Rome", "rent": 1190, "zip": "13480"}, "utica-rome-13483": {"city": "Utica-Rome", "rent": 1190, "zip": "13483"}, "utica-rome-13486": {"city": "Utica-Rome", "rent": 1170, "zip": "13486"}, "utica-rome-13489": {"city": "Utica-Rome", "rent": 1120, "zip": "13489"}, "utica-rome-13490": {"city": "Utica-Rome", "rent": 1200, "zip": "13490"}, "utica-rome-13491": {"city": "Utica-Rome", "rent": 1190, "zip": "13491"}, "utica-rome-13492": {"city": "Utica-Rome", "rent": 1240, "zip": "13492"}, "utica-rome-13493": {"city": "Utica-Rome", "rent": 1190, "zip": "13493"}, "utica-rome-13494": {"city": "Utica-Rome", "rent": 1320, "zip": "13494"}, "utica-rome-13495": {"city": "Utica-Rome", "rent": 1210, "zip": "13495"}, "utica-rome-13501": {"city": "Utica-Rome", "rent": 1120, "zip": "13501"}, "utica-rome-13502": {"city": "Utica-Rome", "rent": 1230, "zip": "13502"}, "utica-rome-13503": {"city": "Utica-Rome", "rent": 1190, "zip": "13503"}, "utica-rome-13504": {"city": "Utica-Rome", "rent": 1190, "zip": "13504"}, "utica-rome-13505": {"city": "Utica-Rome", "rent": 1190, "zip": "13505"}, "watertown-fort-drum-13083": {"city": "Watertown-Fort Drum", "rent": 1230, "zip": "13083"}, "watertown-fort-drum-13145": {"city": "Watertown-Fort Drum", "rent": 1190, "zip": "13145"}, "watertown-fort-drum-13601": {"city": "Watertown-Fort Drum", "rent": 1290, "zip": "13601"}, "watertown-fort-drum-13602": {"city": "Watertown-Fort Drum", "rent": 1660, "zip": "13602"}, "watertown-fort-drum-13603": {"city": "Watertown-Fort Drum", "rent": 1740, "zip": "13603"}, "watertown-fort-drum-13605": {"city": "Watertown-Fort Drum", "rent": 1160, "zip": "13605"}, "watertown-fort-drum-13606": {"city": "Watertown-Fort Drum", "rent": 1360, "zip": "13606"}, "watertown-fort-drum-13607": {"city": "Watertown-Fort Drum", "rent": 1160, "zip": "13607"}, "watertown-fort-drum-13608": {"city": "Watertown-Fort Drum", "rent": 1160, "zip": "13608"}, "watertown-fort-drum-13611": {"city": "Watertown-Fort Drum", "rent": 1160, "zip": "13611"}, "watertown-fort-drum-13612": {"city": "Watertown-Fort Drum", "rent": 1160, "zip": "13612"}, "watertown-fort-drum-13615": {"city": "Watertown-Fort Drum", "rent": 1160, "zip": "13615"}, "watertown-fort-drum-13616": {"city": "Watertown-Fort Drum", "rent": 1420, "zip": "13616"}, "watertown-fort-drum-13618": {"city": "Watertown-Fort Drum", "rent": 1160, "zip": "13618"}, "watertown-fort-drum-13619": {"city": "Watertown-Fort Drum", "rent": 1260, "zip": "13619"}, "watertown-fort-drum-13622": {"city": "Watertown-Fort Drum", "rent": 1280, "zip": "13622"}, "watertown-fort-drum-13624": {"city": "Watertown-Fort Drum", "rent": 1170, "zip": "13624"}, "watertown-fort-drum-13626": {"city": "Watertown-Fort Drum", "rent": 1160, "zip": "13626"}, "watertown-fort-drum-13628": {"city": "Watertown-Fort Drum", "rent": 1180, "zip": "13628"}, "watertown-fort-drum-13631": {"city": "Watertown-Fort Drum", "rent": 1410, "zip": "13631"}, "watertown-fort-drum-13632": {"city": "Watertown-Fort Drum", "rent": 1230, "zip": "13632"}, "watertown-fort-drum-13634": {"city": "Watertown-Fort Drum", "rent": 1170, "zip": "13634"}, "watertown-fort-drum-13636": {"city": "Watertown-Fort Drum", "rent": 1160, "zip": "13636"}, "watertown-fort-drum-13637": {"city": "Watertown-Fort Drum", "rent": 1500, "zip": "13637"}, "watertown-fort-drum-13638": {"city": "Watertown-Fort Drum", "rent": 1160, "zip": "13638"}, "watertown-fort-drum-13640": {"city": "Watertown-Fort Drum", "rent": 1160, "zip": "13640"}, "watertown-fort-drum-13641": {"city": "Watertown-Fort Drum", "rent": 1160, "zip": "13641"}, "watertown-fort-drum-13642": {"city": "Watertown-Fort Drum", "rent": 1160, "zip": "13642"}, "watertown-fort-drum-13643": {"city": "Watertown-Fort Drum", "rent": 1260, "zip": "13643"}, "watertown-fort-drum-13646": {"city": "Watertown-Fort Drum", "rent": 1160, "zip": "13646"}, "watertown-fort-drum-13650": {"city": "Watertown-Fort Drum", "rent": 1160, "zip": "13650"}, "watertown-fort-drum-13651": {"city": "Watertown-Fort Drum", "rent": 1160, "zip": "13651"}, "watertown-fort-drum-13656": {"city": "Watertown-Fort Drum", "rent": 1160, "zip": "13656"}, "watertown-fort-drum-13659": {"city": "Watertown-Fort Drum", "rent": 1170, "zip": "13659"}, "watertown-fort-drum-13661": {"city": "Watertown-Fort Drum", "rent": 1190, "zip": "13661"}, "watertown-fort-drum-13665": {"city": "Watertown-Fort Drum", "rent": 1160, "zip": "13665"}, "watertown-fort-drum-13671": {"city": "Watertown-Fort Drum", "rent": 1410, "zip": "13671"}, "watertown-fort-drum-13673": {"city": "Watertown-Fort Drum", "rent": 1190, "zip": "13673"}, "watertown-fort-drum-13674": {"city": "Watertown-Fort Drum", "rent": 1160, "zip": "13674"}, "watertown-fort-drum-13675": {"city": "Watertown-Fort Drum", "rent": 1160, "zip": "13675"}, "watertown-fort-drum-13679": {"city": "Watertown-Fort Drum", "rent": 1160, "zip": "13679"}, "watertown-fort-drum-13682": {"city": "Watertown-Fort Drum", "rent": 1510, "zip": "13682"}, "watertown-fort-drum-13685": {"city": "Watertown-Fort Drum", "rent": 1570, "zip": "13685"}, "watertown-fort-drum-13691": {"city": "Watertown-Fort Drum", "rent": 1160, "zip": "13691"}, "watertown-fort-drum-13692": {"city": "Watertown-Fort Drum", "rent": 1410, "zip": "13692"}, "watertown-fort-drum-13693": {"city": "Watertown-Fort Drum", "rent": 1180, "zip": "13693"}, "allegany-county-14024": {"city": "Allegany County", "rent": 970, "zip": "14024"}, "allegany-county-14029": {"city": "Allegany County", "rent": 1050, "zip": "14029"}, "allegany-county-14060": {"city": "Allegany County", "rent": 1020, "zip": "14060"}, "allegany-county-14065": {"city": "Allegany County", "rent": 1010, "zip": "14065"}, "allegany-county-14437": {"city": "Allegany County", "rent": 1310, "zip": "14437"}, "allegany-county-14536": {"city": "Allegany County", "rent": 1100, "zip": "14536"}, "allegany-county-14707": {"city": "Allegany County", "rent": 980, "zip": "14707"}, "allegany-county-14708": {"city": "Allegany County", "rent": 980, "zip": "14708"}, "allegany-county-14709": {"city": "Allegany County", "rent": 1070, "zip": "14709"}, "allegany-county-14711": {"city": "Allegany County", "rent": 970, "zip": "14711"}, "allegany-county-14714": {"city": "Allegany County", "rent": 1290, "zip": "14714"}, "allegany-county-14715": {"city": "Allegany County", "rent": 1000, "zip": "14715"}, "allegany-county-14717": {"city": "Allegany County", "rent": 970, "zip": "14717"}, "allegany-county-14721": {"city": "Allegany County", "rent": 980, "zip": "14721"}, "allegany-county-14727": {"city": "Allegany County", "rent": 1060, "zip": "14727"}, "allegany-county-14735": {"city": "Allegany County", "rent": 1000, "zip": "14735"}, "allegany-county-14737": {"city": "Allegany County", "rent": 1000, "zip": "14737"}, "allegany-county-14739": {"city": "Allegany County", "rent": 1040, "zip": "14739"}, "allegany-county-14744": {"city": "Allegany County", "rent": 1180, "zip": "14744"}, "allegany-county-14745": {"city": "Allegany County", "rent": 970, "zip": "14745"}, "allegany-county-14754": {"city": "Allegany County", "rent": 990, "zip": "14754"}, "allegany-county-14770": {"city": "Allegany County", "rent": 970, "zip": "14770"}, "allegany-county-14774": {"city": "Allegany County", "rent": 1070, "zip": "14774"}, "allegany-county-14777": {"city": "Allegany County", "rent": 980, "zip": "14777"}, "allegany-county-14786": {"city": "Allegany County", "rent": 970, "zip": "14786"}, "allegany-county-14802": {"city": "Allegany County", "rent": 990, "zip": "14802"}, "allegany-county-14803": {"city": "Allegany County", "rent": 970, "zip": "14803"}, "allegany-county-14804": {"city": "Allegany County", "rent": 1110, "zip": "14804"}, "allegany-county-14806": {"city": "Allegany County", "rent": 970, "zip": "14806"}, "allegany-county-14807": {"city": "Allegany County", "rent": 1140, "zip": "14807"}, "allegany-county-14813": {"city": "Allegany County", "rent": 970, "zip": "14813"}, "allegany-county-14822": {"city": "Allegany County", "rent": 1470, "zip": "14822"}, "allegany-county-14836": {"city": "Allegany County", "rent": 1290, "zip": "14836"}, "allegany-county-14843": {"city": "Allegany County", "rent": 970, "zip": "14843"}, "allegany-county-14846": {"city": "Allegany County", "rent": 1290, "zip": "14846"}, "allegany-county-14880": {"city": "Allegany County", "rent": 1020, "zip": "14880"}, "allegany-county-14884": {"city": "Allegany County", "rent": 1290, "zip": "14884"}, "allegany-county-14895": {"city": "Allegany County", "rent": 970, "zip": "14895"}, "allegany-county-14897": {"city": "Allegany County", "rent": 970, "zip": "14897"}, "cattaraugus-county-14009": {"city": "Cattaraugus County", "rent": 1090, "zip": "14009"}, "cattaraugus-county-14030": {"city": "Cattaraugus County", "rent": 1040, "zip": "14030"}, "cattaraugus-county-14041": {"city": "Cattaraugus County", "rent": 990, "zip": "14041"}, "cattaraugus-county-14042": {"city": "Cattaraugus County", "rent": 1040, "zip": "14042"}, "cattaraugus-county-14060": {"city": "Cattaraugus County", "rent": 1020, "zip": "14060"}, "cattaraugus-county-14062": {"city": "Cattaraugus County", "rent": 1150, "zip": "14062"}, "cattaraugus-county-14065": {"city": "Cattaraugus County", "rent": 1010, "zip": "14065"}, "cattaraugus-county-14070": {"city": "Cattaraugus County", "rent": 980, "zip": "14070"}, "cattaraugus-county-14081": {"city": "Cattaraugus County", "rent": 1220, "zip": "14081"}, "cattaraugus-county-14101": {"city": "Cattaraugus County", "rent": 1170, "zip": "14101"}, "cattaraugus-county-14129": {"city": "Cattaraugus County", "rent": 1060, "zip": "14129"}, "cattaraugus-county-14134": {"city": "Cattaraugus County", "rent": 1050, "zip": "14134"}, "cattaraugus-county-14138": {"city": "Cattaraugus County", "rent": 1020, "zip": "14138"}, "cattaraugus-county-14141": {"city": "Cattaraugus County", "rent": 990, "zip": "14141"}, "cattaraugus-county-14168": {"city": "Cattaraugus County", "rent": 1030, "zip": "14168"}, "cattaraugus-county-14171": {"city": "Cattaraugus County", "rent": 970, "zip": "14171"}, "cattaraugus-county-14173": {"city": "Cattaraugus County", "rent": 1050, "zip": "14173"}, "cattaraugus-county-14706": {"city": "Cattaraugus County", "rent": 1040, "zip": "14706"}, "cattaraugus-county-14719": {"city": "Cattaraugus County", "rent": 970, "zip": "14719"}, "cattaraugus-county-14726": {"city": "Cattaraugus County", "rent": 1290, "zip": "14726"}, "cattaraugus-county-14727": {"city": "Cattaraugus County", "rent": 1060, "zip": "14727"}, "cattaraugus-county-14729": {"city": "Cattaraugus County", "rent": 970, "zip": "14729"}, "cattaraugus-county-14730": {"city": "Cattaraugus County", "rent": 1010, "zip": "14730"}, "cattaraugus-county-14731": {"city": "Cattaraugus County", "rent": 1000, "zip": "14731"}, "cattaraugus-county-14737": {"city": "Cattaraugus County", "rent": 1000, "zip": "14737"}, "cattaraugus-county-14738": {"city": "Cattaraugus County", "rent": 1070, "zip": "14738"}, "cattaraugus-county-14741": {"city": "Cattaraugus County", "rent": 1000, "zip": "14741"}, "cattaraugus-county-14743": {"city": "Cattaraugus County", "rent": 1090, "zip": "14743"}, "cattaraugus-county-14747": {"city": "Cattaraugus County", "rent": 970, "zip": "14747"}, "cattaraugus-county-14748": {"city": "Cattaraugus County", "rent": 970, "zip": "14748"}, "cattaraugus-county-14751": {"city": "Cattaraugus County", "rent": 1010, "zip": "14751"}, "cattaraugus-county-14753": {"city": "Cattaraugus County", "rent": 970, "zip": "14753"}, "cattaraugus-county-14755": {"city": "Cattaraugus County", "rent": 970, "zip": "14755"}, "cattaraugus-county-14760": {"city": "Cattaraugus County", "rent": 1040, "zip": "14760"}, "cattaraugus-county-14766": {"city": "Cattaraugus County", "rent": 1010, "zip": "14766"}, "cattaraugus-county-14770": {"city": "Cattaraugus County", "rent": 970, "zip": "14770"}, "cattaraugus-county-14772": {"city": "Cattaraugus County", "rent": 970, "zip": "14772"}, "cattaraugus-county-14778": {"city": "Cattaraugus County", "rent": 1040, "zip": "14778"}, "cattaraugus-county-14779": {"city": "Cattaraugus County", "rent": 980, "zip": "14779"}, "cattaraugus-county-14783": {"city": "Cattaraugus County", "rent": 1000, "zip": "14783"}, "cattaraugus-county-14788": {"city": "Cattaraugus County", "rent": 1040, "zip": "14788"}, "cayuga-county-13021": {"city": "Cayuga County", "rent": 1190, "zip": "13021"}, "cayuga-county-13022": {"city": "Cayuga County", "rent": 1120, "zip": "13022"}, "cayuga-county-13024": {"city": "Cayuga County", "rent": 1140, "zip": "13024"}, "cayuga-county-13026": {"city": "Cayuga County", "rent": 1580, "zip": "13026"}, "cayuga-county-13027": {"city": "Cayuga County", "rent": 1640, "zip": "13027"}, "cayuga-county-13033": {"city": "Cayuga County", "rent": 1270, "zip": "13033"}, "cayuga-county-13034": {"city": "Cayuga County", "rent": 1180, "zip": "13034"}, "cayuga-county-13045": {"city": "Cayuga County", "rent": 1540, "zip": "13045"}, "cayuga-county-13060": {"city": "Cayuga County", "rent": 1250, "zip": "13060"}, "cayuga-county-13064": {"city": "Cayuga County", "rent": 1120, "zip": "13064"}, "cayuga-county-13071": {"city": "Cayuga County", "rent": 1270, "zip": "13071"}, "cayuga-county-13073": {"city": "Cayuga County", "rent": 1540, "zip": "13073"}, "cayuga-county-13074": {"city": "Cayuga County", "rent": 1360, "zip": "13074"}, "cayuga-county-13077": {"city": "Cayuga County", "rent": 1380, "zip": "13077"}, "cayuga-county-13080": {"city": "Cayuga County", "rent": 1190, "zip": "13080"}, "cayuga-county-13081": {"city": "Cayuga County", "rent": 1690, "zip": "13081"}, "cayuga-county-13092": {"city": "Cayuga County", "rent": 1540, "zip": "13092"}, "cayuga-county-13111": {"city": "Cayuga County", "rent": 1260, "zip": "13111"}, "cayuga-county-13113": {"city": "Cayuga County", "rent": 1270, "zip": "13113"}, "cayuga-county-13117": {"city": "Cayuga County", "rent": 1180, "zip": "13117"}, "cayuga-county-13118": {"city": "Cayuga County", "rent": 1070, "zip": "13118"}, "cayuga-county-13126": {"city": "Cayuga County", "rent": 1360, "zip": "13126"}, "cayuga-county-13139": {"city": "Cayuga County", "rent": 1120, "zip": "13139"}, "cayuga-county-13140": {"city": "Cayuga County", "rent": 1190, "zip": "13140"}, "cayuga-county-13143": {"city": "Cayuga County", "rent": 1350, "zip": "13143"}, "cayuga-county-13146": {"city": "Cayuga County", "rent": 1290, "zip": "13146"}, "cayuga-county-13147": {"city": "Cayuga County", "rent": 1190, "zip": "13147"}, "cayuga-county-13152": {"city": "Cayuga County", "rent": 1740, "zip": "13152"}, "cayuga-county-13156": {"city": "Cayuga County", "rent": 1290, "zip": "13156"}, "cayuga-county-13160": {"city": "Cayuga County", "rent": 1280, "zip": "13160"}, "cayuga-county-13166": {"city": "Cayuga County", "rent": 1190, "zip": "13166"}, "cayuga-county-14882": {"city": "Cayuga County", "rent": 1740, "zip": "14882"}, "chautauqua-county-14048": {"city": "Chautauqua County", "rent": 1040, "zip": "14048"}, "chautauqua-county-14062": {"city": "Chautauqua County", "rent": 1150, "zip": "14062"}, "chautauqua-county-14063": {"city": "Chautauqua County", "rent": 1060, "zip": "14063"}, "chautauqua-county-14081": {"city": "Chautauqua County", "rent": 1220, "zip": "14081"}, "chautauqua-county-14135": {"city": "Chautauqua County", "rent": 1090, "zip": "14135"}, "chautauqua-county-14136": {"city": "Chautauqua County", "rent": 1100, "zip": "14136"}, "chautauqua-county-14138": {"city": "Chautauqua County", "rent": 1020, "zip": "14138"}, "chautauqua-county-14166": {"city": "Chautauqua County", "rent": 1000, "zip": "14166"}, "chautauqua-county-14701": {"city": "Chautauqua County", "rent": 970, "zip": "14701"}, "chautauqua-county-14702": {"city": "Chautauqua County", "rent": 980, "zip": "14702"}, "chautauqua-county-14710": {"city": "Chautauqua County", "rent": 970, "zip": "14710"}, "chautauqua-county-14712": {"city": "Chautauqua County", "rent": 970, "zip": "14712"}, "chautauqua-county-14716": {"city": "Chautauqua County", "rent": 970, "zip": "14716"}, "chautauqua-county-14718": {"city": "Chautauqua County", "rent": 1050, "zip": "14718"}, "chautauqua-county-14720": {"city": "Chautauqua County", "rent": 1080, "zip": "14720"}, "chautauqua-county-14722": {"city": "Chautauqua County", "rent": 970, "zip": "14722"}, "chautauqua-county-14723": {"city": "Chautauqua County", "rent": 1010, "zip": "14723"}, "chautauqua-county-14724": {"city": "Chautauqua County", "rent": 970, "zip": "14724"}, "chautauqua-county-14726": {"city": "Chautauqua County", "rent": 1290, "zip": "14726"}, "chautauqua-county-14728": {"city": "Chautauqua County", "rent": 1000, "zip": "14728"}, "chautauqua-county-14732": {"city": "Chautauqua County", "rent": 1240, "zip": "14732"}, "chautauqua-county-14733": {"city": "Chautauqua County", "rent": 970, "zip": "14733"}, "chautauqua-county-14736": {"city": "Chautauqua County", "rent": 1030, "zip": "14736"}, "chautauqua-county-14738": {"city": "Chautauqua County", "rent": 1070, "zip": "14738"}, "chautauqua-county-14740": {"city": "Chautauqua County", "rent": 1460, "zip": "14740"}, "chautauqua-county-14742": {"city": "Chautauqua County", "rent": 970, "zip": "14742"}, "chautauqua-county-14747": {"city": "Chautauqua County", "rent": 970, "zip": "14747"}, "chautauqua-county-14750": {"city": "Chautauqua County", "rent": 1370, "zip": "14750"}, "chautauqua-county-14752": {"city": "Chautauqua County", "rent": 1050, "zip": "14752"}, "chautauqua-county-14756": {"city": "Chautauqua County", "rent": 970, "zip": "14756"}, "chautauqua-county-14757": {"city": "Chautauqua County", "rent": 970, "zip": "14757"}, "chautauqua-county-14758": {"city": "Chautauqua County", "rent": 980, "zip": "14758"}, "chautauqua-county-14767": {"city": "Chautauqua County", "rent": 970, "zip": "14767"}, "chautauqua-county-14769": {"city": "Chautauqua County", "rent": 970, "zip": "14769"}, "chautauqua-county-14775": {"city": "Chautauqua County", "rent": 970, "zip": "14775"}, "chautauqua-county-14781": {"city": "Chautauqua County", "rent": 1110, "zip": "14781"}, "chautauqua-county-14782": {"city": "Chautauqua County", "rent": 1160, "zip": "14782"}, "chautauqua-county-14784": {"city": "Chautauqua County", "rent": 990, "zip": "14784"}, "chautauqua-county-14785": {"city": "Chautauqua County", "rent": 970, "zip": "14785"}, "chautauqua-county-14787": {"city": "Chautauqua County", "rent": 970, "zip": "14787"}, "chenango-county-13040": {"city": "Chenango County", "rent": 1070, "zip": "13040"}, "chenango-county-13052": {"city": "Chenango County", "rent": 1190, "zip": "13052"}, "chenango-county-13072": {"city": "Chenango County", "rent": 1190, "zip": "13072"}, "chenango-county-13124": {"city": "Chenango County", "rent": 1010, "zip": "13124"}, "chenango-county-13136": {"city": "Chenango County", "rent": 1010, "zip": "13136"}, "chenango-county-13155": {"city": "Chenango County", "rent": 970, "zip": "13155"}, "chenango-county-13332": {"city": "Chenango County", "rent": 1410, "zip": "13332"}, "chenango-county-13411": {"city": "Chenango County", "rent": 1070, "zip": "13411"}, "chenango-county-13460": {"city": "Chenango County", "rent": 1190, "zip": "13460"}, "chenango-county-13464": {"city": "Chenango County", "rent": 1280, "zip": "13464"}, "chenango-county-13485": {"city": "Chenango County", "rent": 1210, "zip": "13485"}, "chenango-county-13730": {"city": "Chenango County", "rent": 1070, "zip": "13730"}, "chenango-county-13733": {"city": "Chenango County", "rent": 1070, "zip": "13733"}, "chenango-county-13746": {"city": "Chenango County", "rent": 1070, "zip": "13746"}, "chenango-county-13758": {"city": "Chenango County", "rent": 970, "zip": "13758"}, "chenango-county-13778": {"city": "Chenango County", "rent": 1070, "zip": "13778"}, "chenango-county-13780": {"city": "Chenango County", "rent": 1060, "zip": "13780"}, "chenango-county-13787": {"city": "Chenango County", "rent": 1070, "zip": "13787"}, "chenango-county-13801": {"city": "Chenango County", "rent": 990, "zip": "13801"}, "chenango-county-13809": {"city": "Chenango County", "rent": 1200, "zip": "13809"}, "chenango-county-13813": {"city": "Chenango County", "rent": 1070, "zip": "13813"}, "chenango-county-13814": {"city": "Chenango County", "rent": 1000, "zip": "13814"}, "chenango-county-13815": {"city": "Chenango County", "rent": 1010, "zip": "13815"}, "chenango-county-13830": {"city": "Chenango County", "rent": 970, "zip": "13830"}, "chenango-county-13832": {"city": "Chenango County", "rent": 1150, "zip": "13832"}, "chenango-county-13841": {"city": "Chenango County", "rent": 1210, "zip": "13841"}, "chenango-county-13843": {"city": "Chenango County", "rent": 1070, "zip": "13843"}, "chenango-county-13844": {"city": "Chenango County", "rent": 1000, "zip": "13844"}, "clinton-county-12901": {"city": "Clinton County", "rent": 1300, "zip": "12901"}, "clinton-county-12903": {"city": "Clinton County", "rent": 1820, "zip": "12903"}, "clinton-county-12910": {"city": "Clinton County", "rent": 1160, "zip": "12910"}, "clinton-county-12911": {"city": "Clinton County", "rent": 1380, "zip": "12911"}, "clinton-county-12912": {"city": "Clinton County", "rent": 1180, "zip": "12912"}, "clinton-county-12913": {"city": "Clinton County", "rent": 1160, "zip": "12913"}, "clinton-county-12918": {"city": "Clinton County", "rent": 1230, "zip": "12918"}, "clinton-county-12919": {"city": "Clinton County", "rent": 1260, "zip": "12919"}, "clinton-county-12920": {"city": "Clinton County", "rent": 1210, "zip": "12920"}, "clinton-county-12921": {"city": "Clinton County", "rent": 1210, "zip": "12921"}, "clinton-county-12923": {"city": "Clinton County", "rent": 1120, "zip": "12923"}, "clinton-county-12924": {"city": "Clinton County", "rent": 1270, "zip": "12924"}, "clinton-county-12929": {"city": "Clinton County", "rent": 1160, "zip": "12929"}, "clinton-county-12933": {"city": "Clinton County", "rent": 1080, "zip": "12933"}, "clinton-county-12934": {"city": "Clinton County", "rent": 1080, "zip": "12934"}, "clinton-county-12935": {"city": "Clinton County", "rent": 1110, "zip": "12935"}, "clinton-county-12944": {"city": "Clinton County", "rent": 1380, "zip": "12944"}, "clinton-county-12952": {"city": "Clinton County", "rent": 1140, "zip": "12952"}, "clinton-county-12955": {"city": "Clinton County", "rent": 1120, "zip": "12955"}, "clinton-county-12958": {"city": "Clinton County", "rent": 1210, "zip": "12958"}, "clinton-county-12959": {"city": "Clinton County", "rent": 1130, "zip": "12959"}, "clinton-county-12962": {"city": "Clinton County", "rent": 1340, "zip": "12962"}, "clinton-county-12972": {"city": "Clinton County", "rent": 1390, "zip": "12972"}, "clinton-county-12978": {"city": "Clinton County", "rent": 1170, "zip": "12978"}, "clinton-county-12979": {"city": "Clinton County", "rent": 1080, "zip": "12979"}, "clinton-county-12981": {"city": "Clinton County", "rent": 1170, "zip": "12981"}, "clinton-county-12985": {"city": "Clinton County", "rent": 1270, "zip": "12985"}, "clinton-county-12992": {"city": "Clinton County", "rent": 1220, "zip": "12992"}, "clinton-county-12997": {"city": "Clinton County", "rent": 1450, "zip": "12997"}, "columbia-county-12017": {"city": "Columbia County", "rent": 1590, "zip": "12017"}, "columbia-county-12024": {"city": "Columbia County", "rent": 1560, "zip": "12024"}, "columbia-county-12029": {"city": "Columbia County", "rent": 1680, "zip": "12029"}, "columbia-county-12037": {"city": "Columbia County", "rent": 1260, "zip": "12037"}, "columbia-county-12050": {"city": "Columbia County", "rent": 1430, "zip": "12050"}, "columbia-county-12060": {"city": "Columbia County", "rent": 2150, "zip": "12060"}, "columbia-county-12062": {"city": "Columbia County", "rent": 1450, "zip": "12062"}, "columbia-county-12075": {"city": "Columbia County", "rent": 1570, "zip": "12075"}, "columbia-county-12106": {"city": "Columbia County", "rent": 1490, "zip": "12106"}, "columbia-county-12115": {"city": "Columbia County", "rent": 1350, "zip": "12115"}, "columbia-county-12123": {"city": "Columbia County", "rent": 1370, "zip": "12123"}, "columbia-county-12125": {"city": "Columbia County", "rent": 1220, "zip": "12125"}, "columbia-county-12130": {"city": "Columbia County", "rent": 1330, "zip": "12130"}, "columbia-county-12132": {"city": "Columbia County", "rent": 1340, "zip": "12132"}, "columbia-county-12136": {"city": "Columbia County", "rent": 1680, "zip": "12136"}, "columbia-county-12156": {"city": "Columbia County", "rent": 1650, "zip": "12156"}, "columbia-county-12165": {"city": "Columbia County", "rent": 1260, "zip": "12165"}, "columbia-county-12168": {"city": "Columbia County", "rent": 1630, "zip": "12168"}, "columbia-county-12172": {"city": "Columbia County", "rent": 1290, "zip": "12172"}, "columbia-county-12173": {"city": "Columbia County", "rent": 1390, "zip": "12173"}, "columbia-county-12174": {"city": "Columbia County", "rent": 1420, "zip": "12174"}, "columbia-county-12184": {"city": "Columbia County", "rent": 1340, "zip": "12184"}, "columbia-county-12195": {"city": "Columbia County", "rent": 1610, "zip": "12195"}, "columbia-county-12502": {"city": "Columbia County", "rent": 1420, "zip": "12502"}, "columbia-county-12503": {"city": "Columbia County", "rent": 1620, "zip": "12503"}, "columbia-county-12513": {"city": "Columbia County", "rent": 1560, "zip": "12513"}, "columbia-county-12516": {"city": "Columbia County", "rent": 1340, "zip": "12516"}, "columbia-county-12517": {"city": "Columbia County", "rent": 1310, "zip": "12517"}, "columbia-county-12521": {"city": "Columbia County", "rent": 2040, "zip": "12521"}, "columbia-county-12523": {"city": "Columbia County", "rent": 1360, "zip": "12523"}, "columbia-county-12526": {"city": "Columbia County", "rent": 1580, "zip": "12526"}, "columbia-county-12529": {"city": "Columbia County", "rent": 1260, "zip": "12529"}, "columbia-county-12530": {"city": "Columbia County", "rent": 1790, "zip": "12530"}, "columbia-county-12534": {"city": "Columbia County", "rent": 1560, "zip": "12534"}, "columbia-county-12541": {"city": "Columbia County", "rent": 1430, "zip": "12541"}, "columbia-county-12544": {"city": "Columbia County", "rent": 1560, "zip": "12544"}, "columbia-county-12546": {"city": "Columbia County", "rent": 1720, "zip": "12546"}, "columbia-county-12565": {"city": "Columbia County", "rent": 1290, "zip": "12565"}, "columbia-county-12567": {"city": "Columbia County", "rent": 1910, "zip": "12567"}, "columbia-county-12571": {"city": "Columbia County", "rent": 1770, "zip": "12571"}, "columbia-county-12583": {"city": "Columbia County", "rent": 2160, "zip": "12583"}, "cortland-county-13040": {"city": "Cortland County", "rent": 1070, "zip": "13040"}, "cortland-county-13045": {"city": "Cortland County", "rent": 1540, "zip": "13045"}, "cortland-county-13052": {"city": "Cortland County", "rent": 1190, "zip": "13052"}, "cortland-county-13053": {"city": "Cortland County", "rent": 1540, "zip": "13053"}, "cortland-county-13073": {"city": "Cortland County", "rent": 1540, "zip": "13073"}, "cortland-county-13077": {"city": "Cortland County", "rent": 1380, "zip": "13077"}, "cortland-county-13087": {"city": "Cortland County", "rent": 1360, "zip": "13087"}, "cortland-county-13101": {"city": "Cortland County", "rent": 1130, "zip": "13101"}, "cortland-county-13136": {"city": "Cortland County", "rent": 1010, "zip": "13136"}, "cortland-county-13141": {"city": "Cortland County", "rent": 1300, "zip": "13141"}, "cortland-county-13158": {"city": "Cortland County", "rent": 1190, "zip": "13158"}, "cortland-county-13159": {"city": "Cortland County", "rent": 1500, "zip": "13159"}, "cortland-county-13738": {"city": "Cortland County", "rent": 1160, "zip": "13738"}, "cortland-county-13784": {"city": "Cortland County", "rent": 1500, "zip": "13784"}, "cortland-county-13803": {"city": "Cortland County", "rent": 1140, "zip": "13803"}, "cortland-county-13835": {"city": "Cortland County", "rent": 1170, "zip": "13835"}, "cortland-county-13841": {"city": "Cortland County", "rent": 1210, "zip": "13841"}, "cortland-county-13862": {"city": "Cortland County", "rent": 1070, "zip": "13862"}, "cortland-county-13863": {"city": "Cortland County", "rent": 1250, "zip": "13863"}, "delaware-county-12093": {"city": "Delaware County", "rent": 1340, "zip": "12093"}, "delaware-county-12155": {"city": "Delaware County", "rent": 1330, "zip": "12155"}, "delaware-county-12167": {"city": "Delaware County", "rent": 1340, "zip": "12167"}, "delaware-county-12406": {"city": "Delaware County", "rent": 1620, "zip": "12406"}, "delaware-county-12421": {"city": "Delaware County", "rent": 1030, "zip": "12421"}, "delaware-county-12430": {"city": "Delaware County", "rent": 1130, "zip": "12430"}, "delaware-county-12434": {"city": "Delaware County", "rent": 1340, "zip": "12434"}, "delaware-county-12438": {"city": "Delaware County", "rent": 1030, "zip": "12438"}, "delaware-county-12441": {"city": "Delaware County", "rent": 1620, "zip": "12441"}, "delaware-county-12455": {"city": "Delaware County", "rent": 1620, "zip": "12455"}, "delaware-county-12459": {"city": "Delaware County", "rent": 1030, "zip": "12459"}, "delaware-county-12465": {"city": "Delaware County", "rent": 1620, "zip": "12465"}, "delaware-county-12468": {"city": "Delaware County", "rent": 1130, "zip": "12468"}, "delaware-county-12474": {"city": "Delaware County", "rent": 970, "zip": "12474"}, "delaware-county-12758": {"city": "Delaware County", "rent": 1620, "zip": "12758"}, "delaware-county-12760": {"city": "Delaware County", "rent": 1290, "zip": "12760"}, "delaware-county-12776": {"city": "Delaware County", "rent": 1470, "zip": "12776"}, "delaware-county-13731": {"city": "Delaware County", "rent": 1620, "zip": "13731"}, "delaware-county-13733": {"city": "Delaware County", "rent": 1070, "zip": "13733"}, "delaware-county-13739": {"city": "Delaware County", "rent": 1520, "zip": "13739"}, "delaware-county-13740": {"city": "Delaware County", "rent": 1190, "zip": "13740"}, "delaware-county-13750": {"city": "Delaware County", "rent": 1070, "zip": "13750"}, "delaware-county-13751": {"city": "Delaware County", "rent": 980, "zip": "13751"}, "delaware-county-13752": {"city": "Delaware County", "rent": 1180, "zip": "13752"}, "delaware-county-13753": {"city": "Delaware County", "rent": 1220, "zip": "13753"}, "delaware-county-13754": {"city": "Delaware County", "rent": 1070, "zip": "13754"}, "delaware-county-13755": {"city": "Delaware County", "rent": 970, "zip": "13755"}, "delaware-county-13756": {"city": "Delaware County", "rent": 1120, "zip": "13756"}, "delaware-county-13757": {"city": "Delaware County", "rent": 1250, "zip": "13757"}, "delaware-county-13774": {"city": "Delaware County", "rent": 1030, "zip": "13774"}, "delaware-county-13775": {"city": "Delaware County", "rent": 1070, "zip": "13775"}, "delaware-county-13782": {"city": "Delaware County", "rent": 1010, "zip": "13782"}, "delaware-county-13783": {"city": "Delaware County", "rent": 1210, "zip": "13783"}, "delaware-county-13786": {"city": "Delaware County", "rent": 1020, "zip": "13786"}, "delaware-county-13788": {"city": "Delaware County", "rent": 970, "zip": "13788"}, "delaware-county-13804": {"city": "Delaware County", "rent": 1360, "zip": "13804"}, "delaware-county-13806": {"city": "Delaware County", "rent": 1250, "zip": "13806"}, "delaware-county-13820": {"city": "Delaware County", "rent": 1260, "zip": "13820"}, "delaware-county-13825": {"city": "Delaware County", "rent": 1110, "zip": "13825"}, "delaware-county-13838": {"city": "Delaware County", "rent": 1070, "zip": "13838"}, "delaware-county-13839": {"city": "Delaware County", "rent": 970, "zip": "13839"}, "delaware-county-13842": {"city": "Delaware County", "rent": 1220, "zip": "13842"}, "delaware-county-13846": {"city": "Delaware County", "rent": 1100, "zip": "13846"}, "delaware-county-13847": {"city": "Delaware County", "rent": 970, "zip": "13847"}, "delaware-county-13849": {"city": "Delaware County", "rent": 1130, "zip": "13849"}, "delaware-county-13856": {"city": "Delaware County", "rent": 970, "zip": "13856"}, "delaware-county-13860": {"city": "Delaware County", "rent": 1230, "zip": "13860"}, "essex-county-12836": {"city": "Essex County", "rent": 1350, "zip": "12836"}, "essex-county-12851": {"city": "Essex County", "rent": 1160, "zip": "12851"}, "essex-county-12852": {"city": "Essex County", "rent": 1190, "zip": "12852"}, "essex-county-12853": {"city": "Essex County", "rent": 1320, "zip": "12853"}, "essex-county-12855": {"city": "Essex County", "rent": 1190, "zip": "12855"}, "essex-county-12857": {"city": "Essex County", "rent": 1220, "zip": "12857"}, "essex-county-12858": {"city": "Essex County", "rent": 1220, "zip": "12858"}, "essex-county-12861": {"city": "Essex County", "rent": 1220, "zip": "12861"}, "essex-county-12870": {"city": "Essex County", "rent": 1260, "zip": "12870"}, "essex-county-12872": {"city": "Essex County", "rent": 1260, "zip": "12872"}, "essex-county-12879": {"city": "Essex County", "rent": 1190, "zip": "12879"}, "essex-county-12883": {"city": "Essex County", "rent": 1220, "zip": "12883"}, "essex-county-12911": {"city": "Essex County", "rent": 1380, "zip": "12911"}, "essex-county-12912": {"city": "Essex County", "rent": 1180, "zip": "12912"}, "essex-county-12913": {"city": "Essex County", "rent": 1160, "zip": "12913"}, "essex-county-12928": {"city": "Essex County", "rent": 1190, "zip": "12928"}, "essex-county-12932": {"city": "Essex County", "rent": 990, "zip": "12932"}, "essex-county-12936": {"city": "Essex County", "rent": 1750, "zip": "12936"}, "essex-county-12941": {"city": "Essex County", "rent": 1490, "zip": "12941"}, "essex-county-12942": {"city": "Essex County", "rent": 1780, "zip": "12942"}, "essex-county-12943": {"city": "Essex County", "rent": 1530, "zip": "12943"}, "essex-county-12944": {"city": "Essex County", "rent": 1380, "zip": "12944"}, "essex-county-12946": {"city": "Essex County", "rent": 1290, "zip": "12946"}, "essex-county-12950": {"city": "Essex County", "rent": 1470, "zip": "12950"}, "essex-county-12956": {"city": "Essex County", "rent": 1190, "zip": "12956"}, "essex-county-12960": {"city": "Essex County", "rent": 1190, "zip": "12960"}, "essex-county-12961": {"city": "Essex County", "rent": 1190, "zip": "12961"}, "essex-county-12964": {"city": "Essex County", "rent": 1190, "zip": "12964"}, "essex-county-12972": {"city": "Essex County", "rent": 1390, "zip": "12972"}, "essex-county-12974": {"city": "Essex County", "rent": 1100, "zip": "12974"}, "essex-county-12975": {"city": "Essex County", "rent": 1350, "zip": "12975"}, "essex-county-12977": {"city": "Essex County", "rent": 1170, "zip": "12977"}, "essex-county-12983": {"city": "Essex County", "rent": 1070, "zip": "12983"}, "essex-county-12987": {"city": "Essex County", "rent": 1550, "zip": "12987"}, "essex-county-12989": {"city": "Essex County", "rent": 1140, "zip": "12989"}, "essex-county-12993": {"city": "Essex County", "rent": 1180, "zip": "12993"}, "essex-county-12996": {"city": "Essex County", "rent": 1040, "zip": "12996"}, "essex-county-12997": {"city": "Essex County", "rent": 1450, "zip": "12997"}, "essex-county-12998": {"city": "Essex County", "rent": 1190, "zip": "12998"}, "franklin-county-12912": {"city": "Franklin County", "rent": 1180, "zip": "12912"}, "franklin-county-12913": {"city": "Franklin County", "rent": 1160, "zip": "12913"}, "franklin-county-12914": {"city": "Franklin County", "rent": 970, "zip": "12914"}, "franklin-county-12915": {"city": "Franklin County", "rent": 1210, "zip": "12915"}, "franklin-county-12916": {"city": "Franklin County", "rent": 970, "zip": "12916"}, "franklin-county-12917": {"city": "Franklin County", "rent": 1080, "zip": "12917"}, "franklin-county-12920": {"city": "Franklin County", "rent": 1210, "zip": "12920"}, "franklin-county-12926": {"city": "Franklin County", "rent": 1040, "zip": "12926"}, "franklin-county-12930": {"city": "Franklin County", "rent": 1310, "zip": "12930"}, "franklin-county-12937": {"city": "Franklin County", "rent": 1040, "zip": "12937"}, "franklin-county-12939": {"city": "Franklin County", "rent": 1040, "zip": "12939"}, "franklin-county-12945": {"city": "Franklin County", "rent": 1060, "zip": "12945"}, "franklin-county-12953": {"city": "Franklin County", "rent": 1070, "zip": "12953"}, "franklin-county-12955": {"city": "Franklin County", "rent": 1120, "zip": "12955"}, "franklin-county-12957": {"city": "Franklin County", "rent": 970, "zip": "12957"}, "franklin-county-12966": {"city": "Franklin County", "rent": 980, "zip": "12966"}, "franklin-county-12967": {"city": "Franklin County", "rent": 1110, "zip": "12967"}, "franklin-county-12969": {"city": "Franklin County", "rent": 1110, "zip": "12969"}, "franklin-county-12970": {"city": "Franklin County", "rent": 1020, "zip": "12970"}, "franklin-county-12976": {"city": "Franklin County", "rent": 1040, "zip": "12976"}, "franklin-county-12980": {"city": "Franklin County", "rent": 970, "zip": "12980"}, "franklin-county-12981": {"city": "Franklin County", "rent": 1170, "zip": "12981"}, "franklin-county-12983": {"city": "Franklin County", "rent": 1070, "zip": "12983"}, "franklin-county-12986": {"city": "Franklin County", "rent": 1010, "zip": "12986"}, "franklin-county-12989": {"city": "Franklin County", "rent": 1140, "zip": "12989"}, "franklin-county-12995": {"city": "Franklin County", "rent": 1040, "zip": "12995"}, "franklin-county-13655": {"city": "Franklin County", "rent": 1240, "zip": "13655"}, "franklin-county-13683": {"city": "Franklin County", "rent": 970, "zip": "13683"}, "fulton-county-12010": {"city": "Fulton County", "rent": 1340, "zip": "12010"}, "fulton-county-12025": {"city": "Fulton County", "rent": 1340, "zip": "12025"}, "fulton-county-12032": {"city": "Fulton County", "rent": 1200, "zip": "12032"}, "fulton-county-12068": {"city": "Fulton County", "rent": 1010, "zip": "12068"}, "fulton-county-12070": {"city": "Fulton County", "rent": 1060, "zip": "12070"}, "fulton-county-12078": {"city": "Fulton County", "rent": 1100, "zip": "12078"}, "fulton-county-12086": {"city": "Fulton County", "rent": 1340, "zip": "12086"}, "fulton-county-12095": {"city": "Fulton County", "rent": 1060, "zip": "12095"}, "fulton-county-12117": {"city": "Fulton County", "rent": 1110, "zip": "12117"}, "fulton-county-12134": {"city": "Fulton County", "rent": 1340, "zip": "12134"}, "fulton-county-13329": {"city": "Fulton County", "rent": 1050, "zip": "13329"}, "fulton-county-13339": {"city": "Fulton County", "rent": 1070, "zip": "13339"}, "fulton-county-13452": {"city": "Fulton County", "rent": 1020, "zip": "13452"}, "fulton-county-13454": {"city": "Fulton County", "rent": 1050, "zip": "13454"}, "fulton-county-13470": {"city": "Fulton County", "rent": 1050, "zip": "13470"}, "genesee-county-14001": {"city": "Genesee County", "rent": 1110, "zip": "14001"}, "genesee-county-14004": {"city": "Genesee County", "rent": 1100, "zip": "14004"}, "genesee-county-14005": {"city": "Genesee County", "rent": 1230, "zip": "14005"}, "genesee-county-14011": {"city": "Genesee County", "rent": 980, "zip": "14011"}, "genesee-county-14013": {"city": "Genesee County", "rent": 1200, "zip": "14013"}, "genesee-county-14020": {"city": "Genesee County", "rent": 1190, "zip": "14020"}, "genesee-county-14021": {"city": "Genesee County", "rent": 1170, "zip": "14021"}, "genesee-county-14036": {"city": "Genesee County", "rent": 1160, "zip": "14036"}, "genesee-county-14040": {"city": "Genesee County", "rent": 1090, "zip": "14040"}, "genesee-county-14054": {"city": "Genesee County", "rent": 1060, "zip": "14054"}, "genesee-county-14056": {"city": "Genesee County", "rent": 1160, "zip": "14056"}, "genesee-county-14058": {"city": "Genesee County", "rent": 1290, "zip": "14058"}, "genesee-county-14103": {"city": "Genesee County", "rent": 1320, "zip": "14103"}, "genesee-county-14105": {"city": "Genesee County", "rent": 1070, "zip": "14105"}, "genesee-county-14125": {"city": "Genesee County", "rent": 1290, "zip": "14125"}, "genesee-county-14143": {"city": "Genesee County", "rent": 1270, "zip": "14143"}, "genesee-county-14416": {"city": "Genesee County", "rent": 1290, "zip": "14416"}, "genesee-county-14422": {"city": "Genesee County", "rent": 1290, "zip": "14422"}, "genesee-county-14428": {"city": "Genesee County", "rent": 1640, "zip": "14428"}, "genesee-county-14482": {"city": "Genesee County", "rent": 1290, "zip": "14482"}, "genesee-county-14525": {"city": "Genesee County", "rent": 1290, "zip": "14525"}, "genesee-county-14557": {"city": "Genesee County", "rent": 1120, "zip": "14557"}, "genesee-county-14591": {"city": "Genesee County", "rent": 980, "zip": "14591"}, "greene-county-12015": {"city": "Greene County", "rent": 1410, "zip": "12015"}, "greene-county-12042": {"city": "Greene County", "rent": 1240, "zip": "12042"}, "greene-county-12046": {"city": "Greene County", "rent": 1520, "zip": "12046"}, "greene-county-12051": {"city": "Greene County", "rent": 1220, "zip": "12051"}, "greene-county-12058": {"city": "Greene County", "rent": 1280, "zip": "12058"}, "greene-county-12083": {"city": "Greene County", "rent": 1340, "zip": "12083"}, "greene-county-12087": {"city": "Greene County", "rent": 1400, "zip": "12087"}, "greene-county-12120": {"city": "Greene County", "rent": 1730, "zip": "12120"}, "greene-county-12124": {"city": "Greene County", "rent": 1490, "zip": "12124"}, "greene-county-12143": {"city": "Greene County", "rent": 1450, "zip": "12143"}, "greene-county-12176": {"city": "Greene County", "rent": 1170, "zip": "12176"}, "greene-county-12192": {"city": "Greene County", "rent": 1300, "zip": "12192"}, "greene-county-12405": {"city": "Greene County", "rent": 1370, "zip": "12405"}, "greene-county-12407": {"city": "Greene County", "rent": 1130, "zip": "12407"}, "greene-county-12413": {"city": "Greene County", "rent": 1730, "zip": "12413"}, "greene-county-12414": {"city": "Greene County", "rent": 1620, "zip": "12414"}, "greene-county-12418": {"city": "Greene County", "rent": 1540, "zip": "12418"}, "greene-county-12422": {"city": "Greene County", "rent": 1370, "zip": "12422"}, "greene-county-12423": {"city": "Greene County", "rent": 1230, "zip": "12423"}, "greene-county-12424": {"city": "Greene County", "rent": 1370, "zip": "12424"}, "greene-county-12427": {"city": "Greene County", "rent": 1660, "zip": "12427"}, "greene-county-12430": {"city": "Greene County", "rent": 1130, "zip": "12430"}, "greene-county-12431": {"city": "Greene County", "rent": 1130, "zip": "12431"}, "greene-county-12436": {"city": "Greene County", "rent": 1360, "zip": "12436"}, "greene-county-12439": {"city": "Greene County", "rent": 1370, "zip": "12439"}, "greene-county-12442": {"city": "Greene County", "rent": 1420, "zip": "12442"}, "greene-county-12444": {"city": "Greene County", "rent": 1370, "zip": "12444"}, "greene-county-12450": {"city": "Greene County", "rent": 1370, "zip": "12450"}, "greene-county-12451": {"city": "Greene County", "rent": 1440, "zip": "12451"}, "greene-county-12452": {"city": "Greene County", "rent": 1370, "zip": "12452"}, "greene-county-12454": {"city": "Greene County", "rent": 1370, "zip": "12454"}, "greene-county-12460": {"city": "Greene County", "rent": 1480, "zip": "12460"}, "greene-county-12463": {"city": "Greene County", "rent": 1620, "zip": "12463"}, "greene-county-12468": {"city": "Greene County", "rent": 1130, "zip": "12468"}, "greene-county-12469": {"city": "Greene County", "rent": 1590, "zip": "12469"}, "greene-county-12470": {"city": "Greene County", "rent": 1370, "zip": "12470"}, "greene-county-12473": {"city": "Greene County", "rent": 1510, "zip": "12473"}, "greene-county-12477": {"city": "Greene County", "rent": 1680, "zip": "12477"}, "greene-county-12480": {"city": "Greene County", "rent": 1640, "zip": "12480"}, "greene-county-12482": {"city": "Greene County", "rent": 1550, "zip": "12482"}, "greene-county-12485": {"city": "Greene County", "rent": 1390, "zip": "12485"}, "greene-county-12492": {"city": "Greene County", "rent": 1370, "zip": "12492"}, "greene-county-12496": {"city": "Greene County", "rent": 1370, "zip": "12496"}, "hamilton-county-12032": {"city": "Hamilton County", "rent": 1200, "zip": "12032"}, "hamilton-county-12108": {"city": "Hamilton County", "rent": 1430, "zip": "12108"}, "hamilton-county-12134": {"city": "Hamilton County", "rent": 1340, "zip": "12134"}, "hamilton-county-12139": {"city": "Hamilton County", "rent": 1430, "zip": "12139"}, "hamilton-county-12164": {"city": "Hamilton County", "rent": 1650, "zip": "12164"}, "hamilton-county-12190": {"city": "Hamilton County", "rent": 1200, "zip": "12190"}, "hamilton-county-12812": {"city": "Hamilton County", "rent": 1200, "zip": "12812"}, "hamilton-county-12842": {"city": "Hamilton County", "rent": 1200, "zip": "12842"}, "hamilton-county-12847": {"city": "Hamilton County", "rent": 1200, "zip": "12847"}, "hamilton-county-12864": {"city": "Hamilton County", "rent": 1200, "zip": "12864"}, "hamilton-county-13331": {"city": "Hamilton County", "rent": 1200, "zip": "13331"}, "hamilton-county-13353": {"city": "Hamilton County", "rent": 1430, "zip": "13353"}, "hamilton-county-13360": {"city": "Hamilton County", "rent": 1430, "zip": "13360"}, "hamilton-county-13436": {"city": "Hamilton County", "rent": 1430, "zip": "13436"}, "lewis-county-13305": {"city": "Lewis County", "rent": 1140, "zip": "13305"}, "lewis-county-13309": {"city": "Lewis County", "rent": 1050, "zip": "13309"}, "lewis-county-13312": {"city": "Lewis County", "rent": 1010, "zip": "13312"}, "lewis-county-13316": {"city": "Lewis County", "rent": 1190, "zip": "13316"}, "lewis-county-13325": {"city": "Lewis County", "rent": 1050, "zip": "13325"}, "lewis-county-13327": {"city": "Lewis County", "rent": 970, "zip": "13327"}, "lewis-county-13343": {"city": "Lewis County", "rent": 970, "zip": "13343"}, "lewis-county-13345": {"city": "Lewis County", "rent": 970, "zip": "13345"}, "lewis-county-13367": {"city": "Lewis County", "rent": 1050, "zip": "13367"}, "lewis-county-13368": {"city": "Lewis County", "rent": 970, "zip": "13368"}, "lewis-county-13404": {"city": "Lewis County", "rent": 1000, "zip": "13404"}, "lewis-county-13433": {"city": "Lewis County", "rent": 1040, "zip": "13433"}, "lewis-county-13437": {"city": "Lewis County", "rent": 1190, "zip": "13437"}, "lewis-county-13471": {"city": "Lewis County", "rent": 1360, "zip": "13471"}, "lewis-county-13473": {"city": "Lewis County", "rent": 1190, "zip": "13473"}, "lewis-county-13489": {"city": "Lewis County", "rent": 1120, "zip": "13489"}, "lewis-county-13493": {"city": "Lewis County", "rent": 1190, "zip": "13493"}, "lewis-county-13601": {"city": "Lewis County", "rent": 1290, "zip": "13601"}, "lewis-county-13619": {"city": "Lewis County", "rent": 1260, "zip": "13619"}, "lewis-county-13620": {"city": "Lewis County", "rent": 1140, "zip": "13620"}, "lewis-county-13626": {"city": "Lewis County", "rent": 1160, "zip": "13626"}, "lewis-county-13648": {"city": "Lewis County", "rent": 1140, "zip": "13648"}, "lewis-county-13665": {"city": "Lewis County", "rent": 1160, "zip": "13665"}, "lewis-county-13682": {"city": "Lewis County", "rent": 1510, "zip": "13682"}, "montgomery-county-12010": {"city": "Montgomery County", "rent": 1340, "zip": "12010"}, "montgomery-county-12053": {"city": "Montgomery County", "rent": 1340, "zip": "12053"}, "montgomery-county-12066": {"city": "Montgomery County", "rent": 1410, "zip": "12066"}, "montgomery-county-12068": {"city": "Montgomery County", "rent": 1010, "zip": "12068"}, "montgomery-county-12069": {"city": "Montgomery County", "rent": 1120, "zip": "12069"}, "montgomery-county-12070": {"city": "Montgomery County", "rent": 1060, "zip": "12070"}, "montgomery-county-12072": {"city": "Montgomery County", "rent": 1160, "zip": "12072"}, "montgomery-county-12086": {"city": "Montgomery County", "rent": 1340, "zip": "12086"}, "montgomery-county-12095": {"city": "Montgomery County", "rent": 1060, "zip": "12095"}, "montgomery-county-12137": {"city": "Montgomery County", "rent": 1340, "zip": "12137"}, "montgomery-county-12160": {"city": "Montgomery County", "rent": 1440, "zip": "12160"}, "montgomery-county-12166": {"city": "Montgomery County", "rent": 1340, "zip": "12166"}, "montgomery-county-12177": {"city": "Montgomery County", "rent": 1020, "zip": "12177"}, "montgomery-county-13317": {"city": "Montgomery County", "rent": 1070, "zip": "13317"}, "montgomery-county-13320": {"city": "Montgomery County", "rent": 1340, "zip": "13320"}, "montgomery-county-13339": {"city": "Montgomery County", "rent": 1070, "zip": "13339"}, "montgomery-county-13410": {"city": "Montgomery County", "rent": 970, "zip": "13410"}, "montgomery-county-13428": {"city": "Montgomery County", "rent": 970, "zip": "13428"}, "montgomery-county-13452": {"city": "Montgomery County", "rent": 1020, "zip": "13452"}, "montgomery-county-13459": {"city": "Montgomery County", "rent": 1440, "zip": "13459"}, "otsego-county-12036": {"city": "Otsego County", "rent": 1340, "zip": "12036"}, "otsego-county-12043": {"city": "Otsego County", "rent": 1340, "zip": "12043"}, "otsego-county-12064": {"city": "Otsego County", "rent": 1370, "zip": "12064"}, "otsego-county-12116": {"city": "Otsego County", "rent": 1300, "zip": "12116"}, "otsego-county-12149": {"city": "Otsego County", "rent": 1340, "zip": "12149"}, "otsego-county-12155": {"city": "Otsego County", "rent": 1330, "zip": "12155"}, "otsego-county-12197": {"city": "Otsego County", "rent": 1340, "zip": "12197"}, "otsego-county-13315": {"city": "Otsego County", "rent": 1190, "zip": "13315"}, "otsego-county-13317": {"city": "Otsego County", "rent": 1070, "zip": "13317"}, "otsego-county-13320": {"city": "Otsego County", "rent": 1340, "zip": "13320"}, "otsego-county-13326": {"city": "Otsego County", "rent": 1440, "zip": "13326"}, "otsego-county-13333": {"city": "Otsego County", "rent": 1320, "zip": "13333"}, "otsego-county-13335": {"city": "Otsego County", "rent": 1070, "zip": "13335"}, "otsego-county-13337": {"city": "Otsego County", "rent": 1560, "zip": "13337"}, "otsego-county-13342": {"city": "Otsego County", "rent": 1070, "zip": "13342"}, "otsego-county-13348": {"city": "Otsego County", "rent": 1140, "zip": "13348"}, "otsego-county-13361": {"city": "Otsego County", "rent": 1070, "zip": "13361"}, "otsego-county-13364": {"city": "Otsego County", "rent": 1190, "zip": "13364"}, "otsego-county-13411": {"city": "Otsego County", "rent": 1070, "zip": "13411"}, "otsego-county-13415": {"city": "Otsego County", "rent": 1070, "zip": "13415"}, "otsego-county-13439": {"city": "Otsego County", "rent": 1070, "zip": "13439"}, "otsego-county-13450": {"city": "Otsego County", "rent": 1270, "zip": "13450"}, "otsego-county-13457": {"city": "Otsego County", "rent": 1110, "zip": "13457"}, "otsego-county-13459": {"city": "Otsego County", "rent": 1440, "zip": "13459"}, "otsego-county-13468": {"city": "Otsego County", "rent": 1250, "zip": "13468"}, "otsego-county-13475": {"city": "Otsego County", "rent": 1070, "zip": "13475"}, "otsego-county-13482": {"city": "Otsego County", "rent": 1150, "zip": "13482"}, "otsego-county-13485": {"city": "Otsego County", "rent": 1210, "zip": "13485"}, "otsego-county-13488": {"city": "Otsego County", "rent": 1220, "zip": "13488"}, "otsego-county-13491": {"city": "Otsego County", "rent": 1190, "zip": "13491"}, "otsego-county-13733": {"city": "Otsego County", "rent": 1070, "zip": "13733"}, "otsego-county-13747": {"city": "Otsego County", "rent": 1230, "zip": "13747"}, "otsego-county-13750": {"city": "Otsego County", "rent": 1070, "zip": "13750"}, "otsego-county-13775": {"city": "Otsego County", "rent": 1070, "zip": "13775"}, "otsego-county-13776": {"city": "Otsego County", "rent": 1390, "zip": "13776"}, "otsego-county-13796": {"city": "Otsego County", "rent": 1220, "zip": "13796"}, "otsego-county-13807": {"city": "Otsego County", "rent": 1070, "zip": "13807"}, "otsego-county-13808": {"city": "Otsego County", "rent": 1070, "zip": "13808"}, "otsego-county-13809": {"city": "Otsego County", "rent": 1200, "zip": "13809"}, "otsego-county-13810": {"city": "Otsego County", "rent": 1070, "zip": "13810"}, "otsego-county-13820": {"city": "Otsego County", "rent": 1260, "zip": "13820"}, "otsego-county-13825": {"city": "Otsego County", "rent": 1110, "zip": "13825"}, "otsego-county-13834": {"city": "Otsego County", "rent": 1150, "zip": "13834"}, "otsego-county-13838": {"city": "Otsego County", "rent": 1070, "zip": "13838"}, "otsego-county-13843": {"city": "Otsego County", "rent": 1070, "zip": "13843"}, "otsego-county-13849": {"city": "Otsego County", "rent": 1130, "zip": "13849"}, "otsego-county-13859": {"city": "Otsego County", "rent": 1120, "zip": "13859"}, "otsego-county-13861": {"city": "Otsego County", "rent": 1190, "zip": "13861"}, "st.-lawrence-county-12914": {"city": "St. Lawrence County", "rent": 970, "zip": "12914"}, "st.-lawrence-county-12922": {"city": "St. Lawrence County", "rent": 1020, "zip": "12922"}, "st.-lawrence-county-12927": {"city": "St. Lawrence County", "rent": 1110, "zip": "12927"}, "st.-lawrence-county-12930": {"city": "St. Lawrence County", "rent": 1310, "zip": "12930"}, "st.-lawrence-county-12949": {"city": "St. Lawrence County", "rent": 1070, "zip": "12949"}, "st.-lawrence-county-12965": {"city": "St. Lawrence County", "rent": 1170, "zip": "12965"}, "st.-lawrence-county-12967": {"city": "St. Lawrence County", "rent": 1110, "zip": "12967"}, "st.-lawrence-county-12973": {"city": "St. Lawrence County", "rent": 1060, "zip": "12973"}, "st.-lawrence-county-12980": {"city": "St. Lawrence County", "rent": 970, "zip": "12980"}, "st.-lawrence-county-12986": {"city": "St. Lawrence County", "rent": 1010, "zip": "12986"}, "st.-lawrence-county-13608": {"city": "St. Lawrence County", "rent": 1160, "zip": "13608"}, "st.-lawrence-county-13613": {"city": "St. Lawrence County", "rent": 970, "zip": "13613"}, "st.-lawrence-county-13614": {"city": "St. Lawrence County", "rent": 970, "zip": "13614"}, "st.-lawrence-county-13617": {"city": "St. Lawrence County", "rent": 1240, "zip": "13617"}, "st.-lawrence-county-13621": {"city": "St. Lawrence County", "rent": 1050, "zip": "13621"}, "st.-lawrence-county-13623": {"city": "St. Lawrence County", "rent": 1140, "zip": "13623"}, "st.-lawrence-county-13625": {"city": "St. Lawrence County", "rent": 1180, "zip": "13625"}, "st.-lawrence-county-13630": {"city": "St. Lawrence County", "rent": 970, "zip": "13630"}, "st.-lawrence-county-13633": {"city": "St. Lawrence County", "rent": 1070, "zip": "13633"}, "st.-lawrence-county-13635": {"city": "St. Lawrence County", "rent": 1060, "zip": "13635"}, "st.-lawrence-county-13639": {"city": "St. Lawrence County", "rent": 1140, "zip": "13639"}, "st.-lawrence-county-13642": {"city": "St. Lawrence County", "rent": 1160, "zip": "13642"}, "st.-lawrence-county-13645": {"city": "St. Lawrence County", "rent": 1070, "zip": "13645"}, "st.-lawrence-county-13646": {"city": "St. Lawrence County", "rent": 1160, "zip": "13646"}, "st.-lawrence-county-13647": {"city": "St. Lawrence County", "rent": 1440, "zip": "13647"}, "st.-lawrence-county-13648": {"city": "St. Lawrence County", "rent": 1140, "zip": "13648"}, "st.-lawrence-county-13649": {"city": "St. Lawrence County", "rent": 970, "zip": "13649"}, "st.-lawrence-county-13652": {"city": "St. Lawrence County", "rent": 1120, "zip": "13652"}, "st.-lawrence-county-13654": {"city": "St. Lawrence County", "rent": 1070, "zip": "13654"}, "st.-lawrence-county-13658": {"city": "St. Lawrence County", "rent": 1150, "zip": "13658"}, "st.-lawrence-county-13660": {"city": "St. Lawrence County", "rent": 1040, "zip": "13660"}, "st.-lawrence-county-13662": {"city": "St. Lawrence County", "rent": 970, "zip": "13662"}, "st.-lawrence-county-13664": {"city": "St. Lawrence County", "rent": 1400, "zip": "13664"}, "st.-lawrence-county-13666": {"city": "St. Lawrence County", "rent": 1070, "zip": "13666"}, "st.-lawrence-county-13667": {"city": "St. Lawrence County", "rent": 1010, "zip": "13667"}, "st.-lawrence-county-13668": {"city": "St. Lawrence County", "rent": 1160, "zip": "13668"}, "st.-lawrence-county-13669": {"city": "St. Lawrence County", "rent": 1030, "zip": "13669"}, "st.-lawrence-county-13670": {"city": "St. Lawrence County", "rent": 1050, "zip": "13670"}, "st.-lawrence-county-13672": {"city": "St. Lawrence County", "rent": 1290, "zip": "13672"}, "st.-lawrence-county-13676": {"city": "St. Lawrence County", "rent": 1160, "zip": "13676"}, "st.-lawrence-county-13677": {"city": "St. Lawrence County", "rent": 1070, "zip": "13677"}, "st.-lawrence-county-13678": {"city": "St. Lawrence County", "rent": 970, "zip": "13678"}, "st.-lawrence-county-13679": {"city": "St. Lawrence County", "rent": 1160, "zip": "13679"}, "st.-lawrence-county-13680": {"city": "St. Lawrence County", "rent": 1030, "zip": "13680"}, "st.-lawrence-county-13681": {"city": "St. Lawrence County", "rent": 1220, "zip": "13681"}, "st.-lawrence-county-13683": {"city": "St. Lawrence County", "rent": 970, "zip": "13683"}, "st.-lawrence-county-13684": {"city": "St. Lawrence County", "rent": 1020, "zip": "13684"}, "st.-lawrence-county-13687": {"city": "St. Lawrence County", "rent": 1220, "zip": "13687"}, "st.-lawrence-county-13690": {"city": "St. Lawrence County", "rent": 990, "zip": "13690"}, "st.-lawrence-county-13691": {"city": "St. Lawrence County", "rent": 1160, "zip": "13691"}, "st.-lawrence-county-13694": {"city": "St. Lawrence County", "rent": 1430, "zip": "13694"}, "st.-lawrence-county-13695": {"city": "St. Lawrence County", "rent": 990, "zip": "13695"}, "st.-lawrence-county-13696": {"city": "St. Lawrence County", "rent": 1270, "zip": "13696"}, "st.-lawrence-county-13697": {"city": "St. Lawrence County", "rent": 1610, "zip": "13697"}, "st.-lawrence-county-13699": {"city": "St. Lawrence County", "rent": 1160, "zip": "13699"}, "schuyler-county-14805": {"city": "Schuyler County", "rent": 1370, "zip": "14805"}, "schuyler-county-14812": {"city": "Schuyler County", "rent": 1240, "zip": "14812"}, "schuyler-county-14815": {"city": "Schuyler County", "rent": 1010, "zip": "14815"}, "schuyler-county-14818": {"city": "Schuyler County", "rent": 1710, "zip": "14818"}, "schuyler-county-14824": {"city": "Schuyler County", "rent": 1580, "zip": "14824"}, "schuyler-county-14837": {"city": "Schuyler County", "rent": 1090, "zip": "14837"}, "schuyler-county-14838": {"city": "Schuyler County", "rent": 1160, "zip": "14838"}, "schuyler-county-14840": {"city": "Schuyler County", "rent": 970, "zip": "14840"}, "schuyler-county-14841": {"city": "Schuyler County", "rent": 1610, "zip": "14841"}, "schuyler-county-14845": {"city": "Schuyler County", "rent": 1430, "zip": "14845"}, "schuyler-county-14863": {"city": "Schuyler County", "rent": 1150, "zip": "14863"}, "schuyler-county-14864": {"city": "Schuyler County", "rent": 1530, "zip": "14864"}, "schuyler-county-14865": {"city": "Schuyler County", "rent": 1030, "zip": "14865"}, "schuyler-county-14867": {"city": "Schuyler County", "rent": 1540, "zip": "14867"}, "schuyler-county-14869": {"city": "Schuyler County", "rent": 1060, "zip": "14869"}, "schuyler-county-14870": {"city": "Schuyler County", "rent": 1380, "zip": "14870"}, "schuyler-county-14876": {"city": "Schuyler County", "rent": 1150, "zip": "14876"}, "schuyler-county-14878": {"city": "Schuyler County", "rent": 1080, "zip": "14878"}, "schuyler-county-14886": {"city": "Schuyler County", "rent": 1560, "zip": "14886"}, "schuyler-county-14887": {"city": "Schuyler County", "rent": 1150, "zip": "14887"}, "schuyler-county-14889": {"city": "Schuyler County", "rent": 1310, "zip": "14889"}, "schuyler-county-14891": {"city": "Schuyler County", "rent": 1080, "zip": "14891"}, "schuyler-county-14893": {"city": "Schuyler County", "rent": 1030, "zip": "14893"}, "seneca-county-13065": {"city": "Seneca County", "rent": 1230, "zip": "13065"}, "seneca-county-13146": {"city": "Seneca County", "rent": 1290, "zip": "13146"}, "seneca-county-13148": {"city": "Seneca County", "rent": 1290, "zip": "13148"}, "seneca-county-13165": {"city": "Seneca County", "rent": 1290, "zip": "13165"}, "seneca-county-14433": {"city": "Seneca County", "rent": 1290, "zip": "14433"}, "seneca-county-14456": {"city": "Seneca County", "rent": 1370, "zip": "14456"}, "seneca-county-14489": {"city": "Seneca County", "rent": 1400, "zip": "14489"}, "seneca-county-14521": {"city": "Seneca County", "rent": 1180, "zip": "14521"}, "seneca-county-14532": {"city": "Seneca County", "rent": 1290, "zip": "14532"}, "seneca-county-14541": {"city": "Seneca County", "rent": 1420, "zip": "14541"}, "seneca-county-14588": {"city": "Seneca County", "rent": 1170, "zip": "14588"}, "seneca-county-14841": {"city": "Seneca County", "rent": 1610, "zip": "14841"}, "seneca-county-14847": {"city": "Seneca County", "rent": 1260, "zip": "14847"}, "seneca-county-14860": {"city": "Seneca County", "rent": 1230, "zip": "14860"}, "seneca-county-14886": {"city": "Seneca County", "rent": 1560, "zip": "14886"}, "steuben-county-14418": {"city": "Steuben County", "rent": 1180, "zip": "14418"}, "steuben-county-14437": {"city": "Steuben County", "rent": 1310, "zip": "14437"}, "steuben-county-14512": {"city": "Steuben County", "rent": 1290, "zip": "14512"}, "steuben-county-14529": {"city": "Steuben County", "rent": 1130, "zip": "14529"}, "steuben-county-14572": {"city": "Steuben County", "rent": 1290, "zip": "14572"}, "steuben-county-14801": {"city": "Steuben County", "rent": 970, "zip": "14801"}, "steuben-county-14803": {"city": "Steuben County", "rent": 970, "zip": "14803"}, "steuben-county-14804": {"city": "Steuben County", "rent": 1110, "zip": "14804"}, "steuben-county-14806": {"city": "Steuben County", "rent": 970, "zip": "14806"}, "steuben-county-14807": {"city": "Steuben County", "rent": 1140, "zip": "14807"}, "steuben-county-14808": {"city": "Steuben County", "rent": 1070, "zip": "14808"}, "steuben-county-14809": {"city": "Steuben County", "rent": 990, "zip": "14809"}, "steuben-county-14810": {"city": "Steuben County", "rent": 970, "zip": "14810"}, "steuben-county-14812": {"city": "Steuben County", "rent": 1240, "zip": "14812"}, "steuben-county-14814": {"city": "Steuben County", "rent": 1450, "zip": "14814"}, "steuben-county-14815": {"city": "Steuben County", "rent": 1010, "zip": "14815"}, "steuben-county-14819": {"city": "Steuben County", "rent": 1620, "zip": "14819"}, "steuben-county-14820": {"city": "Steuben County", "rent": 1100, "zip": "14820"}, "steuben-county-14821": {"city": "Steuben County", "rent": 1200, "zip": "14821"}, "steuben-county-14823": {"city": "Steuben County", "rent": 970, "zip": "14823"}, "steuben-county-14826": {"city": "Steuben County", "rent": 1040, "zip": "14826"}, "steuben-county-14827": {"city": "Steuben County", "rent": 1180, "zip": "14827"}, "steuben-county-14830": {"city": "Steuben County", "rent": 1250, "zip": "14830"}, "steuben-county-14837": {"city": "Steuben County", "rent": 1090, "zip": "14837"}, "steuben-county-14839": {"city": "Steuben County", "rent": 970, "zip": "14839"}, "steuben-county-14840": {"city": "Steuben County", "rent": 970, "zip": "14840"}, "steuben-county-14843": {"city": "Steuben County", "rent": 970, "zip": "14843"}, "steuben-county-14855": {"city": "Steuben County", "rent": 970, "zip": "14855"}, "steuben-county-14856": {"city": "Steuben County", "rent": 1080, "zip": "14856"}, "steuben-county-14858": {"city": "Steuben County", "rent": 1300, "zip": "14858"}, "steuben-county-14870": {"city": "Steuben County", "rent": 1380, "zip": "14870"}, "steuben-county-14871": {"city": "Steuben County", "rent": 1350, "zip": "14871"}, "steuben-county-14873": {"city": "Steuben County", "rent": 1260, "zip": "14873"}, "steuben-county-14874": {"city": "Steuben County", "rent": 1200, "zip": "14874"}, "steuben-county-14877": {"city": "Steuben County", "rent": 1030, "zip": "14877"}, "steuben-county-14879": {"city": "Steuben County", "rent": 1050, "zip": "14879"}, "steuben-county-14885": {"city": "Steuben County", "rent": 1110, "zip": "14885"}, "steuben-county-14893": {"city": "Steuben County", "rent": 1030, "zip": "14893"}, "steuben-county-14897": {"city": "Steuben County", "rent": 970, "zip": "14897"}, "steuben-county-14898": {"city": "Steuben County", "rent": 970, "zip": "14898"}, "sullivan-county-10940": {"city": "Sullivan County", "rent": 2050, "zip": "10940"}, "sullivan-county-10963": {"city": "Sullivan County", "rent": 1720, "zip": "10963"}, "sullivan-county-12435": {"city": "Sullivan County", "rent": 1620, "zip": "12435"}, "sullivan-county-12458": {"city": "Sullivan County", "rent": 1620, "zip": "12458"}, "sullivan-county-12483": {"city": "Sullivan County", "rent": 1620, "zip": "12483"}, "sullivan-county-12566": {"city": "Sullivan County", "rent": 2000, "zip": "12566"}, "sullivan-county-12701": {"city": "Sullivan County", "rent": 1290, "zip": "12701"}, "sullivan-county-12719": {"city": "Sullivan County", "rent": 1320, "zip": "12719"}, "sullivan-county-12720": {"city": "Sullivan County", "rent": 1420, "zip": "12720"}, "sullivan-county-12721": {"city": "Sullivan County", "rent": 1720, "zip": "12721"}, "sullivan-county-12722": {"city": "Sullivan County", "rent": 1740, "zip": "12722"}, "sullivan-county-12723": {"city": "Sullivan County", "rent": 1300, "zip": "12723"}, "sullivan-county-12724": {"city": "Sullivan County", "rent": 1340, "zip": "12724"}, "sullivan-county-12725": {"city": "Sullivan County", "rent": 1730, "zip": "12725"}, "sullivan-county-12726": {"city": "Sullivan County", "rent": 1560, "zip": "12726"}, "sullivan-county-12729": {"city": "Sullivan County", "rent": 1780, "zip": "12729"}, "sullivan-county-12732": {"city": "Sullivan County", "rent": 1300, "zip": "12732"}, "sullivan-county-12733": {"city": "Sullivan County", "rent": 1950, "zip": "12733"}, "sullivan-county-12734": {"city": "Sullivan County", "rent": 1350, "zip": "12734"}, "sullivan-county-12736": {"city": "Sullivan County", "rent": 1300, "zip": "12736"}, "sullivan-county-12737": {"city": "Sullivan County", "rent": 1310, "zip": "12737"}, "sullivan-county-12738": {"city": "Sullivan County", "rent": 1480, "zip": "12738"}, "sullivan-county-12740": {"city": "Sullivan County", "rent": 1620, "zip": "12740"}, "sullivan-county-12741": {"city": "Sullivan County", "rent": 1420, "zip": "12741"}, "sullivan-county-12742": {"city": "Sullivan County", "rent": 1290, "zip": "12742"}, "sullivan-county-12743": {"city": "Sullivan County", "rent": 1540, "zip": "12743"}, "sullivan-county-12745": {"city": "Sullivan County", "rent": 1300, "zip": "12745"}, "sullivan-county-12747": {"city": "Sullivan County", "rent": 1150, "zip": "12747"}, "sullivan-county-12748": {"city": "Sullivan County", "rent": 1250, "zip": "12748"}, "sullivan-county-12749": {"city": "Sullivan County", "rent": 1300, "zip": "12749"}, "sullivan-county-12750": {"city": "Sullivan County", "rent": 1440, "zip": "12750"}, "sullivan-county-12751": {"city": "Sullivan County", "rent": 1690, "zip": "12751"}, "sullivan-county-12752": {"city": "Sullivan County", "rent": 1110, "zip": "12752"}, "sullivan-county-12754": {"city": "Sullivan County", "rent": 1520, "zip": "12754"}, "sullivan-county-12758": {"city": "Sullivan County", "rent": 1620, "zip": "12758"}, "sullivan-county-12759": {"city": "Sullivan County", "rent": 1280, "zip": "12759"}, "sullivan-county-12760": {"city": "Sullivan County", "rent": 1290, "zip": "12760"}, "sullivan-county-12762": {"city": "Sullivan County", "rent": 1360, "zip": "12762"}, "sullivan-county-12763": {"city": "Sullivan County", "rent": 1950, "zip": "12763"}, "sullivan-county-12764": {"city": "Sullivan County", "rent": 1110, "zip": "12764"}, "sullivan-county-12765": {"city": "Sullivan County", "rent": 1180, "zip": "12765"}, "sullivan-county-12766": {"city": "Sullivan County", "rent": 1300, "zip": "12766"}, "sullivan-county-12767": {"city": "Sullivan County", "rent": 1300, "zip": "12767"}, "sullivan-county-12768": {"city": "Sullivan County", "rent": 1170, "zip": "12768"}, "sullivan-county-12769": {"city": "Sullivan County", "rent": 1760, "zip": "12769"}, "sullivan-county-12770": {"city": "Sullivan County", "rent": 1320, "zip": "12770"}, "sullivan-county-12775": {"city": "Sullivan County", "rent": 1910, "zip": "12775"}, "sullivan-county-12776": {"city": "Sullivan County", "rent": 1470, "zip": "12776"}, "sullivan-county-12777": {"city": "Sullivan County", "rent": 1430, "zip": "12777"}, "sullivan-county-12778": {"city": "Sullivan County", "rent": 1300, "zip": "12778"}, "sullivan-county-12779": {"city": "Sullivan County", "rent": 1120, "zip": "12779"}, "sullivan-county-12780": {"city": "Sullivan County", "rent": 1720, "zip": "12780"}, "sullivan-county-12781": {"city": "Sullivan County", "rent": 1670, "zip": "12781"}, "sullivan-county-12783": {"city": "Sullivan County", "rent": 1550, "zip": "12783"}, "sullivan-county-12784": {"city": "Sullivan County", "rent": 1210, "zip": "12784"}, "sullivan-county-12785": {"city": "Sullivan County", "rent": 1720, "zip": "12785"}, "sullivan-county-12786": {"city": "Sullivan County", "rent": 1350, "zip": "12786"}, "sullivan-county-12787": {"city": "Sullivan County", "rent": 1380, "zip": "12787"}, "sullivan-county-12788": {"city": "Sullivan County", "rent": 1110, "zip": "12788"}, "sullivan-county-12789": {"city": "Sullivan County", "rent": 1620, "zip": "12789"}, "sullivan-county-12790": {"city": "Sullivan County", "rent": 1670, "zip": "12790"}, "sullivan-county-12791": {"city": "Sullivan County", "rent": 1190, "zip": "12791"}, "sullivan-county-12792": {"city": "Sullivan County", "rent": 1130, "zip": "12792"}, "wyoming-county-14004": {"city": "Wyoming County", "rent": 1100, "zip": "14004"}, "wyoming-county-14009": {"city": "Wyoming County", "rent": 1090, "zip": "14009"}, "wyoming-county-14011": {"city": "Wyoming County", "rent": 980, "zip": "14011"}, "wyoming-county-14024": {"city": "Wyoming County", "rent": 970, "zip": "14024"}, "wyoming-county-14030": {"city": "Wyoming County", "rent": 1040, "zip": "14030"}, "wyoming-county-14037": {"city": "Wyoming County", "rent": 1120, "zip": "14037"}, "wyoming-county-14039": {"city": "Wyoming County", "rent": 1010, "zip": "14039"}, "wyoming-county-14040": {"city": "Wyoming County", "rent": 1090, "zip": "14040"}, "wyoming-county-14052": {"city": "Wyoming County", "rent": 1260, "zip": "14052"}, "wyoming-county-14054": {"city": "Wyoming County", "rent": 1060, "zip": "14054"}, "wyoming-county-14066": {"city": "Wyoming County", "rent": 970, "zip": "14066"}, "wyoming-county-14082": {"city": "Wyoming County", "rent": 1060, "zip": "14082"}, "wyoming-county-14083": {"city": "Wyoming County", "rent": 1020, "zip": "14083"}, "wyoming-county-14113": {"city": "Wyoming County", "rent": 1130, "zip": "14113"}, "wyoming-county-14130": {"city": "Wyoming County", "rent": 990, "zip": "14130"}, "wyoming-county-14145": {"city": "Wyoming County", "rent": 970, "zip": "14145"}, "wyoming-county-14167": {"city": "Wyoming County", "rent": 970, "zip": "14167"}, "wyoming-county-14427": {"city": "Wyoming County", "rent": 970, "zip": "14427"}, "wyoming-county-14481": {"city": "Wyoming County", "rent": 1340, "zip": "14481"}, "wyoming-county-14525": {"city": "Wyoming County", "rent": 1290, "zip": "14525"}, "wyoming-county-14530": {"city": "Wyoming County", "rent": 1290, "zip": "14530"}, "wyoming-county-14533": {"city": "Wyoming County", "rent": 1290, "zip": "14533"}, "wyoming-county-14536": {"city": "Wyoming County", "rent": 1100, "zip": "14536"}, "wyoming-county-14549": {"city": "Wyoming County", "rent": 970, "zip": "14549"}, "wyoming-county-14550": {"city": "Wyoming County", "rent": 970, "zip": "14550"}, "wyoming-county-14569": {"city": "Wyoming County", "rent": 970, "zip": "14569"}, "wyoming-county-14591": {"city": "Wyoming County", "rent": 980, "zip": "14591"}, "wyoming-county-14735": {"city": "Wyoming County", "rent": 1000, "zip": "14735"}, "yates-county-14415": {"city": "Yates County", "rent": 1650, "zip": "14415"}, "yates-county-14418": {"city": "Yates County", "rent": 1180, "zip": "14418"}, "yates-county-14441": {"city": "Yates County", "rent": 1180, "zip": "14441"}, "yates-county-14456": {"city": "Yates County", "rent": 1370, "zip": "14456"}, "yates-county-14478": {"city": "Yates County", "rent": 1310, "zip": "14478"}, "yates-county-14507": {"city": "Yates County", "rent": 1440, "zip": "14507"}, "yates-county-14512": {"city": "Yates County", "rent": 1290, "zip": "14512"}, "yates-county-14527": {"city": "Yates County", "rent": 1030, "zip": "14527"}, "yates-county-14544": {"city": "Yates County", "rent": 1780, "zip": "14544"}, "yates-county-14561": {"city": "Yates County", "rent": 1460, "zip": "14561"}, "yates-county-14837": {"city": "Yates County", "rent": 1090, "zip": "14837"}, "yates-county-14842": {"city": "Yates County", "rent": 1060, "zip": "14842"}, "yates-county-14857": {"city": "Yates County", "rent": 1100, "zip": "14857"}, "yates-county-14873": {"city": "Yates County", "rent": 1260, "zip": "14873"}, "yates-county-14878": {"city": "Yates County", "rent": 1080, "zip": "14878"}}