{"albuquerque-87001": {"city": "Albuquerque", "rent": 1200, "zip": "87001"}, "albuquerque-87002": {"city": "Albuquerque", "rent": 1200, "zip": "87002"}, "albuquerque-87004": {"city": "Albuquerque", "rent": 1370, "zip": "87004"}, "albuquerque-87006": {"city": "Albuquerque", "rent": 1200, "zip": "87006"}, "albuquerque-87008": {"city": "Albuquerque", "rent": 1780, "zip": "87008"}, "albuquerque-87009": {"city": "Albuquerque", "rent": 1200, "zip": "87009"}, "albuquerque-87013": {"city": "Albuquerque", "rent": 1430, "zip": "87013"}, "albuquerque-87014": {"city": "Albuquerque", "rent": 1210, "zip": "87014"}, "albuquerque-87015": {"city": "Albuquerque", "rent": 1520, "zip": "87015"}, "albuquerque-87016": {"city": "Albuquerque", "rent": 1200, "zip": "87016"}, "albuquerque-87018": {"city": "Albuquerque", "rent": 1320, "zip": "87018"}, "albuquerque-87022": {"city": "Albuquerque", "rent": 1270, "zip": "87022"}, "albuquerque-87023": {"city": "Albuquerque", "rent": 1200, "zip": "87023"}, "albuquerque-87024": {"city": "Albuquerque", "rent": 1350, "zip": "87024"}, "albuquerque-87025": {"city": "Albuquerque", "rent": 1660, "zip": "87025"}, "albuquerque-87026": {"city": "Albuquerque", "rent": 1530, "zip": "87026"}, "albuquerque-87027": {"city": "Albuquerque", "rent": 1430, "zip": "87027"}, "albuquerque-87031": {"city": "Albuquerque", "rent": 1530, "zip": "87031"}, "albuquerque-87032": {"city": "Albuquerque", "rent": 1200, "zip": "87032"}, "albuquerque-87035": {"city": "Albuquerque", "rent": 1470, "zip": "87035"}, "albuquerque-87036": {"city": "Albuquerque", "rent": 1200, "zip": "87036"}, "albuquerque-87041": {"city": "Albuquerque", "rent": 1210, "zip": "87041"}, "albuquerque-87042": {"city": "Albuquerque", "rent": 1350, "zip": "87042"}, "albuquerque-87043": {"city": "Albuquerque", "rent": 2020, "zip": "87043"}, "albuquerque-87044": {"city": "Albuquerque", "rent": 1590, "zip": "87044"}, "albuquerque-87046": {"city": "Albuquerque", "rent": 1260, "zip": "87046"}, "albuquerque-87047": {"city": "Albuquerque", "rent": 1620, "zip": "87047"}, "albuquerque-87048": {"city": "Albuquerque", "rent": 1680, "zip": "87048"}, "albuquerque-87052": {"city": "Albuquerque", "rent": 1200, "zip": "87052"}, "albuquerque-87053": {"city": "Albuquerque", "rent": 1350, "zip": "87053"}, "albuquerque-87059": {"city": "Albuquerque", "rent": 1350, "zip": "87059"}, "albuquerque-87060": {"city": "Albuquerque", "rent": 1530, "zip": "87060"}, "albuquerque-87061": {"city": "Albuquerque", "rent": 1200, "zip": "87061"}, "albuquerque-87062": {"city": "Albuquerque", "rent": 1200, "zip": "87062"}, "albuquerque-87063": {"city": "Albuquerque", "rent": 1200, "zip": "87063"}, "albuquerque-87068": {"city": "Albuquerque", "rent": 1200, "zip": "87068"}, "albuquerque-87070": {"city": "Albuquerque", "rent": 1200, "zip": "87070"}, "albuquerque-87072": {"city": "Albuquerque", "rent": 1460, "zip": "87072"}, "albuquerque-87083": {"city": "Albuquerque", "rent": 1910, "zip": "87083"}, "albuquerque-87101": {"city": "Albuquerque", "rent": 1440, "zip": "87101"}, "albuquerque-87102": {"city": "Albuquerque", "rent": 1360, "zip": "87102"}, "albuquerque-87103": {"city": "Albuquerque", "rent": 1440, "zip": "87103"}, "albuquerque-87104": {"city": "Albuquerque", "rent": 1410, "zip": "87104"}, "albuquerque-87105": {"city": "Albuquerque", "rent": 1270, "zip": "87105"}, "albuquerque-87106": {"city": "Albuquerque", "rent": 1390, "zip": "87106"}, "albuquerque-87107": {"city": "Albuquerque", "rent": 1230, "zip": "87107"}, "albuquerque-87108": {"city": "Albuquerque", "rent": 1230, "zip": "87108"}, "albuquerque-87109": {"city": "Albuquerque", "rent": 1590, "zip": "87109"}, "albuquerque-87110": {"city": "Albuquerque", "rent": 1560, "zip": "87110"}, "albuquerque-87111": {"city": "Albuquerque", "rent": 1840, "zip": "87111"}, "albuquerque-87112": {"city": "Albuquerque", "rent": 1420, "zip": "87112"}, "albuquerque-87113": {"city": "Albuquerque", "rent": 2040, "zip": "87113"}, "albuquerque-87114": {"city": "Albuquerque", "rent": 1660, "zip": "87114"}, "albuquerque-87115": {"city": "Albuquerque", "rent": 1440, "zip": "87115"}, "albuquerque-87116": {"city": "Albuquerque", "rent": 2200, "zip": "87116"}, "albuquerque-87117": {"city": "Albuquerque", "rent": 1500, "zip": "87117"}, "albuquerque-87119": {"city": "Albuquerque", "rent": 1440, "zip": "87119"}, "albuquerque-87120": {"city": "Albuquerque", "rent": 1660, "zip": "87120"}, "albuquerque-87121": {"city": "Albuquerque", "rent": 1730, "zip": "87121"}, "albuquerque-87122": {"city": "Albuquerque", "rent": 2200, "zip": "87122"}, "albuquerque-87123": {"city": "Albuquerque", "rent": 1330, "zip": "87123"}, "albuquerque-87124": {"city": "Albuquerque", "rent": 1750, "zip": "87124"}, "albuquerque-87125": {"city": "Albuquerque", "rent": 1440, "zip": "87125"}, "albuquerque-87144": {"city": "Albuquerque", "rent": 2050, "zip": "87144"}, "albuquerque-87151": {"city": "Albuquerque", "rent": 1730, "zip": "87151"}, "albuquerque-87153": {"city": "Albuquerque", "rent": 1440, "zip": "87153"}, "albuquerque-87154": {"city": "Albuquerque", "rent": 1440, "zip": "87154"}, "albuquerque-87174": {"city": "Albuquerque", "rent": 1790, "zip": "87174"}, "albuquerque-87176": {"city": "Albuquerque", "rent": 1440, "zip": "87176"}, "albuquerque-87181": {"city": "Albuquerque", "rent": 1440, "zip": "87181"}, "albuquerque-87184": {"city": "Albuquerque", "rent": 1440, "zip": "87184"}, "albuquerque-87185": {"city": "Albuquerque", "rent": 1440, "zip": "87185"}, "albuquerque-87187": {"city": "Albuquerque", "rent": 1440, "zip": "87187"}, "albuquerque-87190": {"city": "Albuquerque", "rent": 1440, "zip": "87190"}, "albuquerque-87191": {"city": "Albuquerque", "rent": 1440, "zip": "87191"}, "albuquerque-87192": {"city": "Albuquerque", "rent": 1440, "zip": "87192"}, "albuquerque-87193": {"city": "Albuquerque", "rent": 1440, "zip": "87193"}, "albuquerque-87194": {"city": "Albuquerque", "rent": 1440, "zip": "87194"}, "albuquerque-87195": {"city": "Albuquerque", "rent": 1440, "zip": "87195"}, "albuquerque-87196": {"city": "Albuquerque", "rent": 1440, "zip": "87196"}, "albuquerque-87197": {"city": "Albuquerque", "rent": 1440, "zip": "87197"}, "albuquerque-87198": {"city": "Albuquerque", "rent": 1440, "zip": "87198"}, "albuquerque-87199": {"city": "Albuquerque", "rent": 1440, "zip": "87199"}, "albuquerque-87528": {"city": "Albuquerque", "rent": 1200, "zip": "87528"}, "albuquerque-87544": {"city": "Albuquerque", "rent": 1730, "zip": "87544"}, "albuquerque-88318": {"city": "Albuquerque", "rent": 1200, "zip": "88318"}, "albuquerque-88321": {"city": "Albuquerque", "rent": 1200, "zip": "88321"}, "farmington-81137": {"city": "Farmington", "rent": 1440, "zip": "81137"}, "farmington-86514": {"city": "Farmington", "rent": 1370, "zip": "86514"}, "farmington-87037": {"city": "Farmington", "rent": 1100, "zip": "87037"}, "farmington-87313": {"city": "Farmington", "rent": 970, "zip": "87313"}, "farmington-87325": {"city": "Farmington", "rent": 1050, "zip": "87325"}, "farmington-87328": {"city": "Farmington", "rent": 1050, "zip": "87328"}, "farmington-87364": {"city": "Farmington", "rent": 970, "zip": "87364"}, "farmington-87401": {"city": "Farmington", "rent": 1150, "zip": "87401"}, "farmington-87402": {"city": "Farmington", "rent": 1200, "zip": "87402"}, "farmington-87410": {"city": "Farmington", "rent": 1030, "zip": "87410"}, "farmington-87412": {"city": "Farmington", "rent": 1020, "zip": "87412"}, "farmington-87413": {"city": "Farmington", "rent": 1020, "zip": "87413"}, "farmington-87415": {"city": "Farmington", "rent": 1630, "zip": "87415"}, "farmington-87416": {"city": "Farmington", "rent": 1230, "zip": "87416"}, "farmington-87417": {"city": "Farmington", "rent": 970, "zip": "87417"}, "farmington-87418": {"city": "Farmington", "rent": 1150, "zip": "87418"}, "farmington-87419": {"city": "Farmington", "rent": 1180, "zip": "87419"}, "farmington-87420": {"city": "Farmington", "rent": 970, "zip": "87420"}, "farmington-87421": {"city": "Farmington", "rent": 1170, "zip": "87421"}, "farmington-87455": {"city": "Farmington", "rent": 970, "zip": "87455"}, "farmington-87461": {"city": "Farmington", "rent": 970, "zip": "87461"}, "farmington-87499": {"city": "Farmington", "rent": 1050, "zip": "87499"}, "las-cruces-79835": {"city": "Las Cruces", "rent": 1100, "zip": "79835"}, "las-cruces-79922": {"city": "Las Cruces", "rent": 1550, "zip": "79922"}, "las-cruces-87936": {"city": "Las Cruces", "rent": 1040, "zip": "87936"}, "las-cruces-87937": {"city": "Las Cruces", "rent": 970, "zip": "87937"}, "las-cruces-87940": {"city": "Las Cruces", "rent": 1060, "zip": "87940"}, "las-cruces-87941": {"city": "Las Cruces", "rent": 1040, "zip": "87941"}, "las-cruces-88001": {"city": "Las Cruces", "rent": 1090, "zip": "88001"}, "las-cruces-88002": {"city": "Las Cruces", "rent": 1480, "zip": "88002"}, "las-cruces-88003": {"city": "Las Cruces", "rent": 1090, "zip": "88003"}, "las-cruces-88004": {"city": "Las Cruces", "rent": 1040, "zip": "88004"}, "las-cruces-88005": {"city": "Las Cruces", "rent": 1040, "zip": "88005"}, "las-cruces-88007": {"city": "Las Cruces", "rent": 970, "zip": "88007"}, "las-cruces-88008": {"city": "Las Cruces", "rent": 1190, "zip": "88008"}, "las-cruces-88011": {"city": "Las Cruces", "rent": 1170, "zip": "88011"}, "las-cruces-88012": {"city": "Las Cruces", "rent": 1380, "zip": "88012"}, "las-cruces-88013": {"city": "Las Cruces", "rent": 1040, "zip": "88013"}, "las-cruces-88021": {"city": "Las Cruces", "rent": 970, "zip": "88021"}, "las-cruces-88024": {"city": "Las Cruces", "rent": 970, "zip": "88024"}, "las-cruces-88027": {"city": "Las Cruces", "rent": 970, "zip": "88027"}, "las-cruces-88032": {"city": "Las Cruces", "rent": 1040, "zip": "88032"}, "las-cruces-88033": {"city": "Las Cruces", "rent": 1040, "zip": "88033"}, "las-cruces-88044": {"city": "Las Cruces", "rent": 1000, "zip": "88044"}, "las-cruces-88046": {"city": "Las Cruces", "rent": 1120, "zip": "88046"}, "las-cruces-88047": {"city": "Las Cruces", "rent": 1070, "zip": "88047"}, "las-cruces-88048": {"city": "Las Cruces", "rent": 970, "zip": "88048"}, "las-cruces-88052": {"city": "Las Cruces", "rent": 1240, "zip": "88052"}, "las-cruces-88063": {"city": "Las Cruces", "rent": 970, "zip": "88063"}, "las-cruces-88072": {"city": "Las Cruces", "rent": 970, "zip": "88072"}, "las-cruces-88081": {"city": "Las Cruces", "rent": 970, "zip": "88081"}, "santa-fe-87010": {"city": "Santa Fe", "rent": 1660, "zip": "87010"}, "santa-fe-87015": {"city": "Santa Fe", "rent": 1520, "zip": "87015"}, "santa-fe-87035": {"city": "Santa Fe", "rent": 1470, "zip": "87035"}, "santa-fe-87047": {"city": "Santa Fe", "rent": 1620, "zip": "87047"}, "santa-fe-87056": {"city": "Santa Fe", "rent": 1470, "zip": "87056"}, "santa-fe-87501": {"city": "Santa Fe", "rent": 1930, "zip": "87501"}, "santa-fe-87502": {"city": "Santa Fe", "rent": 1690, "zip": "87502"}, "santa-fe-87504": {"city": "Santa Fe", "rent": 1690, "zip": "87504"}, "santa-fe-87505": {"city": "Santa Fe", "rent": 1750, "zip": "87505"}, "santa-fe-87506": {"city": "Santa Fe", "rent": 1500, "zip": "87506"}, "santa-fe-87507": {"city": "Santa Fe", "rent": 1590, "zip": "87507"}, "santa-fe-87508": {"city": "Santa Fe", "rent": 2050, "zip": "87508"}, "santa-fe-87522": {"city": "Santa Fe", "rent": 1470, "zip": "87522"}, "santa-fe-87532": {"city": "Santa Fe", "rent": 1470, "zip": "87532"}, "santa-fe-87535": {"city": "Santa Fe", "rent": 1580, "zip": "87535"}, "santa-fe-87540": {"city": "Santa Fe", "rent": 1910, "zip": "87540"}, "santa-fe-87552": {"city": "Santa Fe", "rent": 1470, "zip": "87552"}, "santa-fe-87567": {"city": "Santa Fe", "rent": 1470, "zip": "87567"}, "santa-fe-87573": {"city": "Santa Fe", "rent": 1720, "zip": "87573"}, "santa-fe-87574": {"city": "Santa Fe", "rent": 1690, "zip": "87574"}, "santa-fe-87592": {"city": "Santa Fe", "rent": 1690, "zip": "87592"}, "santa-fe-87594": {"city": "Santa Fe", "rent": 1690, "zip": "87594"}, "catron-county-87820": {"city": "Catron County", "rent": 1040, "zip": "87820"}, "catron-county-87821": {"city": "Catron County", "rent": 1040, "zip": "87821"}, "catron-county-87824": {"city": "Catron County", "rent": 1040, "zip": "87824"}, "catron-county-87825": {"city": "Catron County", "rent": 970, "zip": "87825"}, "catron-county-87827": {"city": "Catron County", "rent": 1040, "zip": "87827"}, "catron-county-87829": {"city": "Catron County", "rent": 1040, "zip": "87829"}, "catron-county-87830": {"city": "Catron County", "rent": 970, "zip": "87830"}, "catron-county-88039": {"city": "Catron County", "rent": 1040, "zip": "88039"}, "chaves-county-88116": {"city": "Chaves County", "rent": 1010, "zip": "88116"}, "chaves-county-88136": {"city": "Chaves County", "rent": 1130, "zip": "88136"}, "chaves-county-88201": {"city": "Chaves County", "rent": 1180, "zip": "88201"}, "chaves-county-88202": {"city": "Chaves County", "rent": 1070, "zip": "88202"}, "chaves-county-88203": {"city": "Chaves County", "rent": 1020, "zip": "88203"}, "chaves-county-88230": {"city": "Chaves County", "rent": 1010, "zip": "88230"}, "chaves-county-88232": {"city": "Chaves County", "rent": 970, "zip": "88232"}, "chaves-county-88250": {"city": "Chaves County", "rent": 1120, "zip": "88250"}, "chaves-county-88253": {"city": "Chaves County", "rent": 1180, "zip": "88253"}, "chaves-county-88267": {"city": "Chaves County", "rent": 1150, "zip": "88267"}, "chaves-county-88339": {"city": "Chaves County", "rent": 970, "zip": "88339"}, "chaves-county-88344": {"city": "Chaves County", "rent": 1050, "zip": "88344"}, "cibola-county-87005": {"city": "Cibola County", "rent": 1010, "zip": "87005"}, "cibola-county-87007": {"city": "Cibola County", "rent": 990, "zip": "87007"}, "cibola-county-87014": {"city": "Cibola County", "rent": 1210, "zip": "87014"}, "cibola-county-87020": {"city": "Cibola County", "rent": 1020, "zip": "87020"}, "cibola-county-87021": {"city": "Cibola County", "rent": 1010, "zip": "87021"}, "cibola-county-87026": {"city": "Cibola County", "rent": 1530, "zip": "87026"}, "cibola-county-87034": {"city": "Cibola County", "rent": 990, "zip": "87034"}, "cibola-county-87038": {"city": "Cibola County", "rent": 990, "zip": "87038"}, "cibola-county-87040": {"city": "Cibola County", "rent": 990, "zip": "87040"}, "cibola-county-87045": {"city": "Cibola County", "rent": 980, "zip": "87045"}, "cibola-county-87049": {"city": "Cibola County", "rent": 990, "zip": "87049"}, "cibola-county-87051": {"city": "Cibola County", "rent": 1020, "zip": "87051"}, "cibola-county-87315": {"city": "Cibola County", "rent": 970, "zip": "87315"}, "cibola-county-87321": {"city": "Cibola County", "rent": 1510, "zip": "87321"}, "cibola-county-87323": {"city": "Cibola County", "rent": 1130, "zip": "87323"}, "cibola-county-87357": {"city": "Cibola County", "rent": 970, "zip": "87357"}, "colfax-county-87710": {"city": "Colfax County", "rent": 1460, "zip": "87710"}, "colfax-county-87714": {"city": "Colfax County", "rent": 970, "zip": "87714"}, "colfax-county-87718": {"city": "Colfax County", "rent": 1330, "zip": "87718"}, "colfax-county-87728": {"city": "Colfax County", "rent": 970, "zip": "87728"}, "colfax-county-87729": {"city": "Colfax County", "rent": 970, "zip": "87729"}, "colfax-county-87734": {"city": "Colfax County", "rent": 970, "zip": "87734"}, "colfax-county-87740": {"city": "Colfax County", "rent": 1020, "zip": "87740"}, "colfax-county-87747": {"city": "Colfax County", "rent": 970, "zip": "87747"}, "colfax-county-87749": {"city": "Colfax County", "rent": 1190, "zip": "87749"}, "colfax-county-88414": {"city": "Colfax County", "rent": 970, "zip": "88414"}, "colfax-county-88419": {"city": "Colfax County", "rent": 970, "zip": "88419"}, "colfax-county-88422": {"city": "Colfax County", "rent": 1000, "zip": "88422"}, "curry-county-88101": {"city": "Curry County", "rent": 1140, "zip": "88101"}, "curry-county-88102": {"city": "Curry County", "rent": 1100, "zip": "88102"}, "curry-county-88103": {"city": "Curry County", "rent": 1140, "zip": "88103"}, "curry-county-88112": {"city": "Curry County", "rent": 1080, "zip": "88112"}, "curry-county-88118": {"city": "Curry County", "rent": 970, "zip": "88118"}, "curry-county-88120": {"city": "Curry County", "rent": 1020, "zip": "88120"}, "curry-county-88124": {"city": "Curry County", "rent": 970, "zip": "88124"}, "curry-county-88130": {"city": "Curry County", "rent": 980, "zip": "88130"}, "curry-county-88133": {"city": "Curry County", "rent": 1100, "zip": "88133"}, "curry-county-88135": {"city": "Curry County", "rent": 1130, "zip": "88135"}, "curry-county-88427": {"city": "Curry County", "rent": 970, "zip": "88427"}, "de-baca-county-88119": {"city": "De Baca County", "rent": 970, "zip": "88119"}, "de-baca-county-88134": {"city": "De Baca County", "rent": 970, "zip": "88134"}, "de-baca-county-88136": {"city": "De Baca County", "rent": 1130, "zip": "88136"}, "eddy-county-88210": {"city": "Eddy County", "rent": 1090, "zip": "88210"}, "eddy-county-88220": {"city": "Eddy County", "rent": 1230, "zip": "88220"}, "eddy-county-88221": {"city": "Eddy County", "rent": 1190, "zip": "88221"}, "eddy-county-88250": {"city": "Eddy County", "rent": 1120, "zip": "88250"}, "eddy-county-88252": {"city": "Eddy County", "rent": 1080, "zip": "88252"}, "eddy-county-88253": {"city": "Eddy County", "rent": 1180, "zip": "88253"}, "eddy-county-88254": {"city": "Eddy County", "rent": 1160, "zip": "88254"}, "eddy-county-88255": {"city": "Eddy County", "rent": 1090, "zip": "88255"}, "eddy-county-88256": {"city": "Eddy County", "rent": 1180, "zip": "88256"}, "eddy-county-88263": {"city": "Eddy County", "rent": 1200, "zip": "88263"}, "eddy-county-88268": {"city": "Eddy County", "rent": 1190, "zip": "88268"}, "grant-county-87821": {"city": "Grant County", "rent": 1040, "zip": "87821"}, "grant-county-88022": {"city": "Grant County", "rent": 1070, "zip": "88022"}, "grant-county-88023": {"city": "Grant County", "rent": 970, "zip": "88023"}, "grant-county-88025": {"city": "Grant County", "rent": 1050, "zip": "88025"}, "grant-county-88026": {"city": "Grant County", "rent": 1040, "zip": "88026"}, "grant-county-88028": {"city": "Grant County", "rent": 1050, "zip": "88028"}, "grant-county-88034": {"city": "Grant County", "rent": 1020, "zip": "88034"}, "grant-county-88036": {"city": "Grant County", "rent": 1050, "zip": "88036"}, "grant-county-88038": {"city": "Grant County", "rent": 1050, "zip": "88038"}, "grant-county-88040": {"city": "Grant County", "rent": 970, "zip": "88040"}, "grant-county-88041": {"city": "Grant County", "rent": 1050, "zip": "88041"}, "grant-county-88043": {"city": "Grant County", "rent": 1130, "zip": "88043"}, "grant-county-88045": {"city": "Grant County", "rent": 990, "zip": "88045"}, "grant-county-88049": {"city": "Grant County", "rent": 1050, "zip": "88049"}, "grant-county-88051": {"city": "Grant County", "rent": 1050, "zip": "88051"}, "grant-county-88053": {"city": "Grant County", "rent": 970, "zip": "88053"}, "grant-county-88055": {"city": "Grant County", "rent": 1040, "zip": "88055"}, "grant-county-88061": {"city": "Grant County", "rent": 1080, "zip": "88061"}, "grant-county-88062": {"city": "Grant County", "rent": 1050, "zip": "88062"}, "grant-county-88065": {"city": "Grant County", "rent": 1080, "zip": "88065"}, "guadalupe-county-87711": {"city": "Guadalupe County", "rent": 1010, "zip": "87711"}, "guadalupe-county-87724": {"city": "Guadalupe County", "rent": 1010, "zip": "87724"}, "guadalupe-county-88321": {"city": "Guadalupe County", "rent": 1200, "zip": "88321"}, "guadalupe-county-88353": {"city": "Guadalupe County", "rent": 970, "zip": "88353"}, "guadalupe-county-88417": {"city": "Guadalupe County", "rent": 970, "zip": "88417"}, "guadalupe-county-88431": {"city": "Guadalupe County", "rent": 1010, "zip": "88431"}, "guadalupe-county-88435": {"city": "Guadalupe County", "rent": 1010, "zip": "88435"}, "harding-county-87730": {"city": "Harding County", "rent": 1020, "zip": "87730"}, "harding-county-87733": {"city": "Harding County", "rent": 1180, "zip": "87733"}, "harding-county-87743": {"city": "Harding County", "rent": 1050, "zip": "87743"}, "harding-county-87746": {"city": "Harding County", "rent": 1020, "zip": "87746"}, "harding-county-88410": {"city": "Harding County", "rent": 1110, "zip": "88410"}, "harding-county-88415": {"city": "Harding County", "rent": 970, "zip": "88415"}, "harding-county-88426": {"city": "Harding County", "rent": 1340, "zip": "88426"}, "harding-county-88430": {"city": "Harding County", "rent": 1290, "zip": "88430"}, "hidalgo-county-88009": {"city": "Hidalgo County", "rent": 970, "zip": "88009"}, "hidalgo-county-88020": {"city": "Hidalgo County", "rent": 970, "zip": "88020"}, "hidalgo-county-88040": {"city": "Hidalgo County", "rent": 970, "zip": "88040"}, "hidalgo-county-88045": {"city": "Hidalgo County", "rent": 990, "zip": "88045"}, "hidalgo-county-88056": {"city": "Hidalgo County", "rent": 970, "zip": "88056"}, "lea-county-88114": {"city": "Lea County", "rent": 1320, "zip": "88114"}, "lea-county-88213": {"city": "Lea County", "rent": 1320, "zip": "88213"}, "lea-county-88231": {"city": "Lea County", "rent": 1410, "zip": "88231"}, "lea-county-88240": {"city": "Lea County", "rent": 1330, "zip": "88240"}, "lea-county-88241": {"city": "Lea County", "rent": 1320, "zip": "88241"}, "lea-county-88242": {"city": "Lea County", "rent": 1510, "zip": "88242"}, "lea-county-88244": {"city": "Lea County", "rent": 1330, "zip": "88244"}, "lea-county-88252": {"city": "Lea County", "rent": 1080, "zip": "88252"}, "lea-county-88260": {"city": "Lea County", "rent": 1250, "zip": "88260"}, "lea-county-88262": {"city": "Lea County", "rent": 1250, "zip": "88262"}, "lea-county-88264": {"city": "Lea County", "rent": 1230, "zip": "88264"}, "lea-county-88265": {"city": "Lea County", "rent": 1360, "zip": "88265"}, "lea-county-88267": {"city": "Lea County", "rent": 1150, "zip": "88267"}, "lincoln-county-87011": {"city": "Lincoln County", "rent": 1000, "zip": "87011"}, "lincoln-county-88136": {"city": "Lincoln County", "rent": 1130, "zip": "88136"}, "lincoln-county-88301": {"city": "Lincoln County", "rent": 990, "zip": "88301"}, "lincoln-county-88312": {"city": "Lincoln County", "rent": 1000, "zip": "88312"}, "lincoln-county-88316": {"city": "Lincoln County", "rent": 1090, "zip": "88316"}, "lincoln-county-88318": {"city": "Lincoln County", "rent": 1200, "zip": "88318"}, "lincoln-county-88323": {"city": "Lincoln County", "rent": 1000, "zip": "88323"}, "lincoln-county-88324": {"city": "Lincoln County", "rent": 1000, "zip": "88324"}, "lincoln-county-88336": {"city": "Lincoln County", "rent": 1000, "zip": "88336"}, "lincoln-county-88338": {"city": "Lincoln County", "rent": 1000, "zip": "88338"}, "lincoln-county-88340": {"city": "Lincoln County", "rent": 970, "zip": "88340"}, "lincoln-county-88341": {"city": "Lincoln County", "rent": 1020, "zip": "88341"}, "lincoln-county-88343": {"city": "Lincoln County", "rent": 1000, "zip": "88343"}, "lincoln-county-88345": {"city": "Lincoln County", "rent": 1040, "zip": "88345"}, "lincoln-county-88346": {"city": "Lincoln County", "rent": 970, "zip": "88346"}, "lincoln-county-88348": {"city": "Lincoln County", "rent": 1000, "zip": "88348"}, "lincoln-county-88351": {"city": "Lincoln County", "rent": 1000, "zip": "88351"}, "lincoln-county-88355": {"city": "Lincoln County", "rent": 1040, "zip": "88355"}, "los-alamos-county-87506": {"city": "Los Alamos County", "rent": 1500, "zip": "87506"}, "los-alamos-county-87544": {"city": "Los Alamos County", "rent": 1730, "zip": "87544"}, "los-alamos-county-87547": {"city": "Los Alamos County", "rent": 1630, "zip": "87547"}, "luna-county-88029": {"city": "Luna County", "rent": 970, "zip": "88029"}, "luna-county-88030": {"city": "Luna County", "rent": 970, "zip": "88030"}, "luna-county-88031": {"city": "Luna County", "rent": 970, "zip": "88031"}, "mckinley-county-86504": {"city": "McKinley County", "rent": 1230, "zip": "86504"}, "mckinley-county-86515": {"city": "McKinley County", "rent": 1070, "zip": "86515"}, "mckinley-county-87013": {"city": "McKinley County", "rent": 1430, "zip": "87013"}, "mckinley-county-87020": {"city": "McKinley County", "rent": 1020, "zip": "87020"}, "mckinley-county-87045": {"city": "McKinley County", "rent": 980, "zip": "87045"}, "mckinley-county-87301": {"city": "McKinley County", "rent": 1110, "zip": "87301"}, "mckinley-county-87305": {"city": "McKinley County", "rent": 1090, "zip": "87305"}, "mckinley-county-87310": {"city": "McKinley County", "rent": 1220, "zip": "87310"}, "mckinley-county-87311": {"city": "McKinley County", "rent": 1100, "zip": "87311"}, "mckinley-county-87312": {"city": "McKinley County", "rent": 1150, "zip": "87312"}, "mckinley-county-87313": {"city": "McKinley County", "rent": 970, "zip": "87313"}, "mckinley-county-87316": {"city": "McKinley County", "rent": 1370, "zip": "87316"}, "mckinley-county-87317": {"city": "McKinley County", "rent": 1410, "zip": "87317"}, "mckinley-county-87319": {"city": "McKinley County", "rent": 1190, "zip": "87319"}, "mckinley-county-87320": {"city": "McKinley County", "rent": 1140, "zip": "87320"}, "mckinley-county-87321": {"city": "McKinley County", "rent": 1510, "zip": "87321"}, "mckinley-county-87322": {"city": "McKinley County", "rent": 1150, "zip": "87322"}, "mckinley-county-87323": {"city": "McKinley County", "rent": 1130, "zip": "87323"}, "mckinley-county-87325": {"city": "McKinley County", "rent": 1050, "zip": "87325"}, "mckinley-county-87326": {"city": "McKinley County", "rent": 1090, "zip": "87326"}, "mckinley-county-87327": {"city": "McKinley County", "rent": 970, "zip": "87327"}, "mckinley-county-87328": {"city": "McKinley County", "rent": 1050, "zip": "87328"}, "mckinley-county-87347": {"city": "McKinley County", "rent": 1420, "zip": "87347"}, "mckinley-county-87365": {"city": "McKinley County", "rent": 1130, "zip": "87365"}, "mckinley-county-87375": {"city": "McKinley County", "rent": 1640, "zip": "87375"}, "mora-county-87712": {"city": "Mora County", "rent": 970, "zip": "87712"}, "mora-county-87713": {"city": "Mora County", "rent": 970, "zip": "87713"}, "mora-county-87715": {"city": "Mora County", "rent": 970, "zip": "87715"}, "mora-county-87722": {"city": "Mora County", "rent": 970, "zip": "87722"}, "mora-county-87723": {"city": "Mora County", "rent": 970, "zip": "87723"}, "mora-county-87732": {"city": "Mora County", "rent": 970, "zip": "87732"}, "mora-county-87734": {"city": "Mora County", "rent": 970, "zip": "87734"}, "mora-county-87735": {"city": "Mora County", "rent": 970, "zip": "87735"}, "mora-county-87736": {"city": "Mora County", "rent": 970, "zip": "87736"}, "mora-county-87742": {"city": "Mora County", "rent": 1000, "zip": "87742"}, "mora-county-87745": {"city": "Mora County", "rent": 1010, "zip": "87745"}, "mora-county-87750": {"city": "Mora County", "rent": 970, "zip": "87750"}, "mora-county-87752": {"city": "Mora County", "rent": 970, "zip": "87752"}, "mora-county-87753": {"city": "Mora County", "rent": 970, "zip": "87753"}, "otero-county-79837": {"city": "Otero County", "rent": 970, "zip": "79837"}, "otero-county-88081": {"city": "Otero County", "rent": 970, "zip": "88081"}, "otero-county-88310": {"city": "Otero County", "rent": 970, "zip": "88310"}, "otero-county-88311": {"city": "Otero County", "rent": 970, "zip": "88311"}, "otero-county-88314": {"city": "Otero County", "rent": 970, "zip": "88314"}, "otero-county-88317": {"city": "Otero County", "rent": 970, "zip": "88317"}, "otero-county-88325": {"city": "Otero County", "rent": 970, "zip": "88325"}, "otero-county-88330": {"city": "Otero County", "rent": 1270, "zip": "88330"}, "otero-county-88337": {"city": "Otero County", "rent": 970, "zip": "88337"}, "otero-county-88339": {"city": "Otero County", "rent": 970, "zip": "88339"}, "otero-county-88340": {"city": "Otero County", "rent": 970, "zip": "88340"}, "otero-county-88342": {"city": "Otero County", "rent": 970, "zip": "88342"}, "otero-county-88344": {"city": "Otero County", "rent": 1050, "zip": "88344"}, "otero-county-88347": {"city": "Otero County", "rent": 970, "zip": "88347"}, "otero-county-88349": {"city": "Otero County", "rent": 970, "zip": "88349"}, "otero-county-88350": {"city": "Otero County", "rent": 970, "zip": "88350"}, "otero-county-88352": {"city": "Otero County", "rent": 970, "zip": "88352"}, "otero-county-88354": {"city": "Otero County", "rent": 970, "zip": "88354"}, "quay-county-88112": {"city": "Quay County", "rent": 1080, "zip": "88112"}, "quay-county-88120": {"city": "Quay County", "rent": 1020, "zip": "88120"}, "quay-county-88121": {"city": "Quay County", "rent": 970, "zip": "88121"}, "quay-county-88124": {"city": "Quay County", "rent": 970, "zip": "88124"}, "quay-county-88401": {"city": "Quay County", "rent": 970, "zip": "88401"}, "quay-county-88411": {"city": "Quay County", "rent": 1060, "zip": "88411"}, "quay-county-88417": {"city": "Quay County", "rent": 970, "zip": "88417"}, "quay-county-88426": {"city": "Quay County", "rent": 1340, "zip": "88426"}, "quay-county-88427": {"city": "Quay County", "rent": 970, "zip": "88427"}, "quay-county-88430": {"city": "Quay County", "rent": 1290, "zip": "88430"}, "quay-county-88433": {"city": "Quay County", "rent": 970, "zip": "88433"}, "quay-county-88434": {"city": "Quay County", "rent": 970, "zip": "88434"}, "rio-arriba-county-87012": {"city": "Rio Arriba County", "rent": 970, "zip": "87012"}, "rio-arriba-county-87013": {"city": "Rio Arriba County", "rent": 1430, "zip": "87013"}, "rio-arriba-county-87017": {"city": "Rio Arriba County", "rent": 970, "zip": "87017"}, "rio-arriba-county-87018": {"city": "Rio Arriba County", "rent": 1320, "zip": "87018"}, "rio-arriba-county-87029": {"city": "Rio Arriba County", "rent": 970, "zip": "87029"}, "rio-arriba-county-87037": {"city": "Rio Arriba County", "rent": 1100, "zip": "87037"}, "rio-arriba-county-87046": {"city": "Rio Arriba County", "rent": 1260, "zip": "87046"}, "rio-arriba-county-87064": {"city": "Rio Arriba County", "rent": 970, "zip": "87064"}, "rio-arriba-county-87412": {"city": "Rio Arriba County", "rent": 1020, "zip": "87412"}, "rio-arriba-county-87419": {"city": "Rio Arriba County", "rent": 1180, "zip": "87419"}, "rio-arriba-county-87510": {"city": "Rio Arriba County", "rent": 970, "zip": "87510"}, "rio-arriba-county-87511": {"city": "Rio Arriba County", "rent": 970, "zip": "87511"}, "rio-arriba-county-87515": {"city": "Rio Arriba County", "rent": 970, "zip": "87515"}, "rio-arriba-county-87516": {"city": "Rio Arriba County", "rent": 970, "zip": "87516"}, "rio-arriba-county-87518": {"city": "Rio Arriba County", "rent": 970, "zip": "87518"}, "rio-arriba-county-87520": {"city": "Rio Arriba County", "rent": 970, "zip": "87520"}, "rio-arriba-county-87521": {"city": "Rio Arriba County", "rent": 1090, "zip": "87521"}, "rio-arriba-county-87522": {"city": "Rio Arriba County", "rent": 1470, "zip": "87522"}, "rio-arriba-county-87523": {"city": "Rio Arriba County", "rent": 1260, "zip": "87523"}, "rio-arriba-county-87527": {"city": "Rio Arriba County", "rent": 1210, "zip": "87527"}, "rio-arriba-county-87528": {"city": "Rio Arriba County", "rent": 1200, "zip": "87528"}, "rio-arriba-county-87530": {"city": "Rio Arriba County", "rent": 970, "zip": "87530"}, "rio-arriba-county-87531": {"city": "Rio Arriba County", "rent": 970, "zip": "87531"}, "rio-arriba-county-87532": {"city": "Rio Arriba County", "rent": 1470, "zip": "87532"}, "rio-arriba-county-87537": {"city": "Rio Arriba County", "rent": 970, "zip": "87537"}, "rio-arriba-county-87539": {"city": "Rio Arriba County", "rent": 970, "zip": "87539"}, "rio-arriba-county-87548": {"city": "Rio Arriba County", "rent": 970, "zip": "87548"}, "rio-arriba-county-87549": {"city": "Rio Arriba County", "rent": 990, "zip": "87549"}, "rio-arriba-county-87551": {"city": "Rio Arriba County", "rent": 970, "zip": "87551"}, "rio-arriba-county-87554": {"city": "Rio Arriba County", "rent": 970, "zip": "87554"}, "rio-arriba-county-87566": {"city": "Rio Arriba County", "rent": 970, "zip": "87566"}, "rio-arriba-county-87575": {"city": "Rio Arriba County", "rent": 970, "zip": "87575"}, "rio-arriba-county-87577": {"city": "Rio Arriba County", "rent": 1250, "zip": "87577"}, "rio-arriba-county-87578": {"city": "Rio Arriba County", "rent": 1370, "zip": "87578"}, "rio-arriba-county-87581": {"city": "Rio Arriba County", "rent": 970, "zip": "87581"}, "rio-arriba-county-87582": {"city": "Rio Arriba County", "rent": 1020, "zip": "87582"}, "roosevelt-county-88101": {"city": "Roosevelt County", "rent": 1140, "zip": "88101"}, "roosevelt-county-88113": {"city": "Roosevelt County", "rent": 990, "zip": "88113"}, "roosevelt-county-88114": {"city": "Roosevelt County", "rent": 1320, "zip": "88114"}, "roosevelt-county-88115": {"city": "Roosevelt County", "rent": 980, "zip": "88115"}, "roosevelt-county-88116": {"city": "Roosevelt County", "rent": 1010, "zip": "88116"}, "roosevelt-county-88118": {"city": "Roosevelt County", "rent": 970, "zip": "88118"}, "roosevelt-county-88123": {"city": "Roosevelt County", "rent": 980, "zip": "88123"}, "roosevelt-county-88124": {"city": "Roosevelt County", "rent": 970, "zip": "88124"}, "roosevelt-county-88125": {"city": "Roosevelt County", "rent": 980, "zip": "88125"}, "roosevelt-county-88126": {"city": "Roosevelt County", "rent": 980, "zip": "88126"}, "roosevelt-county-88130": {"city": "Roosevelt County", "rent": 980, "zip": "88130"}, "roosevelt-county-88132": {"city": "Roosevelt County", "rent": 980, "zip": "88132"}, "roosevelt-county-88134": {"city": "Roosevelt County", "rent": 970, "zip": "88134"}, "roosevelt-county-88135": {"city": "Roosevelt County", "rent": 1130, "zip": "88135"}, "san-miguel-county-87056": {"city": "San Miguel County", "rent": 1470, "zip": "87056"}, "san-miguel-county-87535": {"city": "San Miguel County", "rent": 1580, "zip": "87535"}, "san-miguel-county-87538": {"city": "San Miguel County", "rent": 1010, "zip": "87538"}, "san-miguel-county-87552": {"city": "San Miguel County", "rent": 1470, "zip": "87552"}, "san-miguel-county-87560": {"city": "San Miguel County", "rent": 970, "zip": "87560"}, "san-miguel-county-87562": {"city": "San Miguel County", "rent": 1010, "zip": "87562"}, "san-miguel-county-87565": {"city": "San Miguel County", "rent": 990, "zip": "87565"}, "san-miguel-county-87569": {"city": "San Miguel County", "rent": 1000, "zip": "87569"}, "san-miguel-county-87573": {"city": "San Miguel County", "rent": 1720, "zip": "87573"}, "san-miguel-county-87583": {"city": "San Miguel County", "rent": 970, "zip": "87583"}, "san-miguel-county-87701": {"city": "San Miguel County", "rent": 1020, "zip": "87701"}, "san-miguel-county-87711": {"city": "San Miguel County", "rent": 1010, "zip": "87711"}, "san-miguel-county-87731": {"city": "San Miguel County", "rent": 1010, "zip": "87731"}, "san-miguel-county-87742": {"city": "San Miguel County", "rent": 1000, "zip": "87742"}, "san-miguel-county-87745": {"city": "San Miguel County", "rent": 1010, "zip": "87745"}, "san-miguel-county-87746": {"city": "San Miguel County", "rent": 1020, "zip": "87746"}, "san-miguel-county-88416": {"city": "San Miguel County", "rent": 1010, "zip": "88416"}, "san-miguel-county-88421": {"city": "San Miguel County", "rent": 1020, "zip": "88421"}, "san-miguel-county-88431": {"city": "San Miguel County", "rent": 1010, "zip": "88431"}, "san-miguel-county-88439": {"city": "San Miguel County", "rent": 1010, "zip": "88439"}, "sierra-county-87654": {"city": "Sierra County", "rent": 1000, "zip": "87654"}, "sierra-county-87901": {"city": "Sierra County", "rent": 970, "zip": "87901"}, "sierra-county-87930": {"city": "Sierra County", "rent": 1000, "zip": "87930"}, "sierra-county-87931": {"city": "Sierra County", "rent": 1000, "zip": "87931"}, "sierra-county-87933": {"city": "Sierra County", "rent": 1000, "zip": "87933"}, "sierra-county-87935": {"city": "Sierra County", "rent": 1420, "zip": "87935"}, "sierra-county-87936": {"city": "Sierra County", "rent": 1040, "zip": "87936"}, "sierra-county-87939": {"city": "Sierra County", "rent": 1000, "zip": "87939"}, "sierra-county-87942": {"city": "Sierra County", "rent": 1000, "zip": "87942"}, "sierra-county-87943": {"city": "Sierra County", "rent": 1000, "zip": "87943"}, "sierra-county-88042": {"city": "Sierra County", "rent": 1000, "zip": "88042"}, "socorro-county-87002": {"city": "Socorro County", "rent": 1200, "zip": "87002"}, "socorro-county-87006": {"city": "Socorro County", "rent": 1200, "zip": "87006"}, "socorro-county-87011": {"city": "Socorro County", "rent": 1000, "zip": "87011"}, "socorro-county-87028": {"city": "Socorro County", "rent": 970, "zip": "87028"}, "socorro-county-87036": {"city": "Socorro County", "rent": 1200, "zip": "87036"}, "socorro-county-87062": {"city": "Socorro County", "rent": 1200, "zip": "87062"}, "socorro-county-87801": {"city": "Socorro County", "rent": 970, "zip": "87801"}, "socorro-county-87823": {"city": "Socorro County", "rent": 970, "zip": "87823"}, "socorro-county-87825": {"city": "Socorro County", "rent": 970, "zip": "87825"}, "socorro-county-87828": {"city": "Socorro County", "rent": 970, "zip": "87828"}, "socorro-county-87831": {"city": "Socorro County", "rent": 970, "zip": "87831"}, "socorro-county-87832": {"city": "Socorro County", "rent": 970, "zip": "87832"}, "taos-county-87512": {"city": "Taos County", "rent": 1050, "zip": "87512"}, "taos-county-87513": {"city": "Taos County", "rent": 1280, "zip": "87513"}, "taos-county-87514": {"city": "Taos County", "rent": 1280, "zip": "87514"}, "taos-county-87517": {"city": "Taos County", "rent": 1280, "zip": "87517"}, "taos-county-87519": {"city": "Taos County", "rent": 1090, "zip": "87519"}, "taos-county-87521": {"city": "Taos County", "rent": 1090, "zip": "87521"}, "taos-county-87524": {"city": "Taos County", "rent": 1060, "zip": "87524"}, "taos-county-87525": {"city": "Taos County", "rent": 1170, "zip": "87525"}, "taos-county-87529": {"city": "Taos County", "rent": 1670, "zip": "87529"}, "taos-county-87543": {"city": "Taos County", "rent": 1240, "zip": "87543"}, "taos-county-87549": {"city": "Taos County", "rent": 990, "zip": "87549"}, "taos-county-87553": {"city": "Taos County", "rent": 1200, "zip": "87553"}, "taos-county-87556": {"city": "Taos County", "rent": 1090, "zip": "87556"}, "taos-county-87557": {"city": "Taos County", "rent": 1500, "zip": "87557"}, "taos-county-87558": {"city": "Taos County", "rent": 1130, "zip": "87558"}, "taos-county-87564": {"city": "Taos County", "rent": 1280, "zip": "87564"}, "taos-county-87571": {"city": "Taos County", "rent": 1230, "zip": "87571"}, "taos-county-87576": {"city": "Taos County", "rent": 1280, "zip": "87576"}, "taos-county-87577": {"city": "Taos County", "rent": 1250, "zip": "87577"}, "taos-county-87579": {"city": "Taos County", "rent": 1420, "zip": "87579"}, "taos-county-87580": {"city": "Taos County", "rent": 1280, "zip": "87580"}, "union-county-87743": {"city": "Union County", "rent": 1050, "zip": "87743"}, "union-county-88410": {"city": "Union County", "rent": 1110, "zip": "88410"}, "union-county-88414": {"city": "Union County", "rent": 970, "zip": "88414"}, "union-county-88415": {"city": "Union County", "rent": 970, "zip": "88415"}, "union-county-88418": {"city": "Union County", "rent": 970, "zip": "88418"}, "union-county-88419": {"city": "Union County", "rent": 970, "zip": "88419"}, "union-county-88422": {"city": "Union County", "rent": 1000, "zip": "88422"}, "union-county-88424": {"city": "Union County", "rent": 980, "zip": "88424"}, "union-county-88430": {"city": "Union County", "rent": 1290, "zip": "88430"}, "union-county-88436": {"city": "Union County", "rent": 1000, "zip": "88436"}}