{"asheville-28655": {"city": "Asheville", "rent": 1370, "zip": "28655"}, "asheville-28701": {"city": "Asheville", "rent": 1530, "zip": "28701"}, "asheville-28704": {"city": "Asheville", "rent": 1750, "zip": "28704"}, "asheville-28709": {"city": "Asheville", "rent": 1840, "zip": "28709"}, "asheville-28710": {"city": "Asheville", "rent": 1430, "zip": "28710"}, "asheville-28711": {"city": "Asheville", "rent": 1480, "zip": "28711"}, "asheville-28714": {"city": "Asheville", "rent": 1370, "zip": "28714"}, "asheville-28715": {"city": "Asheville", "rent": 1550, "zip": "28715"}, "asheville-28716": {"city": "Asheville", "rent": 1370, "zip": "28716"}, "asheville-28721": {"city": "Asheville", "rent": 1370, "zip": "28721"}, "asheville-28724": {"city": "Asheville", "rent": 1430, "zip": "28724"}, "asheville-28726": {"city": "Asheville", "rent": 1370, "zip": "28726"}, "asheville-28727": {"city": "Asheville", "rent": 1430, "zip": "28727"}, "asheville-28728": {"city": "Asheville", "rent": 1640, "zip": "28728"}, "asheville-28729": {"city": "Asheville", "rent": 2290, "zip": "28729"}, "asheville-28730": {"city": "Asheville", "rent": 1390, "zip": "28730"}, "asheville-28731": {"city": "Asheville", "rent": 1370, "zip": "28731"}, "asheville-28732": {"city": "Asheville", "rent": 1590, "zip": "28732"}, "asheville-28735": {"city": "Asheville", "rent": 1380, "zip": "28735"}, "asheville-28739": {"city": "Asheville", "rent": 1370, "zip": "28739"}, "asheville-28742": {"city": "Asheville", "rent": 1370, "zip": "28742"}, "asheville-28743": {"city": "Asheville", "rent": 1370, "zip": "28743"}, "asheville-28746": {"city": "Asheville", "rent": 1370, "zip": "28746"}, "asheville-28748": {"city": "Asheville", "rent": 1370, "zip": "28748"}, "asheville-28753": {"city": "Asheville", "rent": 1370, "zip": "28753"}, "asheville-28754": {"city": "Asheville", "rent": 1370, "zip": "28754"}, "asheville-28756": {"city": "Asheville", "rent": 1370, "zip": "28756"}, "asheville-28757": {"city": "Asheville", "rent": 1370, "zip": "28757"}, "asheville-28758": {"city": "Asheville", "rent": 1420, "zip": "28758"}, "asheville-28759": {"city": "Asheville", "rent": 1810, "zip": "28759"}, "asheville-28760": {"city": "Asheville", "rent": 1430, "zip": "28760"}, "asheville-28762": {"city": "Asheville", "rent": 1430, "zip": "28762"}, "asheville-28766": {"city": "Asheville", "rent": 1370, "zip": "28766"}, "asheville-28768": {"city": "Asheville", "rent": 1370, "zip": "28768"}, "asheville-28770": {"city": "Asheville", "rent": 1450, "zip": "28770"}, "asheville-28773": {"city": "Asheville", "rent": 1380, "zip": "28773"}, "asheville-28776": {"city": "Asheville", "rent": 1640, "zip": "28776"}, "asheville-28778": {"city": "Asheville", "rent": 1370, "zip": "28778"}, "asheville-28784": {"city": "Asheville", "rent": 1430, "zip": "28784"}, "asheville-28787": {"city": "Asheville", "rent": 1530, "zip": "28787"}, "asheville-28790": {"city": "Asheville", "rent": 1720, "zip": "28790"}, "asheville-28791": {"city": "Asheville", "rent": 1420, "zip": "28791"}, "asheville-28792": {"city": "Asheville", "rent": 1380, "zip": "28792"}, "asheville-28793": {"city": "Asheville", "rent": 1430, "zip": "28793"}, "asheville-28801": {"city": "Asheville", "rent": 1690, "zip": "28801"}, "asheville-28802": {"city": "Asheville", "rent": 1640, "zip": "28802"}, "asheville-28803": {"city": "Asheville", "rent": 2070, "zip": "28803"}, "asheville-28804": {"city": "Asheville", "rent": 1830, "zip": "28804"}, "asheville-28805": {"city": "Asheville", "rent": 1580, "zip": "28805"}, "asheville-28806": {"city": "Asheville", "rent": 1600, "zip": "28806"}, "asheville-28813": {"city": "Asheville", "rent": 1640, "zip": "28813"}, "asheville-28814": {"city": "Asheville", "rent": 1640, "zip": "28814"}, "asheville-28815": {"city": "Asheville", "rent": 1640, "zip": "28815"}, "asheville-28816": {"city": "Asheville", "rent": 1640, "zip": "28816"}, "burlington-27201": {"city": "Burlington", "rent": 1470, "zip": "27201"}, "burlington-27202": {"city": "Burlington", "rent": 1240, "zip": "27202"}, "burlington-27215": {"city": "Burlington", "rent": 1470, "zip": "27215"}, "burlington-27216": {"city": "Burlington", "rent": 1350, "zip": "27216"}, "burlington-27217": {"city": "Burlington", "rent": 1180, "zip": "27217"}, "burlington-27243": {"city": "Burlington", "rent": 1690, "zip": "27243"}, "burlington-27244": {"city": "Burlington", "rent": 1240, "zip": "27244"}, "burlington-27249": {"city": "Burlington", "rent": 1170, "zip": "27249"}, "burlington-27253": {"city": "Burlington", "rent": 1270, "zip": "27253"}, "burlington-27258": {"city": "Burlington", "rent": 1160, "zip": "27258"}, "burlington-27298": {"city": "Burlington", "rent": 1330, "zip": "27298"}, "burlington-27302": {"city": "Burlington", "rent": 1690, "zip": "27302"}, "burlington-27312": {"city": "Burlington", "rent": 1690, "zip": "27312"}, "burlington-27340": {"city": "Burlington", "rent": 1270, "zip": "27340"}, "burlington-27344": {"city": "Burlington", "rent": 1330, "zip": "27344"}, "burlington-27349": {"city": "Burlington", "rent": 1690, "zip": "27349"}, "burlington-27359": {"city": "Burlington", "rent": 1350, "zip": "27359"}, "charlotte-concord-gastonia-28006": {"city": "Charlotte-Concord-Gastonia", "rent": 1240, "zip": "28006"}, "charlotte-concord-gastonia-28012": {"city": "Charlotte-Concord-Gastonia", "rent": 1480, "zip": "28012"}, "charlotte-concord-gastonia-28016": {"city": "Charlotte-Concord-Gastonia", "rent": 1060, "zip": "28016"}, "charlotte-concord-gastonia-28021": {"city": "Charlotte-Concord-Gastonia", "rent": 1030, "zip": "28021"}, "charlotte-concord-gastonia-28025": {"city": "Charlotte-Concord-Gastonia", "rent": 1440, "zip": "28025"}, "charlotte-concord-gastonia-28026": {"city": "Charlotte-Concord-Gastonia", "rent": 1510, "zip": "28026"}, "charlotte-concord-gastonia-28027": {"city": "Charlotte-Concord-Gastonia", "rent": 1660, "zip": "28027"}, "charlotte-concord-gastonia-28031": {"city": "Charlotte-Concord-Gastonia", "rent": 1890, "zip": "28031"}, "charlotte-concord-gastonia-28032": {"city": "Charlotte-Concord-Gastonia", "rent": 1330, "zip": "28032"}, "charlotte-concord-gastonia-28033": {"city": "Charlotte-Concord-Gastonia", "rent": 960, "zip": "28033"}, "charlotte-concord-gastonia-28034": {"city": "Charlotte-Concord-Gastonia", "rent": 1050, "zip": "28034"}, "charlotte-concord-gastonia-28035": {"city": "Charlotte-Concord-Gastonia", "rent": 1790, "zip": "28035"}, "charlotte-concord-gastonia-28036": {"city": "Charlotte-Concord-Gastonia", "rent": 1940, "zip": "28036"}, "charlotte-concord-gastonia-28052": {"city": "Charlotte-Concord-Gastonia", "rent": 1270, "zip": "28052"}, "charlotte-concord-gastonia-28053": {"city": "Charlotte-Concord-Gastonia", "rent": 1290, "zip": "28053"}, "charlotte-concord-gastonia-28054": {"city": "Charlotte-Concord-Gastonia", "rent": 1500, "zip": "28054"}, "charlotte-concord-gastonia-28055": {"city": "Charlotte-Concord-Gastonia", "rent": 1290, "zip": "28055"}, "charlotte-concord-gastonia-28056": {"city": "Charlotte-Concord-Gastonia", "rent": 1300, "zip": "28056"}, "charlotte-concord-gastonia-28070": {"city": "Charlotte-Concord-Gastonia", "rent": 1790, "zip": "28070"}, "charlotte-concord-gastonia-28071": {"city": "Charlotte-Concord-Gastonia", "rent": 1160, "zip": "28071"}, "charlotte-concord-gastonia-28075": {"city": "Charlotte-Concord-Gastonia", "rent": 2530, "zip": "28075"}, "charlotte-concord-gastonia-28077": {"city": "Charlotte-Concord-Gastonia", "rent": 930, "zip": "28077"}, "charlotte-concord-gastonia-28078": {"city": "Charlotte-Concord-Gastonia", "rent": 2090, "zip": "28078"}, "charlotte-concord-gastonia-28079": {"city": "Charlotte-Concord-Gastonia", "rent": 2220, "zip": "28079"}, "charlotte-concord-gastonia-28080": {"city": "Charlotte-Concord-Gastonia", "rent": 1280, "zip": "28080"}, "charlotte-concord-gastonia-28081": {"city": "Charlotte-Concord-Gastonia", "rent": 1250, "zip": "28081"}, "charlotte-concord-gastonia-28082": {"city": "Charlotte-Concord-Gastonia", "rent": 1510, "zip": "28082"}, "charlotte-concord-gastonia-28083": {"city": "Charlotte-Concord-Gastonia", "rent": 1330, "zip": "28083"}, "charlotte-concord-gastonia-28086": {"city": "Charlotte-Concord-Gastonia", "rent": 970, "zip": "28086"}, "charlotte-concord-gastonia-28092": {"city": "Charlotte-Concord-Gastonia", "rent": 1010, "zip": "28092"}, "charlotte-concord-gastonia-28097": {"city": "Charlotte-Concord-Gastonia", "rent": 950, "zip": "28097"}, "charlotte-concord-gastonia-28098": {"city": "Charlotte-Concord-Gastonia", "rent": 1420, "zip": "28098"}, "charlotte-concord-gastonia-28101": {"city": "Charlotte-Concord-Gastonia", "rent": 1350, "zip": "28101"}, "charlotte-concord-gastonia-28103": {"city": "Charlotte-Concord-Gastonia", "rent": 1200, "zip": "28103"}, "charlotte-concord-gastonia-28104": {"city": "Charlotte-Concord-Gastonia", "rent": 2040, "zip": "28104"}, "charlotte-concord-gastonia-28105": {"city": "Charlotte-Concord-Gastonia", "rent": 1880, "zip": "28105"}, "charlotte-concord-gastonia-28106": {"city": "Charlotte-Concord-Gastonia", "rent": 1790, "zip": "28106"}, "charlotte-concord-gastonia-28107": {"city": "Charlotte-Concord-Gastonia", "rent": 1300, "zip": "28107"}, "charlotte-concord-gastonia-28108": {"city": "Charlotte-Concord-Gastonia", "rent": 1860, "zip": "28108"}, "charlotte-concord-gastonia-28110": {"city": "Charlotte-Concord-Gastonia", "rent": 1550, "zip": "28110"}, "charlotte-concord-gastonia-28111": {"city": "Charlotte-Concord-Gastonia", "rent": 1640, "zip": "28111"}, "charlotte-concord-gastonia-28112": {"city": "Charlotte-Concord-Gastonia", "rent": 1280, "zip": "28112"}, "charlotte-concord-gastonia-28120": {"city": "Charlotte-Concord-Gastonia", "rent": 1370, "zip": "28120"}, "charlotte-concord-gastonia-28124": {"city": "Charlotte-Concord-Gastonia", "rent": 1260, "zip": "28124"}, "charlotte-concord-gastonia-28126": {"city": "Charlotte-Concord-Gastonia", "rent": 1790, "zip": "28126"}, "charlotte-concord-gastonia-28130": {"city": "Charlotte-Concord-Gastonia", "rent": 1790, "zip": "28130"}, "charlotte-concord-gastonia-28133": {"city": "Charlotte-Concord-Gastonia", "rent": 1200, "zip": "28133"}, "charlotte-concord-gastonia-28134": {"city": "Charlotte-Concord-Gastonia", "rent": 1890, "zip": "28134"}, "charlotte-concord-gastonia-28135": {"city": "Charlotte-Concord-Gastonia", "rent": 1230, "zip": "28135"}, "charlotte-concord-gastonia-28138": {"city": "Charlotte-Concord-Gastonia", "rent": 1240, "zip": "28138"}, "charlotte-concord-gastonia-28164": {"city": "Charlotte-Concord-Gastonia", "rent": 1260, "zip": "28164"}, "charlotte-concord-gastonia-28173": {"city": "Charlotte-Concord-Gastonia", "rent": 1990, "zip": "28173"}, "charlotte-concord-gastonia-28174": {"city": "Charlotte-Concord-Gastonia", "rent": 1250, "zip": "28174"}, "charlotte-concord-gastonia-28202": {"city": "Charlotte-Concord-Gastonia", "rent": 2530, "zip": "28202"}, "charlotte-concord-gastonia-28203": {"city": "Charlotte-Concord-Gastonia", "rent": 2530, "zip": "28203"}, "charlotte-concord-gastonia-28204": {"city": "Charlotte-Concord-Gastonia", "rent": 2320, "zip": "28204"}, "charlotte-concord-gastonia-28205": {"city": "Charlotte-Concord-Gastonia", "rent": 1620, "zip": "28205"}, "charlotte-concord-gastonia-28206": {"city": "Charlotte-Concord-Gastonia", "rent": 1470, "zip": "28206"}, "charlotte-concord-gastonia-28207": {"city": "Charlotte-Concord-Gastonia", "rent": 1840, "zip": "28207"}, "charlotte-concord-gastonia-28208": {"city": "Charlotte-Concord-Gastonia", "rent": 1470, "zip": "28208"}, "charlotte-concord-gastonia-28209": {"city": "Charlotte-Concord-Gastonia", "rent": 1870, "zip": "28209"}, "charlotte-concord-gastonia-28210": {"city": "Charlotte-Concord-Gastonia", "rent": 1880, "zip": "28210"}, "charlotte-concord-gastonia-28211": {"city": "Charlotte-Concord-Gastonia", "rent": 1990, "zip": "28211"}, "charlotte-concord-gastonia-28212": {"city": "Charlotte-Concord-Gastonia", "rent": 1700, "zip": "28212"}, "charlotte-concord-gastonia-28213": {"city": "Charlotte-Concord-Gastonia", "rent": 1580, "zip": "28213"}, "charlotte-concord-gastonia-28214": {"city": "Charlotte-Concord-Gastonia", "rent": 1810, "zip": "28214"}, "charlotte-concord-gastonia-28215": {"city": "Charlotte-Concord-Gastonia", "rent": 1730, "zip": "28215"}, "charlotte-concord-gastonia-28216": {"city": "Charlotte-Concord-Gastonia", "rent": 1780, "zip": "28216"}, "charlotte-concord-gastonia-28217": {"city": "Charlotte-Concord-Gastonia", "rent": 1960, "zip": "28217"}, "charlotte-concord-gastonia-28219": {"city": "Charlotte-Concord-Gastonia", "rent": 1790, "zip": "28219"}, "charlotte-concord-gastonia-28220": {"city": "Charlotte-Concord-Gastonia", "rent": 1790, "zip": "28220"}, "charlotte-concord-gastonia-28221": {"city": "Charlotte-Concord-Gastonia", "rent": 1790, "zip": "28221"}, "charlotte-concord-gastonia-28222": {"city": "Charlotte-Concord-Gastonia", "rent": 1790, "zip": "28222"}, "charlotte-concord-gastonia-28223": {"city": "Charlotte-Concord-Gastonia", "rent": 1850, "zip": "28223"}, "charlotte-concord-gastonia-28224": {"city": "Charlotte-Concord-Gastonia", "rent": 1790, "zip": "28224"}, "charlotte-concord-gastonia-28226": {"city": "Charlotte-Concord-Gastonia", "rent": 1720, "zip": "28226"}, "charlotte-concord-gastonia-28227": {"city": "Charlotte-Concord-Gastonia", "rent": 1820, "zip": "28227"}, "charlotte-concord-gastonia-28228": {"city": "Charlotte-Concord-Gastonia", "rent": 1790, "zip": "28228"}, "charlotte-concord-gastonia-28229": {"city": "Charlotte-Concord-Gastonia", "rent": 1790, "zip": "28229"}, "charlotte-concord-gastonia-28230": {"city": "Charlotte-Concord-Gastonia", "rent": 1790, "zip": "28230"}, "charlotte-concord-gastonia-28231": {"city": "Charlotte-Concord-Gastonia", "rent": 1790, "zip": "28231"}, "charlotte-concord-gastonia-28232": {"city": "Charlotte-Concord-Gastonia", "rent": 1790, "zip": "28232"}, "charlotte-concord-gastonia-28233": {"city": "Charlotte-Concord-Gastonia", "rent": 1790, "zip": "28233"}, "charlotte-concord-gastonia-28234": {"city": "Charlotte-Concord-Gastonia", "rent": 1790, "zip": "28234"}, "charlotte-concord-gastonia-28235": {"city": "Charlotte-Concord-Gastonia", "rent": 1790, "zip": "28235"}, "charlotte-concord-gastonia-28236": {"city": "Charlotte-Concord-Gastonia", "rent": 1790, "zip": "28236"}, "charlotte-concord-gastonia-28237": {"city": "Charlotte-Concord-Gastonia", "rent": 1790, "zip": "28237"}, "charlotte-concord-gastonia-28241": {"city": "Charlotte-Concord-Gastonia", "rent": 1790, "zip": "28241"}, "charlotte-concord-gastonia-28244": {"city": "Charlotte-Concord-Gastonia", "rent": 1790, "zip": "28244"}, "charlotte-concord-gastonia-28246": {"city": "Charlotte-Concord-Gastonia", "rent": 1790, "zip": "28246"}, "charlotte-concord-gastonia-28247": {"city": "Charlotte-Concord-Gastonia", "rent": 1790, "zip": "28247"}, "charlotte-concord-gastonia-28254": {"city": "Charlotte-Concord-Gastonia", "rent": 1790, "zip": "28254"}, "charlotte-concord-gastonia-28256": {"city": "Charlotte-Concord-Gastonia", "rent": 1790, "zip": "28256"}, "charlotte-concord-gastonia-28262": {"city": "Charlotte-Concord-Gastonia", "rent": 1990, "zip": "28262"}, "charlotte-concord-gastonia-28266": {"city": "Charlotte-Concord-Gastonia", "rent": 1790, "zip": "28266"}, "charlotte-concord-gastonia-28269": {"city": "Charlotte-Concord-Gastonia", "rent": 1990, "zip": "28269"}, "charlotte-concord-gastonia-28270": {"city": "Charlotte-Concord-Gastonia", "rent": 2030, "zip": "28270"}, "charlotte-concord-gastonia-28271": {"city": "Charlotte-Concord-Gastonia", "rent": 1790, "zip": "28271"}, "charlotte-concord-gastonia-28273": {"city": "Charlotte-Concord-Gastonia", "rent": 2130, "zip": "28273"}, "charlotte-concord-gastonia-28274": {"city": "Charlotte-Concord-Gastonia", "rent": 1840, "zip": "28274"}, "charlotte-concord-gastonia-28277": {"city": "Charlotte-Concord-Gastonia", "rent": 2330, "zip": "28277"}, "charlotte-concord-gastonia-28278": {"city": "Charlotte-Concord-Gastonia", "rent": 2080, "zip": "28278"}, "charlotte-concord-gastonia-28280": {"city": "Charlotte-Concord-Gastonia", "rent": 1790, "zip": "28280"}, "charlotte-concord-gastonia-28281": {"city": "Charlotte-Concord-Gastonia", "rent": 1790, "zip": "28281"}, "charlotte-concord-gastonia-28282": {"city": "Charlotte-Concord-Gastonia", "rent": 1790, "zip": "28282"}, "charlotte-concord-gastonia-28284": {"city": "Charlotte-Concord-Gastonia", "rent": 1790, "zip": "28284"}, "charlotte-concord-gastonia-28285": {"city": "Charlotte-Concord-Gastonia", "rent": 1790, "zip": "28285"}, "charlotte-concord-gastonia-28287": {"city": "Charlotte-Concord-Gastonia", "rent": 1790, "zip": "28287"}, "charlotte-concord-gastonia-28297": {"city": "Charlotte-Concord-Gastonia", "rent": 1790, "zip": "28297"}, "charlotte-concord-gastonia-28299": {"city": "Charlotte-Concord-Gastonia", "rent": 1790, "zip": "28299"}, "charlotte-concord-gastonia-29702": {"city": "Charlotte-Concord-Gastonia", "rent": 930, "zip": "29702"}, "charlotte-concord-gastonia-29703": {"city": "Charlotte-Concord-Gastonia", "rent": 1530, "zip": "29703"}, "charlotte-concord-gastonia-29704": {"city": "Charlotte-Concord-Gastonia", "rent": 1120, "zip": "29704"}, "charlotte-concord-gastonia-29706": {"city": "Charlotte-Concord-Gastonia", "rent": 990, "zip": "29706"}, "charlotte-concord-gastonia-29708": {"city": "Charlotte-Concord-Gastonia", "rent": 1870, "zip": "29708"}, "charlotte-concord-gastonia-29710": {"city": "Charlotte-Concord-Gastonia", "rent": 1610, "zip": "29710"}, "charlotte-concord-gastonia-29712": {"city": "Charlotte-Concord-Gastonia", "rent": 1330, "zip": "29712"}, "charlotte-concord-gastonia-29715": {"city": "Charlotte-Concord-Gastonia", "rent": 1790, "zip": "29715"}, "charlotte-concord-gastonia-29716": {"city": "Charlotte-Concord-Gastonia", "rent": 1530, "zip": "29716"}, "charlotte-concord-gastonia-29717": {"city": "Charlotte-Concord-Gastonia", "rent": 1270, "zip": "29717"}, "charlotte-concord-gastonia-29726": {"city": "Charlotte-Concord-Gastonia", "rent": 1090, "zip": "29726"}, "charlotte-concord-gastonia-29730": {"city": "Charlotte-Concord-Gastonia", "rent": 1510, "zip": "29730"}, "charlotte-concord-gastonia-29731": {"city": "Charlotte-Concord-Gastonia", "rent": 1530, "zip": "29731"}, "charlotte-concord-gastonia-29732": {"city": "Charlotte-Concord-Gastonia", "rent": 1510, "zip": "29732"}, "charlotte-concord-gastonia-29733": {"city": "Charlotte-Concord-Gastonia", "rent": 1510, "zip": "29733"}, "charlotte-concord-gastonia-29734": {"city": "Charlotte-Concord-Gastonia", "rent": 1530, "zip": "29734"}, "charlotte-concord-gastonia-29742": {"city": "Charlotte-Concord-Gastonia", "rent": 1330, "zip": "29742"}, "charlotte-concord-gastonia-29743": {"city": "Charlotte-Concord-Gastonia", "rent": 970, "zip": "29743"}, "charlotte-concord-gastonia-29745": {"city": "Charlotte-Concord-Gastonia", "rent": 1110, "zip": "29745"}, "anson-county-28007": {"city": "Anson County", "rent": 1100, "zip": "28007"}, "anson-county-28091": {"city": "Anson County", "rent": 1110, "zip": "28091"}, "anson-county-28102": {"city": "Anson County", "rent": 1250, "zip": "28102"}, "anson-county-28103": {"city": "Anson County", "rent": 1200, "zip": "28103"}, "anson-county-28119": {"city": "Anson County", "rent": 1340, "zip": "28119"}, "anson-county-28133": {"city": "Anson County", "rent": 1200, "zip": "28133"}, "anson-county-28135": {"city": "Anson County", "rent": 1230, "zip": "28135"}, "anson-county-28170": {"city": "Anson County", "rent": 1110, "zip": "28170"}, "iredell-county-27013": {"city": "Iredell County", "rent": 1250, "zip": "27013"}, "iredell-county-27020": {"city": "Iredell County", "rent": 990, "zip": "27020"}, "iredell-county-27028": {"city": "Iredell County", "rent": 1060, "zip": "27028"}, "iredell-county-27055": {"city": "Iredell County", "rent": 990, "zip": "27055"}, "iredell-county-28010": {"city": "Iredell County", "rent": 1340, "zip": "28010"}, "iredell-county-28036": {"city": "Iredell County", "rent": 1940, "zip": "28036"}, "iredell-county-28115": {"city": "Iredell County", "rent": 1370, "zip": "28115"}, "iredell-county-28117": {"city": "Iredell County", "rent": 2010, "zip": "28117"}, "iredell-county-28123": {"city": "Iredell County", "rent": 1340, "zip": "28123"}, "iredell-county-28125": {"city": "Iredell County", "rent": 1320, "zip": "28125"}, "iredell-county-28166": {"city": "Iredell County", "rent": 1490, "zip": "28166"}, "iredell-county-28625": {"city": "Iredell County", "rent": 1110, "zip": "28625"}, "iredell-county-28634": {"city": "Iredell County", "rent": 1010, "zip": "28634"}, "iredell-county-28636": {"city": "Iredell County", "rent": 1250, "zip": "28636"}, "iredell-county-28660": {"city": "Iredell County", "rent": 1250, "zip": "28660"}, "iredell-county-28677": {"city": "Iredell County", "rent": 1250, "zip": "28677"}, "iredell-county-28678": {"city": "Iredell County", "rent": 1250, "zip": "28678"}, "iredell-county-28687": {"city": "Iredell County", "rent": 1340, "zip": "28687"}, "iredell-county-28688": {"city": "Iredell County", "rent": 1340, "zip": "28688"}, "iredell-county-28689": {"city": "Iredell County", "rent": 1020, "zip": "28689"}, "lincoln-county-28006": {"city": "Lincoln County", "rent": 1240, "zip": "28006"}, "lincoln-county-28021": {"city": "Lincoln County", "rent": 1030, "zip": "28021"}, "lincoln-county-28033": {"city": "Lincoln County", "rent": 960, "zip": "28033"}, "lincoln-county-28034": {"city": "Lincoln County", "rent": 1050, "zip": "28034"}, "lincoln-county-28037": {"city": "Lincoln County", "rent": 1250, "zip": "28037"}, "lincoln-county-28080": {"city": "Lincoln County", "rent": 1280, "zip": "28080"}, "lincoln-county-28090": {"city": "Lincoln County", "rent": 1060, "zip": "28090"}, "lincoln-county-28092": {"city": "Lincoln County", "rent": 1010, "zip": "28092"}, "lincoln-county-28093": {"city": "Lincoln County", "rent": 1060, "zip": "28093"}, "lincoln-county-28164": {"city": "Lincoln County", "rent": 1260, "zip": "28164"}, "lincoln-county-28168": {"city": "Lincoln County", "rent": 1060, "zip": "28168"}, "lincoln-county-28650": {"city": "Lincoln County", "rent": 1060, "zip": "28650"}, "lincoln-county-28673": {"city": "Lincoln County", "rent": 1640, "zip": "28673"}, "rowan-county-27013": {"city": "Rowan County", "rent": 1250, "zip": "27013"}, "rowan-county-27054": {"city": "Rowan County", "rent": 1160, "zip": "27054"}, "rowan-county-28023": {"city": "Rowan County", "rent": 1160, "zip": "28023"}, "rowan-county-28036": {"city": "Rowan County", "rent": 1940, "zip": "28036"}, "rowan-county-28039": {"city": "Rowan County", "rent": 1250, "zip": "28039"}, "rowan-county-28041": {"city": "Rowan County", "rent": 1160, "zip": "28041"}, "rowan-county-28071": {"city": "Rowan County", "rent": 1160, "zip": "28071"}, "rowan-county-28072": {"city": "Rowan County", "rent": 1160, "zip": "28072"}, "rowan-county-28081": {"city": "Rowan County", "rent": 1250, "zip": "28081"}, "rowan-county-28083": {"city": "Rowan County", "rent": 1330, "zip": "28083"}, "rowan-county-28088": {"city": "Rowan County", "rent": 1210, "zip": "28088"}, "rowan-county-28115": {"city": "Rowan County", "rent": 1370, "zip": "28115"}, "rowan-county-28125": {"city": "Rowan County", "rent": 1320, "zip": "28125"}, "rowan-county-28127": {"city": "Rowan County", "rent": 970, "zip": "28127"}, "rowan-county-28137": {"city": "Rowan County", "rent": 1160, "zip": "28137"}, "rowan-county-28138": {"city": "Rowan County", "rent": 1240, "zip": "28138"}, "rowan-county-28144": {"city": "Rowan County", "rent": 1250, "zip": "28144"}, "rowan-county-28145": {"city": "Rowan County", "rent": 1200, "zip": "28145"}, "rowan-county-28146": {"city": "Rowan County", "rent": 1160, "zip": "28146"}, "rowan-county-28147": {"city": "Rowan County", "rent": 1220, "zip": "28147"}, "rowan-county-28159": {"city": "Rowan County", "rent": 1290, "zip": "28159"}, "rowan-county-28625": {"city": "Rowan County", "rent": 1110, "zip": "28625"}, "durham-chapel-hill-27207": {"city": "Durham-Chapel Hill", "rent": 1690, "zip": "27207"}, "durham-chapel-hill-27208": {"city": "Durham-Chapel Hill", "rent": 1330, "zip": "27208"}, "durham-chapel-hill-27213": {"city": "Durham-Chapel Hill", "rent": 1690, "zip": "27213"}, "durham-chapel-hill-27231": {"city": "Durham-Chapel Hill", "rent": 1690, "zip": "27231"}, "durham-chapel-hill-27243": {"city": "Durham-Chapel Hill", "rent": 1690, "zip": "27243"}, "durham-chapel-hill-27252": {"city": "Durham-Chapel Hill", "rent": 1690, "zip": "27252"}, "durham-chapel-hill-27256": {"city": "Durham-Chapel Hill", "rent": 1690, "zip": "27256"}, "durham-chapel-hill-27278": {"city": "Durham-Chapel Hill", "rent": 1690, "zip": "27278"}, "durham-chapel-hill-27298": {"city": "Durham-Chapel Hill", "rent": 1330, "zip": "27298"}, "durham-chapel-hill-27302": {"city": "Durham-Chapel Hill", "rent": 1690, "zip": "27302"}, "durham-chapel-hill-27312": {"city": "Durham-Chapel Hill", "rent": 1690, "zip": "27312"}, "durham-chapel-hill-27314": {"city": "Durham-Chapel Hill", "rent": 1690, "zip": "27314"}, "durham-chapel-hill-27325": {"city": "Durham-Chapel Hill", "rent": 1330, "zip": "27325"}, "durham-chapel-hill-27330": {"city": "Durham-Chapel Hill", "rent": 1690, "zip": "27330"}, "durham-chapel-hill-27344": {"city": "Durham-Chapel Hill", "rent": 1330, "zip": "27344"}, "durham-chapel-hill-27349": {"city": "Durham-Chapel Hill", "rent": 1690, "zip": "27349"}, "durham-chapel-hill-27355": {"city": "Durham-Chapel Hill", "rent": 1330, "zip": "27355"}, "durham-chapel-hill-27502": {"city": "Durham-Chapel Hill", "rent": 2140, "zip": "27502"}, "durham-chapel-hill-27503": {"city": "Durham-Chapel Hill", "rent": 1690, "zip": "27503"}, "durham-chapel-hill-27510": {"city": "Durham-Chapel Hill", "rent": 1790, "zip": "27510"}, "durham-chapel-hill-27514": {"city": "Durham-Chapel Hill", "rent": 1910, "zip": "27514"}, "durham-chapel-hill-27515": {"city": "Durham-Chapel Hill", "rent": 1730, "zip": "27515"}, "durham-chapel-hill-27516": {"city": "Durham-Chapel Hill", "rent": 1710, "zip": "27516"}, "durham-chapel-hill-27517": {"city": "Durham-Chapel Hill", "rent": 1940, "zip": "27517"}, "durham-chapel-hill-27519": {"city": "Durham-Chapel Hill", "rent": 2240, "zip": "27519"}, "durham-chapel-hill-27523": {"city": "Durham-Chapel Hill", "rent": 2110, "zip": "27523"}, "durham-chapel-hill-27540": {"city": "Durham-Chapel Hill", "rent": 2110, "zip": "27540"}, "durham-chapel-hill-27541": {"city": "Durham-Chapel Hill", "rent": 1690, "zip": "27541"}, "durham-chapel-hill-27559": {"city": "Durham-Chapel Hill", "rent": 1690, "zip": "27559"}, "durham-chapel-hill-27560": {"city": "Durham-Chapel Hill", "rent": 2230, "zip": "27560"}, "durham-chapel-hill-27562": {"city": "Durham-Chapel Hill", "rent": 2020, "zip": "27562"}, "durham-chapel-hill-27572": {"city": "Durham-Chapel Hill", "rent": 1690, "zip": "27572"}, "durham-chapel-hill-27583": {"city": "Durham-Chapel Hill", "rent": 1690, "zip": "27583"}, "durham-chapel-hill-27599": {"city": "Durham-Chapel Hill", "rent": 1730, "zip": "27599"}, "durham-chapel-hill-27613": {"city": "Durham-Chapel Hill", "rent": 1740, "zip": "27613"}, "durham-chapel-hill-27617": {"city": "Durham-Chapel Hill", "rent": 2010, "zip": "27617"}, "durham-chapel-hill-27701": {"city": "Durham-Chapel Hill", "rent": 1690, "zip": "27701"}, "durham-chapel-hill-27702": {"city": "Durham-Chapel Hill", "rent": 1730, "zip": "27702"}, "durham-chapel-hill-27703": {"city": "Durham-Chapel Hill", "rent": 1750, "zip": "27703"}, "durham-chapel-hill-27704": {"city": "Durham-Chapel Hill", "rent": 1690, "zip": "27704"}, "durham-chapel-hill-27705": {"city": "Durham-Chapel Hill", "rent": 1700, "zip": "27705"}, "durham-chapel-hill-27706": {"city": "Durham-Chapel Hill", "rent": 1730, "zip": "27706"}, "durham-chapel-hill-27707": {"city": "Durham-Chapel Hill", "rent": 1730, "zip": "27707"}, "durham-chapel-hill-27708": {"city": "Durham-Chapel Hill", "rent": 1700, "zip": "27708"}, "durham-chapel-hill-27709": {"city": "Durham-Chapel Hill", "rent": 1730, "zip": "27709"}, "durham-chapel-hill-27710": {"city": "Durham-Chapel Hill", "rent": 1730, "zip": "27710"}, "durham-chapel-hill-27712": {"city": "Durham-Chapel Hill", "rent": 2000, "zip": "27712"}, "durham-chapel-hill-27713": {"city": "Durham-Chapel Hill", "rent": 1900, "zip": "27713"}, "durham-chapel-hill-27715": {"city": "Durham-Chapel Hill", "rent": 1730, "zip": "27715"}, "durham-chapel-hill-27717": {"city": "Durham-Chapel Hill", "rent": 1730, "zip": "27717"}, "durham-chapel-hill-27722": {"city": "Durham-Chapel Hill", "rent": 1730, "zip": "27722"}, "person-county-27231": {"city": "Person County", "rent": 1690, "zip": "27231"}, "person-county-27291": {"city": "Person County", "rent": 1010, "zip": "27291"}, "person-county-27305": {"city": "Person County", "rent": 1390, "zip": "27305"}, "person-county-27343": {"city": "Person County", "rent": 1100, "zip": "27343"}, "person-county-27541": {"city": "Person County", "rent": 1690, "zip": "27541"}, "person-county-27565": {"city": "Person County", "rent": 1200, "zip": "27565"}, "person-county-27572": {"city": "Person County", "rent": 1690, "zip": "27572"}, "person-county-27573": {"city": "Person County", "rent": 930, "zip": "27573"}, "person-county-27574": {"city": "Person County", "rent": 1200, "zip": "27574"}, "person-county-27583": {"city": "Person County", "rent": 1690, "zip": "27583"}, "fayetteville-28301": {"city": "Fayetteville", "rent": 1120, "zip": "28301"}, "fayetteville-28302": {"city": "Fayetteville", "rent": 1250, "zip": "28302"}, "fayetteville-28303": {"city": "Fayetteville", "rent": 1260, "zip": "28303"}, "fayetteville-28304": {"city": "Fayetteville", "rent": 1440, "zip": "28304"}, "fayetteville-28305": {"city": "Fayetteville", "rent": 1150, "zip": "28305"}, "fayetteville-28306": {"city": "Fayetteville", "rent": 1120, "zip": "28306"}, "fayetteville-28307": {"city": "Fayetteville", "rent": 1470, "zip": "28307"}, "fayetteville-28308": {"city": "Fayetteville", "rent": 1280, "zip": "28308"}, "fayetteville-28309": {"city": "Fayetteville", "rent": 1250, "zip": "28309"}, "fayetteville-28310": {"city": "Fayetteville", "rent": 1350, "zip": "28310"}, "fayetteville-28311": {"city": "Fayetteville", "rent": 1270, "zip": "28311"}, "fayetteville-28312": {"city": "Fayetteville", "rent": 1120, "zip": "28312"}, "fayetteville-28314": {"city": "Fayetteville", "rent": 1380, "zip": "28314"}, "fayetteville-28318": {"city": "Fayetteville", "rent": 1120, "zip": "28318"}, "fayetteville-28331": {"city": "Fayetteville", "rent": 1120, "zip": "28331"}, "fayetteville-28334": {"city": "Fayetteville", "rent": 1350, "zip": "28334"}, "fayetteville-28342": {"city": "Fayetteville", "rent": 1120, "zip": "28342"}, "fayetteville-28344": {"city": "Fayetteville", "rent": 1120, "zip": "28344"}, "fayetteville-28348": {"city": "Fayetteville", "rent": 1280, "zip": "28348"}, "fayetteville-28356": {"city": "Fayetteville", "rent": 1120, "zip": "28356"}, "fayetteville-28371": {"city": "Fayetteville", "rent": 1150, "zip": "28371"}, "fayetteville-28382": {"city": "Fayetteville", "rent": 1120, "zip": "28382"}, "fayetteville-28384": {"city": "Fayetteville", "rent": 1120, "zip": "28384"}, "fayetteville-28390": {"city": "Fayetteville", "rent": 1160, "zip": "28390"}, "fayetteville-28391": {"city": "Fayetteville", "rent": 1120, "zip": "28391"}, "fayetteville-28395": {"city": "Fayetteville", "rent": 1150, "zip": "28395"}, "fayetteville-28399": {"city": "Fayetteville", "rent": 1120, "zip": "28399"}, "fayetteville-28441": {"city": "Fayetteville", "rent": 1120, "zip": "28441"}, "hoke-county-28304": {"city": "Hoke County", "rent": 1440, "zip": "28304"}, "hoke-county-28306": {"city": "Hoke County", "rent": 1120, "zip": "28306"}, "hoke-county-28315": {"city": "Hoke County", "rent": 1160, "zip": "28315"}, "hoke-county-28357": {"city": "Hoke County", "rent": 930, "zip": "28357"}, "hoke-county-28364": {"city": "Hoke County", "rent": 930, "zip": "28364"}, "hoke-county-28371": {"city": "Hoke County", "rent": 1150, "zip": "28371"}, "hoke-county-28376": {"city": "Hoke County", "rent": 1110, "zip": "28376"}, "hoke-county-28377": {"city": "Hoke County", "rent": 930, "zip": "28377"}, "hoke-county-28386": {"city": "Hoke County", "rent": 930, "zip": "28386"}, "goldsboro-27524": {"city": "Goldsboro", "rent": 1350, "zip": "27524"}, "goldsboro-27530": {"city": "Goldsboro", "rent": 1160, "zip": "27530"}, "goldsboro-27531": {"city": "Goldsboro", "rent": 1330, "zip": "27531"}, "goldsboro-27532": {"city": "Goldsboro", "rent": 1240, "zip": "27532"}, "goldsboro-27533": {"city": "Goldsboro", "rent": 1160, "zip": "27533"}, "goldsboro-27534": {"city": "Goldsboro", "rent": 1450, "zip": "27534"}, "goldsboro-27542": {"city": "Goldsboro", "rent": 1350, "zip": "27542"}, "goldsboro-27569": {"city": "Goldsboro", "rent": 1350, "zip": "27569"}, "goldsboro-27830": {"city": "Goldsboro", "rent": 1070, "zip": "27830"}, "goldsboro-27851": {"city": "Goldsboro", "rent": 1070, "zip": "27851"}, "goldsboro-27863": {"city": "Goldsboro", "rent": 1350, "zip": "27863"}, "goldsboro-27883": {"city": "Goldsboro", "rent": 1070, "zip": "27883"}, "goldsboro-28333": {"city": "Goldsboro", "rent": 1110, "zip": "28333"}, "goldsboro-28365": {"city": "Goldsboro", "rent": 1100, "zip": "28365"}, "goldsboro-28551": {"city": "Goldsboro", "rent": 1070, "zip": "28551"}, "goldsboro-28578": {"city": "Goldsboro", "rent": 1110, "zip": "28578"}, "greensboro-high-point-27203": {"city": "Greensboro-High Point", "rent": 1040, "zip": "27203"}, "greensboro-high-point-27205": {"city": "Greensboro-High Point", "rent": 1060, "zip": "27205"}, "greensboro-high-point-27208": {"city": "Greensboro-High Point", "rent": 1330, "zip": "27208"}, "greensboro-high-point-27214": {"city": "Greensboro-High Point", "rent": 1410, "zip": "27214"}, "greensboro-high-point-27215": {"city": "Greensboro-High Point", "rent": 1470, "zip": "27215"}, "greensboro-high-point-27230": {"city": "Greensboro-High Point", "rent": 1080, "zip": "27230"}, "greensboro-high-point-27233": {"city": "Greensboro-High Point", "rent": 1260, "zip": "27233"}, "greensboro-high-point-27235": {"city": "Greensboro-High Point", "rent": 1900, "zip": "27235"}, "greensboro-high-point-27239": {"city": "Greensboro-High Point", "rent": 960, "zip": "27239"}, "greensboro-high-point-27244": {"city": "Greensboro-High Point", "rent": 1240, "zip": "27244"}, "greensboro-high-point-27248": {"city": "Greensboro-High Point", "rent": 1330, "zip": "27248"}, "greensboro-high-point-27249": {"city": "Greensboro-High Point", "rent": 1170, "zip": "27249"}, "greensboro-high-point-27260": {"city": "Greensboro-High Point", "rent": 1180, "zip": "27260"}, "greensboro-high-point-27261": {"city": "Greensboro-High Point", "rent": 1370, "zip": "27261"}, "greensboro-high-point-27262": {"city": "Greensboro-High Point", "rent": 1300, "zip": "27262"}, "greensboro-high-point-27263": {"city": "Greensboro-High Point", "rent": 1170, "zip": "27263"}, "greensboro-high-point-27264": {"city": "Greensboro-High Point", "rent": 1370, "zip": "27264"}, "greensboro-high-point-27265": {"city": "Greensboro-High Point", "rent": 1530, "zip": "27265"}, "greensboro-high-point-27268": {"city": "Greensboro-High Point", "rent": 1260, "zip": "27268"}, "greensboro-high-point-27282": {"city": "Greensboro-High Point", "rent": 1670, "zip": "27282"}, "greensboro-high-point-27283": {"city": "Greensboro-High Point", "rent": 1420, "zip": "27283"}, "greensboro-high-point-27284": {"city": "Greensboro-High Point", "rent": 1350, "zip": "27284"}, "greensboro-high-point-27292": {"city": "Greensboro-High Point", "rent": 1050, "zip": "27292"}, "greensboro-high-point-27298": {"city": "Greensboro-High Point", "rent": 1330, "zip": "27298"}, "greensboro-high-point-27301": {"city": "Greensboro-High Point", "rent": 2000, "zip": "27301"}, "greensboro-high-point-27310": {"city": "Greensboro-High Point", "rent": 1420, "zip": "27310"}, "greensboro-high-point-27313": {"city": "Greensboro-High Point", "rent": 1110, "zip": "27313"}, "greensboro-high-point-27316": {"city": "Greensboro-High Point", "rent": 1040, "zip": "27316"}, "greensboro-high-point-27317": {"city": "Greensboro-High Point", "rent": 1050, "zip": "27317"}, "greensboro-high-point-27320": {"city": "Greensboro-High Point", "rent": 1070, "zip": "27320"}, "greensboro-high-point-27325": {"city": "Greensboro-High Point", "rent": 1330, "zip": "27325"}, "greensboro-high-point-27341": {"city": "Greensboro-High Point", "rent": 1120, "zip": "27341"}, "greensboro-high-point-27342": {"city": "Greensboro-High Point", "rent": 1180, "zip": "27342"}, "greensboro-high-point-27344": {"city": "Greensboro-High Point", "rent": 1330, "zip": "27344"}, "greensboro-high-point-27350": {"city": "Greensboro-High Point", "rent": 1140, "zip": "27350"}, "greensboro-high-point-27355": {"city": "Greensboro-High Point", "rent": 1330, "zip": "27355"}, "greensboro-high-point-27357": {"city": "Greensboro-High Point", "rent": 1080, "zip": "27357"}, "greensboro-high-point-27358": {"city": "Greensboro-High Point", "rent": 1470, "zip": "27358"}, "greensboro-high-point-27360": {"city": "Greensboro-High Point", "rent": 1010, "zip": "27360"}, "greensboro-high-point-27370": {"city": "Greensboro-High Point", "rent": 1220, "zip": "27370"}, "greensboro-high-point-27371": {"city": "Greensboro-High Point", "rent": 960, "zip": "27371"}, "greensboro-high-point-27377": {"city": "Greensboro-High Point", "rent": 1500, "zip": "27377"}, "greensboro-high-point-27401": {"city": "Greensboro-High Point", "rent": 1170, "zip": "27401"}, "greensboro-high-point-27402": {"city": "Greensboro-High Point", "rent": 1370, "zip": "27402"}, "greensboro-high-point-27403": {"city": "Greensboro-High Point", "rent": 1280, "zip": "27403"}, "greensboro-high-point-27404": {"city": "Greensboro-High Point", "rent": 1370, "zip": "27404"}, "greensboro-high-point-27405": {"city": "Greensboro-High Point", "rent": 1260, "zip": "27405"}, "greensboro-high-point-27406": {"city": "Greensboro-High Point", "rent": 1370, "zip": "27406"}, "greensboro-high-point-27407": {"city": "Greensboro-High Point", "rent": 1440, "zip": "27407"}, "greensboro-high-point-27408": {"city": "Greensboro-High Point", "rent": 1400, "zip": "27408"}, "greensboro-high-point-27409": {"city": "Greensboro-High Point", "rent": 1410, "zip": "27409"}, "greensboro-high-point-27410": {"city": "Greensboro-High Point", "rent": 1750, "zip": "27410"}, "greensboro-high-point-27411": {"city": "Greensboro-High Point", "rent": 1190, "zip": "27411"}, "greensboro-high-point-27412": {"city": "Greensboro-High Point", "rent": 1280, "zip": "27412"}, "greensboro-high-point-27413": {"city": "Greensboro-High Point", "rent": 1370, "zip": "27413"}, "greensboro-high-point-27415": {"city": "Greensboro-High Point", "rent": 1370, "zip": "27415"}, "greensboro-high-point-27416": {"city": "Greensboro-High Point", "rent": 1370, "zip": "27416"}, "greensboro-high-point-27417": {"city": "Greensboro-High Point", "rent": 1370, "zip": "27417"}, "greensboro-high-point-27419": {"city": "Greensboro-High Point", "rent": 1370, "zip": "27419"}, "greensboro-high-point-27420": {"city": "Greensboro-High Point", "rent": 1370, "zip": "27420"}, "greensboro-high-point-27425": {"city": "Greensboro-High Point", "rent": 1370, "zip": "27425"}, "greensboro-high-point-27429": {"city": "Greensboro-High Point", "rent": 1370, "zip": "27429"}, "greensboro-high-point-27435": {"city": "Greensboro-High Point", "rent": 1370, "zip": "27435"}, "greensboro-high-point-27438": {"city": "Greensboro-High Point", "rent": 1370, "zip": "27438"}, "greensboro-high-point-27455": {"city": "Greensboro-High Point", "rent": 1500, "zip": "27455"}, "greensboro-high-point-27495": {"city": "Greensboro-High Point", "rent": 1370, "zip": "27495"}, "greensboro-high-point-27498": {"city": "Greensboro-High Point", "rent": 1370, "zip": "27498"}, "greensboro-high-point-27499": {"city": "Greensboro-High Point", "rent": 1370, "zip": "27499"}, "greensboro-high-point-28127": {"city": "Greensboro-High Point", "rent": 970, "zip": "28127"}, "rockingham-county-27025": {"city": "Rockingham County", "rent": 930, "zip": "27025"}, "rockingham-county-27027": {"city": "Rockingham County", "rent": 940, "zip": "27027"}, "rockingham-county-27048": {"city": "Rockingham County", "rent": 1060, "zip": "27048"}, "rockingham-county-27214": {"city": "Rockingham County", "rent": 1410, "zip": "27214"}, "rockingham-county-27249": {"city": "Rockingham County", "rent": 1170, "zip": "27249"}, "rockingham-county-27288": {"city": "Rockingham County", "rent": 1040, "zip": "27288"}, "rockingham-county-27289": {"city": "Rockingham County", "rent": 1040, "zip": "27289"}, "rockingham-county-27311": {"city": "Rockingham County", "rent": 940, "zip": "27311"}, "rockingham-county-27320": {"city": "Rockingham County", "rent": 1070, "zip": "27320"}, "rockingham-county-27326": {"city": "Rockingham County", "rent": 940, "zip": "27326"}, "rockingham-county-27357": {"city": "Rockingham County", "rent": 1080, "zip": "27357"}, "rockingham-county-27358": {"city": "Rockingham County", "rent": 1470, "zip": "27358"}, "rockingham-county-27375": {"city": "Rockingham County", "rent": 1040, "zip": "27375"}, "greenville-27812": {"city": "Greenville", "rent": 990, "zip": "27812"}, "greenville-27817": {"city": "Greenville", "rent": 990, "zip": "27817"}, "greenville-27827": {"city": "Greenville", "rent": 990, "zip": "27827"}, "greenville-27828": {"city": "Greenville", "rent": 1070, "zip": "27828"}, "greenville-27829": {"city": "Greenville", "rent": 990, "zip": "27829"}, "greenville-27833": {"city": "Greenville", "rent": 1100, "zip": "27833"}, "greenville-27834": {"city": "Greenville", "rent": 1120, "zip": "27834"}, "greenville-27835": {"city": "Greenville", "rent": 1100, "zip": "27835"}, "greenville-27836": {"city": "Greenville", "rent": 1100, "zip": "27836"}, "greenville-27837": {"city": "Greenville", "rent": 990, "zip": "27837"}, "greenville-27852": {"city": "Greenville", "rent": 1050, "zip": "27852"}, "greenville-27858": {"city": "Greenville", "rent": 1180, "zip": "27858"}, "greenville-27871": {"city": "Greenville", "rent": 990, "zip": "27871"}, "greenville-27879": {"city": "Greenville", "rent": 1060, "zip": "27879"}, "greenville-27884": {"city": "Greenville", "rent": 990, "zip": "27884"}, "greenville-27886": {"city": "Greenville", "rent": 1000, "zip": "27886"}, "greenville-27888": {"city": "Greenville", "rent": 990, "zip": "27888"}, "greenville-27889": {"city": "Greenville", "rent": 990, "zip": "27889"}, "greenville-28513": {"city": "Greenville", "rent": 990, "zip": "28513"}, "greenville-28530": {"city": "Greenville", "rent": 1190, "zip": "28530"}, "greenville-28586": {"city": "Greenville", "rent": 1190, "zip": "28586"}, "greenville-28590": {"city": "Greenville", "rent": 1170, "zip": "28590"}, "hickory-lenoir-morganton-28037": {"city": "Hickory-Lenoir-Morganton", "rent": 1250, "zip": "28037"}, "hickory-lenoir-morganton-28090": {"city": "Hickory-Lenoir-Morganton", "rent": 1060, "zip": "28090"}, "hickory-lenoir-morganton-28092": {"city": "Hickory-Lenoir-Morganton", "rent": 1010, "zip": "28092"}, "hickory-lenoir-morganton-28168": {"city": "Hickory-Lenoir-Morganton", "rent": 1060, "zip": "28168"}, "hickory-lenoir-morganton-28601": {"city": "Hickory-Lenoir-Morganton", "rent": 1260, "zip": "28601"}, "hickory-lenoir-morganton-28602": {"city": "Hickory-Lenoir-Morganton", "rent": 1140, "zip": "28602"}, "hickory-lenoir-morganton-28603": {"city": "Hickory-Lenoir-Morganton", "rent": 1170, "zip": "28603"}, "hickory-lenoir-morganton-28605": {"city": "Hickory-Lenoir-Morganton", "rent": 1200, "zip": "28605"}, "hickory-lenoir-morganton-28606": {"city": "Hickory-Lenoir-Morganton", "rent": 950, "zip": "28606"}, "hickory-lenoir-morganton-28609": {"city": "Hickory-Lenoir-Morganton", "rent": 1370, "zip": "28609"}, "hickory-lenoir-morganton-28610": {"city": "Hickory-Lenoir-Morganton", "rent": 1140, "zip": "28610"}, "hickory-lenoir-morganton-28611": {"city": "Hickory-Lenoir-Morganton", "rent": 1030, "zip": "28611"}, "hickory-lenoir-morganton-28612": {"city": "Hickory-Lenoir-Morganton", "rent": 1080, "zip": "28612"}, "hickory-lenoir-morganton-28613": {"city": "Hickory-Lenoir-Morganton", "rent": 1070, "zip": "28613"}, "hickory-lenoir-morganton-28619": {"city": "Hickory-Lenoir-Morganton", "rent": 950, "zip": "28619"}, "hickory-lenoir-morganton-28624": {"city": "Hickory-Lenoir-Morganton", "rent": 970, "zip": "28624"}, "hickory-lenoir-morganton-28625": {"city": "Hickory-Lenoir-Morganton", "rent": 1110, "zip": "28625"}, "hickory-lenoir-morganton-28628": {"city": "Hickory-Lenoir-Morganton", "rent": 1090, "zip": "28628"}, "hickory-lenoir-morganton-28630": {"city": "Hickory-Lenoir-Morganton", "rent": 1110, "zip": "28630"}, "hickory-lenoir-morganton-28633": {"city": "Hickory-Lenoir-Morganton", "rent": 980, "zip": "28633"}, "hickory-lenoir-morganton-28636": {"city": "Hickory-Lenoir-Morganton", "rent": 1250, "zip": "28636"}, "hickory-lenoir-morganton-28637": {"city": "Hickory-Lenoir-Morganton", "rent": 970, "zip": "28637"}, "hickory-lenoir-morganton-28638": {"city": "Hickory-Lenoir-Morganton", "rent": 950, "zip": "28638"}, "hickory-lenoir-morganton-28641": {"city": "Hickory-Lenoir-Morganton", "rent": 950, "zip": "28641"}, "hickory-lenoir-morganton-28645": {"city": "Hickory-Lenoir-Morganton", "rent": 1150, "zip": "28645"}, "hickory-lenoir-morganton-28647": {"city": "Hickory-Lenoir-Morganton", "rent": 1080, "zip": "28647"}, "hickory-lenoir-morganton-28650": {"city": "Hickory-Lenoir-Morganton", "rent": 1060, "zip": "28650"}, "hickory-lenoir-morganton-28654": {"city": "Hickory-Lenoir-Morganton", "rent": 1200, "zip": "28654"}, "hickory-lenoir-morganton-28655": {"city": "Hickory-Lenoir-Morganton", "rent": 1370, "zip": "28655"}, "hickory-lenoir-morganton-28657": {"city": "Hickory-Lenoir-Morganton", "rent": 950, "zip": "28657"}, "hickory-lenoir-morganton-28658": {"city": "Hickory-Lenoir-Morganton", "rent": 1200, "zip": "28658"}, "hickory-lenoir-morganton-28661": {"city": "Hickory-Lenoir-Morganton", "rent": 980, "zip": "28661"}, "hickory-lenoir-morganton-28666": {"city": "Hickory-Lenoir-Morganton", "rent": 1100, "zip": "28666"}, "hickory-lenoir-morganton-28667": {"city": "Hickory-Lenoir-Morganton", "rent": 1030, "zip": "28667"}, "hickory-lenoir-morganton-28671": {"city": "Hickory-Lenoir-Morganton", "rent": 1080, "zip": "28671"}, "hickory-lenoir-morganton-28673": {"city": "Hickory-Lenoir-Morganton", "rent": 1640, "zip": "28673"}, "hickory-lenoir-morganton-28678": {"city": "Hickory-Lenoir-Morganton", "rent": 1250, "zip": "28678"}, "hickory-lenoir-morganton-28680": {"city": "Hickory-Lenoir-Morganton", "rent": 1080, "zip": "28680"}, "hickory-lenoir-morganton-28681": {"city": "Hickory-Lenoir-Morganton", "rent": 980, "zip": "28681"}, "hickory-lenoir-morganton-28682": {"city": "Hickory-Lenoir-Morganton", "rent": 1640, "zip": "28682"}, "hickory-lenoir-morganton-28689": {"city": "Hickory-Lenoir-Morganton", "rent": 1020, "zip": "28689"}, "hickory-lenoir-morganton-28690": {"city": "Hickory-Lenoir-Morganton", "rent": 1090, "zip": "28690"}, "hickory-lenoir-morganton-28761": {"city": "Hickory-Lenoir-Morganton", "rent": 990, "zip": "28761"}, "jacksonville-28445": {"city": "Jacksonville", "rent": 1370, "zip": "28445"}, "jacksonville-28454": {"city": "Jacksonville", "rent": 1710, "zip": "28454"}, "jacksonville-28460": {"city": "Jacksonville", "rent": 1470, "zip": "28460"}, "jacksonville-28518": {"city": "Jacksonville", "rent": 1040, "zip": "28518"}, "jacksonville-28521": {"city": "Jacksonville", "rent": 1210, "zip": "28521"}, "jacksonville-28539": {"city": "Jacksonville", "rent": 1140, "zip": "28539"}, "jacksonville-28540": {"city": "Jacksonville", "rent": 1140, "zip": "28540"}, "jacksonville-28541": {"city": "Jacksonville", "rent": 1170, "zip": "28541"}, "jacksonville-28542": {"city": "Jacksonville", "rent": 1760, "zip": "28542"}, "jacksonville-28543": {"city": "Jacksonville", "rent": 1380, "zip": "28543"}, "jacksonville-28544": {"city": "Jacksonville", "rent": 1120, "zip": "28544"}, "jacksonville-28545": {"city": "Jacksonville", "rent": 1170, "zip": "28545"}, "jacksonville-28546": {"city": "Jacksonville", "rent": 1140, "zip": "28546"}, "jacksonville-28547": {"city": "Jacksonville", "rent": 1440, "zip": "28547"}, "jacksonville-28555": {"city": "Jacksonville", "rent": 1210, "zip": "28555"}, "jacksonville-28572": {"city": "Jacksonville", "rent": 1040, "zip": "28572"}, "jacksonville-28574": {"city": "Jacksonville", "rent": 1150, "zip": "28574"}, "jacksonville-28582": {"city": "Jacksonville", "rent": 1320, "zip": "28582"}, "jacksonville-28584": {"city": "Jacksonville", "rent": 1470, "zip": "28584"}, "pinehurst-southern-pines-27208": {"city": "Pinehurst-Southern Pines", "rent": 1330, "zip": "27208"}, "pinehurst-southern-pines-27209": {"city": "Pinehurst-Southern Pines", "rent": 1030, "zip": "27209"}, "pinehurst-southern-pines-27242": {"city": "Pinehurst-Southern Pines", "rent": 1110, "zip": "27242"}, "pinehurst-southern-pines-27252": {"city": "Pinehurst-Southern Pines", "rent": 1690, "zip": "27252"}, "pinehurst-southern-pines-27259": {"city": "Pinehurst-Southern Pines", "rent": 1030, "zip": "27259"}, "pinehurst-southern-pines-27281": {"city": "Pinehurst-Southern Pines", "rent": 1140, "zip": "27281"}, "pinehurst-southern-pines-27325": {"city": "Pinehurst-Southern Pines", "rent": 1330, "zip": "27325"}, "pinehurst-southern-pines-27330": {"city": "Pinehurst-Southern Pines", "rent": 1690, "zip": "27330"}, "pinehurst-southern-pines-27341": {"city": "Pinehurst-Southern Pines", "rent": 1120, "zip": "27341"}, "pinehurst-southern-pines-27356": {"city": "Pinehurst-Southern Pines", "rent": 1030, "zip": "27356"}, "pinehurst-southern-pines-27376": {"city": "Pinehurst-Southern Pines", "rent": 1080, "zip": "27376"}, "pinehurst-southern-pines-28315": {"city": "Pinehurst-Southern Pines", "rent": 1160, "zip": "28315"}, "pinehurst-southern-pines-28326": {"city": "Pinehurst-Southern Pines", "rent": 1440, "zip": "28326"}, "pinehurst-southern-pines-28327": {"city": "Pinehurst-Southern Pines", "rent": 1640, "zip": "28327"}, "pinehurst-southern-pines-28347": {"city": "Pinehurst-Southern Pines", "rent": 1030, "zip": "28347"}, "pinehurst-southern-pines-28350": {"city": "Pinehurst-Southern Pines", "rent": 1620, "zip": "28350"}, "pinehurst-southern-pines-28370": {"city": "Pinehurst-Southern Pines", "rent": 1360, "zip": "28370"}, "pinehurst-southern-pines-28373": {"city": "Pinehurst-Southern Pines", "rent": 1170, "zip": "28373"}, "pinehurst-southern-pines-28374": {"city": "Pinehurst-Southern Pines", "rent": 1990, "zip": "28374"}, "pinehurst-southern-pines-28387": {"city": "Pinehurst-Southern Pines", "rent": 1350, "zip": "28387"}, "pinehurst-southern-pines-28388": {"city": "Pinehurst-Southern Pines", "rent": 1360, "zip": "28388"}, "pinehurst-southern-pines-28394": {"city": "Pinehurst-Southern Pines", "rent": 1720, "zip": "28394"}, "raleigh-cary-27501": {"city": "Raleigh-Cary", "rent": 1350, "zip": "27501"}, "raleigh-cary-27502": {"city": "Raleigh-Cary", "rent": 2140, "zip": "27502"}, "raleigh-cary-27504": {"city": "Raleigh-Cary", "rent": 1350, "zip": "27504"}, "raleigh-cary-27508": {"city": "Raleigh-Cary", "rent": 1350, "zip": "27508"}, "raleigh-cary-27511": {"city": "Raleigh-Cary", "rent": 1620, "zip": "27511"}, "raleigh-cary-27512": {"city": "Raleigh-Cary", "rent": 1810, "zip": "27512"}, "raleigh-cary-27513": {"city": "Raleigh-Cary", "rent": 1920, "zip": "27513"}, "raleigh-cary-27518": {"city": "Raleigh-Cary", "rent": 1900, "zip": "27518"}, "raleigh-cary-27519": {"city": "Raleigh-Cary", "rent": 2240, "zip": "27519"}, "raleigh-cary-27520": {"city": "Raleigh-Cary", "rent": 1630, "zip": "27520"}, "raleigh-cary-27522": {"city": "Raleigh-Cary", "rent": 1400, "zip": "27522"}, "raleigh-cary-27523": {"city": "Raleigh-Cary", "rent": 2110, "zip": "27523"}, "raleigh-cary-27524": {"city": "Raleigh-Cary", "rent": 1350, "zip": "27524"}, "raleigh-cary-27525": {"city": "Raleigh-Cary", "rent": 1350, "zip": "27525"}, "raleigh-cary-27526": {"city": "Raleigh-Cary", "rent": 1830, "zip": "27526"}, "raleigh-cary-27527": {"city": "Raleigh-Cary", "rent": 1910, "zip": "27527"}, "raleigh-cary-27528": {"city": "Raleigh-Cary", "rent": 1350, "zip": "27528"}, "raleigh-cary-27529": {"city": "Raleigh-Cary", "rent": 1660, "zip": "27529"}, "raleigh-cary-27537": {"city": "Raleigh-Cary", "rent": 1350, "zip": "27537"}, "raleigh-cary-27539": {"city": "Raleigh-Cary", "rent": 2040, "zip": "27539"}, "raleigh-cary-27540": {"city": "Raleigh-Cary", "rent": 2110, "zip": "27540"}, "raleigh-cary-27542": {"city": "Raleigh-Cary", "rent": 1350, "zip": "27542"}, "raleigh-cary-27544": {"city": "Raleigh-Cary", "rent": 1350, "zip": "27544"}, "raleigh-cary-27545": {"city": "Raleigh-Cary", "rent": 1790, "zip": "27545"}, "raleigh-cary-27549": {"city": "Raleigh-Cary", "rent": 1350, "zip": "27549"}, "raleigh-cary-27555": {"city": "Raleigh-Cary", "rent": 1350, "zip": "27555"}, "raleigh-cary-27557": {"city": "Raleigh-Cary", "rent": 1350, "zip": "27557"}, "raleigh-cary-27560": {"city": "Raleigh-Cary", "rent": 2230, "zip": "27560"}, "raleigh-cary-27562": {"city": "Raleigh-Cary", "rent": 2020, "zip": "27562"}, "raleigh-cary-27568": {"city": "Raleigh-Cary", "rent": 1350, "zip": "27568"}, "raleigh-cary-27569": {"city": "Raleigh-Cary", "rent": 1350, "zip": "27569"}, "raleigh-cary-27571": {"city": "Raleigh-Cary", "rent": 1750, "zip": "27571"}, "raleigh-cary-27576": {"city": "Raleigh-Cary", "rent": 1350, "zip": "27576"}, "raleigh-cary-27577": {"city": "Raleigh-Cary", "rent": 1350, "zip": "27577"}, "raleigh-cary-27587": {"city": "Raleigh-Cary", "rent": 1750, "zip": "27587"}, "raleigh-cary-27588": {"city": "Raleigh-Cary", "rent": 1810, "zip": "27588"}, "raleigh-cary-27589": {"city": "Raleigh-Cary", "rent": 1350, "zip": "27589"}, "raleigh-cary-27591": {"city": "Raleigh-Cary", "rent": 1490, "zip": "27591"}, "raleigh-cary-27592": {"city": "Raleigh-Cary", "rent": 1350, "zip": "27592"}, "raleigh-cary-27593": {"city": "Raleigh-Cary", "rent": 1350, "zip": "27593"}, "raleigh-cary-27596": {"city": "Raleigh-Cary", "rent": 1390, "zip": "27596"}, "raleigh-cary-27597": {"city": "Raleigh-Cary", "rent": 1350, "zip": "27597"}, "raleigh-cary-27601": {"city": "Raleigh-Cary", "rent": 1840, "zip": "27601"}, "raleigh-cary-27602": {"city": "Raleigh-Cary", "rent": 1810, "zip": "27602"}, "raleigh-cary-27603": {"city": "Raleigh-Cary", "rent": 1670, "zip": "27603"}, "raleigh-cary-27604": {"city": "Raleigh-Cary", "rent": 1720, "zip": "27604"}, "raleigh-cary-27605": {"city": "Raleigh-Cary", "rent": 1930, "zip": "27605"}, "raleigh-cary-27606": {"city": "Raleigh-Cary", "rent": 1750, "zip": "27606"}, "raleigh-cary-27607": {"city": "Raleigh-Cary", "rent": 1780, "zip": "27607"}, "raleigh-cary-27608": {"city": "Raleigh-Cary", "rent": 1760, "zip": "27608"}, "raleigh-cary-27609": {"city": "Raleigh-Cary", "rent": 1820, "zip": "27609"}, "raleigh-cary-27610": {"city": "Raleigh-Cary", "rent": 1540, "zip": "27610"}, "raleigh-cary-27611": {"city": "Raleigh-Cary", "rent": 1810, "zip": "27611"}, "raleigh-cary-27612": {"city": "Raleigh-Cary", "rent": 2060, "zip": "27612"}, "raleigh-cary-27613": {"city": "Raleigh-Cary", "rent": 1740, "zip": "27613"}, "raleigh-cary-27614": {"city": "Raleigh-Cary", "rent": 1860, "zip": "27614"}, "raleigh-cary-27615": {"city": "Raleigh-Cary", "rent": 1970, "zip": "27615"}, "raleigh-cary-27616": {"city": "Raleigh-Cary", "rent": 1820, "zip": "27616"}, "raleigh-cary-27617": {"city": "Raleigh-Cary", "rent": 2010, "zip": "27617"}, "raleigh-cary-27619": {"city": "Raleigh-Cary", "rent": 1810, "zip": "27619"}, "raleigh-cary-27620": {"city": "Raleigh-Cary", "rent": 1810, "zip": "27620"}, "raleigh-cary-27622": {"city": "Raleigh-Cary", "rent": 1810, "zip": "27622"}, "raleigh-cary-27623": {"city": "Raleigh-Cary", "rent": 1810, "zip": "27623"}, "raleigh-cary-27624": {"city": "Raleigh-Cary", "rent": 1810, "zip": "27624"}, "raleigh-cary-27627": {"city": "Raleigh-Cary", "rent": 1810, "zip": "27627"}, "raleigh-cary-27628": {"city": "Raleigh-Cary", "rent": 1810, "zip": "27628"}, "raleigh-cary-27629": {"city": "Raleigh-Cary", "rent": 1810, "zip": "27629"}, "raleigh-cary-27636": {"city": "Raleigh-Cary", "rent": 1810, "zip": "27636"}, "raleigh-cary-27640": {"city": "Raleigh-Cary", "rent": 1810, "zip": "27640"}, "raleigh-cary-27656": {"city": "Raleigh-Cary", "rent": 1810, "zip": "27656"}, "raleigh-cary-27658": {"city": "Raleigh-Cary", "rent": 1810, "zip": "27658"}, "raleigh-cary-27661": {"city": "Raleigh-Cary", "rent": 1810, "zip": "27661"}, "raleigh-cary-27675": {"city": "Raleigh-Cary", "rent": 1810, "zip": "27675"}, "raleigh-cary-27676": {"city": "Raleigh-Cary", "rent": 1810, "zip": "27676"}, "raleigh-cary-27690": {"city": "Raleigh-Cary", "rent": 1810, "zip": "27690"}, "raleigh-cary-27695": {"city": "Raleigh-Cary", "rent": 1780, "zip": "27695"}, "raleigh-cary-27697": {"city": "Raleigh-Cary", "rent": 1810, "zip": "27697"}, "raleigh-cary-27699": {"city": "Raleigh-Cary", "rent": 1810, "zip": "27699"}, "raleigh-cary-27703": {"city": "Raleigh-Cary", "rent": 1750, "zip": "27703"}, "raleigh-cary-27713": {"city": "Raleigh-Cary", "rent": 1900, "zip": "27713"}, "raleigh-cary-27816": {"city": "Raleigh-Cary", "rent": 1350, "zip": "27816"}, "raleigh-cary-27844": {"city": "Raleigh-Cary", "rent": 1350, "zip": "27844"}, "raleigh-cary-27863": {"city": "Raleigh-Cary", "rent": 1350, "zip": "27863"}, "raleigh-cary-27882": {"city": "Raleigh-Cary", "rent": 1350, "zip": "27882"}, "raleigh-cary-28334": {"city": "Raleigh-Cary", "rent": 1350, "zip": "28334"}, "raleigh-cary-28366": {"city": "Raleigh-Cary", "rent": 1350, "zip": "28366"}, "rocky-mount-27557": {"city": "Rocky Mount", "rent": 1350, "zip": "27557"}, "rocky-mount-27597": {"city": "Rocky Mount", "rent": 1350, "zip": "27597"}, "rocky-mount-27801": {"city": "Rocky Mount", "rent": 1110, "zip": "27801"}, "rocky-mount-27802": {"city": "Rocky Mount", "rent": 1060, "zip": "27802"}, "rocky-mount-27803": {"city": "Rocky Mount", "rent": 1210, "zip": "27803"}, "rocky-mount-27804": {"city": "Rocky Mount", "rent": 1210, "zip": "27804"}, "rocky-mount-27807": {"city": "Rocky Mount", "rent": 1100, "zip": "27807"}, "rocky-mount-27809": {"city": "Rocky Mount", "rent": 970, "zip": "27809"}, "rocky-mount-27812": {"city": "Rocky Mount", "rent": 990, "zip": "27812"}, "rocky-mount-27815": {"city": "Rocky Mount", "rent": 1060, "zip": "27815"}, "rocky-mount-27816": {"city": "Rocky Mount", "rent": 1350, "zip": "27816"}, "rocky-mount-27819": {"city": "Rocky Mount", "rent": 1420, "zip": "27819"}, "rocky-mount-27822": {"city": "Rocky Mount", "rent": 980, "zip": "27822"}, "rocky-mount-27829": {"city": "Rocky Mount", "rent": 990, "zip": "27829"}, "rocky-mount-27834": {"city": "Rocky Mount", "rent": 1120, "zip": "27834"}, "rocky-mount-27843": {"city": "Rocky Mount", "rent": 970, "zip": "27843"}, "rocky-mount-27844": {"city": "Rocky Mount", "rent": 1350, "zip": "27844"}, "rocky-mount-27852": {"city": "Rocky Mount", "rent": 1050, "zip": "27852"}, "rocky-mount-27856": {"city": "Rocky Mount", "rent": 1140, "zip": "27856"}, "rocky-mount-27864": {"city": "Rocky Mount", "rent": 1070, "zip": "27864"}, "rocky-mount-27868": {"city": "Rocky Mount", "rent": 1170, "zip": "27868"}, "rocky-mount-27878": {"city": "Rocky Mount", "rent": 1130, "zip": "27878"}, "rocky-mount-27880": {"city": "Rocky Mount", "rent": 1020, "zip": "27880"}, "rocky-mount-27881": {"city": "Rocky Mount", "rent": 980, "zip": "27881"}, "rocky-mount-27882": {"city": "Rocky Mount", "rent": 1350, "zip": "27882"}, "rocky-mount-27886": {"city": "Rocky Mount", "rent": 1000, "zip": "27886"}, "rocky-mount-27891": {"city": "Rocky Mount", "rent": 1300, "zip": "27891"}, "rocky-mount-27896": {"city": "Rocky Mount", "rent": 1170, "zip": "27896"}, "camden-county-27909": {"city": "Camden County", "rent": 1190, "zip": "27909"}, "camden-county-27921": {"city": "Camden County", "rent": 1350, "zip": "27921"}, "camden-county-27973": {"city": "Camden County", "rent": 1460, "zip": "27973"}, "camden-county-27974": {"city": "Camden County", "rent": 1400, "zip": "27974"}, "camden-county-27976": {"city": "Camden County", "rent": 1560, "zip": "27976"}, "gates-county-27919": {"city": "Gates County", "rent": 1110, "zip": "27919"}, "gates-county-27926": {"city": "Gates County", "rent": 1940, "zip": "27926"}, "gates-county-27935": {"city": "Gates County", "rent": 1540, "zip": "27935"}, "gates-county-27937": {"city": "Gates County", "rent": 2060, "zip": "27937"}, "gates-county-27938": {"city": "Gates County", "rent": 1870, "zip": "27938"}, "gates-county-27946": {"city": "Gates County", "rent": 1670, "zip": "27946"}, "gates-county-27969": {"city": "Gates County", "rent": 2060, "zip": "27969"}, "gates-county-27979": {"city": "Gates County", "rent": 1710, "zip": "27979"}, "brunswick-county-28420": {"city": "Brunswick County", "rent": 1200, "zip": "28420"}, "brunswick-county-28422": {"city": "Brunswick County", "rent": 1630, "zip": "28422"}, "brunswick-county-28436": {"city": "Brunswick County", "rent": 1330, "zip": "28436"}, "brunswick-county-28451": {"city": "Brunswick County", "rent": 1620, "zip": "28451"}, "brunswick-county-28452": {"city": "Brunswick County", "rent": 1200, "zip": "28452"}, "brunswick-county-28456": {"city": "Brunswick County", "rent": 1160, "zip": "28456"}, "brunswick-county-28459": {"city": "Brunswick County", "rent": 1430, "zip": "28459"}, "brunswick-county-28461": {"city": "Brunswick County", "rent": 1570, "zip": "28461"}, "brunswick-county-28462": {"city": "Brunswick County", "rent": 1160, "zip": "28462"}, "brunswick-county-28465": {"city": "Brunswick County", "rent": 1410, "zip": "28465"}, "brunswick-county-28467": {"city": "Brunswick County", "rent": 1550, "zip": "28467"}, "brunswick-county-28468": {"city": "Brunswick County", "rent": 1510, "zip": "28468"}, "brunswick-county-28469": {"city": "Brunswick County", "rent": 1190, "zip": "28469"}, "brunswick-county-28470": {"city": "Brunswick County", "rent": 1270, "zip": "28470"}, "brunswick-county-28479": {"city": "Brunswick County", "rent": 1420, "zip": "28479"}, "wilmington-28401": {"city": "Wilmington", "rent": 1430, "zip": "28401"}, "wilmington-28402": {"city": "Wilmington", "rent": 1660, "zip": "28402"}, "wilmington-28403": {"city": "Wilmington", "rent": 1650, "zip": "28403"}, "wilmington-28404": {"city": "Wilmington", "rent": 1660, "zip": "28404"}, "wilmington-28405": {"city": "Wilmington", "rent": 1710, "zip": "28405"}, "wilmington-28406": {"city": "Wilmington", "rent": 1660, "zip": "28406"}, "wilmington-28408": {"city": "Wilmington", "rent": 1660, "zip": "28408"}, "wilmington-28409": {"city": "Wilmington", "rent": 1960, "zip": "28409"}, "wilmington-28410": {"city": "Wilmington", "rent": 1660, "zip": "28410"}, "wilmington-28411": {"city": "Wilmington", "rent": 2040, "zip": "28411"}, "wilmington-28412": {"city": "Wilmington", "rent": 1740, "zip": "28412"}, "wilmington-28428": {"city": "Wilmington", "rent": 1790, "zip": "28428"}, "wilmington-28429": {"city": "Wilmington", "rent": 1430, "zip": "28429"}, "wilmington-28449": {"city": "Wilmington", "rent": 1760, "zip": "28449"}, "wilmington-28480": {"city": "Wilmington", "rent": 2470, "zip": "28480"}, "pender-county-28401": {"city": "Pender County", "rent": 1430, "zip": "28401"}, "pender-county-28411": {"city": "Pender County", "rent": 2040, "zip": "28411"}, "pender-county-28421": {"city": "Pender County", "rent": 980, "zip": "28421"}, "pender-county-28425": {"city": "Pender County", "rent": 1010, "zip": "28425"}, "pender-county-28435": {"city": "Pender County", "rent": 1080, "zip": "28435"}, "pender-county-28443": {"city": "Pender County", "rent": 1560, "zip": "28443"}, "pender-county-28445": {"city": "Pender County", "rent": 1370, "zip": "28445"}, "pender-county-28447": {"city": "Pender County", "rent": 980, "zip": "28447"}, "pender-county-28448": {"city": "Pender County", "rent": 980, "zip": "28448"}, "pender-county-28454": {"city": "Pender County", "rent": 1710, "zip": "28454"}, "pender-county-28457": {"city": "Pender County", "rent": 990, "zip": "28457"}, "pender-county-28466": {"city": "Pender County", "rent": 980, "zip": "28466"}, "pender-county-28478": {"city": "Pender County", "rent": 980, "zip": "28478"}, "winston-salem-27006": {"city": "Winston-Salem", "rent": 1190, "zip": "27006"}, "winston-salem-27009": {"city": "Winston-Salem", "rent": 1520, "zip": "27009"}, "winston-salem-27010": {"city": "Winston-Salem", "rent": 1270, "zip": "27010"}, "winston-salem-27011": {"city": "Winston-Salem", "rent": 940, "zip": "27011"}, "winston-salem-27012": {"city": "Winston-Salem", "rent": 1280, "zip": "27012"}, "winston-salem-27014": {"city": "Winston-Salem", "rent": 1200, "zip": "27014"}, "winston-salem-27016": {"city": "Winston-Salem", "rent": 1310, "zip": "27016"}, "winston-salem-27018": {"city": "Winston-Salem", "rent": 930, "zip": "27018"}, "winston-salem-27019": {"city": "Winston-Salem", "rent": 940, "zip": "27019"}, "winston-salem-27020": {"city": "Winston-Salem", "rent": 990, "zip": "27020"}, "winston-salem-27021": {"city": "Winston-Salem", "rent": 1140, "zip": "27021"}, "winston-salem-27022": {"city": "Winston-Salem", "rent": 950, "zip": "27022"}, "winston-salem-27023": {"city": "Winston-Salem", "rent": 1330, "zip": "27023"}, "winston-salem-27025": {"city": "Winston-Salem", "rent": 930, "zip": "27025"}, "winston-salem-27028": {"city": "Winston-Salem", "rent": 1060, "zip": "27028"}, "winston-salem-27030": {"city": "Winston-Salem", "rent": 930, "zip": "27030"}, "winston-salem-27040": {"city": "Winston-Salem", "rent": 1770, "zip": "27040"}, "winston-salem-27041": {"city": "Winston-Salem", "rent": 940, "zip": "27041"}, "winston-salem-27042": {"city": "Winston-Salem", "rent": 970, "zip": "27042"}, "winston-salem-27043": {"city": "Winston-Salem", "rent": 1000, "zip": "27043"}, "winston-salem-27045": {"city": "Winston-Salem", "rent": 1270, "zip": "27045"}, "winston-salem-27046": {"city": "Winston-Salem", "rent": 930, "zip": "27046"}, "winston-salem-27050": {"city": "Winston-Salem", "rent": 1050, "zip": "27050"}, "winston-salem-27051": {"city": "Winston-Salem", "rent": 1400, "zip": "27051"}, "winston-salem-27052": {"city": "Winston-Salem", "rent": 1000, "zip": "27052"}, "winston-salem-27053": {"city": "Winston-Salem", "rent": 930, "zip": "27053"}, "winston-salem-27055": {"city": "Winston-Salem", "rent": 990, "zip": "27055"}, "winston-salem-27094": {"city": "Winston-Salem", "rent": 1270, "zip": "27094"}, "winston-salem-27099": {"city": "Winston-Salem", "rent": 1270, "zip": "27099"}, "winston-salem-27101": {"city": "Winston-Salem", "rent": 1230, "zip": "27101"}, "winston-salem-27102": {"city": "Winston-Salem", "rent": 1270, "zip": "27102"}, "winston-salem-27103": {"city": "Winston-Salem", "rent": 1380, "zip": "27103"}, "winston-salem-27104": {"city": "Winston-Salem", "rent": 1440, "zip": "27104"}, "winston-salem-27105": {"city": "Winston-Salem", "rent": 1100, "zip": "27105"}, "winston-salem-27106": {"city": "Winston-Salem", "rent": 1360, "zip": "27106"}, "winston-salem-27107": {"city": "Winston-Salem", "rent": 1090, "zip": "27107"}, "winston-salem-27108": {"city": "Winston-Salem", "rent": 1270, "zip": "27108"}, "winston-salem-27109": {"city": "Winston-Salem", "rent": 1360, "zip": "27109"}, "winston-salem-27110": {"city": "Winston-Salem", "rent": 1160, "zip": "27110"}, "winston-salem-27111": {"city": "Winston-Salem", "rent": 1270, "zip": "27111"}, "winston-salem-27113": {"city": "Winston-Salem", "rent": 1270, "zip": "27113"}, "winston-salem-27114": {"city": "Winston-Salem", "rent": 1270, "zip": "27114"}, "winston-salem-27115": {"city": "Winston-Salem", "rent": 1270, "zip": "27115"}, "winston-salem-27116": {"city": "Winston-Salem", "rent": 1270, "zip": "27116"}, "winston-salem-27117": {"city": "Winston-Salem", "rent": 1270, "zip": "27117"}, "winston-salem-27120": {"city": "Winston-Salem", "rent": 1270, "zip": "27120"}, "winston-salem-27127": {"city": "Winston-Salem", "rent": 1270, "zip": "27127"}, "winston-salem-27130": {"city": "Winston-Salem", "rent": 1270, "zip": "27130"}, "winston-salem-27150": {"city": "Winston-Salem", "rent": 1270, "zip": "27150"}, "winston-salem-27152": {"city": "Winston-Salem", "rent": 1270, "zip": "27152"}, "winston-salem-27155": {"city": "Winston-Salem", "rent": 1270, "zip": "27155"}, "winston-salem-27157": {"city": "Winston-Salem", "rent": 1270, "zip": "27157"}, "winston-salem-27199": {"city": "Winston-Salem", "rent": 1270, "zip": "27199"}, "winston-salem-27235": {"city": "Winston-Salem", "rent": 1900, "zip": "27235"}, "winston-salem-27265": {"city": "Winston-Salem", "rent": 1530, "zip": "27265"}, "winston-salem-27284": {"city": "Winston-Salem", "rent": 1350, "zip": "27284"}, "winston-salem-27285": {"city": "Winston-Salem", "rent": 1270, "zip": "27285"}, "winston-salem-27357": {"city": "Winston-Salem", "rent": 1080, "zip": "27357"}, "winston-salem-28625": {"city": "Winston-Salem", "rent": 1110, "zip": "28625"}, "winston-salem-28634": {"city": "Winston-Salem", "rent": 1010, "zip": "28634"}, "winston-salem-28642": {"city": "Winston-Salem", "rent": 930, "zip": "28642"}, "winston-salem-28689": {"city": "Winston-Salem", "rent": 1020, "zip": "28689"}, "davidson-county-27012": {"city": "Davidson County", "rent": 1280, "zip": "27012"}, "davidson-county-27107": {"city": "Davidson County", "rent": 1090, "zip": "27107"}, "davidson-county-27127": {"city": "Davidson County", "rent": 1270, "zip": "27127"}, "davidson-county-27239": {"city": "Davidson County", "rent": 960, "zip": "27239"}, "davidson-county-27262": {"city": "Davidson County", "rent": 1300, "zip": "27262"}, "davidson-county-27265": {"city": "Davidson County", "rent": 1530, "zip": "27265"}, "davidson-county-27284": {"city": "Davidson County", "rent": 1350, "zip": "27284"}, "davidson-county-27292": {"city": "Davidson County", "rent": 1050, "zip": "27292"}, "davidson-county-27293": {"city": "Davidson County", "rent": 960, "zip": "27293"}, "davidson-county-27294": {"city": "Davidson County", "rent": 960, "zip": "27294"}, "davidson-county-27295": {"city": "Davidson County", "rent": 940, "zip": "27295"}, "davidson-county-27299": {"city": "Davidson County", "rent": 1080, "zip": "27299"}, "davidson-county-27351": {"city": "Davidson County", "rent": 1050, "zip": "27351"}, "davidson-county-27360": {"city": "Davidson County", "rent": 1010, "zip": "27360"}, "davidson-county-27373": {"city": "Davidson County", "rent": 960, "zip": "27373"}, "davidson-county-27374": {"city": "Davidson County", "rent": 940, "zip": "27374"}, "davidson-county-28127": {"city": "Davidson County", "rent": 970, "zip": "28127"}, "alleghany-county-28623": {"city": "Alleghany County", "rent": 960, "zip": "28623"}, "alleghany-county-28627": {"city": "Alleghany County", "rent": 990, "zip": "28627"}, "alleghany-county-28631": {"city": "Alleghany County", "rent": 1130, "zip": "28631"}, "alleghany-county-28644": {"city": "Alleghany County", "rent": 960, "zip": "28644"}, "alleghany-county-28663": {"city": "Alleghany County", "rent": 980, "zip": "28663"}, "alleghany-county-28668": {"city": "Alleghany County", "rent": 930, "zip": "28668"}, "alleghany-county-28672": {"city": "Alleghany County", "rent": 930, "zip": "28672"}, "alleghany-county-28675": {"city": "Alleghany County", "rent": 1010, "zip": "28675"}, "ashe-county-28615": {"city": "Ashe County", "rent": 930, "zip": "28615"}, "ashe-county-28617": {"city": "Ashe County", "rent": 930, "zip": "28617"}, "ashe-county-28626": {"city": "Ashe County", "rent": 1340, "zip": "28626"}, "ashe-county-28629": {"city": "Ashe County", "rent": 930, "zip": "28629"}, "ashe-county-28631": {"city": "Ashe County", "rent": 1130, "zip": "28631"}, "ashe-county-28640": {"city": "Ashe County", "rent": 930, "zip": "28640"}, "ashe-county-28643": {"city": "Ashe County", "rent": 1320, "zip": "28643"}, "ashe-county-28644": {"city": "Ashe County", "rent": 960, "zip": "28644"}, "ashe-county-28672": {"city": "Ashe County", "rent": 930, "zip": "28672"}, "ashe-county-28684": {"city": "Ashe County", "rent": 1180, "zip": "28684"}, "ashe-county-28693": {"city": "Ashe County", "rent": 1120, "zip": "28693"}, "ashe-county-28694": {"city": "Ashe County", "rent": 930, "zip": "28694"}, "ashe-county-28698": {"city": "Ashe County", "rent": 1150, "zip": "28698"}, "avery-county-28604": {"city": "Avery County", "rent": 1150, "zip": "28604"}, "avery-county-28605": {"city": "Avery County", "rent": 1200, "zip": "28605"}, "avery-county-28607": {"city": "Avery County", "rent": 1290, "zip": "28607"}, "avery-county-28611": {"city": "Avery County", "rent": 1030, "zip": "28611"}, "avery-county-28616": {"city": "Avery County", "rent": 950, "zip": "28616"}, "avery-county-28622": {"city": "Avery County", "rent": 1150, "zip": "28622"}, "avery-county-28646": {"city": "Avery County", "rent": 1030, "zip": "28646"}, "avery-county-28652": {"city": "Avery County", "rent": 950, "zip": "28652"}, "avery-county-28653": {"city": "Avery County", "rent": 950, "zip": "28653"}, "avery-county-28657": {"city": "Avery County", "rent": 950, "zip": "28657"}, "avery-county-28662": {"city": "Avery County", "rent": 950, "zip": "28662"}, "avery-county-28664": {"city": "Avery County", "rent": 950, "zip": "28664"}, "avery-county-28679": {"city": "Avery County", "rent": 1210, "zip": "28679"}, "avery-county-28705": {"city": "Avery County", "rent": 1050, "zip": "28705"}, "avery-county-28752": {"city": "Avery County", "rent": 950, "zip": "28752"}, "avery-county-28777": {"city": "Avery County", "rent": 950, "zip": "28777"}, "beaufort-county-27806": {"city": "Beaufort County", "rent": 930, "zip": "27806"}, "beaufort-county-27808": {"city": "Beaufort County", "rent": 1250, "zip": "27808"}, "beaufort-county-27810": {"city": "Beaufort County", "rent": 1130, "zip": "27810"}, "beaufort-county-27814": {"city": "Beaufort County", "rent": 930, "zip": "27814"}, "beaufort-county-27817": {"city": "Beaufort County", "rent": 990, "zip": "27817"}, "beaufort-county-27821": {"city": "Beaufort County", "rent": 930, "zip": "27821"}, "beaufort-county-27834": {"city": "Beaufort County", "rent": 1120, "zip": "27834"}, "beaufort-county-27837": {"city": "Beaufort County", "rent": 990, "zip": "27837"}, "beaufort-county-27860": {"city": "Beaufort County", "rent": 930, "zip": "27860"}, "beaufort-county-27865": {"city": "Beaufort County", "rent": 1390, "zip": "27865"}, "beaufort-county-27871": {"city": "Beaufort County", "rent": 990, "zip": "27871"}, "beaufort-county-27889": {"city": "Beaufort County", "rent": 990, "zip": "27889"}, "beaufort-county-27962": {"city": "Beaufort County", "rent": 930, "zip": "27962"}, "beaufort-county-28586": {"city": "Beaufort County", "rent": 1190, "zip": "28586"}, "bertie-county-27805": {"city": "Bertie County", "rent": 950, "zip": "27805"}, "bertie-county-27847": {"city": "Bertie County", "rent": 1380, "zip": "27847"}, "bertie-county-27849": {"city": "Bertie County", "rent": 1160, "zip": "27849"}, "bertie-county-27869": {"city": "Bertie County", "rent": 1020, "zip": "27869"}, "bertie-county-27872": {"city": "Bertie County", "rent": 1320, "zip": "27872"}, "bertie-county-27910": {"city": "Bertie County", "rent": 980, "zip": "27910"}, "bertie-county-27924": {"city": "Bertie County", "rent": 1050, "zip": "27924"}, "bertie-county-27957": {"city": "Bertie County", "rent": 1050, "zip": "27957"}, "bertie-county-27967": {"city": "Bertie County", "rent": 1010, "zip": "27967"}, "bertie-county-27983": {"city": "Bertie County", "rent": 970, "zip": "27983"}, "bladen-county-28306": {"city": "Bladen County", "rent": 1120, "zip": "28306"}, "bladen-county-28312": {"city": "Bladen County", "rent": 1120, "zip": "28312"}, "bladen-county-28320": {"city": "Bladen County", "rent": 930, "zip": "28320"}, "bladen-county-28332": {"city": "Bladen County", "rent": 930, "zip": "28332"}, "bladen-county-28337": {"city": "Bladen County", "rent": 930, "zip": "28337"}, "bladen-county-28382": {"city": "Bladen County", "rent": 1120, "zip": "28382"}, "bladen-county-28384": {"city": "Bladen County", "rent": 1120, "zip": "28384"}, "bladen-county-28392": {"city": "Bladen County", "rent": 1060, "zip": "28392"}, "bladen-county-28399": {"city": "Bladen County", "rent": 1120, "zip": "28399"}, "bladen-county-28423": {"city": "Bladen County", "rent": 1100, "zip": "28423"}, "bladen-county-28433": {"city": "Bladen County", "rent": 1070, "zip": "28433"}, "bladen-county-28434": {"city": "Bladen County", "rent": 1040, "zip": "28434"}, "bladen-county-28435": {"city": "Bladen County", "rent": 1080, "zip": "28435"}, "bladen-county-28438": {"city": "Bladen County", "rent": 930, "zip": "28438"}, "bladen-county-28441": {"city": "Bladen County", "rent": 1120, "zip": "28441"}, "bladen-county-28444": {"city": "Bladen County", "rent": 990, "zip": "28444"}, "bladen-county-28447": {"city": "Bladen County", "rent": 980, "zip": "28447"}, "bladen-county-28448": {"city": "Bladen County", "rent": 980, "zip": "28448"}, "bladen-county-28456": {"city": "Bladen County", "rent": 1160, "zip": "28456"}, "carteret-county-28511": {"city": "Carteret County", "rent": 1200, "zip": "28511"}, "carteret-county-28512": {"city": "Carteret County", "rent": 1170, "zip": "28512"}, "carteret-county-28516": {"city": "Carteret County", "rent": 1100, "zip": "28516"}, "carteret-county-28520": {"city": "Carteret County", "rent": 1130, "zip": "28520"}, "carteret-county-28524": {"city": "Carteret County", "rent": 1200, "zip": "28524"}, "carteret-county-28528": {"city": "Carteret County", "rent": 1100, "zip": "28528"}, "carteret-county-28531": {"city": "Carteret County", "rent": 1190, "zip": "28531"}, "carteret-county-28532": {"city": "Carteret County", "rent": 1340, "zip": "28532"}, "carteret-county-28553": {"city": "Carteret County", "rent": 1200, "zip": "28553"}, "carteret-county-28555": {"city": "Carteret County", "rent": 1210, "zip": "28555"}, "carteret-county-28557": {"city": "Carteret County", "rent": 1270, "zip": "28557"}, "carteret-county-28570": {"city": "Carteret County", "rent": 1130, "zip": "28570"}, "carteret-county-28575": {"city": "Carteret County", "rent": 1170, "zip": "28575"}, "carteret-county-28577": {"city": "Carteret County", "rent": 1200, "zip": "28577"}, "carteret-county-28579": {"city": "Carteret County", "rent": 1100, "zip": "28579"}, "carteret-county-28581": {"city": "Carteret County", "rent": 1180, "zip": "28581"}, "carteret-county-28582": {"city": "Carteret County", "rent": 1320, "zip": "28582"}, "carteret-county-28584": {"city": "Carteret County", "rent": 1470, "zip": "28584"}, "carteret-county-28589": {"city": "Carteret County", "rent": 1100, "zip": "28589"}, "carteret-county-28594": {"city": "Carteret County", "rent": 1690, "zip": "28594"}, "caswell-county-27212": {"city": "Caswell County", "rent": 1040, "zip": "27212"}, "caswell-county-27217": {"city": "Caswell County", "rent": 1180, "zip": "27217"}, "caswell-county-27231": {"city": "Caswell County", "rent": 1690, "zip": "27231"}, "caswell-county-27244": {"city": "Caswell County", "rent": 1240, "zip": "27244"}, "caswell-county-27249": {"city": "Caswell County", "rent": 1170, "zip": "27249"}, "caswell-county-27291": {"city": "Caswell County", "rent": 1010, "zip": "27291"}, "caswell-county-27302": {"city": "Caswell County", "rent": 1690, "zip": "27302"}, "caswell-county-27305": {"city": "Caswell County", "rent": 1390, "zip": "27305"}, "caswell-county-27311": {"city": "Caswell County", "rent": 940, "zip": "27311"}, "caswell-county-27314": {"city": "Caswell County", "rent": 1690, "zip": "27314"}, "caswell-county-27315": {"city": "Caswell County", "rent": 1390, "zip": "27315"}, "caswell-county-27320": {"city": "Caswell County", "rent": 1070, "zip": "27320"}, "caswell-county-27326": {"city": "Caswell County", "rent": 940, "zip": "27326"}, "caswell-county-27343": {"city": "Caswell County", "rent": 1100, "zip": "27343"}, "caswell-county-27379": {"city": "Caswell County", "rent": 950, "zip": "27379"}, "caswell-county-27541": {"city": "Caswell County", "rent": 1690, "zip": "27541"}, "cherokee-county-28781": {"city": "Cherokee County", "rent": 970, "zip": "28781"}, "cherokee-county-28901": {"city": "Cherokee County", "rent": 930, "zip": "28901"}, "cherokee-county-28902": {"city": "Cherokee County", "rent": 960, "zip": "28902"}, "cherokee-county-28903": {"city": "Cherokee County", "rent": 940, "zip": "28903"}, "cherokee-county-28905": {"city": "Cherokee County", "rent": 1050, "zip": "28905"}, "cherokee-county-28906": {"city": "Cherokee County", "rent": 930, "zip": "28906"}, "chowan-county-27919": {"city": "Chowan County", "rent": 1110, "zip": "27919"}, "chowan-county-27932": {"city": "Chowan County", "rent": 1230, "zip": "27932"}, "chowan-county-27946": {"city": "Chowan County", "rent": 1670, "zip": "27946"}, "chowan-county-27980": {"city": "Chowan County", "rent": 1200, "zip": "27980"}, "clay-county-28734": {"city": "Clay County", "rent": 970, "zip": "28734"}, "clay-county-28902": {"city": "Clay County", "rent": 960, "zip": "28902"}, "clay-county-28904": {"city": "Clay County", "rent": 1030, "zip": "28904"}, "clay-county-28906": {"city": "Clay County", "rent": 930, "zip": "28906"}, "clay-county-28909": {"city": "Clay County", "rent": 1000, "zip": "28909"}, "cleveland-county-28017": {"city": "Cleveland County", "rent": 930, "zip": "28017"}, "cleveland-county-28020": {"city": "Cleveland County", "rent": 930, "zip": "28020"}, "cleveland-county-28021": {"city": "Cleveland County", "rent": 1030, "zip": "28021"}, "cleveland-county-28038": {"city": "Cleveland County", "rent": 930, "zip": "28038"}, "cleveland-county-28040": {"city": "Cleveland County", "rent": 930, "zip": "28040"}, "cleveland-county-28042": {"city": "Cleveland County", "rent": 930, "zip": "28042"}, "cleveland-county-28073": {"city": "Cleveland County", "rent": 940, "zip": "28073"}, "cleveland-county-28086": {"city": "Cleveland County", "rent": 970, "zip": "28086"}, "cleveland-county-28089": {"city": "Cleveland County", "rent": 950, "zip": "28089"}, "cleveland-county-28090": {"city": "Cleveland County", "rent": 1060, "zip": "28090"}, "cleveland-county-28114": {"city": "Cleveland County", "rent": 930, "zip": "28114"}, "cleveland-county-28136": {"city": "Cleveland County", "rent": 950, "zip": "28136"}, "cleveland-county-28150": {"city": "Cleveland County", "rent": 950, "zip": "28150"}, "cleveland-county-28151": {"city": "Cleveland County", "rent": 930, "zip": "28151"}, "cleveland-county-28152": {"city": "Cleveland County", "rent": 930, "zip": "28152"}, "cleveland-county-28168": {"city": "Cleveland County", "rent": 1060, "zip": "28168"}, "cleveland-county-28169": {"city": "Cleveland County", "rent": 930, "zip": "28169"}, "cleveland-county-28612": {"city": "Cleveland County", "rent": 1080, "zip": "28612"}, "columbus-county-28320": {"city": "Columbus County", "rent": 930, "zip": "28320"}, "columbus-county-28423": {"city": "Columbus County", "rent": 1100, "zip": "28423"}, "columbus-county-28424": {"city": "Columbus County", "rent": 930, "zip": "28424"}, "columbus-county-28430": {"city": "Columbus County", "rent": 930, "zip": "28430"}, "columbus-county-28431": {"city": "Columbus County", "rent": 930, "zip": "28431"}, "columbus-county-28432": {"city": "Columbus County", "rent": 1130, "zip": "28432"}, "columbus-county-28433": {"city": "Columbus County", "rent": 1070, "zip": "28433"}, "columbus-county-28434": {"city": "Columbus County", "rent": 1040, "zip": "28434"}, "columbus-county-28436": {"city": "Columbus County", "rent": 1330, "zip": "28436"}, "columbus-county-28438": {"city": "Columbus County", "rent": 930, "zip": "28438"}, "columbus-county-28439": {"city": "Columbus County", "rent": 990, "zip": "28439"}, "columbus-county-28442": {"city": "Columbus County", "rent": 930, "zip": "28442"}, "columbus-county-28450": {"city": "Columbus County", "rent": 1190, "zip": "28450"}, "columbus-county-28455": {"city": "Columbus County", "rent": 950, "zip": "28455"}, "columbus-county-28456": {"city": "Columbus County", "rent": 1160, "zip": "28456"}, "columbus-county-28463": {"city": "Columbus County", "rent": 930, "zip": "28463"}, "columbus-county-28472": {"city": "Columbus County", "rent": 940, "zip": "28472"}, "craven-county-28501": {"city": "Craven County", "rent": 1190, "zip": "28501"}, "craven-county-28519": {"city": "Craven County", "rent": 1190, "zip": "28519"}, "craven-county-28523": {"city": "Craven County", "rent": 1190, "zip": "28523"}, "craven-county-28526": {"city": "Craven County", "rent": 1190, "zip": "28526"}, "craven-county-28527": {"city": "Craven County", "rent": 1190, "zip": "28527"}, "craven-county-28530": {"city": "Craven County", "rent": 1190, "zip": "28530"}, "craven-county-28532": {"city": "Craven County", "rent": 1340, "zip": "28532"}, "craven-county-28533": {"city": "Craven County", "rent": 1340, "zip": "28533"}, "craven-county-28560": {"city": "Craven County", "rent": 1190, "zip": "28560"}, "craven-county-28561": {"city": "Craven County", "rent": 1190, "zip": "28561"}, "craven-county-28562": {"city": "Craven County", "rent": 1190, "zip": "28562"}, "craven-county-28563": {"city": "Craven County", "rent": 1190, "zip": "28563"}, "craven-county-28564": {"city": "Craven County", "rent": 1190, "zip": "28564"}, "craven-county-28573": {"city": "Craven County", "rent": 1190, "zip": "28573"}, "craven-county-28586": {"city": "Craven County", "rent": 1190, "zip": "28586"}, "dare-county-27915": {"city": "Dare County", "rent": 1430, "zip": "27915"}, "dare-county-27920": {"city": "Dare County", "rent": 1430, "zip": "27920"}, "dare-county-27936": {"city": "Dare County", "rent": 1840, "zip": "27936"}, "dare-county-27943": {"city": "Dare County", "rent": 1840, "zip": "27943"}, "dare-county-27948": {"city": "Dare County", "rent": 1590, "zip": "27948"}, "dare-county-27949": {"city": "Dare County", "rent": 1610, "zip": "27949"}, "dare-county-27953": {"city": "Dare County", "rent": 1320, "zip": "27953"}, "dare-county-27954": {"city": "Dare County", "rent": 1420, "zip": "27954"}, "dare-county-27959": {"city": "Dare County", "rent": 1270, "zip": "27959"}, "dare-county-27968": {"city": "Dare County", "rent": 1430, "zip": "27968"}, "dare-county-27972": {"city": "Dare County", "rent": 1430, "zip": "27972"}, "dare-county-27978": {"city": "Dare County", "rent": 1320, "zip": "27978"}, "dare-county-27981": {"city": "Dare County", "rent": 1420, "zip": "27981"}, "dare-county-27982": {"city": "Dare County", "rent": 1430, "zip": "27982"}, "duplin-county-28325": {"city": "Duplin County", "rent": 1100, "zip": "28325"}, "duplin-county-28341": {"city": "Duplin County", "rent": 930, "zip": "28341"}, "duplin-county-28349": {"city": "Duplin County", "rent": 1060, "zip": "28349"}, "duplin-county-28365": {"city": "Duplin County", "rent": 1100, "zip": "28365"}, "duplin-county-28393": {"city": "Duplin County", "rent": 930, "zip": "28393"}, "duplin-county-28398": {"city": "Duplin County", "rent": 1010, "zip": "28398"}, "duplin-county-28444": {"city": "Duplin County", "rent": 990, "zip": "28444"}, "duplin-county-28453": {"city": "Duplin County", "rent": 930, "zip": "28453"}, "duplin-county-28458": {"city": "Duplin County", "rent": 930, "zip": "28458"}, "duplin-county-28464": {"city": "Duplin County", "rent": 1110, "zip": "28464"}, "duplin-county-28466": {"city": "Duplin County", "rent": 980, "zip": "28466"}, "duplin-county-28478": {"city": "Duplin County", "rent": 980, "zip": "28478"}, "duplin-county-28508": {"city": "Duplin County", "rent": 1080, "zip": "28508"}, "duplin-county-28518": {"city": "Duplin County", "rent": 1040, "zip": "28518"}, "duplin-county-28521": {"city": "Duplin County", "rent": 1210, "zip": "28521"}, "duplin-county-28525": {"city": "Duplin County", "rent": 930, "zip": "28525"}, "duplin-county-28572": {"city": "Duplin County", "rent": 1040, "zip": "28572"}, "duplin-county-28574": {"city": "Duplin County", "rent": 1150, "zip": "28574"}, "duplin-county-28578": {"city": "Duplin County", "rent": 1110, "zip": "28578"}, "graham-county-28702": {"city": "Graham County", "rent": 940, "zip": "28702"}, "graham-county-28713": {"city": "Graham County", "rent": 930, "zip": "28713"}, "graham-county-28733": {"city": "Graham County", "rent": 950, "zip": "28733"}, "graham-county-28771": {"city": "Graham County", "rent": 960, "zip": "28771"}, "granville-county-27507": {"city": "Granville County", "rent": 1200, "zip": "27507"}, "granville-county-27509": {"city": "Granville County", "rent": 1310, "zip": "27509"}, "granville-county-27522": {"city": "Granville County", "rent": 1400, "zip": "27522"}, "granville-county-27525": {"city": "Granville County", "rent": 1350, "zip": "27525"}, "granville-county-27544": {"city": "Granville County", "rent": 1350, "zip": "27544"}, "granville-county-27565": {"city": "Granville County", "rent": 1200, "zip": "27565"}, "granville-county-27572": {"city": "Granville County", "rent": 1690, "zip": "27572"}, "granville-county-27574": {"city": "Granville County", "rent": 1200, "zip": "27574"}, "granville-county-27581": {"city": "Granville County", "rent": 1200, "zip": "27581"}, "granville-county-27582": {"city": "Granville County", "rent": 1200, "zip": "27582"}, "granville-county-27587": {"city": "Granville County", "rent": 1750, "zip": "27587"}, "granville-county-27596": {"city": "Granville County", "rent": 1390, "zip": "27596"}, "greene-county-27534": {"city": "Greene County", "rent": 1450, "zip": "27534"}, "greene-county-27828": {"city": "Greene County", "rent": 1070, "zip": "27828"}, "greene-county-27863": {"city": "Greene County", "rent": 1350, "zip": "27863"}, "greene-county-27883": {"city": "Greene County", "rent": 1070, "zip": "27883"}, "greene-county-27888": {"city": "Greene County", "rent": 990, "zip": "27888"}, "greene-county-28501": {"city": "Greene County", "rent": 1190, "zip": "28501"}, "greene-county-28513": {"city": "Greene County", "rent": 990, "zip": "28513"}, "greene-county-28530": {"city": "Greene County", "rent": 1190, "zip": "28530"}, "greene-county-28538": {"city": "Greene County", "rent": 990, "zip": "28538"}, "greene-county-28551": {"city": "Greene County", "rent": 1070, "zip": "28551"}, "greene-county-28554": {"city": "Greene County", "rent": 930, "zip": "28554"}, "greene-county-28580": {"city": "Greene County", "rent": 930, "zip": "28580"}, "halifax-county-27823": {"city": "Halifax County", "rent": 930, "zip": "27823"}, "halifax-county-27839": {"city": "Halifax County", "rent": 960, "zip": "27839"}, "halifax-county-27843": {"city": "Halifax County", "rent": 970, "zip": "27843"}, "halifax-county-27844": {"city": "Halifax County", "rent": 1350, "zip": "27844"}, "halifax-county-27850": {"city": "Halifax County", "rent": 930, "zip": "27850"}, "halifax-county-27870": {"city": "Halifax County", "rent": 950, "zip": "27870"}, "halifax-county-27874": {"city": "Halifax County", "rent": 930, "zip": "27874"}, "halifax-county-27890": {"city": "Halifax County", "rent": 930, "zip": "27890"}, "halifax-county-27891": {"city": "Halifax County", "rent": 1300, "zip": "27891"}, "harnett-county-27330": {"city": "Harnett County", "rent": 1690, "zip": "27330"}, "harnett-county-27332": {"city": "Harnett County", "rent": 1200, "zip": "27332"}, "harnett-county-27501": {"city": "Harnett County", "rent": 1350, "zip": "27501"}, "harnett-county-27504": {"city": "Harnett County", "rent": 1350, "zip": "27504"}, "harnett-county-27505": {"city": "Harnett County", "rent": 1060, "zip": "27505"}, "harnett-county-27506": {"city": "Harnett County", "rent": 940, "zip": "27506"}, "harnett-county-27521": {"city": "Harnett County", "rent": 940, "zip": "27521"}, "harnett-county-27526": {"city": "Harnett County", "rent": 1830, "zip": "27526"}, "harnett-county-27540": {"city": "Harnett County", "rent": 2110, "zip": "27540"}, "harnett-county-27546": {"city": "Harnett County", "rent": 940, "zip": "27546"}, "harnett-county-27592": {"city": "Harnett County", "rent": 1350, "zip": "27592"}, "harnett-county-28323": {"city": "Harnett County", "rent": 940, "zip": "28323"}, "harnett-county-28326": {"city": "Harnett County", "rent": 1440, "zip": "28326"}, "harnett-county-28334": {"city": "Harnett County", "rent": 1350, "zip": "28334"}, "harnett-county-28339": {"city": "Harnett County", "rent": 940, "zip": "28339"}, "harnett-county-28356": {"city": "Harnett County", "rent": 1120, "zip": "28356"}, "harnett-county-28368": {"city": "Harnett County", "rent": 1200, "zip": "28368"}, "harnett-county-28390": {"city": "Harnett County", "rent": 1160, "zip": "28390"}, "haywood-county-28715": {"city": "Haywood County", "rent": 1550, "zip": "28715"}, "haywood-county-28716": {"city": "Haywood County", "rent": 1370, "zip": "28716"}, "haywood-county-28719": {"city": "Haywood County", "rent": 1110, "zip": "28719"}, "haywood-county-28721": {"city": "Haywood County", "rent": 1370, "zip": "28721"}, "haywood-county-28723": {"city": "Haywood County", "rent": 1110, "zip": "28723"}, "haywood-county-28738": {"city": "Haywood County", "rent": 1230, "zip": "28738"}, "haywood-county-28743": {"city": "Haywood County", "rent": 1370, "zip": "28743"}, "haywood-county-28745": {"city": "Haywood County", "rent": 1270, "zip": "28745"}, "haywood-county-28751": {"city": "Haywood County", "rent": 1280, "zip": "28751"}, "haywood-county-28779": {"city": "Haywood County", "rent": 1110, "zip": "28779"}, "haywood-county-28785": {"city": "Haywood County", "rent": 1240, "zip": "28785"}, "haywood-county-28786": {"city": "Haywood County", "rent": 1300, "zip": "28786"}, "hertford-county-27805": {"city": "Hertford County", "rent": 950, "zip": "27805"}, "hertford-county-27818": {"city": "Hertford County", "rent": 930, "zip": "27818"}, "hertford-county-27855": {"city": "Hertford County", "rent": 990, "zip": "27855"}, "hertford-county-27897": {"city": "Hertford County", "rent": 980, "zip": "27897"}, "hertford-county-27910": {"city": "Hertford County", "rent": 980, "zip": "27910"}, "hertford-county-27922": {"city": "Hertford County", "rent": 930, "zip": "27922"}, "hertford-county-27924": {"city": "Hertford County", "rent": 1050, "zip": "27924"}, "hertford-county-27942": {"city": "Hertford County", "rent": 1110, "zip": "27942"}, "hertford-county-27986": {"city": "Hertford County", "rent": 950, "zip": "27986"}, "hyde-county-27810": {"city": "Hyde County", "rent": 1130, "zip": "27810"}, "hyde-county-27824": {"city": "Hyde County", "rent": 930, "zip": "27824"}, "hyde-county-27826": {"city": "Hyde County", "rent": 1030, "zip": "27826"}, "hyde-county-27860": {"city": "Hyde County", "rent": 930, "zip": "27860"}, "hyde-county-27875": {"city": "Hyde County", "rent": 1120, "zip": "27875"}, "hyde-county-27885": {"city": "Hyde County", "rent": 1080, "zip": "27885"}, "hyde-county-27960": {"city": "Hyde County", "rent": 1840, "zip": "27960"}, "jackson-county-28707": {"city": "Jackson County", "rent": 1040, "zip": "28707"}, "jackson-county-28717": {"city": "Jackson County", "rent": 1310, "zip": "28717"}, "jackson-county-28719": {"city": "Jackson County", "rent": 1110, "zip": "28719"}, "jackson-county-28723": {"city": "Jackson County", "rent": 1110, "zip": "28723"}, "jackson-county-28725": {"city": "Jackson County", "rent": 1110, "zip": "28725"}, "jackson-county-28736": {"city": "Jackson County", "rent": 1170, "zip": "28736"}, "jackson-county-28741": {"city": "Jackson County", "rent": 1230, "zip": "28741"}, "jackson-county-28747": {"city": "Jackson County", "rent": 1040, "zip": "28747"}, "jackson-county-28751": {"city": "Jackson County", "rent": 1280, "zip": "28751"}, "jackson-county-28774": {"city": "Jackson County", "rent": 1600, "zip": "28774"}, "jackson-county-28779": {"city": "Jackson County", "rent": 1110, "zip": "28779"}, "jackson-county-28783": {"city": "Jackson County", "rent": 1040, "zip": "28783"}, "jackson-county-28788": {"city": "Jackson County", "rent": 1410, "zip": "28788"}, "jackson-county-28789": {"city": "Jackson County", "rent": 1160, "zip": "28789"}, "jones-county-28501": {"city": "Jones County", "rent": 1190, "zip": "28501"}, "jones-county-28504": {"city": "Jones County", "rent": 960, "zip": "28504"}, "jones-county-28522": {"city": "Jones County", "rent": 930, "zip": "28522"}, "jones-county-28526": {"city": "Jones County", "rent": 1190, "zip": "28526"}, "jones-county-28555": {"city": "Jones County", "rent": 1210, "zip": "28555"}, "jones-county-28562": {"city": "Jones County", "rent": 1190, "zip": "28562"}, "jones-county-28572": {"city": "Jones County", "rent": 1040, "zip": "28572"}, "jones-county-28573": {"city": "Jones County", "rent": 1190, "zip": "28573"}, "jones-county-28574": {"city": "Jones County", "rent": 1150, "zip": "28574"}, "jones-county-28585": {"city": "Jones County", "rent": 930, "zip": "28585"}, "lee-county-27330": {"city": "Lee County", "rent": 1690, "zip": "27330"}, "lee-county-27331": {"city": "Lee County", "rent": 1140, "zip": "27331"}, "lee-county-27332": {"city": "Lee County", "rent": 1200, "zip": "27332"}, "lee-county-27505": {"city": "Lee County", "rent": 1060, "zip": "27505"}, "lee-county-28326": {"city": "Lee County", "rent": 1440, "zip": "28326"}, "lee-county-28355": {"city": "Lee County", "rent": 1140, "zip": "28355"}, "lenoir-county-28501": {"city": "Lenoir County", "rent": 1190, "zip": "28501"}, "lenoir-county-28504": {"city": "Lenoir County", "rent": 960, "zip": "28504"}, "lenoir-county-28525": {"city": "Lenoir County", "rent": 930, "zip": "28525"}, "lenoir-county-28526": {"city": "Lenoir County", "rent": 1190, "zip": "28526"}, "lenoir-county-28530": {"city": "Lenoir County", "rent": 1190, "zip": "28530"}, "lenoir-county-28538": {"city": "Lenoir County", "rent": 990, "zip": "28538"}, "lenoir-county-28551": {"city": "Lenoir County", "rent": 1070, "zip": "28551"}, "lenoir-county-28572": {"city": "Lenoir County", "rent": 1040, "zip": "28572"}, "lenoir-county-28578": {"city": "Lenoir County", "rent": 1110, "zip": "28578"}, "lenoir-county-28580": {"city": "Lenoir County", "rent": 930, "zip": "28580"}, "mcdowell-county-28167": {"city": "McDowell County", "rent": 1030, "zip": "28167"}, "mcdowell-county-28655": {"city": "McDowell County", "rent": 1370, "zip": "28655"}, "mcdowell-county-28657": {"city": "McDowell County", "rent": 950, "zip": "28657"}, "mcdowell-county-28711": {"city": "McDowell County", "rent": 1480, "zip": "28711"}, "mcdowell-county-28714": {"city": "McDowell County", "rent": 1370, "zip": "28714"}, "mcdowell-county-28749": {"city": "McDowell County", "rent": 930, "zip": "28749"}, "mcdowell-county-28752": {"city": "McDowell County", "rent": 950, "zip": "28752"}, "mcdowell-county-28761": {"city": "McDowell County", "rent": 990, "zip": "28761"}, "mcdowell-county-28762": {"city": "McDowell County", "rent": 1430, "zip": "28762"}, "mcdowell-county-28777": {"city": "McDowell County", "rent": 950, "zip": "28777"}, "macon-county-28713": {"city": "Macon County", "rent": 930, "zip": "28713"}, "macon-county-28734": {"city": "Macon County", "rent": 970, "zip": "28734"}, "macon-county-28741": {"city": "Macon County", "rent": 1230, "zip": "28741"}, "macon-county-28744": {"city": "Macon County", "rent": 990, "zip": "28744"}, "macon-county-28763": {"city": "Macon County", "rent": 970, "zip": "28763"}, "macon-county-28775": {"city": "Macon County", "rent": 1240, "zip": "28775"}, "macon-county-28779": {"city": "Macon County", "rent": 1110, "zip": "28779"}, "macon-county-28781": {"city": "Macon County", "rent": 970, "zip": "28781"}, "macon-county-28901": {"city": "Macon County", "rent": 930, "zip": "28901"}, "martin-county-27812": {"city": "Martin County", "rent": 990, "zip": "27812"}, "martin-county-27825": {"city": "Martin County", "rent": 980, "zip": "27825"}, "martin-county-27840": {"city": "Martin County", "rent": 1030, "zip": "27840"}, "martin-county-27841": {"city": "Martin County", "rent": 970, "zip": "27841"}, "martin-county-27843": {"city": "Martin County", "rent": 970, "zip": "27843"}, "martin-county-27846": {"city": "Martin County", "rent": 930, "zip": "27846"}, "martin-county-27857": {"city": "Martin County", "rent": 1030, "zip": "27857"}, "martin-county-27861": {"city": "Martin County", "rent": 930, "zip": "27861"}, "martin-county-27871": {"city": "Martin County", "rent": 990, "zip": "27871"}, "martin-county-27874": {"city": "Martin County", "rent": 930, "zip": "27874"}, "martin-county-27889": {"city": "Martin County", "rent": 990, "zip": "27889"}, "martin-county-27892": {"city": "Martin County", "rent": 950, "zip": "27892"}, "martin-county-27962": {"city": "Martin County", "rent": 930, "zip": "27962"}, "mitchell-county-28657": {"city": "Mitchell County", "rent": 950, "zip": "28657"}, "mitchell-county-28705": {"city": "Mitchell County", "rent": 1050, "zip": "28705"}, "mitchell-county-28714": {"city": "Mitchell County", "rent": 1370, "zip": "28714"}, "mitchell-county-28740": {"city": "Mitchell County", "rent": 1060, "zip": "28740"}, "mitchell-county-28765": {"city": "Mitchell County", "rent": 930, "zip": "28765"}, "mitchell-county-28777": {"city": "Mitchell County", "rent": 950, "zip": "28777"}, "montgomery-county-27209": {"city": "Montgomery County", "rent": 1030, "zip": "27209"}, "montgomery-county-27229": {"city": "Montgomery County", "rent": 1010, "zip": "27229"}, "montgomery-county-27239": {"city": "Montgomery County", "rent": 960, "zip": "27239"}, "montgomery-county-27247": {"city": "Montgomery County", "rent": 1010, "zip": "27247"}, "montgomery-county-27281": {"city": "Montgomery County", "rent": 1140, "zip": "27281"}, "montgomery-county-27306": {"city": "Montgomery County", "rent": 980, "zip": "27306"}, "montgomery-county-27341": {"city": "Montgomery County", "rent": 1120, "zip": "27341"}, "montgomery-county-27356": {"city": "Montgomery County", "rent": 1030, "zip": "27356"}, "montgomery-county-27371": {"city": "Montgomery County", "rent": 960, "zip": "27371"}, "montgomery-county-28127": {"city": "Montgomery County", "rent": 970, "zip": "28127"}, "montgomery-county-28338": {"city": "Montgomery County", "rent": 930, "zip": "28338"}, "northampton-county-27805": {"city": "Northampton County", "rent": 950, "zip": "27805"}, "northampton-county-27820": {"city": "Northampton County", "rent": 930, "zip": "27820"}, "northampton-county-27831": {"city": "Northampton County", "rent": 1050, "zip": "27831"}, "northampton-county-27832": {"city": "Northampton County", "rent": 1010, "zip": "27832"}, "northampton-county-27842": {"city": "Northampton County", "rent": 1450, "zip": "27842"}, "northampton-county-27845": {"city": "Northampton County", "rent": 930, "zip": "27845"}, "northampton-county-27853": {"city": "Northampton County", "rent": 1030, "zip": "27853"}, "northampton-county-27855": {"city": "Northampton County", "rent": 990, "zip": "27855"}, "northampton-county-27862": {"city": "Northampton County", "rent": 1040, "zip": "27862"}, "northampton-county-27866": {"city": "Northampton County", "rent": 1050, "zip": "27866"}, "northampton-county-27869": {"city": "Northampton County", "rent": 1020, "zip": "27869"}, "northampton-county-27876": {"city": "Northampton County", "rent": 1090, "zip": "27876"}, "northampton-county-27877": {"city": "Northampton County", "rent": 1040, "zip": "27877"}, "northampton-county-27897": {"city": "Northampton County", "rent": 980, "zip": "27897"}, "pamlico-county-28509": {"city": "Pamlico County", "rent": 1080, "zip": "28509"}, "pamlico-county-28510": {"city": "Pamlico County", "rent": 1220, "zip": "28510"}, "pamlico-county-28515": {"city": "Pamlico County", "rent": 1070, "zip": "28515"}, "pamlico-county-28529": {"city": "Pamlico County", "rent": 1070, "zip": "28529"}, "pamlico-county-28537": {"city": "Pamlico County", "rent": 1070, "zip": "28537"}, "pamlico-county-28552": {"city": "Pamlico County", "rent": 1070, "zip": "28552"}, "pamlico-county-28556": {"city": "Pamlico County", "rent": 1150, "zip": "28556"}, "pamlico-county-28560": {"city": "Pamlico County", "rent": 1190, "zip": "28560"}, "pamlico-county-28571": {"city": "Pamlico County", "rent": 1350, "zip": "28571"}, "pamlico-county-28583": {"city": "Pamlico County", "rent": 1080, "zip": "28583"}, "pamlico-county-28587": {"city": "Pamlico County", "rent": 1070, "zip": "28587"}, "pasquotank-county-27906": {"city": "Pasquotank County", "rent": 1220, "zip": "27906"}, "pasquotank-county-27907": {"city": "Pasquotank County", "rent": 1220, "zip": "27907"}, "pasquotank-county-27909": {"city": "Pasquotank County", "rent": 1190, "zip": "27909"}, "perquimans-county-27919": {"city": "Perquimans County", "rent": 1110, "zip": "27919"}, "perquimans-county-27932": {"city": "Perquimans County", "rent": 1230, "zip": "27932"}, "perquimans-county-27944": {"city": "Perquimans County", "rent": 1030, "zip": "27944"}, "perquimans-county-27946": {"city": "Perquimans County", "rent": 1670, "zip": "27946"}, "perquimans-county-27980": {"city": "Perquimans County", "rent": 1200, "zip": "27980"}, "perquimans-county-27985": {"city": "Perquimans County", "rent": 1110, "zip": "27985"}, "polk-county-28139": {"city": "Polk County", "rent": 1060, "zip": "28139"}, "polk-county-28722": {"city": "Polk County", "rent": 1030, "zip": "28722"}, "polk-county-28731": {"city": "Polk County", "rent": 1370, "zip": "28731"}, "polk-county-28750": {"city": "Polk County", "rent": 980, "zip": "28750"}, "polk-county-28756": {"city": "Polk County", "rent": 1370, "zip": "28756"}, "polk-county-28773": {"city": "Polk County", "rent": 1380, "zip": "28773"}, "polk-county-28782": {"city": "Polk County", "rent": 1190, "zip": "28782"}, "polk-county-28792": {"city": "Polk County", "rent": 1380, "zip": "28792"}, "richmond-county-27229": {"city": "Richmond County", "rent": 1010, "zip": "27229"}, "richmond-county-27281": {"city": "Richmond County", "rent": 1140, "zip": "27281"}, "richmond-county-27306": {"city": "Richmond County", "rent": 980, "zip": "27306"}, "richmond-county-28330": {"city": "Richmond County", "rent": 950, "zip": "28330"}, "richmond-county-28338": {"city": "Richmond County", "rent": 930, "zip": "28338"}, "richmond-county-28345": {"city": "Richmond County", "rent": 930, "zip": "28345"}, "richmond-county-28347": {"city": "Richmond County", "rent": 1030, "zip": "28347"}, "richmond-county-28351": {"city": "Richmond County", "rent": 930, "zip": "28351"}, "richmond-county-28363": {"city": "Richmond County", "rent": 930, "zip": "28363"}, "richmond-county-28367": {"city": "Richmond County", "rent": 990, "zip": "28367"}, "richmond-county-28379": {"city": "Richmond County", "rent": 950, "zip": "28379"}, "richmond-county-28380": {"city": "Richmond County", "rent": 930, "zip": "28380"}, "robeson-county-28340": {"city": "Robeson County", "rent": 930, "zip": "28340"}, "robeson-county-28352": {"city": "Robeson County", "rent": 930, "zip": "28352"}, "robeson-county-28357": {"city": "Robeson County", "rent": 930, "zip": "28357"}, "robeson-county-28358": {"city": "Robeson County", "rent": 930, "zip": "28358"}, "robeson-county-28359": {"city": "Robeson County", "rent": 930, "zip": "28359"}, "robeson-county-28360": {"city": "Robeson County", "rent": 930, "zip": "28360"}, "robeson-county-28362": {"city": "Robeson County", "rent": 930, "zip": "28362"}, "robeson-county-28364": {"city": "Robeson County", "rent": 930, "zip": "28364"}, "robeson-county-28369": {"city": "Robeson County", "rent": 930, "zip": "28369"}, "robeson-county-28371": {"city": "Robeson County", "rent": 1150, "zip": "28371"}, "robeson-county-28372": {"city": "Robeson County", "rent": 930, "zip": "28372"}, "robeson-county-28375": {"city": "Robeson County", "rent": 1000, "zip": "28375"}, "robeson-county-28377": {"city": "Robeson County", "rent": 930, "zip": "28377"}, "robeson-county-28378": {"city": "Robeson County", "rent": 960, "zip": "28378"}, "robeson-county-28383": {"city": "Robeson County", "rent": 930, "zip": "28383"}, "robeson-county-28384": {"city": "Robeson County", "rent": 1120, "zip": "28384"}, "robeson-county-28386": {"city": "Robeson County", "rent": 930, "zip": "28386"}, "rutherford-county-28018": {"city": "Rutherford County", "rent": 1040, "zip": "28018"}, "rutherford-county-28019": {"city": "Rutherford County", "rent": 930, "zip": "28019"}, "rutherford-county-28020": {"city": "Rutherford County", "rent": 930, "zip": "28020"}, "rutherford-county-28024": {"city": "Rutherford County", "rent": 930, "zip": "28024"}, "rutherford-county-28040": {"city": "Rutherford County", "rent": 930, "zip": "28040"}, "rutherford-county-28043": {"city": "Rutherford County", "rent": 930, "zip": "28043"}, "rutherford-county-28074": {"city": "Rutherford County", "rent": 980, "zip": "28074"}, "rutherford-county-28076": {"city": "Rutherford County", "rent": 930, "zip": "28076"}, "rutherford-county-28114": {"city": "Rutherford County", "rent": 930, "zip": "28114"}, "rutherford-county-28139": {"city": "Rutherford County", "rent": 1060, "zip": "28139"}, "rutherford-county-28150": {"city": "Rutherford County", "rent": 950, "zip": "28150"}, "rutherford-county-28160": {"city": "Rutherford County", "rent": 930, "zip": "28160"}, "rutherford-county-28167": {"city": "Rutherford County", "rent": 1030, "zip": "28167"}, "rutherford-county-28711": {"city": "Rutherford County", "rent": 1480, "zip": "28711"}, "rutherford-county-28720": {"city": "Rutherford County", "rent": 1390, "zip": "28720"}, "rutherford-county-28746": {"city": "Rutherford County", "rent": 1370, "zip": "28746"}, "rutherford-county-28752": {"city": "Rutherford County", "rent": 950, "zip": "28752"}, "rutherford-county-28756": {"city": "Rutherford County", "rent": 1370, "zip": "28756"}, "sampson-county-28318": {"city": "Sampson County", "rent": 1120, "zip": "28318"}, "sampson-county-28328": {"city": "Sampson County", "rent": 930, "zip": "28328"}, "sampson-county-28329": {"city": "Sampson County", "rent": 930, "zip": "28329"}, "sampson-county-28334": {"city": "Sampson County", "rent": 1350, "zip": "28334"}, "sampson-county-28341": {"city": "Sampson County", "rent": 930, "zip": "28341"}, "sampson-county-28344": {"city": "Sampson County", "rent": 1120, "zip": "28344"}, "sampson-county-28365": {"city": "Sampson County", "rent": 1100, "zip": "28365"}, "sampson-county-28366": {"city": "Sampson County", "rent": 1350, "zip": "28366"}, "sampson-county-28382": {"city": "Sampson County", "rent": 1120, "zip": "28382"}, "sampson-county-28385": {"city": "Sampson County", "rent": 990, "zip": "28385"}, "sampson-county-28391": {"city": "Sampson County", "rent": 1120, "zip": "28391"}, "sampson-county-28393": {"city": "Sampson County", "rent": 930, "zip": "28393"}, "sampson-county-28398": {"city": "Sampson County", "rent": 1010, "zip": "28398"}, "sampson-county-28421": {"city": "Sampson County", "rent": 980, "zip": "28421"}, "sampson-county-28441": {"city": "Sampson County", "rent": 1120, "zip": "28441"}, "sampson-county-28444": {"city": "Sampson County", "rent": 990, "zip": "28444"}, "sampson-county-28447": {"city": "Sampson County", "rent": 980, "zip": "28447"}, "sampson-county-28453": {"city": "Sampson County", "rent": 930, "zip": "28453"}, "sampson-county-28458": {"city": "Sampson County", "rent": 930, "zip": "28458"}, "sampson-county-28466": {"city": "Sampson County", "rent": 980, "zip": "28466"}, "sampson-county-28478": {"city": "Sampson County", "rent": 980, "zip": "28478"}, "scotland-county-28343": {"city": "Scotland County", "rent": 930, "zip": "28343"}, "scotland-county-28345": {"city": "Scotland County", "rent": 930, "zip": "28345"}, "scotland-county-28351": {"city": "Scotland County", "rent": 930, "zip": "28351"}, "scotland-county-28352": {"city": "Scotland County", "rent": 930, "zip": "28352"}, "scotland-county-28353": {"city": "Scotland County", "rent": 930, "zip": "28353"}, "scotland-county-28363": {"city": "Scotland County", "rent": 930, "zip": "28363"}, "scotland-county-28364": {"city": "Scotland County", "rent": 930, "zip": "28364"}, "scotland-county-28396": {"city": "Scotland County", "rent": 930, "zip": "28396"}, "stanly-county-28001": {"city": "Stanly County", "rent": 950, "zip": "28001"}, "stanly-county-28002": {"city": "Stanly County", "rent": 930, "zip": "28002"}, "stanly-county-28009": {"city": "Stanly County", "rent": 940, "zip": "28009"}, "stanly-county-28071": {"city": "Stanly County", "rent": 1160, "zip": "28071"}, "stanly-county-28097": {"city": "Stanly County", "rent": 950, "zip": "28097"}, "stanly-county-28107": {"city": "Stanly County", "rent": 1300, "zip": "28107"}, "stanly-county-28109": {"city": "Stanly County", "rent": 1160, "zip": "28109"}, "stanly-county-28124": {"city": "Stanly County", "rent": 1260, "zip": "28124"}, "stanly-county-28127": {"city": "Stanly County", "rent": 970, "zip": "28127"}, "stanly-county-28128": {"city": "Stanly County", "rent": 930, "zip": "28128"}, "stanly-county-28129": {"city": "Stanly County", "rent": 930, "zip": "28129"}, "stanly-county-28137": {"city": "Stanly County", "rent": 1160, "zip": "28137"}, "stanly-county-28163": {"city": "Stanly County", "rent": 930, "zip": "28163"}, "surry-county-27007": {"city": "Surry County", "rent": 980, "zip": "27007"}, "surry-county-27017": {"city": "Surry County", "rent": 930, "zip": "27017"}, "surry-county-27024": {"city": "Surry County", "rent": 930, "zip": "27024"}, "surry-county-27030": {"city": "Surry County", "rent": 930, "zip": "27030"}, "surry-county-27041": {"city": "Surry County", "rent": 940, "zip": "27041"}, "surry-county-27043": {"city": "Surry County", "rent": 1000, "zip": "27043"}, "surry-county-27047": {"city": "Surry County", "rent": 950, "zip": "27047"}, "surry-county-27049": {"city": "Surry County", "rent": 930, "zip": "27049"}, "surry-county-27053": {"city": "Surry County", "rent": 930, "zip": "27053"}, "surry-county-28621": {"city": "Surry County", "rent": 950, "zip": "28621"}, "surry-county-28623": {"city": "Surry County", "rent": 960, "zip": "28623"}, "surry-county-28676": {"city": "Surry County", "rent": 930, "zip": "28676"}, "surry-county-28683": {"city": "Surry County", "rent": 930, "zip": "28683"}, "swain-county-28702": {"city": "Swain County", "rent": 940, "zip": "28702"}, "swain-county-28713": {"city": "Swain County", "rent": 930, "zip": "28713"}, "swain-county-28719": {"city": "Swain County", "rent": 1110, "zip": "28719"}, "swain-county-28771": {"city": "Swain County", "rent": 960, "zip": "28771"}, "swain-county-28781": {"city": "Swain County", "rent": 970, "zip": "28781"}, "swain-county-28789": {"city": "Swain County", "rent": 1160, "zip": "28789"}, "transylvania-county-28708": {"city": "Transylvania County", "rent": 1090, "zip": "28708"}, "transylvania-county-28712": {"city": "Transylvania County", "rent": 1190, "zip": "28712"}, "transylvania-county-28718": {"city": "Transylvania County", "rent": 1280, "zip": "28718"}, "transylvania-county-28739": {"city": "Transylvania County", "rent": 1370, "zip": "28739"}, "transylvania-county-28742": {"city": "Transylvania County", "rent": 1370, "zip": "28742"}, "transylvania-county-28747": {"city": "Transylvania County", "rent": 1040, "zip": "28747"}, "transylvania-county-28759": {"city": "Transylvania County", "rent": 1810, "zip": "28759"}, "transylvania-county-28766": {"city": "Transylvania County", "rent": 1370, "zip": "28766"}, "transylvania-county-28768": {"city": "Transylvania County", "rent": 1370, "zip": "28768"}, "transylvania-county-28772": {"city": "Transylvania County", "rent": 1150, "zip": "28772"}, "transylvania-county-28774": {"city": "Transylvania County", "rent": 1600, "zip": "28774"}, "transylvania-county-28783": {"city": "Transylvania County", "rent": 1040, "zip": "28783"}, "tyrrell-county-27826": {"city": "Tyrrell County", "rent": 1030, "zip": "27826"}, "tyrrell-county-27925": {"city": "Tyrrell County", "rent": 930, "zip": "27925"}, "tyrrell-county-27928": {"city": "Tyrrell County", "rent": 960, "zip": "27928"}, "vance-county-27507": {"city": "Vance County", "rent": 1200, "zip": "27507"}, "vance-county-27536": {"city": "Vance County", "rent": 960, "zip": "27536"}, "vance-county-27537": {"city": "Vance County", "rent": 1350, "zip": "27537"}, "vance-county-27544": {"city": "Vance County", "rent": 1350, "zip": "27544"}, "vance-county-27553": {"city": "Vance County", "rent": 930, "zip": "27553"}, "vance-county-27556": {"city": "Vance County", "rent": 980, "zip": "27556"}, "vance-county-27563": {"city": "Vance County", "rent": 930, "zip": "27563"}, "vance-county-27565": {"city": "Vance County", "rent": 1200, "zip": "27565"}, "vance-county-27584": {"city": "Vance County", "rent": 1010, "zip": "27584"}, "warren-county-27537": {"city": "Warren County", "rent": 1350, "zip": "27537"}, "warren-county-27551": {"city": "Warren County", "rent": 940, "zip": "27551"}, "warren-county-27553": {"city": "Warren County", "rent": 930, "zip": "27553"}, "warren-county-27563": {"city": "Warren County", "rent": 930, "zip": "27563"}, "warren-county-27570": {"city": "Warren County", "rent": 930, "zip": "27570"}, "warren-county-27589": {"city": "Warren County", "rent": 1350, "zip": "27589"}, "warren-county-27594": {"city": "Warren County", "rent": 930, "zip": "27594"}, "warren-county-27842": {"city": "Warren County", "rent": 1450, "zip": "27842"}, "warren-county-27844": {"city": "Warren County", "rent": 1350, "zip": "27844"}, "warren-county-27850": {"city": "Warren County", "rent": 930, "zip": "27850"}, "washington-county-27846": {"city": "Washington County", "rent": 930, "zip": "27846"}, "washington-county-27860": {"city": "Washington County", "rent": 930, "zip": "27860"}, "washington-county-27928": {"city": "Washington County", "rent": 960, "zip": "27928"}, "washington-county-27962": {"city": "Washington County", "rent": 930, "zip": "27962"}, "washington-county-27970": {"city": "Washington County", "rent": 1170, "zip": "27970"}, "watauga-county-28604": {"city": "Watauga County", "rent": 1150, "zip": "28604"}, "watauga-county-28605": {"city": "Watauga County", "rent": 1200, "zip": "28605"}, "watauga-county-28607": {"city": "Watauga County", "rent": 1290, "zip": "28607"}, "watauga-county-28618": {"city": "Watauga County", "rent": 1150, "zip": "28618"}, "watauga-county-28622": {"city": "Watauga County", "rent": 1150, "zip": "28622"}, "watauga-county-28645": {"city": "Watauga County", "rent": 1150, "zip": "28645"}, "watauga-county-28679": {"city": "Watauga County", "rent": 1210, "zip": "28679"}, "watauga-county-28684": {"city": "Watauga County", "rent": 1180, "zip": "28684"}, "watauga-county-28692": {"city": "Watauga County", "rent": 1150, "zip": "28692"}, "watauga-county-28698": {"city": "Watauga County", "rent": 1150, "zip": "28698"}, "wilkes-county-27020": {"city": "Wilkes County", "rent": 990, "zip": "27020"}, "wilkes-county-28606": {"city": "Wilkes County", "rent": 950, "zip": "28606"}, "wilkes-county-28618": {"city": "Wilkes County", "rent": 1150, "zip": "28618"}, "wilkes-county-28621": {"city": "Wilkes County", "rent": 950, "zip": "28621"}, "wilkes-county-28624": {"city": "Wilkes County", "rent": 970, "zip": "28624"}, "wilkes-county-28635": {"city": "Wilkes County", "rent": 960, "zip": "28635"}, "wilkes-county-28640": {"city": "Wilkes County", "rent": 930, "zip": "28640"}, "wilkes-county-28642": {"city": "Wilkes County", "rent": 930, "zip": "28642"}, "wilkes-county-28644": {"city": "Wilkes County", "rent": 960, "zip": "28644"}, "wilkes-county-28645": {"city": "Wilkes County", "rent": 1150, "zip": "28645"}, "wilkes-county-28649": {"city": "Wilkes County", "rent": 940, "zip": "28649"}, "wilkes-county-28651": {"city": "Wilkes County", "rent": 930, "zip": "28651"}, "wilkes-county-28654": {"city": "Wilkes County", "rent": 1200, "zip": "28654"}, "wilkes-county-28656": {"city": "Wilkes County", "rent": 930, "zip": "28656"}, "wilkes-county-28659": {"city": "Wilkes County", "rent": 990, "zip": "28659"}, "wilkes-county-28665": {"city": "Wilkes County", "rent": 930, "zip": "28665"}, "wilkes-county-28669": {"city": "Wilkes County", "rent": 930, "zip": "28669"}, "wilkes-county-28670": {"city": "Wilkes County", "rent": 930, "zip": "28670"}, "wilkes-county-28675": {"city": "Wilkes County", "rent": 1010, "zip": "28675"}, "wilkes-county-28676": {"city": "Wilkes County", "rent": 930, "zip": "28676"}, "wilkes-county-28683": {"city": "Wilkes County", "rent": 930, "zip": "28683"}, "wilkes-county-28685": {"city": "Wilkes County", "rent": 930, "zip": "28685"}, "wilkes-county-28689": {"city": "Wilkes County", "rent": 1020, "zip": "28689"}, "wilkes-county-28694": {"city": "Wilkes County", "rent": 930, "zip": "28694"}, "wilkes-county-28697": {"city": "Wilkes County", "rent": 930, "zip": "28697"}, "wilson-county-27542": {"city": "Wilson County", "rent": 1350, "zip": "27542"}, "wilson-county-27557": {"city": "Wilson County", "rent": 1350, "zip": "27557"}, "wilson-county-27803": {"city": "Wilson County", "rent": 1210, "zip": "27803"}, "wilson-county-27807": {"city": "Wilson County", "rent": 1100, "zip": "27807"}, "wilson-county-27813": {"city": "Wilson County", "rent": 1020, "zip": "27813"}, "wilson-county-27822": {"city": "Wilson County", "rent": 980, "zip": "27822"}, "wilson-county-27829": {"city": "Wilson County", "rent": 990, "zip": "27829"}, "wilson-county-27830": {"city": "Wilson County", "rent": 1070, "zip": "27830"}, "wilson-county-27851": {"city": "Wilson County", "rent": 1070, "zip": "27851"}, "wilson-county-27852": {"city": "Wilson County", "rent": 1050, "zip": "27852"}, "wilson-county-27873": {"city": "Wilson County", "rent": 930, "zip": "27873"}, "wilson-county-27878": {"city": "Wilson County", "rent": 1130, "zip": "27878"}, "wilson-county-27880": {"city": "Wilson County", "rent": 1020, "zip": "27880"}, "wilson-county-27883": {"city": "Wilson County", "rent": 1070, "zip": "27883"}, "wilson-county-27888": {"city": "Wilson County", "rent": 990, "zip": "27888"}, "wilson-county-27893": {"city": "Wilson County", "rent": 1030, "zip": "27893"}, "wilson-county-27894": {"city": "Wilson County", "rent": 1030, "zip": "27894"}, "wilson-county-27895": {"city": "Wilson County", "rent": 1030, "zip": "27895"}, "wilson-county-27896": {"city": "Wilson County", "rent": 1170, "zip": "27896"}, "yancey-county-28705": {"city": "Yancey County", "rent": 1050, "zip": "28705"}, "yancey-county-28714": {"city": "Yancey County", "rent": 1370, "zip": "28714"}, "yancey-county-28740": {"city": "Yancey County", "rent": 1060, "zip": "28740"}, "yancey-county-28754": {"city": "Yancey County", "rent": 1370, "zip": "28754"}, "yancey-county-28755": {"city": "Yancey County", "rent": 940, "zip": "28755"}, "yancey-county-28777": {"city": "Yancey County", "rent": 950, "zip": "28777"}}