{"akron-44056": {"city": "Akron", "rent": 1900, "zip": "44056"}, "akron-44067": {"city": "Akron", "rent": 1550, "zip": "44067"}, "akron-44087": {"city": "Akron", "rent": 1600, "zip": "44087"}, "akron-44141": {"city": "Akron", "rent": 1760, "zip": "44141"}, "akron-44201": {"city": "Akron", "rent": 1320, "zip": "44201"}, "akron-44202": {"city": "Akron", "rent": 1900, "zip": "44202"}, "akron-44203": {"city": "Akron", "rent": 1130, "zip": "44203"}, "akron-44210": {"city": "Akron", "rent": 1260, "zip": "44210"}, "akron-44211": {"city": "Akron", "rent": 1300, "zip": "44211"}, "akron-44216": {"city": "Akron", "rent": 1090, "zip": "44216"}, "akron-44221": {"city": "Akron", "rent": 1380, "zip": "44221"}, "akron-44222": {"city": "Akron", "rent": 1260, "zip": "44222"}, "akron-44223": {"city": "Akron", "rent": 1310, "zip": "44223"}, "akron-44224": {"city": "Akron", "rent": 1500, "zip": "44224"}, "akron-44230": {"city": "Akron", "rent": 1010, "zip": "44230"}, "akron-44231": {"city": "Akron", "rent": 1090, "zip": "44231"}, "akron-44232": {"city": "Akron", "rent": 1260, "zip": "44232"}, "akron-44234": {"city": "Akron", "rent": 1140, "zip": "44234"}, "akron-44236": {"city": "Akron", "rent": 1900, "zip": "44236"}, "akron-44240": {"city": "Akron", "rent": 1280, "zip": "44240"}, "akron-44241": {"city": "Akron", "rent": 1630, "zip": "44241"}, "akron-44242": {"city": "Akron", "rent": 1300, "zip": "44242"}, "akron-44243": {"city": "Akron", "rent": 1280, "zip": "44243"}, "akron-44250": {"city": "Akron", "rent": 1200, "zip": "44250"}, "akron-44255": {"city": "Akron", "rent": 1260, "zip": "44255"}, "akron-44256": {"city": "Akron", "rent": 1420, "zip": "44256"}, "akron-44260": {"city": "Akron", "rent": 1240, "zip": "44260"}, "akron-44262": {"city": "Akron", "rent": 1020, "zip": "44262"}, "akron-44264": {"city": "Akron", "rent": 1430, "zip": "44264"}, "akron-44265": {"city": "Akron", "rent": 1300, "zip": "44265"}, "akron-44266": {"city": "Akron", "rent": 1200, "zip": "44266"}, "akron-44272": {"city": "Akron", "rent": 1270, "zip": "44272"}, "akron-44278": {"city": "Akron", "rent": 1280, "zip": "44278"}, "akron-44281": {"city": "Akron", "rent": 1280, "zip": "44281"}, "akron-44285": {"city": "Akron", "rent": 1200, "zip": "44285"}, "akron-44286": {"city": "Akron", "rent": 1470, "zip": "44286"}, "akron-44288": {"city": "Akron", "rent": 1270, "zip": "44288"}, "akron-44301": {"city": "Akron", "rent": 1290, "zip": "44301"}, "akron-44302": {"city": "Akron", "rent": 990, "zip": "44302"}, "akron-44303": {"city": "Akron", "rent": 1120, "zip": "44303"}, "akron-44304": {"city": "Akron", "rent": 1200, "zip": "44304"}, "akron-44305": {"city": "Akron", "rent": 1270, "zip": "44305"}, "akron-44306": {"city": "Akron", "rent": 1180, "zip": "44306"}, "akron-44307": {"city": "Akron", "rent": 1120, "zip": "44307"}, "akron-44308": {"city": "Akron", "rent": 1120, "zip": "44308"}, "akron-44309": {"city": "Akron", "rent": 1260, "zip": "44309"}, "akron-44310": {"city": "Akron", "rent": 1170, "zip": "44310"}, "akron-44311": {"city": "Akron", "rent": 1070, "zip": "44311"}, "akron-44312": {"city": "Akron", "rent": 1250, "zip": "44312"}, "akron-44313": {"city": "Akron", "rent": 1290, "zip": "44313"}, "akron-44314": {"city": "Akron", "rent": 1140, "zip": "44314"}, "akron-44316": {"city": "Akron", "rent": 1260, "zip": "44316"}, "akron-44319": {"city": "Akron", "rent": 1340, "zip": "44319"}, "akron-44320": {"city": "Akron", "rent": 1150, "zip": "44320"}, "akron-44321": {"city": "Akron", "rent": 1700, "zip": "44321"}, "akron-44325": {"city": "Akron", "rent": 1160, "zip": "44325"}, "akron-44333": {"city": "Akron", "rent": 1320, "zip": "44333"}, "akron-44334": {"city": "Akron", "rent": 1260, "zip": "44334"}, "akron-44411": {"city": "Akron", "rent": 1380, "zip": "44411"}, "akron-44412": {"city": "Akron", "rent": 1020, "zip": "44412"}, "akron-44429": {"city": "Akron", "rent": 1040, "zip": "44429"}, "akron-44444": {"city": "Akron", "rent": 970, "zip": "44444"}, "akron-44449": {"city": "Akron", "rent": 970, "zip": "44449"}, "akron-44470": {"city": "Akron", "rent": 970, "zip": "44470"}, "akron-44491": {"city": "Akron", "rent": 1030, "zip": "44491"}, "akron-44601": {"city": "Akron", "rent": 1010, "zip": "44601"}, "akron-44614": {"city": "Akron", "rent": 1170, "zip": "44614"}, "akron-44632": {"city": "Akron", "rent": 1200, "zip": "44632"}, "akron-44645": {"city": "Akron", "rent": 1300, "zip": "44645"}, "akron-44685": {"city": "Akron", "rent": 1530, "zip": "44685"}, "akron-44720": {"city": "Akron", "rent": 1210, "zip": "44720"}, "canton-massillon-43903": {"city": "Canton-Massillon", "rent": 1110, "zip": "43903"}, "canton-massillon-43908": {"city": "Canton-Massillon", "rent": 970, "zip": "43908"}, "canton-massillon-43945": {"city": "Canton-Massillon", "rent": 1060, "zip": "43945"}, "canton-massillon-43986": {"city": "Canton-Massillon", "rent": 1030, "zip": "43986"}, "canton-massillon-43988": {"city": "Canton-Massillon", "rent": 1100, "zip": "43988"}, "canton-massillon-44201": {"city": "Canton-Massillon", "rent": 1320, "zip": "44201"}, "canton-massillon-44216": {"city": "Canton-Massillon", "rent": 1090, "zip": "44216"}, "canton-massillon-44260": {"city": "Canton-Massillon", "rent": 1240, "zip": "44260"}, "canton-massillon-44427": {"city": "Canton-Massillon", "rent": 1210, "zip": "44427"}, "canton-massillon-44601": {"city": "Canton-Massillon", "rent": 1010, "zip": "44601"}, "canton-massillon-44607": {"city": "Canton-Massillon", "rent": 1150, "zip": "44607"}, "canton-massillon-44608": {"city": "Canton-Massillon", "rent": 1300, "zip": "44608"}, "canton-massillon-44612": {"city": "Canton-Massillon", "rent": 970, "zip": "44612"}, "canton-massillon-44613": {"city": "Canton-Massillon", "rent": 1100, "zip": "44613"}, "canton-massillon-44614": {"city": "Canton-Massillon", "rent": 1170, "zip": "44614"}, "canton-massillon-44615": {"city": "Canton-Massillon", "rent": 970, "zip": "44615"}, "canton-massillon-44618": {"city": "Canton-Massillon", "rent": 980, "zip": "44618"}, "canton-massillon-44620": {"city": "Canton-Massillon", "rent": 1040, "zip": "44620"}, "canton-massillon-44621": {"city": "Canton-Massillon", "rent": 970, "zip": "44621"}, "canton-massillon-44624": {"city": "Canton-Massillon", "rent": 1070, "zip": "44624"}, "canton-massillon-44625": {"city": "Canton-Massillon", "rent": 1270, "zip": "44625"}, "canton-massillon-44626": {"city": "Canton-Massillon", "rent": 1180, "zip": "44626"}, "canton-massillon-44630": {"city": "Canton-Massillon", "rent": 1210, "zip": "44630"}, "canton-massillon-44632": {"city": "Canton-Massillon", "rent": 1200, "zip": "44632"}, "canton-massillon-44634": {"city": "Canton-Massillon", "rent": 970, "zip": "44634"}, "canton-massillon-44639": {"city": "Canton-Massillon", "rent": 970, "zip": "44639"}, "canton-massillon-44640": {"city": "Canton-Massillon", "rent": 1380, "zip": "44640"}, "canton-massillon-44641": {"city": "Canton-Massillon", "rent": 1040, "zip": "44641"}, "canton-massillon-44643": {"city": "Canton-Massillon", "rent": 1060, "zip": "44643"}, "canton-massillon-44644": {"city": "Canton-Massillon", "rent": 990, "zip": "44644"}, "canton-massillon-44645": {"city": "Canton-Massillon", "rent": 1300, "zip": "44645"}, "canton-massillon-44646": {"city": "Canton-Massillon", "rent": 1080, "zip": "44646"}, "canton-massillon-44647": {"city": "Canton-Massillon", "rent": 1180, "zip": "44647"}, "canton-massillon-44648": {"city": "Canton-Massillon", "rent": 1090, "zip": "44648"}, "canton-massillon-44650": {"city": "Canton-Massillon", "rent": 1090, "zip": "44650"}, "canton-massillon-44651": {"city": "Canton-Massillon", "rent": 1030, "zip": "44651"}, "canton-massillon-44652": {"city": "Canton-Massillon", "rent": 1040, "zip": "44652"}, "canton-massillon-44656": {"city": "Canton-Massillon", "rent": 970, "zip": "44656"}, "canton-massillon-44657": {"city": "Canton-Massillon", "rent": 1020, "zip": "44657"}, "canton-massillon-44662": {"city": "Canton-Massillon", "rent": 1020, "zip": "44662"}, "canton-massillon-44666": {"city": "Canton-Massillon", "rent": 1050, "zip": "44666"}, "canton-massillon-44669": {"city": "Canton-Massillon", "rent": 1010, "zip": "44669"}, "canton-massillon-44670": {"city": "Canton-Massillon", "rent": 1030, "zip": "44670"}, "canton-massillon-44675": {"city": "Canton-Massillon", "rent": 1390, "zip": "44675"}, "canton-massillon-44685": {"city": "Canton-Massillon", "rent": 1530, "zip": "44685"}, "canton-massillon-44688": {"city": "Canton-Massillon", "rent": 1020, "zip": "44688"}, "canton-massillon-44689": {"city": "Canton-Massillon", "rent": 1180, "zip": "44689"}, "canton-massillon-44695": {"city": "Canton-Massillon", "rent": 970, "zip": "44695"}, "canton-massillon-44702": {"city": "Canton-Massillon", "rent": 970, "zip": "44702"}, "canton-massillon-44703": {"city": "Canton-Massillon", "rent": 1030, "zip": "44703"}, "canton-massillon-44704": {"city": "Canton-Massillon", "rent": 1060, "zip": "44704"}, "canton-massillon-44705": {"city": "Canton-Massillon", "rent": 1100, "zip": "44705"}, "canton-massillon-44706": {"city": "Canton-Massillon", "rent": 1090, "zip": "44706"}, "canton-massillon-44707": {"city": "Canton-Massillon", "rent": 1020, "zip": "44707"}, "canton-massillon-44708": {"city": "Canton-Massillon", "rent": 1140, "zip": "44708"}, "canton-massillon-44709": {"city": "Canton-Massillon", "rent": 1030, "zip": "44709"}, "canton-massillon-44710": {"city": "Canton-Massillon", "rent": 1150, "zip": "44710"}, "canton-massillon-44711": {"city": "Canton-Massillon", "rent": 1090, "zip": "44711"}, "canton-massillon-44714": {"city": "Canton-Massillon", "rent": 1100, "zip": "44714"}, "canton-massillon-44718": {"city": "Canton-Massillon", "rent": 1080, "zip": "44718"}, "canton-massillon-44720": {"city": "Canton-Massillon", "rent": 1210, "zip": "44720"}, "canton-massillon-44721": {"city": "Canton-Massillon", "rent": 1060, "zip": "44721"}, "canton-massillon-44730": {"city": "Canton-Massillon", "rent": 1070, "zip": "44730"}, "canton-massillon-44735": {"city": "Canton-Massillon", "rent": 1090, "zip": "44735"}, "canton-massillon-44750": {"city": "Canton-Massillon", "rent": 1090, "zip": "44750"}, "canton-massillon-44767": {"city": "Canton-Massillon", "rent": 1090, "zip": "44767"}, "canton-massillon-44799": {"city": "Canton-Massillon", "rent": 1090, "zip": "44799"}, "cincinnati-41001": {"city": "Cincinnati", "rent": 1350, "zip": "41001"}, "cincinnati-41002": {"city": "Cincinnati", "rent": 980, "zip": "41002"}, "cincinnati-41003": {"city": "Cincinnati", "rent": 980, "zip": "41003"}, "cincinnati-41004": {"city": "Cincinnati", "rent": 1020, "zip": "41004"}, "cincinnati-41005": {"city": "Cincinnati", "rent": 1690, "zip": "41005"}, "cincinnati-41006": {"city": "Cincinnati", "rent": 1060, "zip": "41006"}, "cincinnati-41007": {"city": "Cincinnati", "rent": 1440, "zip": "41007"}, "cincinnati-41011": {"city": "Cincinnati", "rent": 1390, "zip": "41011"}, "cincinnati-41012": {"city": "Cincinnati", "rent": 1290, "zip": "41012"}, "cincinnati-41014": {"city": "Cincinnati", "rent": 1200, "zip": "41014"}, "cincinnati-41015": {"city": "Cincinnati", "rent": 1220, "zip": "41015"}, "cincinnati-41016": {"city": "Cincinnati", "rent": 1130, "zip": "41016"}, "cincinnati-41017": {"city": "Cincinnati", "rent": 1240, "zip": "41017"}, "cincinnati-41018": {"city": "Cincinnati", "rent": 1340, "zip": "41018"}, "cincinnati-41022": {"city": "Cincinnati", "rent": 1540, "zip": "41022"}, "cincinnati-41025": {"city": "Cincinnati", "rent": 1540, "zip": "41025"}, "cincinnati-41030": {"city": "Cincinnati", "rent": 1200, "zip": "41030"}, "cincinnati-41033": {"city": "Cincinnati", "rent": 1120, "zip": "41033"}, "cincinnati-41034": {"city": "Cincinnati", "rent": 980, "zip": "41034"}, "cincinnati-41035": {"city": "Cincinnati", "rent": 1160, "zip": "41035"}, "cincinnati-41040": {"city": "Cincinnati", "rent": 1140, "zip": "41040"}, "cincinnati-41042": {"city": "Cincinnati", "rent": 1560, "zip": "41042"}, "cincinnati-41043": {"city": "Cincinnati", "rent": 1100, "zip": "41043"}, "cincinnati-41044": {"city": "Cincinnati", "rent": 980, "zip": "41044"}, "cincinnati-41045": {"city": "Cincinnati", "rent": 1130, "zip": "41045"}, "cincinnati-41046": {"city": "Cincinnati", "rent": 1360, "zip": "41046"}, "cincinnati-41048": {"city": "Cincinnati", "rent": 1730, "zip": "41048"}, "cincinnati-41051": {"city": "Cincinnati", "rent": 1550, "zip": "41051"}, "cincinnati-41053": {"city": "Cincinnati", "rent": 1290, "zip": "41053"}, "cincinnati-41059": {"city": "Cincinnati", "rent": 980, "zip": "41059"}, "cincinnati-41061": {"city": "Cincinnati", "rent": 1000, "zip": "41061"}, "cincinnati-41063": {"city": "Cincinnati", "rent": 1200, "zip": "41063"}, "cincinnati-41064": {"city": "Cincinnati", "rent": 980, "zip": "41064"}, "cincinnati-41071": {"city": "Cincinnati", "rent": 1370, "zip": "41071"}, "cincinnati-41072": {"city": "Cincinnati", "rent": 1330, "zip": "41072"}, "cincinnati-41073": {"city": "Cincinnati", "rent": 1350, "zip": "41073"}, "cincinnati-41074": {"city": "Cincinnati", "rent": 1290, "zip": "41074"}, "cincinnati-41075": {"city": "Cincinnati", "rent": 1370, "zip": "41075"}, "cincinnati-41076": {"city": "Cincinnati", "rent": 1400, "zip": "41076"}, "cincinnati-41080": {"city": "Cincinnati", "rent": 1700, "zip": "41080"}, "cincinnati-41083": {"city": "Cincinnati", "rent": 1140, "zip": "41083"}, "cincinnati-41085": {"city": "Cincinnati", "rent": 980, "zip": "41085"}, "cincinnati-41086": {"city": "Cincinnati", "rent": 1070, "zip": "41086"}, "cincinnati-41091": {"city": "Cincinnati", "rent": 2030, "zip": "41091"}, "cincinnati-41092": {"city": "Cincinnati", "rent": 1270, "zip": "41092"}, "cincinnati-41094": {"city": "Cincinnati", "rent": 1460, "zip": "41094"}, "cincinnati-41095": {"city": "Cincinnati", "rent": 1020, "zip": "41095"}, "cincinnati-41097": {"city": "Cincinnati", "rent": 1090, "zip": "41097"}, "cincinnati-41099": {"city": "Cincinnati", "rent": 1330, "zip": "41099"}, "cincinnati-45001": {"city": "Cincinnati", "rent": 1040, "zip": "45001"}, "cincinnati-45002": {"city": "Cincinnati", "rent": 1320, "zip": "45002"}, "cincinnati-45003": {"city": "Cincinnati", "rent": 1000, "zip": "45003"}, "cincinnati-45005": {"city": "Cincinnati", "rent": 1290, "zip": "45005"}, "cincinnati-45011": {"city": "Cincinnati", "rent": 1290, "zip": "45011"}, "cincinnati-45012": {"city": "Cincinnati", "rent": 1400, "zip": "45012"}, "cincinnati-45013": {"city": "Cincinnati", "rent": 1260, "zip": "45013"}, "cincinnati-45014": {"city": "Cincinnati", "rent": 1470, "zip": "45014"}, "cincinnati-45015": {"city": "Cincinnati", "rent": 1400, "zip": "45015"}, "cincinnati-45018": {"city": "Cincinnati", "rent": 1400, "zip": "45018"}, "cincinnati-45030": {"city": "Cincinnati", "rent": 1400, "zip": "45030"}, "cincinnati-45032": {"city": "Cincinnati", "rent": 1200, "zip": "45032"}, "cincinnati-45033": {"city": "Cincinnati", "rent": 1320, "zip": "45033"}, "cincinnati-45034": {"city": "Cincinnati", "rent": 1910, "zip": "45034"}, "cincinnati-45036": {"city": "Cincinnati", "rent": 1360, "zip": "45036"}, "cincinnati-45039": {"city": "Cincinnati", "rent": 1980, "zip": "45039"}, "cincinnati-45040": {"city": "Cincinnati", "rent": 2030, "zip": "45040"}, "cincinnati-45041": {"city": "Cincinnati", "rent": 1320, "zip": "45041"}, "cincinnati-45042": {"city": "Cincinnati", "rent": 1270, "zip": "45042"}, "cincinnati-45044": {"city": "Cincinnati", "rent": 1230, "zip": "45044"}, "cincinnati-45050": {"city": "Cincinnati", "rent": 1800, "zip": "45050"}, "cincinnati-45051": {"city": "Cincinnati", "rent": 1200, "zip": "45051"}, "cincinnati-45052": {"city": "Cincinnati", "rent": 1350, "zip": "45052"}, "cincinnati-45053": {"city": "Cincinnati", "rent": 1280, "zip": "45053"}, "cincinnati-45054": {"city": "Cincinnati", "rent": 1440, "zip": "45054"}, "cincinnati-45055": {"city": "Cincinnati", "rent": 1290, "zip": "45055"}, "cincinnati-45056": {"city": "Cincinnati", "rent": 1320, "zip": "45056"}, "cincinnati-45061": {"city": "Cincinnati", "rent": 1400, "zip": "45061"}, "cincinnati-45062": {"city": "Cincinnati", "rent": 1210, "zip": "45062"}, "cincinnati-45063": {"city": "Cincinnati", "rent": 1400, "zip": "45063"}, "cincinnati-45064": {"city": "Cincinnati", "rent": 1170, "zip": "45064"}, "cincinnati-45065": {"city": "Cincinnati", "rent": 1770, "zip": "45065"}, "cincinnati-45066": {"city": "Cincinnati", "rent": 1970, "zip": "45066"}, "cincinnati-45067": {"city": "Cincinnati", "rent": 1710, "zip": "45067"}, "cincinnati-45068": {"city": "Cincinnati", "rent": 1630, "zip": "45068"}, "cincinnati-45069": {"city": "Cincinnati", "rent": 1880, "zip": "45069"}, "cincinnati-45070": {"city": "Cincinnati", "rent": 1380, "zip": "45070"}, "cincinnati-45071": {"city": "Cincinnati", "rent": 1400, "zip": "45071"}, "cincinnati-45102": {"city": "Cincinnati", "rent": 1190, "zip": "45102"}, "cincinnati-45103": {"city": "Cincinnati", "rent": 1330, "zip": "45103"}, "cincinnati-45106": {"city": "Cincinnati", "rent": 1020, "zip": "45106"}, "cincinnati-45107": {"city": "Cincinnati", "rent": 1060, "zip": "45107"}, "cincinnati-45111": {"city": "Cincinnati", "rent": 1780, "zip": "45111"}, "cincinnati-45112": {"city": "Cincinnati", "rent": 980, "zip": "45112"}, "cincinnati-45113": {"city": "Cincinnati", "rent": 1210, "zip": "45113"}, "cincinnati-45118": {"city": "Cincinnati", "rent": 1360, "zip": "45118"}, "cincinnati-45120": {"city": "Cincinnati", "rent": 980, "zip": "45120"}, "cincinnati-45121": {"city": "Cincinnati", "rent": 980, "zip": "45121"}, "cincinnati-45122": {"city": "Cincinnati", "rent": 1490, "zip": "45122"}, "cincinnati-45130": {"city": "Cincinnati", "rent": 1070, "zip": "45130"}, "cincinnati-45140": {"city": "Cincinnati", "rent": 1710, "zip": "45140"}, "cincinnati-45147": {"city": "Cincinnati", "rent": 1840, "zip": "45147"}, "cincinnati-45150": {"city": "Cincinnati", "rent": 1310, "zip": "45150"}, "cincinnati-45152": {"city": "Cincinnati", "rent": 1400, "zip": "45152"}, "cincinnati-45153": {"city": "Cincinnati", "rent": 1680, "zip": "45153"}, "cincinnati-45156": {"city": "Cincinnati", "rent": 1450, "zip": "45156"}, "cincinnati-45157": {"city": "Cincinnati", "rent": 1080, "zip": "45157"}, "cincinnati-45158": {"city": "Cincinnati", "rent": 1190, "zip": "45158"}, "cincinnati-45160": {"city": "Cincinnati", "rent": 980, "zip": "45160"}, "cincinnati-45162": {"city": "Cincinnati", "rent": 1540, "zip": "45162"}, "cincinnati-45174": {"city": "Cincinnati", "rent": 2030, "zip": "45174"}, "cincinnati-45176": {"city": "Cincinnati", "rent": 1130, "zip": "45176"}, "cincinnati-45201": {"city": "Cincinnati", "rent": 1310, "zip": "45201"}, "cincinnati-45202": {"city": "Cincinnati", "rent": 2030, "zip": "45202"}, "cincinnati-45203": {"city": "Cincinnati", "rent": 1120, "zip": "45203"}, "cincinnati-45204": {"city": "Cincinnati", "rent": 1020, "zip": "45204"}, "cincinnati-45205": {"city": "Cincinnati", "rent": 1150, "zip": "45205"}, "cincinnati-45206": {"city": "Cincinnati", "rent": 1220, "zip": "45206"}, "cincinnati-45207": {"city": "Cincinnati", "rent": 1220, "zip": "45207"}, "cincinnati-45208": {"city": "Cincinnati", "rent": 1670, "zip": "45208"}, "cincinnati-45209": {"city": "Cincinnati", "rent": 1770, "zip": "45209"}, "cincinnati-45211": {"city": "Cincinnati", "rent": 1140, "zip": "45211"}, "cincinnati-45212": {"city": "Cincinnati", "rent": 1350, "zip": "45212"}, "cincinnati-45213": {"city": "Cincinnati", "rent": 1210, "zip": "45213"}, "cincinnati-45214": {"city": "Cincinnati", "rent": 1080, "zip": "45214"}, "cincinnati-45215": {"city": "Cincinnati", "rent": 1260, "zip": "45215"}, "cincinnati-45216": {"city": "Cincinnati", "rent": 1200, "zip": "45216"}, "cincinnati-45217": {"city": "Cincinnati", "rent": 1170, "zip": "45217"}, "cincinnati-45218": {"city": "Cincinnati", "rent": 1340, "zip": "45218"}, "cincinnati-45219": {"city": "Cincinnati", "rent": 1580, "zip": "45219"}, "cincinnati-45220": {"city": "Cincinnati", "rent": 1390, "zip": "45220"}, "cincinnati-45222": {"city": "Cincinnati", "rent": 1310, "zip": "45222"}, "cincinnati-45223": {"city": "Cincinnati", "rent": 1180, "zip": "45223"}, "cincinnati-45224": {"city": "Cincinnati", "rent": 1130, "zip": "45224"}, "cincinnati-45225": {"city": "Cincinnati", "rent": 1030, "zip": "45225"}, "cincinnati-45226": {"city": "Cincinnati", "rent": 1520, "zip": "45226"}, "cincinnati-45227": {"city": "Cincinnati", "rent": 1540, "zip": "45227"}, "cincinnati-45229": {"city": "Cincinnati", "rent": 1120, "zip": "45229"}, "cincinnati-45230": {"city": "Cincinnati", "rent": 1210, "zip": "45230"}, "cincinnati-45231": {"city": "Cincinnati", "rent": 1460, "zip": "45231"}, "cincinnati-45232": {"city": "Cincinnati", "rent": 980, "zip": "45232"}, "cincinnati-45233": {"city": "Cincinnati", "rent": 1230, "zip": "45233"}, "cincinnati-45234": {"city": "Cincinnati", "rent": 1310, "zip": "45234"}, "cincinnati-45235": {"city": "Cincinnati", "rent": 1310, "zip": "45235"}, "cincinnati-45236": {"city": "Cincinnati", "rent": 1360, "zip": "45236"}, "cincinnati-45237": {"city": "Cincinnati", "rent": 1160, "zip": "45237"}, "cincinnati-45238": {"city": "Cincinnati", "rent": 1220, "zip": "45238"}, "cincinnati-45239": {"city": "Cincinnati", "rent": 1230, "zip": "45239"}, "cincinnati-45240": {"city": "Cincinnati", "rent": 1530, "zip": "45240"}, "cincinnati-45241": {"city": "Cincinnati", "rent": 1490, "zip": "45241"}, "cincinnati-45242": {"city": "Cincinnati", "rent": 2030, "zip": "45242"}, "cincinnati-45243": {"city": "Cincinnati", "rent": 2030, "zip": "45243"}, "cincinnati-45244": {"city": "Cincinnati", "rent": 1370, "zip": "45244"}, "cincinnati-45245": {"city": "Cincinnati", "rent": 1420, "zip": "45245"}, "cincinnati-45246": {"city": "Cincinnati", "rent": 1600, "zip": "45246"}, "cincinnati-45247": {"city": "Cincinnati", "rent": 1320, "zip": "45247"}, "cincinnati-45248": {"city": "Cincinnati", "rent": 1370, "zip": "45248"}, "cincinnati-45249": {"city": "Cincinnati", "rent": 1830, "zip": "45249"}, "cincinnati-45250": {"city": "Cincinnati", "rent": 1310, "zip": "45250"}, "cincinnati-45251": {"city": "Cincinnati", "rent": 1630, "zip": "45251"}, "cincinnati-45252": {"city": "Cincinnati", "rent": 1260, "zip": "45252"}, "cincinnati-45253": {"city": "Cincinnati", "rent": 1310, "zip": "45253"}, "cincinnati-45254": {"city": "Cincinnati", "rent": 1310, "zip": "45254"}, "cincinnati-45255": {"city": "Cincinnati", "rent": 1570, "zip": "45255"}, "cincinnati-45258": {"city": "Cincinnati", "rent": 1310, "zip": "45258"}, "cincinnati-45262": {"city": "Cincinnati", "rent": 1310, "zip": "45262"}, "cincinnati-45263": {"city": "Cincinnati", "rent": 1310, "zip": "45263"}, "cincinnati-45267": {"city": "Cincinnati", "rent": 1370, "zip": "45267"}, "cincinnati-45327": {"city": "Cincinnati", "rent": 1180, "zip": "45327"}, "cincinnati-45342": {"city": "Cincinnati", "rent": 1540, "zip": "45342"}, "cincinnati-45458": {"city": "Cincinnati", "rent": 1610, "zip": "45458"}, "cincinnati-45999": {"city": "Cincinnati", "rent": 1290, "zip": "45999"}, "cincinnati-47001": {"city": "Cincinnati", "rent": 1190, "zip": "47001"}, "cincinnati-47011": {"city": "Cincinnati", "rent": 1010, "zip": "47011"}, "cincinnati-47012": {"city": "Cincinnati", "rent": 1030, "zip": "47012"}, "cincinnati-47017": {"city": "Cincinnati", "rent": 1020, "zip": "47017"}, "cincinnati-47018": {"city": "Cincinnati", "rent": 1180, "zip": "47018"}, "cincinnati-47022": {"city": "Cincinnati", "rent": 1120, "zip": "47022"}, "cincinnati-47025": {"city": "Cincinnati", "rent": 1140, "zip": "47025"}, "cincinnati-47031": {"city": "Cincinnati", "rent": 1140, "zip": "47031"}, "cincinnati-47032": {"city": "Cincinnati", "rent": 1190, "zip": "47032"}, "cincinnati-47038": {"city": "Cincinnati", "rent": 980, "zip": "47038"}, "cincinnati-47040": {"city": "Cincinnati", "rent": 1010, "zip": "47040"}, "cincinnati-47041": {"city": "Cincinnati", "rent": 1060, "zip": "47041"}, "cincinnati-47060": {"city": "Cincinnati", "rent": 1250, "zip": "47060"}, "brown-county-45101": {"city": "Brown County", "rent": 970, "zip": "45101"}, "brown-county-45106": {"city": "Brown County", "rent": 1020, "zip": "45106"}, "brown-county-45107": {"city": "Brown County", "rent": 1060, "zip": "45107"}, "brown-county-45115": {"city": "Brown County", "rent": 1020, "zip": "45115"}, "brown-county-45118": {"city": "Brown County", "rent": 1360, "zip": "45118"}, "brown-county-45119": {"city": "Brown County", "rent": 1070, "zip": "45119"}, "brown-county-45120": {"city": "Brown County", "rent": 980, "zip": "45120"}, "brown-county-45121": {"city": "Brown County", "rent": 980, "zip": "45121"}, "brown-county-45130": {"city": "Brown County", "rent": 1070, "zip": "45130"}, "brown-county-45131": {"city": "Brown County", "rent": 1040, "zip": "45131"}, "brown-county-45133": {"city": "Brown County", "rent": 970, "zip": "45133"}, "brown-county-45142": {"city": "Brown County", "rent": 980, "zip": "45142"}, "brown-county-45144": {"city": "Brown County", "rent": 970, "zip": "45144"}, "brown-county-45148": {"city": "Brown County", "rent": 970, "zip": "45148"}, "brown-county-45154": {"city": "Brown County", "rent": 1000, "zip": "45154"}, "brown-county-45167": {"city": "Brown County", "rent": 970, "zip": "45167"}, "brown-county-45168": {"city": "Brown County", "rent": 1070, "zip": "45168"}, "brown-county-45171": {"city": "Brown County", "rent": 1120, "zip": "45171"}, "brown-county-45176": {"city": "Brown County", "rent": 1130, "zip": "45176"}, "brown-county-45697": {"city": "Brown County", "rent": 970, "zip": "45697"}, "cleveland-44001": {"city": "Cleveland", "rent": 1190, "zip": "44001"}, "cleveland-44011": {"city": "Cleveland", "rent": 1780, "zip": "44011"}, "cleveland-44012": {"city": "Cleveland", "rent": 1860, "zip": "44012"}, "cleveland-44017": {"city": "Cleveland", "rent": 1280, "zip": "44017"}, "cleveland-44021": {"city": "Cleveland", "rent": 1190, "zip": "44021"}, "cleveland-44022": {"city": "Cleveland", "rent": 1850, "zip": "44022"}, "cleveland-44023": {"city": "Cleveland", "rent": 1920, "zip": "44023"}, "cleveland-44024": {"city": "Cleveland", "rent": 1350, "zip": "44024"}, "cleveland-44026": {"city": "Cleveland", "rent": 1560, "zip": "44026"}, "cleveland-44028": {"city": "Cleveland", "rent": 1890, "zip": "44028"}, "cleveland-44033": {"city": "Cleveland", "rent": 1250, "zip": "44033"}, "cleveland-44035": {"city": "Cleveland", "rent": 1150, "zip": "44035"}, "cleveland-44036": {"city": "Cleveland", "rent": 1190, "zip": "44036"}, "cleveland-44039": {"city": "Cleveland", "rent": 1320, "zip": "44039"}, "cleveland-44040": {"city": "Cleveland", "rent": 1920, "zip": "44040"}, "cleveland-44041": {"city": "Cleveland", "rent": 1030, "zip": "44041"}, "cleveland-44044": {"city": "Cleveland", "rent": 1260, "zip": "44044"}, "cleveland-44045": {"city": "Cleveland", "rent": 1140, "zip": "44045"}, "cleveland-44046": {"city": "Cleveland", "rent": 1150, "zip": "44046"}, "cleveland-44049": {"city": "Cleveland", "rent": 1090, "zip": "44049"}, "cleveland-44050": {"city": "Cleveland", "rent": 1370, "zip": "44050"}, "cleveland-44052": {"city": "Cleveland", "rent": 1140, "zip": "44052"}, "cleveland-44053": {"city": "Cleveland", "rent": 1080, "zip": "44053"}, "cleveland-44054": {"city": "Cleveland", "rent": 1360, "zip": "44054"}, "cleveland-44055": {"city": "Cleveland", "rent": 1130, "zip": "44055"}, "cleveland-44057": {"city": "Cleveland", "rent": 1330, "zip": "44057"}, "cleveland-44060": {"city": "Cleveland", "rent": 1440, "zip": "44060"}, "cleveland-44061": {"city": "Cleveland", "rent": 1340, "zip": "44061"}, "cleveland-44062": {"city": "Cleveland", "rent": 1050, "zip": "44062"}, "cleveland-44064": {"city": "Cleveland", "rent": 1350, "zip": "44064"}, "cleveland-44065": {"city": "Cleveland", "rent": 1090, "zip": "44065"}, "cleveland-44070": {"city": "Cleveland", "rent": 1350, "zip": "44070"}, "cleveland-44072": {"city": "Cleveland", "rent": 1870, "zip": "44072"}, "cleveland-44074": {"city": "Cleveland", "rent": 1180, "zip": "44074"}, "cleveland-44077": {"city": "Cleveland", "rent": 1230, "zip": "44077"}, "cleveland-44080": {"city": "Cleveland", "rent": 1090, "zip": "44080"}, "cleveland-44081": {"city": "Cleveland", "rent": 1100, "zip": "44081"}, "cleveland-44086": {"city": "Cleveland", "rent": 1230, "zip": "44086"}, "cleveland-44089": {"city": "Cleveland", "rent": 1350, "zip": "44089"}, "cleveland-44090": {"city": "Cleveland", "rent": 1010, "zip": "44090"}, "cleveland-44092": {"city": "Cleveland", "rent": 1320, "zip": "44092"}, "cleveland-44094": {"city": "Cleveland", "rent": 1480, "zip": "44094"}, "cleveland-44095": {"city": "Cleveland", "rent": 1250, "zip": "44095"}, "cleveland-44096": {"city": "Cleveland", "rent": 1340, "zip": "44096"}, "cleveland-44099": {"city": "Cleveland", "rent": 1110, "zip": "44099"}, "cleveland-44101": {"city": "Cleveland", "rent": 1610, "zip": "44101"}, "cleveland-44102": {"city": "Cleveland", "rent": 1130, "zip": "44102"}, "cleveland-44103": {"city": "Cleveland", "rent": 1070, "zip": "44103"}, "cleveland-44104": {"city": "Cleveland", "rent": 980, "zip": "44104"}, "cleveland-44105": {"city": "Cleveland", "rent": 1070, "zip": "44105"}, "cleveland-44106": {"city": "Cleveland", "rent": 1450, "zip": "44106"}, "cleveland-44107": {"city": "Cleveland", "rent": 1360, "zip": "44107"}, "cleveland-44108": {"city": "Cleveland", "rent": 1160, "zip": "44108"}, "cleveland-44109": {"city": "Cleveland", "rent": 1080, "zip": "44109"}, "cleveland-44110": {"city": "Cleveland", "rent": 1100, "zip": "44110"}, "cleveland-44111": {"city": "Cleveland", "rent": 1180, "zip": "44111"}, "cleveland-44112": {"city": "Cleveland", "rent": 1080, "zip": "44112"}, "cleveland-44113": {"city": "Cleveland", "rent": 1920, "zip": "44113"}, "cleveland-44114": {"city": "Cleveland", "rent": 1780, "zip": "44114"}, "cleveland-44115": {"city": "Cleveland", "rent": 1540, "zip": "44115"}, "cleveland-44116": {"city": "Cleveland", "rent": 1410, "zip": "44116"}, "cleveland-44117": {"city": "Cleveland", "rent": 1080, "zip": "44117"}, "cleveland-44118": {"city": "Cleveland", "rent": 1490, "zip": "44118"}, "cleveland-44119": {"city": "Cleveland", "rent": 1180, "zip": "44119"}, "cleveland-44120": {"city": "Cleveland", "rent": 1210, "zip": "44120"}, "cleveland-44121": {"city": "Cleveland", "rent": 1420, "zip": "44121"}, "cleveland-44122": {"city": "Cleveland", "rent": 1840, "zip": "44122"}, "cleveland-44123": {"city": "Cleveland", "rent": 1280, "zip": "44123"}, "cleveland-44124": {"city": "Cleveland", "rent": 1480, "zip": "44124"}, "cleveland-44125": {"city": "Cleveland", "rent": 1390, "zip": "44125"}, "cleveland-44126": {"city": "Cleveland", "rent": 1210, "zip": "44126"}, "cleveland-44127": {"city": "Cleveland", "rent": 970, "zip": "44127"}, "cleveland-44128": {"city": "Cleveland", "rent": 1250, "zip": "44128"}, "cleveland-44129": {"city": "Cleveland", "rent": 1250, "zip": "44129"}, "cleveland-44130": {"city": "Cleveland", "rent": 1380, "zip": "44130"}, "cleveland-44131": {"city": "Cleveland", "rent": 1840, "zip": "44131"}, "cleveland-44132": {"city": "Cleveland", "rent": 1270, "zip": "44132"}, "cleveland-44133": {"city": "Cleveland", "rent": 1320, "zip": "44133"}, "cleveland-44134": {"city": "Cleveland", "rent": 1410, "zip": "44134"}, "cleveland-44135": {"city": "Cleveland", "rent": 1280, "zip": "44135"}, "cleveland-44136": {"city": "Cleveland", "rent": 1500, "zip": "44136"}, "cleveland-44137": {"city": "Cleveland", "rent": 1610, "zip": "44137"}, "cleveland-44138": {"city": "Cleveland", "rent": 1500, "zip": "44138"}, "cleveland-44139": {"city": "Cleveland", "rent": 1780, "zip": "44139"}, "cleveland-44140": {"city": "Cleveland", "rent": 1750, "zip": "44140"}, "cleveland-44141": {"city": "Cleveland", "rent": 1760, "zip": "44141"}, "cleveland-44142": {"city": "Cleveland", "rent": 1350, "zip": "44142"}, "cleveland-44143": {"city": "Cleveland", "rent": 1200, "zip": "44143"}, "cleveland-44144": {"city": "Cleveland", "rent": 1150, "zip": "44144"}, "cleveland-44145": {"city": "Cleveland", "rent": 1760, "zip": "44145"}, "cleveland-44146": {"city": "Cleveland", "rent": 1240, "zip": "44146"}, "cleveland-44147": {"city": "Cleveland", "rent": 1350, "zip": "44147"}, "cleveland-44149": {"city": "Cleveland", "rent": 1570, "zip": "44149"}, "cleveland-44181": {"city": "Cleveland", "rent": 1280, "zip": "44181"}, "cleveland-44199": {"city": "Cleveland", "rent": 1280, "zip": "44199"}, "cleveland-44202": {"city": "Cleveland", "rent": 1900, "zip": "44202"}, "cleveland-44203": {"city": "Cleveland", "rent": 1130, "zip": "44203"}, "cleveland-44212": {"city": "Cleveland", "rent": 1440, "zip": "44212"}, "cleveland-44214": {"city": "Cleveland", "rent": 1120, "zip": "44214"}, "cleveland-44215": {"city": "Cleveland", "rent": 1350, "zip": "44215"}, "cleveland-44217": {"city": "Cleveland", "rent": 1020, "zip": "44217"}, "cleveland-44230": {"city": "Cleveland", "rent": 1010, "zip": "44230"}, "cleveland-44231": {"city": "Cleveland", "rent": 1090, "zip": "44231"}, "cleveland-44233": {"city": "Cleveland", "rent": 1170, "zip": "44233"}, "cleveland-44234": {"city": "Cleveland", "rent": 1140, "zip": "44234"}, "cleveland-44235": {"city": "Cleveland", "rent": 1150, "zip": "44235"}, "cleveland-44251": {"city": "Cleveland", "rent": 1920, "zip": "44251"}, "cleveland-44253": {"city": "Cleveland", "rent": 1270, "zip": "44253"}, "cleveland-44254": {"city": "Cleveland", "rent": 1090, "zip": "44254"}, "cleveland-44256": {"city": "Cleveland", "rent": 1420, "zip": "44256"}, "cleveland-44258": {"city": "Cleveland", "rent": 1370, "zip": "44258"}, "cleveland-44270": {"city": "Cleveland", "rent": 990, "zip": "44270"}, "cleveland-44273": {"city": "Cleveland", "rent": 1170, "zip": "44273"}, "cleveland-44274": {"city": "Cleveland", "rent": 1280, "zip": "44274"}, "cleveland-44275": {"city": "Cleveland", "rent": 1370, "zip": "44275"}, "cleveland-44280": {"city": "Cleveland", "rent": 1920, "zip": "44280"}, "cleveland-44281": {"city": "Cleveland", "rent": 1280, "zip": "44281"}, "cleveland-44282": {"city": "Cleveland", "rent": 1370, "zip": "44282"}, "cleveland-44287": {"city": "Cleveland", "rent": 1010, "zip": "44287"}, "cleveland-44321": {"city": "Cleveland", "rent": 1700, "zip": "44321"}, "cleveland-44333": {"city": "Cleveland", "rent": 1320, "zip": "44333"}, "cleveland-44491": {"city": "Cleveland", "rent": 1030, "zip": "44491"}, "cleveland-44851": {"city": "Cleveland", "rent": 970, "zip": "44851"}, "cleveland-44859": {"city": "Cleveland", "rent": 980, "zip": "44859"}, "cleveland-44880": {"city": "Cleveland", "rent": 1070, "zip": "44880"}, "cleveland-44889": {"city": "Cleveland", "rent": 1150, "zip": "44889"}, "ashtabula-county-44003": {"city": "Ashtabula County", "rent": 1090, "zip": "44003"}, "ashtabula-county-44004": {"city": "Ashtabula County", "rent": 1000, "zip": "44004"}, "ashtabula-county-44010": {"city": "Ashtabula County", "rent": 1080, "zip": "44010"}, "ashtabula-county-44030": {"city": "Ashtabula County", "rent": 970, "zip": "44030"}, "ashtabula-county-44032": {"city": "Ashtabula County", "rent": 1130, "zip": "44032"}, "ashtabula-county-44041": {"city": "Ashtabula County", "rent": 1030, "zip": "44041"}, "ashtabula-county-44046": {"city": "Ashtabula County", "rent": 1150, "zip": "44046"}, "ashtabula-county-44047": {"city": "Ashtabula County", "rent": 1160, "zip": "44047"}, "ashtabula-county-44048": {"city": "Ashtabula County", "rent": 970, "zip": "44048"}, "ashtabula-county-44057": {"city": "Ashtabula County", "rent": 1330, "zip": "44057"}, "ashtabula-county-44062": {"city": "Ashtabula County", "rent": 1050, "zip": "44062"}, "ashtabula-county-44064": {"city": "Ashtabula County", "rent": 1350, "zip": "44064"}, "ashtabula-county-44068": {"city": "Ashtabula County", "rent": 980, "zip": "44068"}, "ashtabula-county-44076": {"city": "Ashtabula County", "rent": 1020, "zip": "44076"}, "ashtabula-county-44082": {"city": "Ashtabula County", "rent": 1020, "zip": "44082"}, "ashtabula-county-44084": {"city": "Ashtabula County", "rent": 1150, "zip": "44084"}, "ashtabula-county-44085": {"city": "Ashtabula County", "rent": 1270, "zip": "44085"}, "ashtabula-county-44086": {"city": "Ashtabula County", "rent": 1230, "zip": "44086"}, "ashtabula-county-44088": {"city": "Ashtabula County", "rent": 1040, "zip": "44088"}, "ashtabula-county-44093": {"city": "Ashtabula County", "rent": 970, "zip": "44093"}, "ashtabula-county-44099": {"city": "Ashtabula County", "rent": 1110, "zip": "44099"}, "ashtabula-county-44428": {"city": "Ashtabula County", "rent": 970, "zip": "44428"}, "columbus-43001": {"city": "Columbus", "rent": 1300, "zip": "43001"}, "columbus-43002": {"city": "Columbus", "rent": 1870, "zip": "43002"}, "columbus-43003": {"city": "Columbus", "rent": 1190, "zip": "43003"}, "columbus-43004": {"city": "Columbus", "rent": 1610, "zip": "43004"}, "columbus-43008": {"city": "Columbus", "rent": 1070, "zip": "43008"}, "columbus-43011": {"city": "Columbus", "rent": 1070, "zip": "43011"}, "columbus-43013": {"city": "Columbus", "rent": 1320, "zip": "43013"}, "columbus-43015": {"city": "Columbus", "rent": 1410, "zip": "43015"}, "columbus-43016": {"city": "Columbus", "rent": 1920, "zip": "43016"}, "columbus-43017": {"city": "Columbus", "rent": 1740, "zip": "43017"}, "columbus-43018": {"city": "Columbus", "rent": 1550, "zip": "43018"}, "columbus-43019": {"city": "Columbus", "rent": 1080, "zip": "43019"}, "columbus-43021": {"city": "Columbus", "rent": 1520, "zip": "43021"}, "columbus-43023": {"city": "Columbus", "rent": 1290, "zip": "43023"}, "columbus-43025": {"city": "Columbus", "rent": 1070, "zip": "43025"}, "columbus-43026": {"city": "Columbus", "rent": 1680, "zip": "43026"}, "columbus-43027": {"city": "Columbus", "rent": 1280, "zip": "43027"}, "columbus-43029": {"city": "Columbus", "rent": 1280, "zip": "43029"}, "columbus-43030": {"city": "Columbus", "rent": 1180, "zip": "43030"}, "columbus-43031": {"city": "Columbus", "rent": 1310, "zip": "43031"}, "columbus-43032": {"city": "Columbus", "rent": 1640, "zip": "43032"}, "columbus-43033": {"city": "Columbus", "rent": 1380, "zip": "43033"}, "columbus-43035": {"city": "Columbus", "rent": 1790, "zip": "43035"}, "columbus-43040": {"city": "Columbus", "rent": 1430, "zip": "43040"}, "columbus-43044": {"city": "Columbus", "rent": 1070, "zip": "43044"}, "columbus-43046": {"city": "Columbus", "rent": 1260, "zip": "43046"}, "columbus-43050": {"city": "Columbus", "rent": 1070, "zip": "43050"}, "columbus-43054": {"city": "Columbus", "rent": 2040, "zip": "43054"}, "columbus-43055": {"city": "Columbus", "rent": 1120, "zip": "43055"}, "columbus-43056": {"city": "Columbus", "rent": 1310, "zip": "43056"}, "columbus-43058": {"city": "Columbus", "rent": 1210, "zip": "43058"}, "columbus-43061": {"city": "Columbus", "rent": 1410, "zip": "43061"}, "columbus-43062": {"city": "Columbus", "rent": 1550, "zip": "43062"}, "columbus-43064": {"city": "Columbus", "rent": 1600, "zip": "43064"}, "columbus-43065": {"city": "Columbus", "rent": 1830, "zip": "43065"}, "columbus-43066": {"city": "Columbus", "rent": 1290, "zip": "43066"}, "columbus-43068": {"city": "Columbus", "rent": 1470, "zip": "43068"}, "columbus-43071": {"city": "Columbus", "rent": 1090, "zip": "43071"}, "columbus-43073": {"city": "Columbus", "rent": 1210, "zip": "43073"}, "columbus-43074": {"city": "Columbus", "rent": 1820, "zip": "43074"}, "columbus-43076": {"city": "Columbus", "rent": 1190, "zip": "43076"}, "columbus-43080": {"city": "Columbus", "rent": 1280, "zip": "43080"}, "columbus-43081": {"city": "Columbus", "rent": 1700, "zip": "43081"}, "columbus-43082": {"city": "Columbus", "rent": 1890, "zip": "43082"}, "columbus-43085": {"city": "Columbus", "rent": 1620, "zip": "43085"}, "columbus-43086": {"city": "Columbus", "rent": 1560, "zip": "43086"}, "columbus-43101": {"city": "Columbus", "rent": 1070, "zip": "43101"}, "columbus-43102": {"city": "Columbus", "rent": 1080, "zip": "43102"}, "columbus-43103": {"city": "Columbus", "rent": 1170, "zip": "43103"}, "columbus-43105": {"city": "Columbus", "rent": 1070, "zip": "43105"}, "columbus-43107": {"city": "Columbus", "rent": 1140, "zip": "43107"}, "columbus-43109": {"city": "Columbus", "rent": 1320, "zip": "43109"}, "columbus-43110": {"city": "Columbus", "rent": 1430, "zip": "43110"}, "columbus-43112": {"city": "Columbus", "rent": 1240, "zip": "43112"}, "columbus-43113": {"city": "Columbus", "rent": 1120, "zip": "43113"}, "columbus-43115": {"city": "Columbus", "rent": 1390, "zip": "43115"}, "columbus-43116": {"city": "Columbus", "rent": 1670, "zip": "43116"}, "columbus-43117": {"city": "Columbus", "rent": 1090, "zip": "43117"}, "columbus-43119": {"city": "Columbus", "rent": 1520, "zip": "43119"}, "columbus-43123": {"city": "Columbus", "rent": 1430, "zip": "43123"}, "columbus-43125": {"city": "Columbus", "rent": 1420, "zip": "43125"}, "columbus-43126": {"city": "Columbus", "rent": 1340, "zip": "43126"}, "columbus-43130": {"city": "Columbus", "rent": 1170, "zip": "43130"}, "columbus-43135": {"city": "Columbus", "rent": 1070, "zip": "43135"}, "columbus-43136": {"city": "Columbus", "rent": 1430, "zip": "43136"}, "columbus-43137": {"city": "Columbus", "rent": 1380, "zip": "43137"}, "columbus-43140": {"city": "Columbus", "rent": 1160, "zip": "43140"}, "columbus-43143": {"city": "Columbus", "rent": 1180, "zip": "43143"}, "columbus-43145": {"city": "Columbus", "rent": 1150, "zip": "43145"}, "columbus-43146": {"city": "Columbus", "rent": 1090, "zip": "43146"}, "columbus-43147": {"city": "Columbus", "rent": 1830, "zip": "43147"}, "columbus-43148": {"city": "Columbus", "rent": 1230, "zip": "43148"}, "columbus-43150": {"city": "Columbus", "rent": 1070, "zip": "43150"}, "columbus-43151": {"city": "Columbus", "rent": 1180, "zip": "43151"}, "columbus-43153": {"city": "Columbus", "rent": 1330, "zip": "43153"}, "columbus-43154": {"city": "Columbus", "rent": 1260, "zip": "43154"}, "columbus-43155": {"city": "Columbus", "rent": 1120, "zip": "43155"}, "columbus-43156": {"city": "Columbus", "rent": 1070, "zip": "43156"}, "columbus-43157": {"city": "Columbus", "rent": 1240, "zip": "43157"}, "columbus-43162": {"city": "Columbus", "rent": 1170, "zip": "43162"}, "columbus-43164": {"city": "Columbus", "rent": 1240, "zip": "43164"}, "columbus-43194": {"city": "Columbus", "rent": 1450, "zip": "43194"}, "columbus-43195": {"city": "Columbus", "rent": 1450, "zip": "43195"}, "columbus-43201": {"city": "Columbus", "rent": 1540, "zip": "43201"}, "columbus-43202": {"city": "Columbus", "rent": 1380, "zip": "43202"}, "columbus-43203": {"city": "Columbus", "rent": 1140, "zip": "43203"}, "columbus-43204": {"city": "Columbus", "rent": 1300, "zip": "43204"}, "columbus-43205": {"city": "Columbus", "rent": 1210, "zip": "43205"}, "columbus-43206": {"city": "Columbus", "rent": 1450, "zip": "43206"}, "columbus-43207": {"city": "Columbus", "rent": 1240, "zip": "43207"}, "columbus-43209": {"city": "Columbus", "rent": 1340, "zip": "43209"}, "columbus-43210": {"city": "Columbus", "rent": 1070, "zip": "43210"}, "columbus-43211": {"city": "Columbus", "rent": 1180, "zip": "43211"}, "columbus-43212": {"city": "Columbus", "rent": 1580, "zip": "43212"}, "columbus-43213": {"city": "Columbus", "rent": 1290, "zip": "43213"}, "columbus-43214": {"city": "Columbus", "rent": 1430, "zip": "43214"}, "columbus-43215": {"city": "Columbus", "rent": 2150, "zip": "43215"}, "columbus-43216": {"city": "Columbus", "rent": 1450, "zip": "43216"}, "columbus-43217": {"city": "Columbus", "rent": 1330, "zip": "43217"}, "columbus-43218": {"city": "Columbus", "rent": 1450, "zip": "43218"}, "columbus-43219": {"city": "Columbus", "rent": 1420, "zip": "43219"}, "columbus-43220": {"city": "Columbus", "rent": 1480, "zip": "43220"}, "columbus-43221": {"city": "Columbus", "rent": 1750, "zip": "43221"}, "columbus-43222": {"city": "Columbus", "rent": 1080, "zip": "43222"}, "columbus-43223": {"city": "Columbus", "rent": 1260, "zip": "43223"}, "columbus-43224": {"city": "Columbus", "rent": 1190, "zip": "43224"}, "columbus-43226": {"city": "Columbus", "rent": 1450, "zip": "43226"}, "columbus-43227": {"city": "Columbus", "rent": 1350, "zip": "43227"}, "columbus-43228": {"city": "Columbus", "rent": 1350, "zip": "43228"}, "columbus-43229": {"city": "Columbus", "rent": 1300, "zip": "43229"}, "columbus-43230": {"city": "Columbus", "rent": 1700, "zip": "43230"}, "columbus-43231": {"city": "Columbus", "rent": 1350, "zip": "43231"}, "columbus-43232": {"city": "Columbus", "rent": 1250, "zip": "43232"}, "columbus-43234": {"city": "Columbus", "rent": 1450, "zip": "43234"}, "columbus-43235": {"city": "Columbus", "rent": 1690, "zip": "43235"}, "columbus-43236": {"city": "Columbus", "rent": 1450, "zip": "43236"}, "columbus-43240": {"city": "Columbus", "rent": 1750, "zip": "43240"}, "columbus-43314": {"city": "Columbus", "rent": 1070, "zip": "43314"}, "columbus-43315": {"city": "Columbus", "rent": 1160, "zip": "43315"}, "columbus-43317": {"city": "Columbus", "rent": 1210, "zip": "43317"}, "columbus-43320": {"city": "Columbus", "rent": 1190, "zip": "43320"}, "columbus-43321": {"city": "Columbus", "rent": 1100, "zip": "43321"}, "columbus-43325": {"city": "Columbus", "rent": 1070, "zip": "43325"}, "columbus-43334": {"city": "Columbus", "rent": 1130, "zip": "43334"}, "columbus-43338": {"city": "Columbus", "rent": 1120, "zip": "43338"}, "columbus-43342": {"city": "Columbus", "rent": 1250, "zip": "43342"}, "columbus-43344": {"city": "Columbus", "rent": 1070, "zip": "43344"}, "columbus-43350": {"city": "Columbus", "rent": 1380, "zip": "43350"}, "columbus-43356": {"city": "Columbus", "rent": 1160, "zip": "43356"}, "columbus-43721": {"city": "Columbus", "rent": 1190, "zip": "43721"}, "columbus-43739": {"city": "Columbus", "rent": 1200, "zip": "43739"}, "columbus-43740": {"city": "Columbus", "rent": 1150, "zip": "43740"}, "columbus-43746": {"city": "Columbus", "rent": 1130, "zip": "43746"}, "columbus-43760": {"city": "Columbus", "rent": 1120, "zip": "43760"}, "columbus-43822": {"city": "Columbus", "rent": 1070, "zip": "43822"}, "columbus-43830": {"city": "Columbus", "rent": 1120, "zip": "43830"}, "columbus-44813": {"city": "Columbus", "rent": 1070, "zip": "44813"}, "columbus-44833": {"city": "Columbus", "rent": 1070, "zip": "44833"}, "columbus-44903": {"city": "Columbus", "rent": 1070, "zip": "44903"}, "columbus-44904": {"city": "Columbus", "rent": 1070, "zip": "44904"}, "columbus-45369": {"city": "Columbus", "rent": 1120, "zip": "45369"}, "columbus-45644": {"city": "Columbus", "rent": 1070, "zip": "45644"}, "hocking-county-43102": {"city": "Hocking County", "rent": 1080, "zip": "43102"}, "hocking-county-43107": {"city": "Hocking County", "rent": 1140, "zip": "43107"}, "hocking-county-43111": {"city": "Hocking County", "rent": 970, "zip": "43111"}, "hocking-county-43127": {"city": "Hocking County", "rent": 970, "zip": "43127"}, "hocking-county-43130": {"city": "Hocking County", "rent": 1170, "zip": "43130"}, "hocking-county-43135": {"city": "Hocking County", "rent": 1070, "zip": "43135"}, "hocking-county-43138": {"city": "Hocking County", "rent": 970, "zip": "43138"}, "hocking-county-43144": {"city": "Hocking County", "rent": 970, "zip": "43144"}, "hocking-county-43149": {"city": "Hocking County", "rent": 1230, "zip": "43149"}, "hocking-county-43152": {"city": "Hocking County", "rent": 990, "zip": "43152"}, "hocking-county-43155": {"city": "Hocking County", "rent": 1120, "zip": "43155"}, "hocking-county-43158": {"city": "Hocking County", "rent": 1200, "zip": "43158"}, "hocking-county-43766": {"city": "Hocking County", "rent": 990, "zip": "43766"}, "hocking-county-45622": {"city": "Hocking County", "rent": 990, "zip": "45622"}, "hocking-county-45654": {"city": "Hocking County", "rent": 1130, "zip": "45654"}, "hocking-county-45732": {"city": "Hocking County", "rent": 970, "zip": "45732"}, "hocking-county-45764": {"city": "Hocking County", "rent": 970, "zip": "45764"}, "perry-county-43076": {"city": "Perry County", "rent": 1190, "zip": "43076"}, "perry-county-43107": {"city": "Perry County", "rent": 1140, "zip": "43107"}, "perry-county-43138": {"city": "Perry County", "rent": 970, "zip": "43138"}, "perry-county-43148": {"city": "Perry County", "rent": 1230, "zip": "43148"}, "perry-county-43150": {"city": "Perry County", "rent": 1070, "zip": "43150"}, "perry-county-43701": {"city": "Perry County", "rent": 1010, "zip": "43701"}, "perry-county-43730": {"city": "Perry County", "rent": 970, "zip": "43730"}, "perry-county-43731": {"city": "Perry County", "rent": 970, "zip": "43731"}, "perry-county-43739": {"city": "Perry County", "rent": 1200, "zip": "43739"}, "perry-county-43748": {"city": "Perry County", "rent": 970, "zip": "43748"}, "perry-county-43760": {"city": "Perry County", "rent": 1120, "zip": "43760"}, "perry-county-43761": {"city": "Perry County", "rent": 990, "zip": "43761"}, "perry-county-43764": {"city": "Perry County", "rent": 1010, "zip": "43764"}, "perry-county-43766": {"city": "Perry County", "rent": 990, "zip": "43766"}, "perry-county-43777": {"city": "Perry County", "rent": 970, "zip": "43777"}, "perry-county-43782": {"city": "Perry County", "rent": 1000, "zip": "43782"}, "perry-county-43783": {"city": "Perry County", "rent": 1090, "zip": "43783"}, "perry-county-45732": {"city": "Perry County", "rent": 970, "zip": "45732"}, "union-county-43007": {"city": "Union County", "rent": 1430, "zip": "43007"}, "union-county-43015": {"city": "Union County", "rent": 1410, "zip": "43015"}, "union-county-43016": {"city": "Union County", "rent": 1920, "zip": "43016"}, "union-county-43017": {"city": "Union County", "rent": 1740, "zip": "43017"}, "union-county-43029": {"city": "Union County", "rent": 1280, "zip": "43029"}, "union-county-43036": {"city": "Union County", "rent": 1290, "zip": "43036"}, "union-county-43040": {"city": "Union County", "rent": 1430, "zip": "43040"}, "union-county-43045": {"city": "Union County", "rent": 1360, "zip": "43045"}, "union-county-43060": {"city": "Union County", "rent": 1290, "zip": "43060"}, "union-county-43061": {"city": "Union County", "rent": 1410, "zip": "43061"}, "union-county-43064": {"city": "Union County", "rent": 1600, "zip": "43064"}, "union-county-43067": {"city": "Union County", "rent": 1330, "zip": "43067"}, "union-county-43077": {"city": "Union County", "rent": 1370, "zip": "43077"}, "union-county-43084": {"city": "Union County", "rent": 1290, "zip": "43084"}, "union-county-43302": {"city": "Union County", "rent": 1290, "zip": "43302"}, "union-county-43319": {"city": "Union County", "rent": 1290, "zip": "43319"}, "union-county-43340": {"city": "Union County", "rent": 1290, "zip": "43340"}, "union-county-43342": {"city": "Union County", "rent": 1250, "zip": "43342"}, "union-county-43344": {"city": "Union County", "rent": 1070, "zip": "43344"}, "union-county-43345": {"city": "Union County", "rent": 1370, "zip": "43345"}, "union-county-43358": {"city": "Union County", "rent": 1300, "zip": "43358"}, "dayton-kettering-beavercreek-43128": {"city": "Dayton-Kettering-Beavercreek", "rent": 980, "zip": "43128"}, "dayton-kettering-beavercreek-43153": {"city": "Dayton-Kettering-Beavercreek", "rent": 1330, "zip": "43153"}, "dayton-kettering-beavercreek-45005": {"city": "Dayton-Kettering-Beavercreek", "rent": 1290, "zip": "45005"}, "dayton-kettering-beavercreek-45042": {"city": "Dayton-Kettering-Beavercreek", "rent": 1270, "zip": "45042"}, "dayton-kettering-beavercreek-45066": {"city": "Dayton-Kettering-Beavercreek", "rent": 1970, "zip": "45066"}, "dayton-kettering-beavercreek-45068": {"city": "Dayton-Kettering-Beavercreek", "rent": 1630, "zip": "45068"}, "dayton-kettering-beavercreek-45169": {"city": "Dayton-Kettering-Beavercreek", "rent": 970, "zip": "45169"}, "dayton-kettering-beavercreek-45301": {"city": "Dayton-Kettering-Beavercreek", "rent": 1680, "zip": "45301"}, "dayton-kettering-beavercreek-45304": {"city": "Dayton-Kettering-Beavercreek", "rent": 1040, "zip": "45304"}, "dayton-kettering-beavercreek-45305": {"city": "Dayton-Kettering-Beavercreek", "rent": 1500, "zip": "45305"}, "dayton-kettering-beavercreek-45307": {"city": "Dayton-Kettering-Beavercreek", "rent": 1070, "zip": "45307"}, "dayton-kettering-beavercreek-45308": {"city": "Dayton-Kettering-Beavercreek", "rent": 1110, "zip": "45308"}, "dayton-kettering-beavercreek-45309": {"city": "Dayton-Kettering-Beavercreek", "rent": 1230, "zip": "45309"}, "dayton-kettering-beavercreek-45312": {"city": "Dayton-Kettering-Beavercreek", "rent": 1320, "zip": "45312"}, "dayton-kettering-beavercreek-45314": {"city": "Dayton-Kettering-Beavercreek", "rent": 1130, "zip": "45314"}, "dayton-kettering-beavercreek-45315": {"city": "Dayton-Kettering-Beavercreek", "rent": 1200, "zip": "45315"}, "dayton-kettering-beavercreek-45316": {"city": "Dayton-Kettering-Beavercreek", "rent": 1080, "zip": "45316"}, "dayton-kettering-beavercreek-45317": {"city": "Dayton-Kettering-Beavercreek", "rent": 1030, "zip": "45317"}, "dayton-kettering-beavercreek-45318": {"city": "Dayton-Kettering-Beavercreek", "rent": 990, "zip": "45318"}, "dayton-kettering-beavercreek-45322": {"city": "Dayton-Kettering-Beavercreek", "rent": 1340, "zip": "45322"}, "dayton-kettering-beavercreek-45324": {"city": "Dayton-Kettering-Beavercreek", "rent": 1330, "zip": "45324"}, "dayton-kettering-beavercreek-45325": {"city": "Dayton-Kettering-Beavercreek", "rent": 1380, "zip": "45325"}, "dayton-kettering-beavercreek-45326": {"city": "Dayton-Kettering-Beavercreek", "rent": 970, "zip": "45326"}, "dayton-kettering-beavercreek-45327": {"city": "Dayton-Kettering-Beavercreek", "rent": 1180, "zip": "45327"}, "dayton-kettering-beavercreek-45335": {"city": "Dayton-Kettering-Beavercreek", "rent": 1000, "zip": "45335"}, "dayton-kettering-beavercreek-45337": {"city": "Dayton-Kettering-Beavercreek", "rent": 1140, "zip": "45337"}, "dayton-kettering-beavercreek-45338": {"city": "Dayton-Kettering-Beavercreek", "rent": 1030, "zip": "45338"}, "dayton-kettering-beavercreek-45339": {"city": "Dayton-Kettering-Beavercreek", "rent": 1220, "zip": "45339"}, "dayton-kettering-beavercreek-45342": {"city": "Dayton-Kettering-Beavercreek", "rent": 1540, "zip": "45342"}, "dayton-kettering-beavercreek-45343": {"city": "Dayton-Kettering-Beavercreek", "rent": 1250, "zip": "45343"}, "dayton-kettering-beavercreek-45344": {"city": "Dayton-Kettering-Beavercreek", "rent": 1060, "zip": "45344"}, "dayton-kettering-beavercreek-45345": {"city": "Dayton-Kettering-Beavercreek", "rent": 1070, "zip": "45345"}, "dayton-kettering-beavercreek-45354": {"city": "Dayton-Kettering-Beavercreek", "rent": 1460, "zip": "45354"}, "dayton-kettering-beavercreek-45356": {"city": "Dayton-Kettering-Beavercreek", "rent": 1220, "zip": "45356"}, "dayton-kettering-beavercreek-45359": {"city": "Dayton-Kettering-Beavercreek", "rent": 970, "zip": "45359"}, "dayton-kettering-beavercreek-45361": {"city": "Dayton-Kettering-Beavercreek", "rent": 1740, "zip": "45361"}, "dayton-kettering-beavercreek-45365": {"city": "Dayton-Kettering-Beavercreek", "rent": 1020, "zip": "45365"}, "dayton-kettering-beavercreek-45368": {"city": "Dayton-Kettering-Beavercreek", "rent": 970, "zip": "45368"}, "dayton-kettering-beavercreek-45370": {"city": "Dayton-Kettering-Beavercreek", "rent": 1200, "zip": "45370"}, "dayton-kettering-beavercreek-45371": {"city": "Dayton-Kettering-Beavercreek", "rent": 1410, "zip": "45371"}, "dayton-kettering-beavercreek-45373": {"city": "Dayton-Kettering-Beavercreek", "rent": 1190, "zip": "45373"}, "dayton-kettering-beavercreek-45374": {"city": "Dayton-Kettering-Beavercreek", "rent": 1230, "zip": "45374"}, "dayton-kettering-beavercreek-45377": {"city": "Dayton-Kettering-Beavercreek", "rent": 1100, "zip": "45377"}, "dayton-kettering-beavercreek-45378": {"city": "Dayton-Kettering-Beavercreek", "rent": 1150, "zip": "45378"}, "dayton-kettering-beavercreek-45381": {"city": "Dayton-Kettering-Beavercreek", "rent": 1010, "zip": "45381"}, "dayton-kettering-beavercreek-45383": {"city": "Dayton-Kettering-Beavercreek", "rent": 1130, "zip": "45383"}, "dayton-kettering-beavercreek-45384": {"city": "Dayton-Kettering-Beavercreek", "rent": 1190, "zip": "45384"}, "dayton-kettering-beavercreek-45385": {"city": "Dayton-Kettering-Beavercreek", "rent": 1190, "zip": "45385"}, "dayton-kettering-beavercreek-45387": {"city": "Dayton-Kettering-Beavercreek", "rent": 1150, "zip": "45387"}, "dayton-kettering-beavercreek-45401": {"city": "Dayton-Kettering-Beavercreek", "rent": 1250, "zip": "45401"}, "dayton-kettering-beavercreek-45402": {"city": "Dayton-Kettering-Beavercreek", "rent": 1340, "zip": "45402"}, "dayton-kettering-beavercreek-45403": {"city": "Dayton-Kettering-Beavercreek", "rent": 990, "zip": "45403"}, "dayton-kettering-beavercreek-45404": {"city": "Dayton-Kettering-Beavercreek", "rent": 1210, "zip": "45404"}, "dayton-kettering-beavercreek-45405": {"city": "Dayton-Kettering-Beavercreek", "rent": 1070, "zip": "45405"}, "dayton-kettering-beavercreek-45406": {"city": "Dayton-Kettering-Beavercreek", "rent": 1160, "zip": "45406"}, "dayton-kettering-beavercreek-45409": {"city": "Dayton-Kettering-Beavercreek", "rent": 1440, "zip": "45409"}, "dayton-kettering-beavercreek-45410": {"city": "Dayton-Kettering-Beavercreek", "rent": 1250, "zip": "45410"}, "dayton-kettering-beavercreek-45413": {"city": "Dayton-Kettering-Beavercreek", "rent": 1250, "zip": "45413"}, "dayton-kettering-beavercreek-45414": {"city": "Dayton-Kettering-Beavercreek", "rent": 1170, "zip": "45414"}, "dayton-kettering-beavercreek-45415": {"city": "Dayton-Kettering-Beavercreek", "rent": 1190, "zip": "45415"}, "dayton-kettering-beavercreek-45416": {"city": "Dayton-Kettering-Beavercreek", "rent": 1480, "zip": "45416"}, "dayton-kettering-beavercreek-45417": {"city": "Dayton-Kettering-Beavercreek", "rent": 1170, "zip": "45417"}, "dayton-kettering-beavercreek-45419": {"city": "Dayton-Kettering-Beavercreek", "rent": 1210, "zip": "45419"}, "dayton-kettering-beavercreek-45420": {"city": "Dayton-Kettering-Beavercreek", "rent": 1270, "zip": "45420"}, "dayton-kettering-beavercreek-45422": {"city": "Dayton-Kettering-Beavercreek", "rent": 1250, "zip": "45422"}, "dayton-kettering-beavercreek-45423": {"city": "Dayton-Kettering-Beavercreek", "rent": 1250, "zip": "45423"}, "dayton-kettering-beavercreek-45424": {"city": "Dayton-Kettering-Beavercreek", "rent": 1400, "zip": "45424"}, "dayton-kettering-beavercreek-45426": {"city": "Dayton-Kettering-Beavercreek", "rent": 1180, "zip": "45426"}, "dayton-kettering-beavercreek-45428": {"city": "Dayton-Kettering-Beavercreek", "rent": 1170, "zip": "45428"}, "dayton-kettering-beavercreek-45429": {"city": "Dayton-Kettering-Beavercreek", "rent": 1290, "zip": "45429"}, "dayton-kettering-beavercreek-45430": {"city": "Dayton-Kettering-Beavercreek", "rent": 1670, "zip": "45430"}, "dayton-kettering-beavercreek-45431": {"city": "Dayton-Kettering-Beavercreek", "rent": 1600, "zip": "45431"}, "dayton-kettering-beavercreek-45432": {"city": "Dayton-Kettering-Beavercreek", "rent": 1160, "zip": "45432"}, "dayton-kettering-beavercreek-45433": {"city": "Dayton-Kettering-Beavercreek", "rent": 1800, "zip": "45433"}, "dayton-kettering-beavercreek-45434": {"city": "Dayton-Kettering-Beavercreek", "rent": 1710, "zip": "45434"}, "dayton-kettering-beavercreek-45435": {"city": "Dayton-Kettering-Beavercreek", "rent": 1330, "zip": "45435"}, "dayton-kettering-beavercreek-45437": {"city": "Dayton-Kettering-Beavercreek", "rent": 1250, "zip": "45437"}, "dayton-kettering-beavercreek-45439": {"city": "Dayton-Kettering-Beavercreek", "rent": 1260, "zip": "45439"}, "dayton-kettering-beavercreek-45440": {"city": "Dayton-Kettering-Beavercreek", "rent": 1390, "zip": "45440"}, "dayton-kettering-beavercreek-45441": {"city": "Dayton-Kettering-Beavercreek", "rent": 1250, "zip": "45441"}, "dayton-kettering-beavercreek-45449": {"city": "Dayton-Kettering-Beavercreek", "rent": 1300, "zip": "45449"}, "dayton-kettering-beavercreek-45458": {"city": "Dayton-Kettering-Beavercreek", "rent": 1610, "zip": "45458"}, "dayton-kettering-beavercreek-45459": {"city": "Dayton-Kettering-Beavercreek", "rent": 1490, "zip": "45459"}, "dayton-kettering-beavercreek-45469": {"city": "Dayton-Kettering-Beavercreek", "rent": 1440, "zip": "45469"}, "dayton-kettering-beavercreek-45470": {"city": "Dayton-Kettering-Beavercreek", "rent": 1250, "zip": "45470"}, "dayton-kettering-beavercreek-45475": {"city": "Dayton-Kettering-Beavercreek", "rent": 1250, "zip": "45475"}, "dayton-kettering-beavercreek-45481": {"city": "Dayton-Kettering-Beavercreek", "rent": 1380, "zip": "45481"}, "dayton-kettering-beavercreek-45490": {"city": "Dayton-Kettering-Beavercreek", "rent": 1250, "zip": "45490"}, "lima-43310": {"city": "Lima", "rent": 1240, "zip": "43310"}, "lima-45801": {"city": "Lima", "rent": 1070, "zip": "45801"}, "lima-45802": {"city": "Lima", "rent": 1110, "zip": "45802"}, "lima-45804": {"city": "Lima", "rent": 1090, "zip": "45804"}, "lima-45805": {"city": "Lima", "rent": 1160, "zip": "45805"}, "lima-45806": {"city": "Lima", "rent": 1160, "zip": "45806"}, "lima-45807": {"city": "Lima", "rent": 1180, "zip": "45807"}, "lima-45808": {"city": "Lima", "rent": 1180, "zip": "45808"}, "lima-45809": {"city": "Lima", "rent": 1180, "zip": "45809"}, "lima-45810": {"city": "Lima", "rent": 990, "zip": "45810"}, "lima-45812": {"city": "Lima", "rent": 1010, "zip": "45812"}, "lima-45817": {"city": "Lima", "rent": 1040, "zip": "45817"}, "lima-45820": {"city": "Lima", "rent": 1020, "zip": "45820"}, "lima-45830": {"city": "Lima", "rent": 1120, "zip": "45830"}, "lima-45833": {"city": "Lima", "rent": 1040, "zip": "45833"}, "lima-45844": {"city": "Lima", "rent": 970, "zip": "45844"}, "lima-45850": {"city": "Lima", "rent": 1100, "zip": "45850"}, "lima-45854": {"city": "Lima", "rent": 1180, "zip": "45854"}, "lima-45877": {"city": "Lima", "rent": 1150, "zip": "45877"}, "lima-45887": {"city": "Lima", "rent": 1030, "zip": "45887"}, "lima-45894": {"city": "Lima", "rent": 1090, "zip": "45894"}, "lima-45895": {"city": "Lima", "rent": 1030, "zip": "45895"}, "lima-45896": {"city": "Lima", "rent": 1100, "zip": "45896"}, "mansfield-43019": {"city": "Mansfield", "rent": 1080, "zip": "43019"}, "mansfield-44805": {"city": "Mansfield", "rent": 970, "zip": "44805"}, "mansfield-44813": {"city": "Mansfield", "rent": 1070, "zip": "44813"}, "mansfield-44822": {"city": "Mansfield", "rent": 1080, "zip": "44822"}, "mansfield-44827": {"city": "Mansfield", "rent": 980, "zip": "44827"}, "mansfield-44833": {"city": "Mansfield", "rent": 1070, "zip": "44833"}, "mansfield-44837": {"city": "Mansfield", "rent": 970, "zip": "44837"}, "mansfield-44843": {"city": "Mansfield", "rent": 970, "zip": "44843"}, "mansfield-44862": {"city": "Mansfield", "rent": 970, "zip": "44862"}, "mansfield-44864": {"city": "Mansfield", "rent": 1020, "zip": "44864"}, "mansfield-44865": {"city": "Mansfield", "rent": 1030, "zip": "44865"}, "mansfield-44875": {"city": "Mansfield", "rent": 970, "zip": "44875"}, "mansfield-44878": {"city": "Mansfield", "rent": 1130, "zip": "44878"}, "mansfield-44901": {"city": "Mansfield", "rent": 970, "zip": "44901"}, "mansfield-44902": {"city": "Mansfield", "rent": 1000, "zip": "44902"}, "mansfield-44903": {"city": "Mansfield", "rent": 1070, "zip": "44903"}, "mansfield-44904": {"city": "Mansfield", "rent": 1070, "zip": "44904"}, "mansfield-44905": {"city": "Mansfield", "rent": 1050, "zip": "44905"}, "mansfield-44906": {"city": "Mansfield", "rent": 970, "zip": "44906"}, "mansfield-44907": {"city": "Mansfield", "rent": 970, "zip": "44907"}, "ottawa-county-43408": {"city": "Ottawa County", "rent": 1180, "zip": "43408"}, "ottawa-county-43412": {"city": "Ottawa County", "rent": 1320, "zip": "43412"}, "ottawa-county-43416": {"city": "Ottawa County", "rent": 1060, "zip": "43416"}, "ottawa-county-43420": {"city": "Ottawa County", "rent": 990, "zip": "43420"}, "ottawa-county-43430": {"city": "Ottawa County", "rent": 1030, "zip": "43430"}, "ottawa-county-43432": {"city": "Ottawa County", "rent": 1060, "zip": "43432"}, "ottawa-county-43433": {"city": "Ottawa County", "rent": 1110, "zip": "43433"}, "ottawa-county-43436": {"city": "Ottawa County", "rent": 1110, "zip": "43436"}, "ottawa-county-43439": {"city": "Ottawa County", "rent": 1100, "zip": "43439"}, "ottawa-county-43440": {"city": "Ottawa County", "rent": 1180, "zip": "43440"}, "ottawa-county-43442": {"city": "Ottawa County", "rent": 970, "zip": "43442"}, "ottawa-county-43445": {"city": "Ottawa County", "rent": 1200, "zip": "43445"}, "ottawa-county-43446": {"city": "Ottawa County", "rent": 1110, "zip": "43446"}, "ottawa-county-43447": {"city": "Ottawa County", "rent": 1200, "zip": "43447"}, "ottawa-county-43449": {"city": "Ottawa County", "rent": 1070, "zip": "43449"}, "ottawa-county-43452": {"city": "Ottawa County", "rent": 1100, "zip": "43452"}, "ottawa-county-43456": {"city": "Ottawa County", "rent": 1110, "zip": "43456"}, "ottawa-county-43458": {"city": "Ottawa County", "rent": 970, "zip": "43458"}, "ottawa-county-43468": {"city": "Ottawa County", "rent": 1320, "zip": "43468"}, "ottawa-county-43469": {"city": "Ottawa County", "rent": 970, "zip": "43469"}, "erie-county-43438": {"city": "Erie County", "rent": 1110, "zip": "43438"}, "erie-county-43464": {"city": "Erie County", "rent": 970, "zip": "43464"}, "erie-county-44089": {"city": "Erie County", "rent": 1350, "zip": "44089"}, "erie-county-44811": {"city": "Erie County", "rent": 980, "zip": "44811"}, "erie-county-44814": {"city": "Erie County", "rent": 1240, "zip": "44814"}, "erie-county-44816": {"city": "Erie County", "rent": 1110, "zip": "44816"}, "erie-county-44824": {"city": "Erie County", "rent": 1070, "zip": "44824"}, "erie-county-44826": {"city": "Erie County", "rent": 1070, "zip": "44826"}, "erie-county-44839": {"city": "Erie County", "rent": 1090, "zip": "44839"}, "erie-county-44846": {"city": "Erie County", "rent": 1240, "zip": "44846"}, "erie-county-44847": {"city": "Erie County", "rent": 1150, "zip": "44847"}, "erie-county-44857": {"city": "Erie County", "rent": 970, "zip": "44857"}, "erie-county-44870": {"city": "Erie County", "rent": 1150, "zip": "44870"}, "erie-county-44871": {"city": "Erie County", "rent": 1110, "zip": "44871"}, "erie-county-44889": {"city": "Erie County", "rent": 1150, "zip": "44889"}, "springfield-43010": {"city": "Springfield", "rent": 1250, "zip": "43010"}, "springfield-43044": {"city": "Springfield", "rent": 1070, "zip": "43044"}, "springfield-43078": {"city": "Springfield", "rent": 1040, "zip": "43078"}, "springfield-43140": {"city": "Springfield", "rent": 1160, "zip": "43140"}, "springfield-43153": {"city": "Springfield", "rent": 1330, "zip": "43153"}, "springfield-45312": {"city": "Springfield", "rent": 1320, "zip": "45312"}, "springfield-45314": {"city": "Springfield", "rent": 1130, "zip": "45314"}, "springfield-45316": {"city": "Springfield", "rent": 1080, "zip": "45316"}, "springfield-45319": {"city": "Springfield", "rent": 1020, "zip": "45319"}, "springfield-45323": {"city": "Springfield", "rent": 1030, "zip": "45323"}, "springfield-45324": {"city": "Springfield", "rent": 1330, "zip": "45324"}, "springfield-45341": {"city": "Springfield", "rent": 1090, "zip": "45341"}, "springfield-45344": {"city": "Springfield", "rent": 1060, "zip": "45344"}, "springfield-45349": {"city": "Springfield", "rent": 1660, "zip": "45349"}, "springfield-45368": {"city": "Springfield", "rent": 970, "zip": "45368"}, "springfield-45369": {"city": "Springfield", "rent": 1120, "zip": "45369"}, "springfield-45372": {"city": "Springfield", "rent": 1120, "zip": "45372"}, "springfield-45387": {"city": "Springfield", "rent": 1150, "zip": "45387"}, "springfield-45501": {"city": "Springfield", "rent": 1110, "zip": "45501"}, "springfield-45502": {"city": "Springfield", "rent": 1220, "zip": "45502"}, "springfield-45503": {"city": "Springfield", "rent": 1160, "zip": "45503"}, "springfield-45504": {"city": "Springfield", "rent": 1150, "zip": "45504"}, "springfield-45505": {"city": "Springfield", "rent": 1070, "zip": "45505"}, "springfield-45506": {"city": "Springfield", "rent": 1120, "zip": "45506"}, "toledo-43402": {"city": "Toledo", "rent": 1080, "zip": "43402"}, "toledo-43403": {"city": "Toledo", "rent": 1080, "zip": "43403"}, "toledo-43406": {"city": "Toledo", "rent": 970, "zip": "43406"}, "toledo-43412": {"city": "Toledo", "rent": 1320, "zip": "43412"}, "toledo-43413": {"city": "Toledo", "rent": 1180, "zip": "43413"}, "toledo-43414": {"city": "Toledo", "rent": 1080, "zip": "43414"}, "toledo-43430": {"city": "Toledo", "rent": 1030, "zip": "43430"}, "toledo-43431": {"city": "Toledo", "rent": 970, "zip": "43431"}, "toledo-43434": {"city": "Toledo", "rent": 1080, "zip": "43434"}, "toledo-43437": {"city": "Toledo", "rent": 1080, "zip": "43437"}, "toledo-43441": {"city": "Toledo", "rent": 1100, "zip": "43441"}, "toledo-43443": {"city": "Toledo", "rent": 1020, "zip": "43443"}, "toledo-43445": {"city": "Toledo", "rent": 1200, "zip": "43445"}, "toledo-43447": {"city": "Toledo", "rent": 1200, "zip": "43447"}, "toledo-43450": {"city": "Toledo", "rent": 1520, "zip": "43450"}, "toledo-43451": {"city": "Toledo", "rent": 970, "zip": "43451"}, "toledo-43457": {"city": "Toledo", "rent": 970, "zip": "43457"}, "toledo-43460": {"city": "Toledo", "rent": 990, "zip": "43460"}, "toledo-43462": {"city": "Toledo", "rent": 1070, "zip": "43462"}, "toledo-43463": {"city": "Toledo", "rent": 1020, "zip": "43463"}, "toledo-43465": {"city": "Toledo", "rent": 1030, "zip": "43465"}, "toledo-43466": {"city": "Toledo", "rent": 1280, "zip": "43466"}, "toledo-43467": {"city": "Toledo", "rent": 1000, "zip": "43467"}, "toledo-43469": {"city": "Toledo", "rent": 970, "zip": "43469"}, "toledo-43502": {"city": "Toledo", "rent": 970, "zip": "43502"}, "toledo-43504": {"city": "Toledo", "rent": 1170, "zip": "43504"}, "toledo-43511": {"city": "Toledo", "rent": 1610, "zip": "43511"}, "toledo-43515": {"city": "Toledo", "rent": 970, "zip": "43515"}, "toledo-43516": {"city": "Toledo", "rent": 1030, "zip": "43516"}, "toledo-43521": {"city": "Toledo", "rent": 970, "zip": "43521"}, "toledo-43522": {"city": "Toledo", "rent": 1170, "zip": "43522"}, "toledo-43525": {"city": "Toledo", "rent": 1090, "zip": "43525"}, "toledo-43528": {"city": "Toledo", "rent": 1270, "zip": "43528"}, "toledo-43529": {"city": "Toledo", "rent": 1150, "zip": "43529"}, "toledo-43532": {"city": "Toledo", "rent": 1050, "zip": "43532"}, "toledo-43533": {"city": "Toledo", "rent": 990, "zip": "43533"}, "toledo-43537": {"city": "Toledo", "rent": 1150, "zip": "43537"}, "toledo-43540": {"city": "Toledo", "rent": 1220, "zip": "43540"}, "toledo-43541": {"city": "Toledo", "rent": 1610, "zip": "43541"}, "toledo-43542": {"city": "Toledo", "rent": 1150, "zip": "43542"}, "toledo-43545": {"city": "Toledo", "rent": 1000, "zip": "43545"}, "toledo-43547": {"city": "Toledo", "rent": 1090, "zip": "43547"}, "toledo-43551": {"city": "Toledo", "rent": 1370, "zip": "43551"}, "toledo-43552": {"city": "Toledo", "rent": 1100, "zip": "43552"}, "toledo-43553": {"city": "Toledo", "rent": 970, "zip": "43553"}, "toledo-43557": {"city": "Toledo", "rent": 1110, "zip": "43557"}, "toledo-43558": {"city": "Toledo", "rent": 1060, "zip": "43558"}, "toledo-43560": {"city": "Toledo", "rent": 1220, "zip": "43560"}, "toledo-43565": {"city": "Toledo", "rent": 1140, "zip": "43565"}, "toledo-43566": {"city": "Toledo", "rent": 1510, "zip": "43566"}, "toledo-43567": {"city": "Toledo", "rent": 970, "zip": "43567"}, "toledo-43569": {"city": "Toledo", "rent": 970, "zip": "43569"}, "toledo-43570": {"city": "Toledo", "rent": 980, "zip": "43570"}, "toledo-43571": {"city": "Toledo", "rent": 1030, "zip": "43571"}, "toledo-43604": {"city": "Toledo", "rent": 970, "zip": "43604"}, "toledo-43605": {"city": "Toledo", "rent": 1080, "zip": "43605"}, "toledo-43606": {"city": "Toledo", "rent": 1070, "zip": "43606"}, "toledo-43607": {"city": "Toledo", "rent": 1030, "zip": "43607"}, "toledo-43608": {"city": "Toledo", "rent": 970, "zip": "43608"}, "toledo-43609": {"city": "Toledo", "rent": 1100, "zip": "43609"}, "toledo-43610": {"city": "Toledo", "rent": 1010, "zip": "43610"}, "toledo-43611": {"city": "Toledo", "rent": 1020, "zip": "43611"}, "toledo-43612": {"city": "Toledo", "rent": 1130, "zip": "43612"}, "toledo-43613": {"city": "Toledo", "rent": 1060, "zip": "43613"}, "toledo-43614": {"city": "Toledo", "rent": 1010, "zip": "43614"}, "toledo-43615": {"city": "Toledo", "rent": 1190, "zip": "43615"}, "toledo-43616": {"city": "Toledo", "rent": 1020, "zip": "43616"}, "toledo-43617": {"city": "Toledo", "rent": 1220, "zip": "43617"}, "toledo-43619": {"city": "Toledo", "rent": 1010, "zip": "43619"}, "toledo-43620": {"city": "Toledo", "rent": 970, "zip": "43620"}, "toledo-43623": {"city": "Toledo", "rent": 1060, "zip": "43623"}, "toledo-43635": {"city": "Toledo", "rent": 1080, "zip": "43635"}, "toledo-44817": {"city": "Toledo", "rent": 1080, "zip": "44817"}, "toledo-44830": {"city": "Toledo", "rent": 970, "zip": "44830"}, "toledo-45858": {"city": "Toledo", "rent": 1080, "zip": "45858"}, "toledo-45872": {"city": "Toledo", "rent": 1050, "zip": "45872"}, "toledo-45889": {"city": "Toledo", "rent": 1120, "zip": "45889"}, "youngstown-warren-44062": {"city": "Youngstown-Warren", "rent": 1050, "zip": "44062"}, "youngstown-warren-44076": {"city": "Youngstown-Warren", "rent": 1020, "zip": "44076"}, "youngstown-warren-44093": {"city": "Youngstown-Warren", "rent": 970, "zip": "44093"}, "youngstown-warren-44231": {"city": "Youngstown-Warren", "rent": 1090, "zip": "44231"}, "youngstown-warren-44288": {"city": "Youngstown-Warren", "rent": 1270, "zip": "44288"}, "youngstown-warren-44401": {"city": "Youngstown-Warren", "rent": 1060, "zip": "44401"}, "youngstown-warren-44402": {"city": "Youngstown-Warren", "rent": 990, "zip": "44402"}, "youngstown-warren-44403": {"city": "Youngstown-Warren", "rent": 970, "zip": "44403"}, "youngstown-warren-44404": {"city": "Youngstown-Warren", "rent": 1000, "zip": "44404"}, "youngstown-warren-44405": {"city": "Youngstown-Warren", "rent": 1010, "zip": "44405"}, "youngstown-warren-44406": {"city": "Youngstown-Warren", "rent": 990, "zip": "44406"}, "youngstown-warren-44408": {"city": "Youngstown-Warren", "rent": 970, "zip": "44408"}, "youngstown-warren-44410": {"city": "Youngstown-Warren", "rent": 970, "zip": "44410"}, "youngstown-warren-44412": {"city": "Youngstown-Warren", "rent": 1020, "zip": "44412"}, "youngstown-warren-44416": {"city": "Youngstown-Warren", "rent": 970, "zip": "44416"}, "youngstown-warren-44417": {"city": "Youngstown-Warren", "rent": 980, "zip": "44417"}, "youngstown-warren-44418": {"city": "Youngstown-Warren", "rent": 1000, "zip": "44418"}, "youngstown-warren-44420": {"city": "Youngstown-Warren", "rent": 970, "zip": "44420"}, "youngstown-warren-44422": {"city": "Youngstown-Warren", "rent": 970, "zip": "44422"}, "youngstown-warren-44424": {"city": "Youngstown-Warren", "rent": 1000, "zip": "44424"}, "youngstown-warren-44425": {"city": "Youngstown-Warren", "rent": 980, "zip": "44425"}, "youngstown-warren-44428": {"city": "Youngstown-Warren", "rent": 970, "zip": "44428"}, "youngstown-warren-44429": {"city": "Youngstown-Warren", "rent": 1040, "zip": "44429"}, "youngstown-warren-44430": {"city": "Youngstown-Warren", "rent": 970, "zip": "44430"}, "youngstown-warren-44436": {"city": "Youngstown-Warren", "rent": 970, "zip": "44436"}, "youngstown-warren-44437": {"city": "Youngstown-Warren", "rent": 1000, "zip": "44437"}, "youngstown-warren-44438": {"city": "Youngstown-Warren", "rent": 980, "zip": "44438"}, "youngstown-warren-44439": {"city": "Youngstown-Warren", "rent": 1020, "zip": "44439"}, "youngstown-warren-44440": {"city": "Youngstown-Warren", "rent": 970, "zip": "44440"}, "youngstown-warren-44442": {"city": "Youngstown-Warren", "rent": 970, "zip": "44442"}, "youngstown-warren-44443": {"city": "Youngstown-Warren", "rent": 980, "zip": "44443"}, "youngstown-warren-44444": {"city": "Youngstown-Warren", "rent": 970, "zip": "44444"}, "youngstown-warren-44446": {"city": "Youngstown-Warren", "rent": 970, "zip": "44446"}, "youngstown-warren-44449": {"city": "Youngstown-Warren", "rent": 970, "zip": "44449"}, "youngstown-warren-44450": {"city": "Youngstown-Warren", "rent": 980, "zip": "44450"}, "youngstown-warren-44451": {"city": "Youngstown-Warren", "rent": 970, "zip": "44451"}, "youngstown-warren-44452": {"city": "Youngstown-Warren", "rent": 1030, "zip": "44452"}, "youngstown-warren-44453": {"city": "Youngstown-Warren", "rent": 970, "zip": "44453"}, "youngstown-warren-44454": {"city": "Youngstown-Warren", "rent": 990, "zip": "44454"}, "youngstown-warren-44460": {"city": "Youngstown-Warren", "rent": 980, "zip": "44460"}, "youngstown-warren-44470": {"city": "Youngstown-Warren", "rent": 970, "zip": "44470"}, "youngstown-warren-44471": {"city": "Youngstown-Warren", "rent": 1030, "zip": "44471"}, "youngstown-warren-44473": {"city": "Youngstown-Warren", "rent": 1160, "zip": "44473"}, "youngstown-warren-44481": {"city": "Youngstown-Warren", "rent": 970, "zip": "44481"}, "youngstown-warren-44483": {"city": "Youngstown-Warren", "rent": 1030, "zip": "44483"}, "youngstown-warren-44484": {"city": "Youngstown-Warren", "rent": 1090, "zip": "44484"}, "youngstown-warren-44485": {"city": "Youngstown-Warren", "rent": 980, "zip": "44485"}, "youngstown-warren-44490": {"city": "Youngstown-Warren", "rent": 1000, "zip": "44490"}, "youngstown-warren-44491": {"city": "Youngstown-Warren", "rent": 1030, "zip": "44491"}, "youngstown-warren-44501": {"city": "Youngstown-Warren", "rent": 970, "zip": "44501"}, "youngstown-warren-44502": {"city": "Youngstown-Warren", "rent": 1080, "zip": "44502"}, "youngstown-warren-44503": {"city": "Youngstown-Warren", "rent": 1050, "zip": "44503"}, "youngstown-warren-44504": {"city": "Youngstown-Warren", "rent": 970, "zip": "44504"}, "youngstown-warren-44505": {"city": "Youngstown-Warren", "rent": 970, "zip": "44505"}, "youngstown-warren-44506": {"city": "Youngstown-Warren", "rent": 970, "zip": "44506"}, "youngstown-warren-44507": {"city": "Youngstown-Warren", "rent": 1010, "zip": "44507"}, "youngstown-warren-44509": {"city": "Youngstown-Warren", "rent": 990, "zip": "44509"}, "youngstown-warren-44510": {"city": "Youngstown-Warren", "rent": 970, "zip": "44510"}, "youngstown-warren-44511": {"city": "Youngstown-Warren", "rent": 970, "zip": "44511"}, "youngstown-warren-44512": {"city": "Youngstown-Warren", "rent": 970, "zip": "44512"}, "youngstown-warren-44513": {"city": "Youngstown-Warren", "rent": 970, "zip": "44513"}, "youngstown-warren-44514": {"city": "Youngstown-Warren", "rent": 1100, "zip": "44514"}, "youngstown-warren-44515": {"city": "Youngstown-Warren", "rent": 970, "zip": "44515"}, "youngstown-warren-44555": {"city": "Youngstown-Warren", "rent": 1080, "zip": "44555"}, "youngstown-warren-44601": {"city": "Youngstown-Warren", "rent": 1010, "zip": "44601"}, "youngstown-warren-44609": {"city": "Youngstown-Warren", "rent": 970, "zip": "44609"}, "youngstown-warren-44619": {"city": "Youngstown-Warren", "rent": 980, "zip": "44619"}, "youngstown-warren-44672": {"city": "Youngstown-Warren", "rent": 1070, "zip": "44672"}, "adams-county-45101": {"city": "Adams County", "rent": 970, "zip": "45101"}, "adams-county-45105": {"city": "Adams County", "rent": 970, "zip": "45105"}, "adams-county-45144": {"city": "Adams County", "rent": 970, "zip": "45144"}, "adams-county-45616": {"city": "Adams County", "rent": 1020, "zip": "45616"}, "adams-county-45618": {"city": "Adams County", "rent": 970, "zip": "45618"}, "adams-county-45650": {"city": "Adams County", "rent": 1040, "zip": "45650"}, "adams-county-45657": {"city": "Adams County", "rent": 970, "zip": "45657"}, "adams-county-45660": {"city": "Adams County", "rent": 980, "zip": "45660"}, "adams-county-45671": {"city": "Adams County", "rent": 980, "zip": "45671"}, "adams-county-45679": {"city": "Adams County", "rent": 1100, "zip": "45679"}, "adams-county-45684": {"city": "Adams County", "rent": 1210, "zip": "45684"}, "adams-county-45693": {"city": "Adams County", "rent": 970, "zip": "45693"}, "adams-county-45697": {"city": "Adams County", "rent": 970, "zip": "45697"}, "ashland-county-44235": {"city": "Ashland County", "rent": 1150, "zip": "44235"}, "ashland-county-44287": {"city": "Ashland County", "rent": 1010, "zip": "44287"}, "ashland-county-44638": {"city": "Ashland County", "rent": 1040, "zip": "44638"}, "ashland-county-44691": {"city": "Ashland County", "rent": 1080, "zip": "44691"}, "ashland-county-44805": {"city": "Ashland County", "rent": 970, "zip": "44805"}, "ashland-county-44822": {"city": "Ashland County", "rent": 1080, "zip": "44822"}, "ashland-county-44837": {"city": "Ashland County", "rent": 970, "zip": "44837"}, "ashland-county-44838": {"city": "Ashland County", "rent": 970, "zip": "44838"}, "ashland-county-44840": {"city": "Ashland County", "rent": 1120, "zip": "44840"}, "ashland-county-44842": {"city": "Ashland County", "rent": 970, "zip": "44842"}, "ashland-county-44843": {"city": "Ashland County", "rent": 970, "zip": "44843"}, "ashland-county-44848": {"city": "Ashland County", "rent": 970, "zip": "44848"}, "ashland-county-44851": {"city": "Ashland County", "rent": 970, "zip": "44851"}, "ashland-county-44859": {"city": "Ashland County", "rent": 980, "zip": "44859"}, "ashland-county-44864": {"city": "Ashland County", "rent": 1020, "zip": "44864"}, "ashland-county-44866": {"city": "Ashland County", "rent": 970, "zip": "44866"}, "ashland-county-44874": {"city": "Ashland County", "rent": 970, "zip": "44874"}, "ashland-county-44878": {"city": "Ashland County", "rent": 1130, "zip": "44878"}, "ashland-county-44880": {"city": "Ashland County", "rent": 1070, "zip": "44880"}, "ashland-county-44903": {"city": "Ashland County", "rent": 1070, "zip": "44903"}, "athens-county-43144": {"city": "Athens County", "rent": 970, "zip": "43144"}, "athens-county-43728": {"city": "Athens County", "rent": 970, "zip": "43728"}, "athens-county-45701": {"city": "Athens County", "rent": 1260, "zip": "45701"}, "athens-county-45710": {"city": "Athens County", "rent": 1030, "zip": "45710"}, "athens-county-45711": {"city": "Athens County", "rent": 1170, "zip": "45711"}, "athens-county-45716": {"city": "Athens County", "rent": 970, "zip": "45716"}, "athens-county-45719": {"city": "Athens County", "rent": 970, "zip": "45719"}, "athens-county-45723": {"city": "Athens County", "rent": 970, "zip": "45723"}, "athens-county-45732": {"city": "Athens County", "rent": 970, "zip": "45732"}, "athens-county-45735": {"city": "Athens County", "rent": 1070, "zip": "45735"}, "athens-county-45739": {"city": "Athens County", "rent": 1010, "zip": "45739"}, "athens-county-45740": {"city": "Athens County", "rent": 970, "zip": "45740"}, "athens-county-45742": {"city": "Athens County", "rent": 1370, "zip": "45742"}, "athens-county-45761": {"city": "Athens County", "rent": 970, "zip": "45761"}, "athens-county-45764": {"city": "Athens County", "rent": 970, "zip": "45764"}, "athens-county-45766": {"city": "Athens County", "rent": 1070, "zip": "45766"}, "athens-county-45776": {"city": "Athens County", "rent": 1070, "zip": "45776"}, "athens-county-45778": {"city": "Athens County", "rent": 1170, "zip": "45778"}, "athens-county-45780": {"city": "Athens County", "rent": 1060, "zip": "45780"}, "athens-county-45782": {"city": "Athens County", "rent": 970, "zip": "45782"}, "auglaize-county-43331": {"city": "Auglaize County", "rent": 1100, "zip": "43331"}, "auglaize-county-45306": {"city": "Auglaize County", "rent": 1050, "zip": "45306"}, "auglaize-county-45334": {"city": "Auglaize County", "rent": 1210, "zip": "45334"}, "auglaize-county-45806": {"city": "Auglaize County", "rent": 1160, "zip": "45806"}, "auglaize-county-45819": {"city": "Auglaize County", "rent": 1210, "zip": "45819"}, "auglaize-county-45822": {"city": "Auglaize County", "rent": 1040, "zip": "45822"}, "auglaize-county-45845": {"city": "Auglaize County", "rent": 970, "zip": "45845"}, "auglaize-county-45850": {"city": "Auglaize County", "rent": 1100, "zip": "45850"}, "auglaize-county-45862": {"city": "Auglaize County", "rent": 970, "zip": "45862"}, "auglaize-county-45865": {"city": "Auglaize County", "rent": 970, "zip": "45865"}, "auglaize-county-45869": {"city": "Auglaize County", "rent": 970, "zip": "45869"}, "auglaize-county-45870": {"city": "Auglaize County", "rent": 1050, "zip": "45870"}, "auglaize-county-45871": {"city": "Auglaize County", "rent": 990, "zip": "45871"}, "auglaize-county-45884": {"city": "Auglaize County", "rent": 1030, "zip": "45884"}, "auglaize-county-45885": {"city": "Auglaize County", "rent": 990, "zip": "45885"}, "auglaize-county-45887": {"city": "Auglaize County", "rent": 1030, "zip": "45887"}, "auglaize-county-45888": {"city": "Auglaize County", "rent": 1030, "zip": "45888"}, "auglaize-county-45895": {"city": "Auglaize County", "rent": 1030, "zip": "45895"}, "auglaize-county-45896": {"city": "Auglaize County", "rent": 1100, "zip": "45896"}, "champaign-county-43009": {"city": "Champaign County", "rent": 1290, "zip": "43009"}, "champaign-county-43044": {"city": "Champaign County", "rent": 1070, "zip": "43044"}, "champaign-county-43045": {"city": "Champaign County", "rent": 1360, "zip": "43045"}, "champaign-county-43047": {"city": "Champaign County", "rent": 1050, "zip": "43047"}, "champaign-county-43060": {"city": "Champaign County", "rent": 1290, "zip": "43060"}, "champaign-county-43070": {"city": "Champaign County", "rent": 1200, "zip": "43070"}, "champaign-county-43072": {"city": "Champaign County", "rent": 970, "zip": "43072"}, "champaign-county-43078": {"city": "Champaign County", "rent": 1040, "zip": "43078"}, "champaign-county-43084": {"city": "Champaign County", "rent": 1290, "zip": "43084"}, "champaign-county-43318": {"city": "Champaign County", "rent": 1200, "zip": "43318"}, "champaign-county-43343": {"city": "Champaign County", "rent": 970, "zip": "43343"}, "champaign-county-43357": {"city": "Champaign County", "rent": 970, "zip": "43357"}, "champaign-county-45312": {"city": "Champaign County", "rent": 1320, "zip": "45312"}, "champaign-county-45317": {"city": "Champaign County", "rent": 1030, "zip": "45317"}, "champaign-county-45344": {"city": "Champaign County", "rent": 1060, "zip": "45344"}, "champaign-county-45365": {"city": "Champaign County", "rent": 1020, "zip": "45365"}, "champaign-county-45389": {"city": "Champaign County", "rent": 1060, "zip": "45389"}, "champaign-county-45502": {"city": "Champaign County", "rent": 1220, "zip": "45502"}, "clinton-county-43160": {"city": "Clinton County", "rent": 980, "zip": "43160"}, "clinton-county-45068": {"city": "Clinton County", "rent": 1630, "zip": "45068"}, "clinton-county-45107": {"city": "Clinton County", "rent": 1060, "zip": "45107"}, "clinton-county-45113": {"city": "Clinton County", "rent": 1210, "zip": "45113"}, "clinton-county-45135": {"city": "Clinton County", "rent": 1060, "zip": "45135"}, "clinton-county-45142": {"city": "Clinton County", "rent": 980, "zip": "45142"}, "clinton-county-45146": {"city": "Clinton County", "rent": 1150, "zip": "45146"}, "clinton-county-45148": {"city": "Clinton County", "rent": 970, "zip": "45148"}, "clinton-county-45159": {"city": "Clinton County", "rent": 1110, "zip": "45159"}, "clinton-county-45164": {"city": "Clinton County", "rent": 970, "zip": "45164"}, "clinton-county-45166": {"city": "Clinton County", "rent": 1030, "zip": "45166"}, "clinton-county-45169": {"city": "Clinton County", "rent": 970, "zip": "45169"}, "clinton-county-45177": {"city": "Clinton County", "rent": 1060, "zip": "45177"}, "clinton-county-45335": {"city": "Clinton County", "rent": 1000, "zip": "45335"}, "clinton-county-45385": {"city": "Clinton County", "rent": 1190, "zip": "45385"}, "columbiana-county-43920": {"city": "Columbiana County", "rent": 980, "zip": "43920"}, "columbiana-county-43930": {"city": "Columbiana County", "rent": 1070, "zip": "43930"}, "columbiana-county-43932": {"city": "Columbiana County", "rent": 1110, "zip": "43932"}, "columbiana-county-43945": {"city": "Columbiana County", "rent": 1060, "zip": "43945"}, "columbiana-county-43962": {"city": "Columbiana County", "rent": 970, "zip": "43962"}, "columbiana-county-43968": {"city": "Columbiana County", "rent": 970, "zip": "43968"}, "columbiana-county-44408": {"city": "Columbiana County", "rent": 970, "zip": "44408"}, "columbiana-county-44413": {"city": "Columbiana County", "rent": 1030, "zip": "44413"}, "columbiana-county-44415": {"city": "Columbiana County", "rent": 1070, "zip": "44415"}, "columbiana-county-44423": {"city": "Columbiana County", "rent": 1270, "zip": "44423"}, "columbiana-county-44427": {"city": "Columbiana County", "rent": 1210, "zip": "44427"}, "columbiana-county-44431": {"city": "Columbiana County", "rent": 1040, "zip": "44431"}, "columbiana-county-44432": {"city": "Columbiana County", "rent": 1070, "zip": "44432"}, "columbiana-county-44441": {"city": "Columbiana County", "rent": 1000, "zip": "44441"}, "columbiana-county-44443": {"city": "Columbiana County", "rent": 980, "zip": "44443"}, "columbiana-county-44445": {"city": "Columbiana County", "rent": 1040, "zip": "44445"}, "columbiana-county-44454": {"city": "Columbiana County", "rent": 990, "zip": "44454"}, "columbiana-county-44455": {"city": "Columbiana County", "rent": 970, "zip": "44455"}, "columbiana-county-44460": {"city": "Columbiana County", "rent": 980, "zip": "44460"}, "columbiana-county-44490": {"city": "Columbiana County", "rent": 1000, "zip": "44490"}, "columbiana-county-44492": {"city": "Columbiana County", "rent": 970, "zip": "44492"}, "columbiana-county-44493": {"city": "Columbiana County", "rent": 1020, "zip": "44493"}, "columbiana-county-44601": {"city": "Columbiana County", "rent": 1010, "zip": "44601"}, "columbiana-county-44609": {"city": "Columbiana County", "rent": 970, "zip": "44609"}, "columbiana-county-44619": {"city": "Columbiana County", "rent": 980, "zip": "44619"}, "columbiana-county-44625": {"city": "Columbiana County", "rent": 1270, "zip": "44625"}, "columbiana-county-44634": {"city": "Columbiana County", "rent": 970, "zip": "44634"}, "columbiana-county-44657": {"city": "Columbiana County", "rent": 1020, "zip": "44657"}, "columbiana-county-44665": {"city": "Columbiana County", "rent": 970, "zip": "44665"}, "coshocton-county-43006": {"city": "Coshocton County", "rent": 1040, "zip": "43006"}, "coshocton-county-43749": {"city": "Coshocton County", "rent": 1000, "zip": "43749"}, "coshocton-county-43804": {"city": "Coshocton County", "rent": 1100, "zip": "43804"}, "coshocton-county-43805": {"city": "Coshocton County", "rent": 1050, "zip": "43805"}, "coshocton-county-43811": {"city": "Coshocton County", "rent": 1190, "zip": "43811"}, "coshocton-county-43812": {"city": "Coshocton County", "rent": 970, "zip": "43812"}, "coshocton-county-43821": {"city": "Coshocton County", "rent": 1090, "zip": "43821"}, "coshocton-county-43822": {"city": "Coshocton County", "rent": 1070, "zip": "43822"}, "coshocton-county-43824": {"city": "Coshocton County", "rent": 970, "zip": "43824"}, "coshocton-county-43828": {"city": "Coshocton County", "rent": 970, "zip": "43828"}, "coshocton-county-43832": {"city": "Coshocton County", "rent": 970, "zip": "43832"}, "coshocton-county-43836": {"city": "Coshocton County", "rent": 970, "zip": "43836"}, "coshocton-county-43840": {"city": "Coshocton County", "rent": 970, "zip": "43840"}, "coshocton-county-43843": {"city": "Coshocton County", "rent": 1140, "zip": "43843"}, "coshocton-county-43844": {"city": "Coshocton County", "rent": 1050, "zip": "43844"}, "coshocton-county-43845": {"city": "Coshocton County", "rent": 970, "zip": "43845"}, "coshocton-county-44637": {"city": "Coshocton County", "rent": 1070, "zip": "44637"}, "coshocton-county-44654": {"city": "Coshocton County", "rent": 970, "zip": "44654"}, "crawford-county-43302": {"city": "Crawford County", "rent": 1290, "zip": "43302"}, "crawford-county-43314": {"city": "Crawford County", "rent": 1070, "zip": "43314"}, "crawford-county-44818": {"city": "Crawford County", "rent": 970, "zip": "44818"}, "crawford-county-44820": {"city": "Crawford County", "rent": 970, "zip": "44820"}, "crawford-county-44825": {"city": "Crawford County", "rent": 990, "zip": "44825"}, "crawford-county-44827": {"city": "Crawford County", "rent": 980, "zip": "44827"}, "crawford-county-44833": {"city": "Crawford County", "rent": 1070, "zip": "44833"}, "crawford-county-44849": {"city": "Crawford County", "rent": 1080, "zip": "44849"}, "crawford-county-44854": {"city": "Crawford County", "rent": 1050, "zip": "44854"}, "crawford-county-44856": {"city": "Crawford County", "rent": 970, "zip": "44856"}, "crawford-county-44860": {"city": "Crawford County", "rent": 970, "zip": "44860"}, "crawford-county-44865": {"city": "Crawford County", "rent": 1030, "zip": "44865"}, "crawford-county-44875": {"city": "Crawford County", "rent": 970, "zip": "44875"}, "crawford-county-44881": {"city": "Crawford County", "rent": 970, "zip": "44881"}, "crawford-county-44882": {"city": "Crawford County", "rent": 980, "zip": "44882"}, "crawford-county-44887": {"city": "Crawford County", "rent": 970, "zip": "44887"}, "darke-county-45303": {"city": "Darke County", "rent": 970, "zip": "45303"}, "darke-county-45304": {"city": "Darke County", "rent": 1040, "zip": "45304"}, "darke-county-45308": {"city": "Darke County", "rent": 1110, "zip": "45308"}, "darke-county-45309": {"city": "Darke County", "rent": 1230, "zip": "45309"}, "darke-county-45310": {"city": "Darke County", "rent": 1100, "zip": "45310"}, "darke-county-45318": {"city": "Darke County", "rent": 990, "zip": "45318"}, "darke-county-45328": {"city": "Darke County", "rent": 1220, "zip": "45328"}, "darke-county-45331": {"city": "Darke County", "rent": 970, "zip": "45331"}, "darke-county-45332": {"city": "Darke County", "rent": 1010, "zip": "45332"}, "darke-county-45337": {"city": "Darke County", "rent": 1140, "zip": "45337"}, "darke-county-45338": {"city": "Darke County", "rent": 1030, "zip": "45338"}, "darke-county-45346": {"city": "Darke County", "rent": 1070, "zip": "45346"}, "darke-county-45347": {"city": "Darke County", "rent": 970, "zip": "45347"}, "darke-county-45348": {"city": "Darke County", "rent": 1330, "zip": "45348"}, "darke-county-45350": {"city": "Darke County", "rent": 1100, "zip": "45350"}, "darke-county-45351": {"city": "Darke County", "rent": 1000, "zip": "45351"}, "darke-county-45352": {"city": "Darke County", "rent": 970, "zip": "45352"}, "darke-county-45358": {"city": "Darke County", "rent": 1060, "zip": "45358"}, "darke-county-45362": {"city": "Darke County", "rent": 970, "zip": "45362"}, "darke-county-45363": {"city": "Darke County", "rent": 1020, "zip": "45363"}, "darke-county-45380": {"city": "Darke County", "rent": 970, "zip": "45380"}, "darke-county-45382": {"city": "Darke County", "rent": 1180, "zip": "45382"}, "darke-county-45383": {"city": "Darke County", "rent": 1130, "zip": "45383"}, "darke-county-45388": {"city": "Darke County", "rent": 1020, "zip": "45388"}, "darke-county-45390": {"city": "Darke County", "rent": 1000, "zip": "45390"}, "darke-county-45845": {"city": "Darke County", "rent": 970, "zip": "45845"}, "darke-county-45846": {"city": "Darke County", "rent": 970, "zip": "45846"}, "darke-county-45860": {"city": "Darke County", "rent": 970, "zip": "45860"}, "darke-county-45883": {"city": "Darke County", "rent": 970, "zip": "45883"}, "defiance-county-43506": {"city": "Defiance County", "rent": 980, "zip": "43506"}, "defiance-county-43512": {"city": "Defiance County", "rent": 1000, "zip": "43512"}, "defiance-county-43517": {"city": "Defiance County", "rent": 970, "zip": "43517"}, "defiance-county-43519": {"city": "Defiance County", "rent": 1030, "zip": "43519"}, "defiance-county-43520": {"city": "Defiance County", "rent": 970, "zip": "43520"}, "defiance-county-43526": {"city": "Defiance County", "rent": 970, "zip": "43526"}, "defiance-county-43527": {"city": "Defiance County", "rent": 970, "zip": "43527"}, "defiance-county-43530": {"city": "Defiance County", "rent": 980, "zip": "43530"}, "defiance-county-43536": {"city": "Defiance County", "rent": 970, "zip": "43536"}, "defiance-county-43545": {"city": "Defiance County", "rent": 1000, "zip": "43545"}, "defiance-county-43548": {"city": "Defiance County", "rent": 1030, "zip": "43548"}, "defiance-county-43549": {"city": "Defiance County", "rent": 970, "zip": "43549"}, "defiance-county-43556": {"city": "Defiance County", "rent": 970, "zip": "43556"}, "defiance-county-45813": {"city": "Defiance County", "rent": 970, "zip": "45813"}, "defiance-county-45821": {"city": "Defiance County", "rent": 970, "zip": "45821"}, "defiance-county-45831": {"city": "Defiance County", "rent": 970, "zip": "45831"}, "fayette-county-43106": {"city": "Fayette County", "rent": 1100, "zip": "43106"}, "fayette-county-43128": {"city": "Fayette County", "rent": 980, "zip": "43128"}, "fayette-county-43142": {"city": "Fayette County", "rent": 980, "zip": "43142"}, "fayette-county-43143": {"city": "Fayette County", "rent": 1180, "zip": "43143"}, "fayette-county-43145": {"city": "Fayette County", "rent": 1150, "zip": "43145"}, "fayette-county-43153": {"city": "Fayette County", "rent": 1330, "zip": "43153"}, "fayette-county-43160": {"city": "Fayette County", "rent": 980, "zip": "43160"}, "fayette-county-45123": {"city": "Fayette County", "rent": 970, "zip": "45123"}, "fayette-county-45135": {"city": "Fayette County", "rent": 1060, "zip": "45135"}, "fayette-county-45169": {"city": "Fayette County", "rent": 970, "zip": "45169"}, "fayette-county-45335": {"city": "Fayette County", "rent": 1000, "zip": "45335"}, "gallia-county-45614": {"city": "Gallia County", "rent": 970, "zip": "45614"}, "gallia-county-45620": {"city": "Gallia County", "rent": 970, "zip": "45620"}, "gallia-county-45623": {"city": "Gallia County", "rent": 1100, "zip": "45623"}, "gallia-county-45631": {"city": "Gallia County", "rent": 970, "zip": "45631"}, "gallia-county-45656": {"city": "Gallia County", "rent": 970, "zip": "45656"}, "gallia-county-45658": {"city": "Gallia County", "rent": 980, "zip": "45658"}, "gallia-county-45674": {"city": "Gallia County", "rent": 970, "zip": "45674"}, "gallia-county-45678": {"city": "Gallia County", "rent": 1040, "zip": "45678"}, "gallia-county-45685": {"city": "Gallia County", "rent": 970, "zip": "45685"}, "gallia-county-45686": {"city": "Gallia County", "rent": 1060, "zip": "45686"}, "gallia-county-45688": {"city": "Gallia County", "rent": 1000, "zip": "45688"}, "gallia-county-45760": {"city": "Gallia County", "rent": 970, "zip": "45760"}, "guernsey-county-43722": {"city": "Guernsey County", "rent": 1070, "zip": "43722"}, "guernsey-county-43723": {"city": "Guernsey County", "rent": 970, "zip": "43723"}, "guernsey-county-43724": {"city": "Guernsey County", "rent": 990, "zip": "43724"}, "guernsey-county-43725": {"city": "Guernsey County", "rent": 970, "zip": "43725"}, "guernsey-county-43732": {"city": "Guernsey County", "rent": 970, "zip": "43732"}, "guernsey-county-43733": {"city": "Guernsey County", "rent": 1010, "zip": "43733"}, "guernsey-county-43736": {"city": "Guernsey County", "rent": 1060, "zip": "43736"}, "guernsey-county-43749": {"city": "Guernsey County", "rent": 1000, "zip": "43749"}, "guernsey-county-43750": {"city": "Guernsey County", "rent": 980, "zip": "43750"}, "guernsey-county-43755": {"city": "Guernsey County", "rent": 1210, "zip": "43755"}, "guernsey-county-43762": {"city": "Guernsey County", "rent": 1000, "zip": "43762"}, "guernsey-county-43768": {"city": "Guernsey County", "rent": 1450, "zip": "43768"}, "guernsey-county-43772": {"city": "Guernsey County", "rent": 970, "zip": "43772"}, "guernsey-county-43773": {"city": "Guernsey County", "rent": 1060, "zip": "43773"}, "guernsey-county-43778": {"city": "Guernsey County", "rent": 1070, "zip": "43778"}, "guernsey-county-43780": {"city": "Guernsey County", "rent": 1120, "zip": "43780"}, "guernsey-county-43832": {"city": "Guernsey County", "rent": 970, "zip": "43832"}, "guernsey-county-43837": {"city": "Guernsey County", "rent": 1110, "zip": "43837"}, "guernsey-county-43973": {"city": "Guernsey County", "rent": 1030, "zip": "43973"}, "guernsey-county-43983": {"city": "Guernsey County", "rent": 1080, "zip": "43983"}, "guernsey-county-44699": {"city": "Guernsey County", "rent": 1080, "zip": "44699"}, "hancock-county-43316": {"city": "Hancock County", "rent": 1050, "zip": "43316"}, "hancock-county-43516": {"city": "Hancock County", "rent": 1030, "zip": "43516"}, "hancock-county-44802": {"city": "Hancock County", "rent": 1150, "zip": "44802"}, "hancock-county-44804": {"city": "Hancock County", "rent": 1060, "zip": "44804"}, "hancock-county-44817": {"city": "Hancock County", "rent": 1080, "zip": "44817"}, "hancock-county-44830": {"city": "Hancock County", "rent": 970, "zip": "44830"}, "hancock-county-45810": {"city": "Hancock County", "rent": 990, "zip": "45810"}, "hancock-county-45814": {"city": "Hancock County", "rent": 970, "zip": "45814"}, "hancock-county-45816": {"city": "Hancock County", "rent": 970, "zip": "45816"}, "hancock-county-45817": {"city": "Hancock County", "rent": 1040, "zip": "45817"}, "hancock-county-45836": {"city": "Hancock County", "rent": 1010, "zip": "45836"}, "hancock-county-45839": {"city": "Hancock County", "rent": 1130, "zip": "45839"}, "hancock-county-45840": {"city": "Hancock County", "rent": 1150, "zip": "45840"}, "hancock-county-45841": {"city": "Hancock County", "rent": 1150, "zip": "45841"}, "hancock-county-45843": {"city": "Hancock County", "rent": 1040, "zip": "45843"}, "hancock-county-45856": {"city": "Hancock County", "rent": 1250, "zip": "45856"}, "hancock-county-45858": {"city": "Hancock County", "rent": 1080, "zip": "45858"}, "hancock-county-45867": {"city": "Hancock County", "rent": 1050, "zip": "45867"}, "hancock-county-45868": {"city": "Hancock County", "rent": 1330, "zip": "45868"}, "hancock-county-45872": {"city": "Hancock County", "rent": 1050, "zip": "45872"}, "hancock-county-45877": {"city": "Hancock County", "rent": 1150, "zip": "45877"}, "hancock-county-45881": {"city": "Hancock County", "rent": 1350, "zip": "45881"}, "hancock-county-45889": {"city": "Hancock County", "rent": 1120, "zip": "45889"}, "hancock-county-45890": {"city": "Hancock County", "rent": 1020, "zip": "45890"}, "hancock-county-45897": {"city": "Hancock County", "rent": 1030, "zip": "45897"}, "hardin-county-43310": {"city": "Hardin County", "rent": 1240, "zip": "43310"}, "hardin-county-43326": {"city": "Hardin County", "rent": 970, "zip": "43326"}, "hardin-county-43331": {"city": "Hardin County", "rent": 1100, "zip": "43331"}, "hardin-county-43332": {"city": "Hardin County", "rent": 990, "zip": "43332"}, "hardin-county-43340": {"city": "Hardin County", "rent": 1290, "zip": "43340"}, "hardin-county-43345": {"city": "Hardin County", "rent": 1370, "zip": "43345"}, "hardin-county-43346": {"city": "Hardin County", "rent": 1240, "zip": "43346"}, "hardin-county-43347": {"city": "Hardin County", "rent": 1230, "zip": "43347"}, "hardin-county-45810": {"city": "Hardin County", "rent": 990, "zip": "45810"}, "hardin-county-45812": {"city": "Hardin County", "rent": 1010, "zip": "45812"}, "hardin-county-45835": {"city": "Hardin County", "rent": 990, "zip": "45835"}, "hardin-county-45836": {"city": "Hardin County", "rent": 1010, "zip": "45836"}, "hardin-county-45841": {"city": "Hardin County", "rent": 1150, "zip": "45841"}, "hardin-county-45843": {"city": "Hardin County", "rent": 1040, "zip": "45843"}, "hardin-county-45850": {"city": "Hardin County", "rent": 1100, "zip": "45850"}, "hardin-county-45859": {"city": "Hardin County", "rent": 1020, "zip": "45859"}, "hardin-county-45896": {"city": "Hardin County", "rent": 1100, "zip": "45896"}, "harrison-county-43901": {"city": "Harrison County", "rent": 1100, "zip": "43901"}, "harrison-county-43907": {"city": "Harrison County", "rent": 970, "zip": "43907"}, "harrison-county-43910": {"city": "Harrison County", "rent": 1080, "zip": "43910"}, "harrison-county-43950": {"city": "Harrison County", "rent": 1090, "zip": "43950"}, "harrison-county-43973": {"city": "Harrison County", "rent": 1030, "zip": "43973"}, "harrison-county-43974": {"city": "Harrison County", "rent": 1020, "zip": "43974"}, "harrison-county-43976": {"city": "Harrison County", "rent": 1190, "zip": "43976"}, "harrison-county-43977": {"city": "Harrison County", "rent": 1170, "zip": "43977"}, "harrison-county-43981": {"city": "Harrison County", "rent": 980, "zip": "43981"}, "harrison-county-43983": {"city": "Harrison County", "rent": 1080, "zip": "43983"}, "harrison-county-43984": {"city": "Harrison County", "rent": 970, "zip": "43984"}, "harrison-county-43986": {"city": "Harrison County", "rent": 1030, "zip": "43986"}, "harrison-county-43988": {"city": "Harrison County", "rent": 1100, "zip": "43988"}, "harrison-county-44621": {"city": "Harrison County", "rent": 970, "zip": "44621"}, "harrison-county-44683": {"city": "Harrison County", "rent": 1110, "zip": "44683"}, "harrison-county-44693": {"city": "Harrison County", "rent": 1010, "zip": "44693"}, "harrison-county-44695": {"city": "Harrison County", "rent": 970, "zip": "44695"}, "harrison-county-44699": {"city": "Harrison County", "rent": 1080, "zip": "44699"}, "henry-county-43502": {"city": "Henry County", "rent": 970, "zip": "43502"}, "henry-county-43510": {"city": "Henry County", "rent": 1050, "zip": "43510"}, "henry-county-43511": {"city": "Henry County", "rent": 1610, "zip": "43511"}, "henry-county-43512": {"city": "Henry County", "rent": 1000, "zip": "43512"}, "henry-county-43515": {"city": "Henry County", "rent": 970, "zip": "43515"}, "henry-county-43516": {"city": "Henry County", "rent": 1030, "zip": "43516"}, "henry-county-43522": {"city": "Henry County", "rent": 1170, "zip": "43522"}, "henry-county-43523": {"city": "Henry County", "rent": 1120, "zip": "43523"}, "henry-county-43524": {"city": "Henry County", "rent": 970, "zip": "43524"}, "henry-county-43527": {"city": "Henry County", "rent": 970, "zip": "43527"}, "henry-county-43532": {"city": "Henry County", "rent": 1050, "zip": "43532"}, "henry-county-43534": {"city": "Henry County", "rent": 970, "zip": "43534"}, "henry-county-43535": {"city": "Henry County", "rent": 1330, "zip": "43535"}, "henry-county-43545": {"city": "Henry County", "rent": 1000, "zip": "43545"}, "henry-county-43548": {"city": "Henry County", "rent": 1030, "zip": "43548"}, "henry-county-43555": {"city": "Henry County", "rent": 990, "zip": "43555"}, "henry-county-43557": {"city": "Henry County", "rent": 1110, "zip": "43557"}, "henry-county-43567": {"city": "Henry County", "rent": 970, "zip": "43567"}, "henry-county-45856": {"city": "Henry County", "rent": 1250, "zip": "45856"}, "highland-county-45118": {"city": "Highland County", "rent": 1360, "zip": "45118"}, "highland-county-45123": {"city": "Highland County", "rent": 970, "zip": "45123"}, "highland-county-45132": {"city": "Highland County", "rent": 1060, "zip": "45132"}, "highland-county-45133": {"city": "Highland County", "rent": 970, "zip": "45133"}, "highland-county-45135": {"city": "Highland County", "rent": 1060, "zip": "45135"}, "highland-county-45142": {"city": "Highland County", "rent": 980, "zip": "45142"}, "highland-county-45154": {"city": "Highland County", "rent": 1000, "zip": "45154"}, "highland-county-45155": {"city": "Highland County", "rent": 970, "zip": "45155"}, "highland-county-45159": {"city": "Highland County", "rent": 1110, "zip": "45159"}, "highland-county-45171": {"city": "Highland County", "rent": 1120, "zip": "45171"}, "highland-county-45172": {"city": "Highland County", "rent": 970, "zip": "45172"}, "highland-county-45612": {"city": "Highland County", "rent": 1040, "zip": "45612"}, "highland-county-45660": {"city": "Highland County", "rent": 980, "zip": "45660"}, "highland-county-45679": {"city": "Highland County", "rent": 1100, "zip": "45679"}, "highland-county-45697": {"city": "Highland County", "rent": 970, "zip": "45697"}, "holmes-county-43006": {"city": "Holmes County", "rent": 1040, "zip": "43006"}, "holmes-county-43804": {"city": "Holmes County", "rent": 1100, "zip": "43804"}, "holmes-county-44610": {"city": "Holmes County", "rent": 970, "zip": "44610"}, "holmes-county-44611": {"city": "Holmes County", "rent": 1010, "zip": "44611"}, "holmes-county-44617": {"city": "Holmes County", "rent": 970, "zip": "44617"}, "holmes-county-44624": {"city": "Holmes County", "rent": 1070, "zip": "44624"}, "holmes-county-44627": {"city": "Holmes County", "rent": 990, "zip": "44627"}, "holmes-county-44628": {"city": "Holmes County", "rent": 1020, "zip": "44628"}, "holmes-county-44633": {"city": "Holmes County", "rent": 1120, "zip": "44633"}, "holmes-county-44637": {"city": "Holmes County", "rent": 1070, "zip": "44637"}, "holmes-county-44638": {"city": "Holmes County", "rent": 1040, "zip": "44638"}, "holmes-county-44654": {"city": "Holmes County", "rent": 970, "zip": "44654"}, "holmes-county-44660": {"city": "Holmes County", "rent": 970, "zip": "44660"}, "holmes-county-44661": {"city": "Holmes County", "rent": 970, "zip": "44661"}, "holmes-county-44676": {"city": "Holmes County", "rent": 990, "zip": "44676"}, "holmes-county-44681": {"city": "Holmes County", "rent": 1030, "zip": "44681"}, "holmes-county-44687": {"city": "Holmes County", "rent": 1460, "zip": "44687"}, "holmes-county-44689": {"city": "Holmes County", "rent": 1180, "zip": "44689"}, "holmes-county-44690": {"city": "Holmes County", "rent": 970, "zip": "44690"}, "holmes-county-44842": {"city": "Holmes County", "rent": 970, "zip": "44842"}, "huron-county-44807": {"city": "Huron County", "rent": 970, "zip": "44807"}, "huron-county-44811": {"city": "Huron County", "rent": 980, "zip": "44811"}, "huron-county-44826": {"city": "Huron County", "rent": 1070, "zip": "44826"}, "huron-county-44837": {"city": "Huron County", "rent": 970, "zip": "44837"}, "huron-county-44846": {"city": "Huron County", "rent": 1240, "zip": "44846"}, "huron-county-44847": {"city": "Huron County", "rent": 1150, "zip": "44847"}, "huron-county-44850": {"city": "Huron County", "rent": 990, "zip": "44850"}, "huron-county-44851": {"city": "Huron County", "rent": 970, "zip": "44851"}, "huron-county-44854": {"city": "Huron County", "rent": 1050, "zip": "44854"}, "huron-county-44855": {"city": "Huron County", "rent": 1090, "zip": "44855"}, "huron-county-44857": {"city": "Huron County", "rent": 970, "zip": "44857"}, "huron-county-44865": {"city": "Huron County", "rent": 1030, "zip": "44865"}, "huron-county-44878": {"city": "Huron County", "rent": 1130, "zip": "44878"}, "huron-county-44889": {"city": "Huron County", "rent": 1150, "zip": "44889"}, "huron-county-44890": {"city": "Huron County", "rent": 970, "zip": "44890"}, "jackson-county-45601": {"city": "Jackson County", "rent": 1080, "zip": "45601"}, "jackson-county-45613": {"city": "Jackson County", "rent": 970, "zip": "45613"}, "jackson-county-45621": {"city": "Jackson County", "rent": 980, "zip": "45621"}, "jackson-county-45634": {"city": "Jackson County", "rent": 970, "zip": "45634"}, "jackson-county-45640": {"city": "Jackson County", "rent": 1000, "zip": "45640"}, "jackson-county-45653": {"city": "Jackson County", "rent": 990, "zip": "45653"}, "jackson-county-45656": {"city": "Jackson County", "rent": 970, "zip": "45656"}, "jackson-county-45672": {"city": "Jackson County", "rent": 1000, "zip": "45672"}, "jackson-county-45682": {"city": "Jackson County", "rent": 970, "zip": "45682"}, "jackson-county-45685": {"city": "Jackson County", "rent": 970, "zip": "45685"}, "jackson-county-45686": {"city": "Jackson County", "rent": 1060, "zip": "45686"}, "jackson-county-45692": {"city": "Jackson County", "rent": 980, "zip": "45692"}, "knox-county-43005": {"city": "Knox County", "rent": 1120, "zip": "43005"}, "knox-county-43006": {"city": "Knox County", "rent": 1040, "zip": "43006"}, "knox-county-43011": {"city": "Knox County", "rent": 1070, "zip": "43011"}, "knox-county-43014": {"city": "Knox County", "rent": 1000, "zip": "43014"}, "knox-county-43019": {"city": "Knox County", "rent": 1080, "zip": "43019"}, "knox-county-43022": {"city": "Knox County", "rent": 1190, "zip": "43022"}, "knox-county-43028": {"city": "Knox County", "rent": 1390, "zip": "43028"}, "knox-county-43037": {"city": "Knox County", "rent": 1240, "zip": "43037"}, "knox-county-43048": {"city": "Knox County", "rent": 1080, "zip": "43048"}, "knox-county-43050": {"city": "Knox County", "rent": 1070, "zip": "43050"}, "knox-county-43080": {"city": "Knox County", "rent": 1280, "zip": "43080"}, "knox-county-43822": {"city": "Knox County", "rent": 1070, "zip": "43822"}, "knox-county-43843": {"city": "Knox County", "rent": 1140, "zip": "43843"}, "knox-county-43844": {"city": "Knox County", "rent": 1050, "zip": "43844"}, "knox-county-44628": {"city": "Knox County", "rent": 1020, "zip": "44628"}, "knox-county-44813": {"city": "Knox County", "rent": 1070, "zip": "44813"}, "knox-county-44822": {"city": "Knox County", "rent": 1080, "zip": "44822"}, "knox-county-44842": {"city": "Knox County", "rent": 970, "zip": "44842"}, "logan-county-43060": {"city": "Logan County", "rent": 1290, "zip": "43060"}, "logan-county-43067": {"city": "Logan County", "rent": 1330, "zip": "43067"}, "logan-county-43310": {"city": "Logan County", "rent": 1240, "zip": "43310"}, "logan-county-43311": {"city": "Logan County", "rent": 1010, "zip": "43311"}, "logan-county-43318": {"city": "Logan County", "rent": 1200, "zip": "43318"}, "logan-county-43319": {"city": "Logan County", "rent": 1290, "zip": "43319"}, "logan-county-43324": {"city": "Logan County", "rent": 1160, "zip": "43324"}, "logan-county-43331": {"city": "Logan County", "rent": 1100, "zip": "43331"}, "logan-county-43333": {"city": "Logan County", "rent": 1130, "zip": "43333"}, "logan-county-43336": {"city": "Logan County", "rent": 1030, "zip": "43336"}, "logan-county-43343": {"city": "Logan County", "rent": 970, "zip": "43343"}, "logan-county-43345": {"city": "Logan County", "rent": 1370, "zip": "43345"}, "logan-county-43347": {"city": "Logan County", "rent": 1230, "zip": "43347"}, "logan-county-43348": {"city": "Logan County", "rent": 1000, "zip": "43348"}, "logan-county-43357": {"city": "Logan County", "rent": 970, "zip": "43357"}, "logan-county-43358": {"city": "Logan County", "rent": 1300, "zip": "43358"}, "logan-county-43360": {"city": "Logan County", "rent": 1120, "zip": "43360"}, "logan-county-45334": {"city": "Logan County", "rent": 1210, "zip": "45334"}, "logan-county-45895": {"city": "Logan County", "rent": 1030, "zip": "45895"}, "marion-county-43302": {"city": "Marion County", "rent": 1290, "zip": "43302"}, "marion-county-43314": {"city": "Marion County", "rent": 1070, "zip": "43314"}, "marion-county-43315": {"city": "Marion County", "rent": 1160, "zip": "43315"}, "marion-county-43322": {"city": "Marion County", "rent": 980, "zip": "43322"}, "marion-county-43323": {"city": "Marion County", "rent": 1050, "zip": "43323"}, "marion-county-43326": {"city": "Marion County", "rent": 970, "zip": "43326"}, "marion-county-43332": {"city": "Marion County", "rent": 990, "zip": "43332"}, "marion-county-43337": {"city": "Marion County", "rent": 1070, "zip": "43337"}, "marion-county-43341": {"city": "Marion County", "rent": 970, "zip": "43341"}, "marion-county-43342": {"city": "Marion County", "rent": 1250, "zip": "43342"}, "marion-county-43344": {"city": "Marion County", "rent": 1070, "zip": "43344"}, "marion-county-43356": {"city": "Marion County", "rent": 1160, "zip": "43356"}, "marion-county-44833": {"city": "Marion County", "rent": 1070, "zip": "44833"}, "marion-county-44849": {"city": "Marion County", "rent": 1080, "zip": "44849"}, "marion-county-45843": {"city": "Marion County", "rent": 1040, "zip": "45843"}, "meigs-county-45614": {"city": "Meigs County", "rent": 970, "zip": "45614"}, "meigs-county-45620": {"city": "Meigs County", "rent": 970, "zip": "45620"}, "meigs-county-45686": {"city": "Meigs County", "rent": 1060, "zip": "45686"}, "meigs-county-45710": {"city": "Meigs County", "rent": 1030, "zip": "45710"}, "meigs-county-45720": {"city": "Meigs County", "rent": 970, "zip": "45720"}, "meigs-county-45723": {"city": "Meigs County", "rent": 970, "zip": "45723"}, "meigs-county-45735": {"city": "Meigs County", "rent": 1070, "zip": "45735"}, "meigs-county-45741": {"city": "Meigs County", "rent": 1030, "zip": "45741"}, "meigs-county-45743": {"city": "Meigs County", "rent": 970, "zip": "45743"}, "meigs-county-45760": {"city": "Meigs County", "rent": 970, "zip": "45760"}, "meigs-county-45769": {"city": "Meigs County", "rent": 970, "zip": "45769"}, "meigs-county-45770": {"city": "Meigs County", "rent": 1010, "zip": "45770"}, "meigs-county-45771": {"city": "Meigs County", "rent": 1020, "zip": "45771"}, "meigs-county-45772": {"city": "Meigs County", "rent": 990, "zip": "45772"}, "meigs-county-45775": {"city": "Meigs County", "rent": 1080, "zip": "45775"}, "meigs-county-45776": {"city": "Meigs County", "rent": 1070, "zip": "45776"}, "meigs-county-45779": {"city": "Meigs County", "rent": 1010, "zip": "45779"}, "meigs-county-45783": {"city": "Meigs County", "rent": 970, "zip": "45783"}, "mercer-county-45310": {"city": "Mercer County", "rent": 1100, "zip": "45310"}, "mercer-county-45348": {"city": "Mercer County", "rent": 1330, "zip": "45348"}, "mercer-county-45388": {"city": "Mercer County", "rent": 1020, "zip": "45388"}, "mercer-county-45822": {"city": "Mercer County", "rent": 1040, "zip": "45822"}, "mercer-county-45826": {"city": "Mercer County", "rent": 970, "zip": "45826"}, "mercer-county-45828": {"city": "Mercer County", "rent": 970, "zip": "45828"}, "mercer-county-45845": {"city": "Mercer County", "rent": 970, "zip": "45845"}, "mercer-county-45846": {"city": "Mercer County", "rent": 970, "zip": "45846"}, "mercer-county-45860": {"city": "Mercer County", "rent": 970, "zip": "45860"}, "mercer-county-45862": {"city": "Mercer County", "rent": 970, "zip": "45862"}, "mercer-county-45865": {"city": "Mercer County", "rent": 970, "zip": "45865"}, "mercer-county-45866": {"city": "Mercer County", "rent": 1040, "zip": "45866"}, "mercer-county-45869": {"city": "Mercer County", "rent": 970, "zip": "45869"}, "mercer-county-45882": {"city": "Mercer County", "rent": 1000, "zip": "45882"}, "mercer-county-45883": {"city": "Mercer County", "rent": 970, "zip": "45883"}, "mercer-county-45885": {"city": "Mercer County", "rent": 990, "zip": "45885"}, "mercer-county-45887": {"city": "Mercer County", "rent": 1030, "zip": "45887"}, "mercer-county-45898": {"city": "Mercer County", "rent": 1080, "zip": "45898"}, "monroe-county-43716": {"city": "Monroe County", "rent": 1000, "zip": "43716"}, "monroe-county-43747": {"city": "Monroe County", "rent": 980, "zip": "43747"}, "monroe-county-43754": {"city": "Monroe County", "rent": 1060, "zip": "43754"}, "monroe-county-43757": {"city": "Monroe County", "rent": 970, "zip": "43757"}, "monroe-county-43773": {"city": "Monroe County", "rent": 1060, "zip": "43773"}, "monroe-county-43786": {"city": "Monroe County", "rent": 1320, "zip": "43786"}, "monroe-county-43788": {"city": "Monroe County", "rent": 1040, "zip": "43788"}, "monroe-county-43793": {"city": "Monroe County", "rent": 970, "zip": "43793"}, "monroe-county-43914": {"city": "Monroe County", "rent": 970, "zip": "43914"}, "monroe-county-43915": {"city": "Monroe County", "rent": 970, "zip": "43915"}, "monroe-county-43931": {"city": "Monroe County", "rent": 970, "zip": "43931"}, "monroe-county-43942": {"city": "Monroe County", "rent": 970, "zip": "43942"}, "monroe-county-43946": {"city": "Monroe County", "rent": 970, "zip": "43946"}, "monroe-county-45734": {"city": "Monroe County", "rent": 1030, "zip": "45734"}, "monroe-county-45745": {"city": "Monroe County", "rent": 1320, "zip": "45745"}, "monroe-county-45767": {"city": "Monroe County", "rent": 970, "zip": "45767"}, "monroe-county-45789": {"city": "Monroe County", "rent": 1110, "zip": "45789"}, "morgan-county-43720": {"city": "Morgan County", "rent": 980, "zip": "43720"}, "morgan-county-43724": {"city": "Morgan County", "rent": 990, "zip": "43724"}, "morgan-county-43728": {"city": "Morgan County", "rent": 970, "zip": "43728"}, "morgan-county-43730": {"city": "Morgan County", "rent": 970, "zip": "43730"}, "morgan-county-43731": {"city": "Morgan County", "rent": 970, "zip": "43731"}, "morgan-county-43756": {"city": "Morgan County", "rent": 980, "zip": "43756"}, "morgan-county-43758": {"city": "Morgan County", "rent": 1060, "zip": "43758"}, "morgan-county-43777": {"city": "Morgan County", "rent": 970, "zip": "43777"}, "morgan-county-43787": {"city": "Morgan County", "rent": 1050, "zip": "43787"}, "morgan-county-45711": {"city": "Morgan County", "rent": 1170, "zip": "45711"}, "morgan-county-45715": {"city": "Morgan County", "rent": 970, "zip": "45715"}, "morgan-county-45732": {"city": "Morgan County", "rent": 970, "zip": "45732"}, "morgan-county-45744": {"city": "Morgan County", "rent": 980, "zip": "45744"}, "morgan-county-45786": {"city": "Morgan County", "rent": 1030, "zip": "45786"}, "muskingum-county-43056": {"city": "Muskingum County", "rent": 1310, "zip": "43056"}, "muskingum-county-43701": {"city": "Muskingum County", "rent": 1010, "zip": "43701"}, "muskingum-county-43702": {"city": "Muskingum County", "rent": 970, "zip": "43702"}, "muskingum-county-43720": {"city": "Muskingum County", "rent": 980, "zip": "43720"}, "muskingum-county-43727": {"city": "Muskingum County", "rent": 990, "zip": "43727"}, "muskingum-county-43732": {"city": "Muskingum County", "rent": 970, "zip": "43732"}, "muskingum-county-43734": {"city": "Muskingum County", "rent": 1000, "zip": "43734"}, "muskingum-county-43735": {"city": "Muskingum County", "rent": 990, "zip": "43735"}, "muskingum-county-43738": {"city": "Muskingum County", "rent": 970, "zip": "43738"}, "muskingum-county-43740": {"city": "Muskingum County", "rent": 1150, "zip": "43740"}, "muskingum-county-43746": {"city": "Muskingum County", "rent": 1130, "zip": "43746"}, "muskingum-county-43756": {"city": "Muskingum County", "rent": 980, "zip": "43756"}, "muskingum-county-43760": {"city": "Muskingum County", "rent": 1120, "zip": "43760"}, "muskingum-county-43762": {"city": "Muskingum County", "rent": 1000, "zip": "43762"}, "muskingum-county-43767": {"city": "Muskingum County", "rent": 1010, "zip": "43767"}, "muskingum-county-43771": {"city": "Muskingum County", "rent": 970, "zip": "43771"}, "muskingum-county-43777": {"city": "Muskingum County", "rent": 970, "zip": "43777"}, "muskingum-county-43791": {"city": "Muskingum County", "rent": 1010, "zip": "43791"}, "muskingum-county-43802": {"city": "Muskingum County", "rent": 1020, "zip": "43802"}, "muskingum-county-43811": {"city": "Muskingum County", "rent": 1190, "zip": "43811"}, "muskingum-county-43821": {"city": "Muskingum County", "rent": 1090, "zip": "43821"}, "muskingum-county-43822": {"city": "Muskingum County", "rent": 1070, "zip": "43822"}, "muskingum-county-43830": {"city": "Muskingum County", "rent": 1120, "zip": "43830"}, "muskingum-county-43842": {"city": "Muskingum County", "rent": 1090, "zip": "43842"}, "noble-county-43711": {"city": "Noble County", "rent": 980, "zip": "43711"}, "noble-county-43713": {"city": "Noble County", "rent": 970, "zip": "43713"}, "noble-county-43717": {"city": "Noble County", "rent": 970, "zip": "43717"}, "noble-county-43724": {"city": "Noble County", "rent": 990, "zip": "43724"}, "noble-county-43732": {"city": "Noble County", "rent": 970, "zip": "43732"}, "noble-county-43772": {"city": "Noble County", "rent": 970, "zip": "43772"}, "noble-county-43773": {"city": "Noble County", "rent": 1060, "zip": "43773"}, "noble-county-43778": {"city": "Noble County", "rent": 1070, "zip": "43778"}, "noble-county-43779": {"city": "Noble County", "rent": 1020, "zip": "43779"}, "noble-county-43780": {"city": "Noble County", "rent": 1120, "zip": "43780"}, "noble-county-43788": {"city": "Noble County", "rent": 1040, "zip": "43788"}, "noble-county-45715": {"city": "Noble County", "rent": 970, "zip": "45715"}, "noble-county-45727": {"city": "Noble County", "rent": 970, "zip": "45727"}, "noble-county-45744": {"city": "Noble County", "rent": 980, "zip": "45744"}, "noble-county-45745": {"city": "Noble County", "rent": 1320, "zip": "45745"}, "noble-county-45746": {"city": "Noble County", "rent": 1230, "zip": "45746"}, "paulding-county-43512": {"city": "Paulding County", "rent": 1000, "zip": "43512"}, "paulding-county-43526": {"city": "Paulding County", "rent": 970, "zip": "43526"}, "paulding-county-43556": {"city": "Paulding County", "rent": 970, "zip": "43556"}, "paulding-county-45813": {"city": "Paulding County", "rent": 970, "zip": "45813"}, "paulding-county-45821": {"city": "Paulding County", "rent": 970, "zip": "45821"}, "paulding-county-45827": {"city": "Paulding County", "rent": 1020, "zip": "45827"}, "paulding-county-45831": {"city": "Paulding County", "rent": 970, "zip": "45831"}, "paulding-county-45832": {"city": "Paulding County", "rent": 970, "zip": "45832"}, "paulding-county-45849": {"city": "Paulding County", "rent": 1010, "zip": "45849"}, "paulding-county-45851": {"city": "Paulding County", "rent": 1090, "zip": "45851"}, "paulding-county-45855": {"city": "Paulding County", "rent": 1460, "zip": "45855"}, "paulding-county-45861": {"city": "Paulding County", "rent": 970, "zip": "45861"}, "paulding-county-45873": {"city": "Paulding County", "rent": 990, "zip": "45873"}, "paulding-county-45879": {"city": "Paulding County", "rent": 970, "zip": "45879"}, "paulding-county-45880": {"city": "Paulding County", "rent": 1060, "zip": "45880"}, "paulding-county-45886": {"city": "Paulding County", "rent": 970, "zip": "45886"}, "pike-county-45133": {"city": "Pike County", "rent": 970, "zip": "45133"}, "pike-county-45601": {"city": "Pike County", "rent": 1080, "zip": "45601"}, "pike-county-45612": {"city": "Pike County", "rent": 1040, "zip": "45612"}, "pike-county-45613": {"city": "Pike County", "rent": 970, "zip": "45613"}, "pike-county-45624": {"city": "Pike County", "rent": 1020, "zip": "45624"}, "pike-county-45642": {"city": "Pike County", "rent": 980, "zip": "45642"}, "pike-county-45646": {"city": "Pike County", "rent": 980, "zip": "45646"}, "pike-county-45648": {"city": "Pike County", "rent": 1010, "zip": "45648"}, "pike-county-45657": {"city": "Pike County", "rent": 970, "zip": "45657"}, "pike-county-45660": {"city": "Pike County", "rent": 980, "zip": "45660"}, "pike-county-45661": {"city": "Pike County", "rent": 970, "zip": "45661"}, "pike-county-45671": {"city": "Pike County", "rent": 980, "zip": "45671"}, "pike-county-45690": {"city": "Pike County", "rent": 1060, "zip": "45690"}, "preble-county-45003": {"city": "Preble County", "rent": 1000, "zip": "45003"}, "preble-county-45042": {"city": "Preble County", "rent": 1270, "zip": "45042"}, "preble-county-45056": {"city": "Preble County", "rent": 1320, "zip": "45056"}, "preble-county-45064": {"city": "Preble County", "rent": 1170, "zip": "45064"}, "preble-county-45070": {"city": "Preble County", "rent": 1380, "zip": "45070"}, "preble-county-45304": {"city": "Preble County", "rent": 1040, "zip": "45304"}, "preble-county-45309": {"city": "Preble County", "rent": 1230, "zip": "45309"}, "preble-county-45311": {"city": "Preble County", "rent": 970, "zip": "45311"}, "preble-county-45320": {"city": "Preble County", "rent": 970, "zip": "45320"}, "preble-county-45321": {"city": "Preble County", "rent": 1190, "zip": "45321"}, "preble-county-45325": {"city": "Preble County", "rent": 1380, "zip": "45325"}, "preble-county-45327": {"city": "Preble County", "rent": 1180, "zip": "45327"}, "preble-county-45330": {"city": "Preble County", "rent": 1050, "zip": "45330"}, "preble-county-45338": {"city": "Preble County", "rent": 1030, "zip": "45338"}, "preble-county-45347": {"city": "Preble County", "rent": 970, "zip": "45347"}, "preble-county-45378": {"city": "Preble County", "rent": 1150, "zip": "45378"}, "preble-county-45381": {"city": "Preble County", "rent": 1010, "zip": "45381"}, "preble-county-45382": {"city": "Preble County", "rent": 1180, "zip": "45382"}, "putnam-county-43516": {"city": "Putnam County", "rent": 1030, "zip": "43516"}, "putnam-county-43548": {"city": "Putnam County", "rent": 1030, "zip": "43548"}, "putnam-county-45807": {"city": "Putnam County", "rent": 1180, "zip": "45807"}, "putnam-county-45815": {"city": "Putnam County", "rent": 1250, "zip": "45815"}, "putnam-county-45817": {"city": "Putnam County", "rent": 1040, "zip": "45817"}, "putnam-county-45827": {"city": "Putnam County", "rent": 1020, "zip": "45827"}, "putnam-county-45830": {"city": "Putnam County", "rent": 1120, "zip": "45830"}, "putnam-county-45831": {"city": "Putnam County", "rent": 970, "zip": "45831"}, "putnam-county-45833": {"city": "Putnam County", "rent": 1040, "zip": "45833"}, "putnam-county-45844": {"city": "Putnam County", "rent": 970, "zip": "45844"}, "putnam-county-45848": {"city": "Putnam County", "rent": 1010, "zip": "45848"}, "putnam-county-45849": {"city": "Putnam County", "rent": 1010, "zip": "45849"}, "putnam-county-45853": {"city": "Putnam County", "rent": 1100, "zip": "45853"}, "putnam-county-45856": {"city": "Putnam County", "rent": 1250, "zip": "45856"}, "putnam-county-45858": {"city": "Putnam County", "rent": 1080, "zip": "45858"}, "putnam-county-45864": {"city": "Putnam County", "rent": 1110, "zip": "45864"}, "putnam-county-45868": {"city": "Putnam County", "rent": 1330, "zip": "45868"}, "putnam-county-45873": {"city": "Putnam County", "rent": 990, "zip": "45873"}, "putnam-county-45875": {"city": "Putnam County", "rent": 1010, "zip": "45875"}, "putnam-county-45876": {"city": "Putnam County", "rent": 1110, "zip": "45876"}, "putnam-county-45877": {"city": "Putnam County", "rent": 1150, "zip": "45877"}, "putnam-county-45893": {"city": "Putnam County", "rent": 1120, "zip": "45893"}, "ross-county-43101": {"city": "Ross County", "rent": 1070, "zip": "43101"}, "ross-county-43115": {"city": "Ross County", "rent": 1390, "zip": "43115"}, "ross-county-43135": {"city": "Ross County", "rent": 1070, "zip": "43135"}, "ross-county-43160": {"city": "Ross County", "rent": 980, "zip": "43160"}, "ross-county-43164": {"city": "Ross County", "rent": 1240, "zip": "43164"}, "ross-county-45123": {"city": "Ross County", "rent": 970, "zip": "45123"}, "ross-county-45601": {"city": "Ross County", "rent": 1080, "zip": "45601"}, "ross-county-45612": {"city": "Ross County", "rent": 1040, "zip": "45612"}, "ross-county-45617": {"city": "Ross County", "rent": 1060, "zip": "45617"}, "ross-county-45628": {"city": "Ross County", "rent": 1190, "zip": "45628"}, "ross-county-45644": {"city": "Ross County", "rent": 1070, "zip": "45644"}, "ross-county-45647": {"city": "Ross County", "rent": 970, "zip": "45647"}, "ross-county-45672": {"city": "Ross County", "rent": 1000, "zip": "45672"}, "ross-county-45673": {"city": "Ross County", "rent": 1080, "zip": "45673"}, "ross-county-45681": {"city": "Ross County", "rent": 1140, "zip": "45681"}, "ross-county-45690": {"city": "Ross County", "rent": 1060, "zip": "45690"}, "sandusky-county-43406": {"city": "Sandusky County", "rent": 970, "zip": "43406"}, "sandusky-county-43407": {"city": "Sandusky County", "rent": 1010, "zip": "43407"}, "sandusky-county-43410": {"city": "Sandusky County", "rent": 970, "zip": "43410"}, "sandusky-county-43416": {"city": "Sandusky County", "rent": 1060, "zip": "43416"}, "sandusky-county-43420": {"city": "Sandusky County", "rent": 990, "zip": "43420"}, "sandusky-county-43430": {"city": "Sandusky County", "rent": 1030, "zip": "43430"}, "sandusky-county-43431": {"city": "Sandusky County", "rent": 970, "zip": "43431"}, "sandusky-county-43435": {"city": "Sandusky County", "rent": 990, "zip": "43435"}, "sandusky-county-43442": {"city": "Sandusky County", "rent": 970, "zip": "43442"}, "sandusky-county-43443": {"city": "Sandusky County", "rent": 1020, "zip": "43443"}, "sandusky-county-43449": {"city": "Sandusky County", "rent": 1070, "zip": "43449"}, "sandusky-county-43450": {"city": "Sandusky County", "rent": 1520, "zip": "43450"}, "sandusky-county-43457": {"city": "Sandusky County", "rent": 970, "zip": "43457"}, "sandusky-county-43464": {"city": "Sandusky County", "rent": 970, "zip": "43464"}, "sandusky-county-43469": {"city": "Sandusky County", "rent": 970, "zip": "43469"}, "sandusky-county-44811": {"city": "Sandusky County", "rent": 980, "zip": "44811"}, "sandusky-county-44824": {"city": "Sandusky County", "rent": 1070, "zip": "44824"}, "sandusky-county-44836": {"city": "Sandusky County", "rent": 1100, "zip": "44836"}, "sandusky-county-44841": {"city": "Sandusky County", "rent": 970, "zip": "44841"}, "scioto-county-45613": {"city": "Scioto County", "rent": 970, "zip": "45613"}, "scioto-county-45616": {"city": "Scioto County", "rent": 1020, "zip": "45616"}, "scioto-county-45629": {"city": "Scioto County", "rent": 1000, "zip": "45629"}, "scioto-county-45630": {"city": "Scioto County", "rent": 1100, "zip": "45630"}, "scioto-county-45636": {"city": "Scioto County", "rent": 980, "zip": "45636"}, "scioto-county-45638": {"city": "Scioto County", "rent": 970, "zip": "45638"}, "scioto-county-45640": {"city": "Scioto County", "rent": 1000, "zip": "45640"}, "scioto-county-45648": {"city": "Scioto County", "rent": 1010, "zip": "45648"}, "scioto-county-45652": {"city": "Scioto County", "rent": 980, "zip": "45652"}, "scioto-county-45653": {"city": "Scioto County", "rent": 990, "zip": "45653"}, "scioto-county-45656": {"city": "Scioto County", "rent": 970, "zip": "45656"}, "scioto-county-45657": {"city": "Scioto County", "rent": 970, "zip": "45657"}, "scioto-county-45659": {"city": "Scioto County", "rent": 1020, "zip": "45659"}, "scioto-county-45660": {"city": "Scioto County", "rent": 980, "zip": "45660"}, "scioto-county-45661": {"city": "Scioto County", "rent": 970, "zip": "45661"}, "scioto-county-45662": {"city": "Scioto County", "rent": 970, "zip": "45662"}, "scioto-county-45663": {"city": "Scioto County", "rent": 970, "zip": "45663"}, "scioto-county-45671": {"city": "Scioto County", "rent": 980, "zip": "45671"}, "scioto-county-45677": {"city": "Scioto County", "rent": 1030, "zip": "45677"}, "scioto-county-45682": {"city": "Scioto County", "rent": 970, "zip": "45682"}, "scioto-county-45684": {"city": "Scioto County", "rent": 1210, "zip": "45684"}, "scioto-county-45694": {"city": "Scioto County", "rent": 1070, "zip": "45694"}, "scioto-county-45699": {"city": "Scioto County", "rent": 1010, "zip": "45699"}, "seneca-county-43316": {"city": "Seneca County", "rent": 1050, "zip": "43316"}, "seneca-county-43410": {"city": "Seneca County", "rent": 970, "zip": "43410"}, "seneca-county-43457": {"city": "Seneca County", "rent": 970, "zip": "43457"}, "seneca-county-44802": {"city": "Seneca County", "rent": 1150, "zip": "44802"}, "seneca-county-44807": {"city": "Seneca County", "rent": 970, "zip": "44807"}, "seneca-county-44809": {"city": "Seneca County", "rent": 990, "zip": "44809"}, "seneca-county-44811": {"city": "Seneca County", "rent": 980, "zip": "44811"}, "seneca-county-44815": {"city": "Seneca County", "rent": 970, "zip": "44815"}, "seneca-county-44818": {"city": "Seneca County", "rent": 970, "zip": "44818"}, "seneca-county-44828": {"city": "Seneca County", "rent": 1300, "zip": "44828"}, "seneca-county-44830": {"city": "Seneca County", "rent": 970, "zip": "44830"}, "seneca-county-44836": {"city": "Seneca County", "rent": 1100, "zip": "44836"}, "seneca-county-44841": {"city": "Seneca County", "rent": 970, "zip": "44841"}, "seneca-county-44844": {"city": "Seneca County", "rent": 1010, "zip": "44844"}, "seneca-county-44853": {"city": "Seneca County", "rent": 1040, "zip": "44853"}, "seneca-county-44854": {"city": "Seneca County", "rent": 1050, "zip": "44854"}, "seneca-county-44861": {"city": "Seneca County", "rent": 1030, "zip": "44861"}, "seneca-county-44867": {"city": "Seneca County", "rent": 1260, "zip": "44867"}, "seneca-county-44882": {"city": "Seneca County", "rent": 980, "zip": "44882"}, "seneca-county-44883": {"city": "Seneca County", "rent": 1010, "zip": "44883"}, "shelby-county-43343": {"city": "Shelby County", "rent": 970, "zip": "43343"}, "shelby-county-45302": {"city": "Shelby County", "rent": 1230, "zip": "45302"}, "shelby-county-45306": {"city": "Shelby County", "rent": 1050, "zip": "45306"}, "shelby-county-45317": {"city": "Shelby County", "rent": 1030, "zip": "45317"}, "shelby-county-45326": {"city": "Shelby County", "rent": 970, "zip": "45326"}, "shelby-county-45333": {"city": "Shelby County", "rent": 1050, "zip": "45333"}, "shelby-county-45334": {"city": "Shelby County", "rent": 1210, "zip": "45334"}, "shelby-county-45336": {"city": "Shelby County", "rent": 1120, "zip": "45336"}, "shelby-county-45340": {"city": "Shelby County", "rent": 1080, "zip": "45340"}, "shelby-county-45353": {"city": "Shelby County", "rent": 1020, "zip": "45353"}, "shelby-county-45356": {"city": "Shelby County", "rent": 1220, "zip": "45356"}, "shelby-county-45360": {"city": "Shelby County", "rent": 980, "zip": "45360"}, "shelby-county-45363": {"city": "Shelby County", "rent": 1020, "zip": "45363"}, "shelby-county-45365": {"city": "Shelby County", "rent": 1020, "zip": "45365"}, "shelby-county-45367": {"city": "Shelby County", "rent": 1030, "zip": "45367"}, "shelby-county-45380": {"city": "Shelby County", "rent": 970, "zip": "45380"}, "shelby-county-45388": {"city": "Shelby County", "rent": 1020, "zip": "45388"}, "shelby-county-45845": {"city": "Shelby County", "rent": 970, "zip": "45845"}, "shelby-county-45865": {"city": "Shelby County", "rent": 970, "zip": "45865"}, "shelby-county-45869": {"city": "Shelby County", "rent": 970, "zip": "45869"}, "shelby-county-45871": {"city": "Shelby County", "rent": 990, "zip": "45871"}, "shelby-county-45895": {"city": "Shelby County", "rent": 1030, "zip": "45895"}, "tuscarawas-county-43749": {"city": "Tuscarawas County", "rent": 1000, "zip": "43749"}, "tuscarawas-county-43804": {"city": "Tuscarawas County", "rent": 1100, "zip": "43804"}, "tuscarawas-county-43824": {"city": "Tuscarawas County", "rent": 970, "zip": "43824"}, "tuscarawas-county-43832": {"city": "Tuscarawas County", "rent": 970, "zip": "43832"}, "tuscarawas-county-43837": {"city": "Tuscarawas County", "rent": 1110, "zip": "43837"}, "tuscarawas-county-43840": {"city": "Tuscarawas County", "rent": 970, "zip": "43840"}, "tuscarawas-county-43973": {"city": "Tuscarawas County", "rent": 1030, "zip": "43973"}, "tuscarawas-county-44608": {"city": "Tuscarawas County", "rent": 1300, "zip": "44608"}, "tuscarawas-county-44612": {"city": "Tuscarawas County", "rent": 970, "zip": "44612"}, "tuscarawas-county-44621": {"city": "Tuscarawas County", "rent": 970, "zip": "44621"}, "tuscarawas-county-44622": {"city": "Tuscarawas County", "rent": 1160, "zip": "44622"}, "tuscarawas-county-44624": {"city": "Tuscarawas County", "rent": 1070, "zip": "44624"}, "tuscarawas-county-44626": {"city": "Tuscarawas County", "rent": 1180, "zip": "44626"}, "tuscarawas-county-44629": {"city": "Tuscarawas County", "rent": 980, "zip": "44629"}, "tuscarawas-county-44643": {"city": "Tuscarawas County", "rent": 1060, "zip": "44643"}, "tuscarawas-county-44653": {"city": "Tuscarawas County", "rent": 1130, "zip": "44653"}, "tuscarawas-county-44656": {"city": "Tuscarawas County", "rent": 970, "zip": "44656"}, "tuscarawas-county-44663": {"city": "Tuscarawas County", "rent": 990, "zip": "44663"}, "tuscarawas-county-44671": {"city": "Tuscarawas County", "rent": 1130, "zip": "44671"}, "tuscarawas-county-44675": {"city": "Tuscarawas County", "rent": 1390, "zip": "44675"}, "tuscarawas-county-44678": {"city": "Tuscarawas County", "rent": 1020, "zip": "44678"}, "tuscarawas-county-44679": {"city": "Tuscarawas County", "rent": 1020, "zip": "44679"}, "tuscarawas-county-44680": {"city": "Tuscarawas County", "rent": 980, "zip": "44680"}, "tuscarawas-county-44681": {"city": "Tuscarawas County", "rent": 1030, "zip": "44681"}, "tuscarawas-county-44682": {"city": "Tuscarawas County", "rent": 1070, "zip": "44682"}, "tuscarawas-county-44683": {"city": "Tuscarawas County", "rent": 1110, "zip": "44683"}, "tuscarawas-county-44697": {"city": "Tuscarawas County", "rent": 1030, "zip": "44697"}, "tuscarawas-county-44699": {"city": "Tuscarawas County", "rent": 1080, "zip": "44699"}, "van-wert-county-45832": {"city": "Van Wert County", "rent": 970, "zip": "45832"}, "van-wert-county-45833": {"city": "Van Wert County", "rent": 1040, "zip": "45833"}, "van-wert-county-45838": {"city": "Van Wert County", "rent": 1090, "zip": "45838"}, "van-wert-county-45844": {"city": "Van Wert County", "rent": 970, "zip": "45844"}, "van-wert-county-45849": {"city": "Van Wert County", "rent": 1010, "zip": "45849"}, "van-wert-county-45863": {"city": "Van Wert County", "rent": 970, "zip": "45863"}, "van-wert-county-45874": {"city": "Van Wert County", "rent": 1080, "zip": "45874"}, "van-wert-county-45882": {"city": "Van Wert County", "rent": 1000, "zip": "45882"}, "van-wert-county-45886": {"city": "Van Wert County", "rent": 970, "zip": "45886"}, "van-wert-county-45887": {"city": "Van Wert County", "rent": 1030, "zip": "45887"}, "van-wert-county-45891": {"city": "Van Wert County", "rent": 970, "zip": "45891"}, "van-wert-county-45894": {"city": "Van Wert County", "rent": 1090, "zip": "45894"}, "van-wert-county-45898": {"city": "Van Wert County", "rent": 1080, "zip": "45898"}, "van-wert-county-45899": {"city": "Van Wert County", "rent": 1120, "zip": "45899"}, "vinton-county-43135": {"city": "Vinton County", "rent": 1070, "zip": "43135"}, "vinton-county-43138": {"city": "Vinton County", "rent": 970, "zip": "43138"}, "vinton-county-43152": {"city": "Vinton County", "rent": 990, "zip": "43152"}, "vinton-county-45622": {"city": "Vinton County", "rent": 990, "zip": "45622"}, "vinton-county-45634": {"city": "Vinton County", "rent": 970, "zip": "45634"}, "vinton-county-45647": {"city": "Vinton County", "rent": 970, "zip": "45647"}, "vinton-county-45651": {"city": "Vinton County", "rent": 990, "zip": "45651"}, "vinton-county-45654": {"city": "Vinton County", "rent": 1130, "zip": "45654"}, "vinton-county-45672": {"city": "Vinton County", "rent": 1000, "zip": "45672"}, "vinton-county-45686": {"city": "Vinton County", "rent": 1060, "zip": "45686"}, "vinton-county-45692": {"city": "Vinton County", "rent": 980, "zip": "45692"}, "vinton-county-45695": {"city": "Vinton County", "rent": 1170, "zip": "45695"}, "vinton-county-45698": {"city": "Vinton County", "rent": 990, "zip": "45698"}, "vinton-county-45710": {"city": "Vinton County", "rent": 1030, "zip": "45710"}, "vinton-county-45741": {"city": "Vinton County", "rent": 1030, "zip": "45741"}, "vinton-county-45766": {"city": "Vinton County", "rent": 1070, "zip": "45766"}, "washington-county-43787": {"city": "Washington County", "rent": 1050, "zip": "43787"}, "washington-county-45711": {"city": "Washington County", "rent": 1170, "zip": "45711"}, "washington-county-45714": {"city": "Washington County", "rent": 980, "zip": "45714"}, "washington-county-45715": {"city": "Washington County", "rent": 970, "zip": "45715"}, "washington-county-45721": {"city": "Washington County", "rent": 980, "zip": "45721"}, "washington-county-45723": {"city": "Washington County", "rent": 970, "zip": "45723"}, "washington-county-45724": {"city": "Washington County", "rent": 1100, "zip": "45724"}, "washington-county-45727": {"city": "Washington County", "rent": 970, "zip": "45727"}, "washington-county-45729": {"city": "Washington County", "rent": 980, "zip": "45729"}, "washington-county-45734": {"city": "Washington County", "rent": 1030, "zip": "45734"}, "washington-county-45742": {"city": "Washington County", "rent": 1370, "zip": "45742"}, "washington-county-45744": {"city": "Washington County", "rent": 980, "zip": "45744"}, "washington-county-45745": {"city": "Washington County", "rent": 1320, "zip": "45745"}, "washington-county-45746": {"city": "Washington County", "rent": 1230, "zip": "45746"}, "washington-county-45750": {"city": "Washington County", "rent": 980, "zip": "45750"}, "washington-county-45767": {"city": "Washington County", "rent": 970, "zip": "45767"}, "washington-county-45768": {"city": "Washington County", "rent": 970, "zip": "45768"}, "washington-county-45773": {"city": "Washington County", "rent": 980, "zip": "45773"}, "washington-county-45784": {"city": "Washington County", "rent": 970, "zip": "45784"}, "washington-county-45786": {"city": "Washington County", "rent": 1030, "zip": "45786"}, "washington-county-45788": {"city": "Washington County", "rent": 1080, "zip": "45788"}, "washington-county-45789": {"city": "Washington County", "rent": 1110, "zip": "45789"}, "wayne-county-44203": {"city": "Wayne County", "rent": 1130, "zip": "44203"}, "wayne-county-44214": {"city": "Wayne County", "rent": 1120, "zip": "44214"}, "wayne-county-44216": {"city": "Wayne County", "rent": 1090, "zip": "44216"}, "wayne-county-44217": {"city": "Wayne County", "rent": 1020, "zip": "44217"}, "wayne-county-44230": {"city": "Wayne County", "rent": 1010, "zip": "44230"}, "wayne-county-44270": {"city": "Wayne County", "rent": 990, "zip": "44270"}, "wayne-county-44273": {"city": "Wayne County", "rent": 1170, "zip": "44273"}, "wayne-county-44276": {"city": "Wayne County", "rent": 990, "zip": "44276"}, "wayne-county-44281": {"city": "Wayne County", "rent": 1280, "zip": "44281"}, "wayne-county-44287": {"city": "Wayne County", "rent": 1010, "zip": "44287"}, "wayne-county-44606": {"city": "Wayne County", "rent": 970, "zip": "44606"}, "wayne-county-44611": {"city": "Wayne County", "rent": 1010, "zip": "44611"}, "wayne-county-44614": {"city": "Wayne County", "rent": 1170, "zip": "44614"}, "wayne-county-44618": {"city": "Wayne County", "rent": 980, "zip": "44618"}, "wayne-county-44624": {"city": "Wayne County", "rent": 1070, "zip": "44624"}, "wayne-county-44627": {"city": "Wayne County", "rent": 990, "zip": "44627"}, "wayne-county-44636": {"city": "Wayne County", "rent": 1040, "zip": "44636"}, "wayne-county-44638": {"city": "Wayne County", "rent": 1040, "zip": "44638"}, "wayne-county-44645": {"city": "Wayne County", "rent": 1300, "zip": "44645"}, "wayne-county-44659": {"city": "Wayne County", "rent": 990, "zip": "44659"}, "wayne-county-44662": {"city": "Wayne County", "rent": 1020, "zip": "44662"}, "wayne-county-44666": {"city": "Wayne County", "rent": 1050, "zip": "44666"}, "wayne-county-44667": {"city": "Wayne County", "rent": 1050, "zip": "44667"}, "wayne-county-44676": {"city": "Wayne County", "rent": 990, "zip": "44676"}, "wayne-county-44677": {"city": "Wayne County", "rent": 1110, "zip": "44677"}, "wayne-county-44691": {"city": "Wayne County", "rent": 1080, "zip": "44691"}, "wayne-county-44840": {"city": "Wayne County", "rent": 1120, "zip": "44840"}, "williams-county-43501": {"city": "Williams County", "rent": 1020, "zip": "43501"}, "williams-county-43502": {"city": "Williams County", "rent": 970, "zip": "43502"}, "williams-county-43505": {"city": "Williams County", "rent": 1160, "zip": "43505"}, "williams-county-43506": {"city": "Williams County", "rent": 980, "zip": "43506"}, "williams-county-43512": {"city": "Williams County", "rent": 1000, "zip": "43512"}, "williams-county-43517": {"city": "Williams County", "rent": 970, "zip": "43517"}, "williams-county-43518": {"city": "Williams County", "rent": 1160, "zip": "43518"}, "williams-county-43521": {"city": "Williams County", "rent": 970, "zip": "43521"}, "williams-county-43531": {"city": "Williams County", "rent": 970, "zip": "43531"}, "williams-county-43543": {"city": "Williams County", "rent": 970, "zip": "43543"}, "williams-county-43554": {"city": "Williams County", "rent": 970, "zip": "43554"}, "williams-county-43557": {"city": "Williams County", "rent": 1110, "zip": "43557"}, "williams-county-43570": {"city": "Williams County", "rent": 980, "zip": "43570"}, "wyandot-county-43316": {"city": "Wyandot County", "rent": 1050, "zip": "43316"}, "wyandot-county-43323": {"city": "Wyandot County", "rent": 1050, "zip": "43323"}, "wyandot-county-43330": {"city": "Wyandot County", "rent": 970, "zip": "43330"}, "wyandot-county-43332": {"city": "Wyandot County", "rent": 990, "zip": "43332"}, "wyandot-county-43337": {"city": "Wyandot County", "rent": 1070, "zip": "43337"}, "wyandot-county-43351": {"city": "Wyandot County", "rent": 970, "zip": "43351"}, "wyandot-county-43359": {"city": "Wyandot County", "rent": 970, "zip": "43359"}, "wyandot-county-44802": {"city": "Wyandot County", "rent": 1150, "zip": "44802"}, "wyandot-county-44820": {"city": "Wyandot County", "rent": 970, "zip": "44820"}, "wyandot-county-44844": {"city": "Wyandot County", "rent": 1010, "zip": "44844"}, "wyandot-county-44849": {"city": "Wyandot County", "rent": 1080, "zip": "44849"}, "wyandot-county-44882": {"city": "Wyandot County", "rent": 980, "zip": "44882"}, "wyandot-county-45843": {"city": "Wyandot County", "rent": 1040, "zip": "45843"}, "wyandot-county-45867": {"city": "Wyandot County", "rent": 1050, "zip": "45867"}}