{"enid-73056": {"city": "Enid", "rent": 1030, "zip": "73056"}, "enid-73073": {"city": "Enid", "rent": 990, "zip": "73073"}, "enid-73701": {"city": "Enid", "rent": 940, "zip": "73701"}, "enid-73702": {"city": "Enid", "rent": 1030, "zip": "73702"}, "enid-73703": {"city": "Enid", "rent": 1130, "zip": "73703"}, "enid-73705": {"city": "Enid", "rent": 1100, "zip": "73705"}, "enid-73718": {"city": "Enid", "rent": 1040, "zip": "73718"}, "enid-73720": {"city": "Enid", "rent": 1070, "zip": "73720"}, "enid-73727": {"city": "Enid", "rent": 1090, "zip": "73727"}, "enid-73730": {"city": "Enid", "rent": 1040, "zip": "73730"}, "enid-73733": {"city": "Enid", "rent": 1030, "zip": "73733"}, "enid-73735": {"city": "Enid", "rent": 990, "zip": "73735"}, "enid-73736": {"city": "Enid", "rent": 1010, "zip": "73736"}, "enid-73738": {"city": "Enid", "rent": 1070, "zip": "73738"}, "enid-73739": {"city": "Enid", "rent": 950, "zip": "73739"}, "enid-73742": {"city": "Enid", "rent": 1020, "zip": "73742"}, "enid-73743": {"city": "Enid", "rent": 1130, "zip": "73743"}, "enid-73753": {"city": "Enid", "rent": 1060, "zip": "73753"}, "enid-73754": {"city": "Enid", "rent": 970, "zip": "73754"}, "enid-73757": {"city": "Enid", "rent": 990, "zip": "73757"}, "enid-73761": {"city": "Enid", "rent": 990, "zip": "73761"}, "enid-73773": {"city": "Enid", "rent": 1110, "zip": "73773"}, "enid-74630": {"city": "Enid", "rent": 940, "zip": "74630"}, "enid-74640": {"city": "Enid", "rent": 990, "zip": "74640"}, "lawton-73006": {"city": "Lawton", "rent": 940, "zip": "73006"}, "lawton-73017": {"city": "Lawton", "rent": 940, "zip": "73017"}, "lawton-73055": {"city": "Lawton", "rent": 940, "zip": "73055"}, "lawton-73062": {"city": "Lawton", "rent": 940, "zip": "73062"}, "lawton-73082": {"city": "Lawton", "rent": 940, "zip": "73082"}, "lawton-73501": {"city": "Lawton", "rent": 940, "zip": "73501"}, "lawton-73502": {"city": "Lawton", "rent": 1000, "zip": "73502"}, "lawton-73503": {"city": "Lawton", "rent": 1370, "zip": "73503"}, "lawton-73505": {"city": "Lawton", "rent": 1020, "zip": "73505"}, "lawton-73506": {"city": "Lawton", "rent": 1000, "zip": "73506"}, "lawton-73507": {"city": "Lawton", "rent": 980, "zip": "73507"}, "lawton-73527": {"city": "Lawton", "rent": 940, "zip": "73527"}, "lawton-73528": {"city": "Lawton", "rent": 940, "zip": "73528"}, "lawton-73538": {"city": "Lawton", "rent": 1250, "zip": "73538"}, "lawton-73540": {"city": "Lawton", "rent": 1020, "zip": "73540"}, "lawton-73541": {"city": "Lawton", "rent": 990, "zip": "73541"}, "lawton-73543": {"city": "Lawton", "rent": 1220, "zip": "73543"}, "lawton-73552": {"city": "Lawton", "rent": 990, "zip": "73552"}, "lawton-73557": {"city": "Lawton", "rent": 1340, "zip": "73557"}, "lawton-73559": {"city": "Lawton", "rent": 940, "zip": "73559"}, "lawton-73567": {"city": "Lawton", "rent": 990, "zip": "73567"}, "lawton-73572": {"city": "Lawton", "rent": 960, "zip": "73572"}, "cotton-county-73528": {"city": "Cotton County", "rent": 940, "zip": "73528"}, "cotton-county-73529": {"city": "Cotton County", "rent": 940, "zip": "73529"}, "cotton-county-73531": {"city": "Cotton County", "rent": 940, "zip": "73531"}, "cotton-county-73533": {"city": "Cotton County", "rent": 940, "zip": "73533"}, "cotton-county-73543": {"city": "Cotton County", "rent": 1220, "zip": "73543"}, "cotton-county-73546": {"city": "Cotton County", "rent": 1020, "zip": "73546"}, "cotton-county-73548": {"city": "Cotton County", "rent": 950, "zip": "73548"}, "cotton-county-73562": {"city": "Cotton County", "rent": 940, "zip": "73562"}, "cotton-county-73568": {"city": "Cotton County", "rent": 940, "zip": "73568"}, "cotton-county-73572": {"city": "Cotton County", "rent": 960, "zip": "73572"}, "oklahoma-city-73002": {"city": "Oklahoma City", "rent": 940, "zip": "73002"}, "oklahoma-city-73003": {"city": "Oklahoma City", "rent": 1610, "zip": "73003"}, "oklahoma-city-73007": {"city": "Oklahoma City", "rent": 1090, "zip": "73007"}, "oklahoma-city-73008": {"city": "Oklahoma City", "rent": 1220, "zip": "73008"}, "oklahoma-city-73010": {"city": "Oklahoma City", "rent": 1190, "zip": "73010"}, "oklahoma-city-73012": {"city": "Oklahoma City", "rent": 1870, "zip": "73012"}, "oklahoma-city-73013": {"city": "Oklahoma City", "rent": 1700, "zip": "73013"}, "oklahoma-city-73014": {"city": "Oklahoma City", "rent": 1160, "zip": "73014"}, "oklahoma-city-73016": {"city": "Oklahoma City", "rent": 1450, "zip": "73016"}, "oklahoma-city-73019": {"city": "Oklahoma City", "rent": 1290, "zip": "73019"}, "oklahoma-city-73020": {"city": "Oklahoma City", "rent": 1530, "zip": "73020"}, "oklahoma-city-73022": {"city": "Oklahoma City", "rent": 1380, "zip": "73022"}, "oklahoma-city-73025": {"city": "Oklahoma City", "rent": 1480, "zip": "73025"}, "oklahoma-city-73026": {"city": "Oklahoma City", "rent": 1200, "zip": "73026"}, "oklahoma-city-73027": {"city": "Oklahoma City", "rent": 940, "zip": "73027"}, "oklahoma-city-73028": {"city": "Oklahoma City", "rent": 1100, "zip": "73028"}, "oklahoma-city-73031": {"city": "Oklahoma City", "rent": 1190, "zip": "73031"}, "oklahoma-city-73034": {"city": "Oklahoma City", "rent": 1370, "zip": "73034"}, "oklahoma-city-73036": {"city": "Oklahoma City", "rent": 1030, "zip": "73036"}, "oklahoma-city-73040": {"city": "Oklahoma City", "rent": 1020, "zip": "73040"}, "oklahoma-city-73044": {"city": "Oklahoma City", "rent": 1060, "zip": "73044"}, "oklahoma-city-73045": {"city": "Oklahoma City", "rent": 1150, "zip": "73045"}, "oklahoma-city-73047": {"city": "Oklahoma City", "rent": 1100, "zip": "73047"}, "oklahoma-city-73049": {"city": "Oklahoma City", "rent": 1060, "zip": "73049"}, "oklahoma-city-73050": {"city": "Oklahoma City", "rent": 940, "zip": "73050"}, "oklahoma-city-73051": {"city": "Oklahoma City", "rent": 1060, "zip": "73051"}, "oklahoma-city-73052": {"city": "Oklahoma City", "rent": 1030, "zip": "73052"}, "oklahoma-city-73054": {"city": "Oklahoma City", "rent": 1050, "zip": "73054"}, "oklahoma-city-73056": {"city": "Oklahoma City", "rent": 1030, "zip": "73056"}, "oklahoma-city-73057": {"city": "Oklahoma City", "rent": 970, "zip": "73057"}, "oklahoma-city-73058": {"city": "Oklahoma City", "rent": 1010, "zip": "73058"}, "oklahoma-city-73059": {"city": "Oklahoma City", "rent": 1060, "zip": "73059"}, "oklahoma-city-73063": {"city": "Oklahoma City", "rent": 940, "zip": "73063"}, "oklahoma-city-73064": {"city": "Oklahoma City", "rent": 1460, "zip": "73064"}, "oklahoma-city-73065": {"city": "Oklahoma City", "rent": 1100, "zip": "73065"}, "oklahoma-city-73066": {"city": "Oklahoma City", "rent": 1400, "zip": "73066"}, "oklahoma-city-73068": {"city": "Oklahoma City", "rent": 1260, "zip": "73068"}, "oklahoma-city-73069": {"city": "Oklahoma City", "rent": 1210, "zip": "73069"}, "oklahoma-city-73070": {"city": "Oklahoma City", "rent": 1290, "zip": "73070"}, "oklahoma-city-73071": {"city": "Oklahoma City", "rent": 1290, "zip": "73071"}, "oklahoma-city-73072": {"city": "Oklahoma City", "rent": 1320, "zip": "73072"}, "oklahoma-city-73073": {"city": "Oklahoma City", "rent": 990, "zip": "73073"}, "oklahoma-city-73074": {"city": "Oklahoma City", "rent": 960, "zip": "73074"}, "oklahoma-city-73078": {"city": "Oklahoma City", "rent": 1870, "zip": "73078"}, "oklahoma-city-73080": {"city": "Oklahoma City", "rent": 1040, "zip": "73080"}, "oklahoma-city-73083": {"city": "Oklahoma City", "rent": 1220, "zip": "73083"}, "oklahoma-city-73084": {"city": "Oklahoma City", "rent": 1300, "zip": "73084"}, "oklahoma-city-73085": {"city": "Oklahoma City", "rent": 1380, "zip": "73085"}, "oklahoma-city-73090": {"city": "Oklahoma City", "rent": 1030, "zip": "73090"}, "oklahoma-city-73093": {"city": "Oklahoma City", "rent": 1350, "zip": "73093"}, "oklahoma-city-73095": {"city": "Oklahoma City", "rent": 1010, "zip": "73095"}, "oklahoma-city-73097": {"city": "Oklahoma City", "rent": 1620, "zip": "73097"}, "oklahoma-city-73099": {"city": "Oklahoma City", "rent": 1450, "zip": "73099"}, "oklahoma-city-73101": {"city": "Oklahoma City", "rent": 1220, "zip": "73101"}, "oklahoma-city-73102": {"city": "Oklahoma City", "rent": 1510, "zip": "73102"}, "oklahoma-city-73103": {"city": "Oklahoma City", "rent": 1390, "zip": "73103"}, "oklahoma-city-73104": {"city": "Oklahoma City", "rent": 1710, "zip": "73104"}, "oklahoma-city-73105": {"city": "Oklahoma City", "rent": 1270, "zip": "73105"}, "oklahoma-city-73106": {"city": "Oklahoma City", "rent": 1180, "zip": "73106"}, "oklahoma-city-73107": {"city": "Oklahoma City", "rent": 1160, "zip": "73107"}, "oklahoma-city-73108": {"city": "Oklahoma City", "rent": 1030, "zip": "73108"}, "oklahoma-city-73109": {"city": "Oklahoma City", "rent": 990, "zip": "73109"}, "oklahoma-city-73110": {"city": "Oklahoma City", "rent": 1170, "zip": "73110"}, "oklahoma-city-73111": {"city": "Oklahoma City", "rent": 1100, "zip": "73111"}, "oklahoma-city-73112": {"city": "Oklahoma City", "rent": 1290, "zip": "73112"}, "oklahoma-city-73113": {"city": "Oklahoma City", "rent": 1220, "zip": "73113"}, "oklahoma-city-73114": {"city": "Oklahoma City", "rent": 1290, "zip": "73114"}, "oklahoma-city-73115": {"city": "Oklahoma City", "rent": 1120, "zip": "73115"}, "oklahoma-city-73116": {"city": "Oklahoma City", "rent": 1310, "zip": "73116"}, "oklahoma-city-73117": {"city": "Oklahoma City", "rent": 1120, "zip": "73117"}, "oklahoma-city-73118": {"city": "Oklahoma City", "rent": 1210, "zip": "73118"}, "oklahoma-city-73119": {"city": "Oklahoma City", "rent": 1080, "zip": "73119"}, "oklahoma-city-73120": {"city": "Oklahoma City", "rent": 1290, "zip": "73120"}, "oklahoma-city-73121": {"city": "Oklahoma City", "rent": 1080, "zip": "73121"}, "oklahoma-city-73122": {"city": "Oklahoma City", "rent": 1110, "zip": "73122"}, "oklahoma-city-73123": {"city": "Oklahoma City", "rent": 1220, "zip": "73123"}, "oklahoma-city-73127": {"city": "Oklahoma City", "rent": 1100, "zip": "73127"}, "oklahoma-city-73128": {"city": "Oklahoma City", "rent": 1600, "zip": "73128"}, "oklahoma-city-73129": {"city": "Oklahoma City", "rent": 1050, "zip": "73129"}, "oklahoma-city-73130": {"city": "Oklahoma City", "rent": 1330, "zip": "73130"}, "oklahoma-city-73131": {"city": "Oklahoma City", "rent": 1870, "zip": "73131"}, "oklahoma-city-73132": {"city": "Oklahoma City", "rent": 1150, "zip": "73132"}, "oklahoma-city-73134": {"city": "Oklahoma City", "rent": 1370, "zip": "73134"}, "oklahoma-city-73135": {"city": "Oklahoma City", "rent": 1360, "zip": "73135"}, "oklahoma-city-73136": {"city": "Oklahoma City", "rent": 1220, "zip": "73136"}, "oklahoma-city-73137": {"city": "Oklahoma City", "rent": 1220, "zip": "73137"}, "oklahoma-city-73139": {"city": "Oklahoma City", "rent": 1070, "zip": "73139"}, "oklahoma-city-73140": {"city": "Oklahoma City", "rent": 1220, "zip": "73140"}, "oklahoma-city-73141": {"city": "Oklahoma City", "rent": 1040, "zip": "73141"}, "oklahoma-city-73142": {"city": "Oklahoma City", "rent": 1350, "zip": "73142"}, "oklahoma-city-73143": {"city": "Oklahoma City", "rent": 1220, "zip": "73143"}, "oklahoma-city-73144": {"city": "Oklahoma City", "rent": 1220, "zip": "73144"}, "oklahoma-city-73145": {"city": "Oklahoma City", "rent": 1850, "zip": "73145"}, "oklahoma-city-73146": {"city": "Oklahoma City", "rent": 1220, "zip": "73146"}, "oklahoma-city-73147": {"city": "Oklahoma City", "rent": 1220, "zip": "73147"}, "oklahoma-city-73148": {"city": "Oklahoma City", "rent": 1220, "zip": "73148"}, "oklahoma-city-73149": {"city": "Oklahoma City", "rent": 1130, "zip": "73149"}, "oklahoma-city-73150": {"city": "Oklahoma City", "rent": 950, "zip": "73150"}, "oklahoma-city-73151": {"city": "Oklahoma City", "rent": 1320, "zip": "73151"}, "oklahoma-city-73152": {"city": "Oklahoma City", "rent": 1220, "zip": "73152"}, "oklahoma-city-73153": {"city": "Oklahoma City", "rent": 1290, "zip": "73153"}, "oklahoma-city-73154": {"city": "Oklahoma City", "rent": 1220, "zip": "73154"}, "oklahoma-city-73155": {"city": "Oklahoma City", "rent": 1220, "zip": "73155"}, "oklahoma-city-73156": {"city": "Oklahoma City", "rent": 1220, "zip": "73156"}, "oklahoma-city-73157": {"city": "Oklahoma City", "rent": 1220, "zip": "73157"}, "oklahoma-city-73159": {"city": "Oklahoma City", "rent": 1260, "zip": "73159"}, "oklahoma-city-73160": {"city": "Oklahoma City", "rent": 1340, "zip": "73160"}, "oklahoma-city-73162": {"city": "Oklahoma City", "rent": 1300, "zip": "73162"}, "oklahoma-city-73165": {"city": "Oklahoma City", "rent": 1220, "zip": "73165"}, "oklahoma-city-73169": {"city": "Oklahoma City", "rent": 1380, "zip": "73169"}, "oklahoma-city-73170": {"city": "Oklahoma City", "rent": 1640, "zip": "73170"}, "oklahoma-city-73172": {"city": "Oklahoma City", "rent": 1220, "zip": "73172"}, "oklahoma-city-73173": {"city": "Oklahoma City", "rent": 1340, "zip": "73173"}, "oklahoma-city-73179": {"city": "Oklahoma City", "rent": 1870, "zip": "73179"}, "oklahoma-city-73184": {"city": "Oklahoma City", "rent": 1220, "zip": "73184"}, "oklahoma-city-73189": {"city": "Oklahoma City", "rent": 1290, "zip": "73189"}, "oklahoma-city-73190": {"city": "Oklahoma City", "rent": 1220, "zip": "73190"}, "oklahoma-city-73194": {"city": "Oklahoma City", "rent": 1220, "zip": "73194"}, "oklahoma-city-73195": {"city": "Oklahoma City", "rent": 1220, "zip": "73195"}, "oklahoma-city-73742": {"city": "Oklahoma City", "rent": 1020, "zip": "73742"}, "oklahoma-city-73762": {"city": "Oklahoma City", "rent": 1060, "zip": "73762"}, "oklahoma-city-74059": {"city": "Oklahoma City", "rent": 990, "zip": "74059"}, "oklahoma-city-74831": {"city": "Oklahoma City", "rent": 990, "zip": "74831"}, "oklahoma-city-74851": {"city": "Oklahoma City", "rent": 940, "zip": "74851"}, "oklahoma-city-74852": {"city": "Oklahoma City", "rent": 940, "zip": "74852"}, "oklahoma-city-74857": {"city": "Oklahoma City", "rent": 1410, "zip": "74857"}, "oklahoma-city-74872": {"city": "Oklahoma City", "rent": 940, "zip": "74872"}, "oklahoma-city-74878": {"city": "Oklahoma City", "rent": 980, "zip": "74878"}, "oklahoma-city-74881": {"city": "Oklahoma City", "rent": 940, "zip": "74881"}, "grady-county-73002": {"city": "Grady County", "rent": 940, "zip": "73002"}, "grady-county-73004": {"city": "Grady County", "rent": 1250, "zip": "73004"}, "grady-county-73010": {"city": "Grady County", "rent": 1190, "zip": "73010"}, "grady-county-73011": {"city": "Grady County", "rent": 990, "zip": "73011"}, "grady-county-73017": {"city": "Grady County", "rent": 940, "zip": "73017"}, "grady-county-73018": {"city": "Grady County", "rent": 1030, "zip": "73018"}, "grady-county-73023": {"city": "Grady County", "rent": 1000, "zip": "73023"}, "grady-county-73047": {"city": "Grady County", "rent": 1100, "zip": "73047"}, "grady-county-73052": {"city": "Grady County", "rent": 1030, "zip": "73052"}, "grady-county-73055": {"city": "Grady County", "rent": 940, "zip": "73055"}, "grady-county-73059": {"city": "Grady County", "rent": 1060, "zip": "73059"}, "grady-county-73065": {"city": "Grady County", "rent": 1100, "zip": "73065"}, "grady-county-73067": {"city": "Grady County", "rent": 1110, "zip": "73067"}, "grady-county-73079": {"city": "Grady County", "rent": 1120, "zip": "73079"}, "grady-county-73082": {"city": "Grady County", "rent": 940, "zip": "73082"}, "grady-county-73089": {"city": "Grady County", "rent": 1060, "zip": "73089"}, "grady-county-73092": {"city": "Grady County", "rent": 940, "zip": "73092"}, "lincoln-county-73045": {"city": "Lincoln County", "rent": 1150, "zip": "73045"}, "lincoln-county-73054": {"city": "Lincoln County", "rent": 1050, "zip": "73054"}, "lincoln-county-74023": {"city": "Lincoln County", "rent": 940, "zip": "74023"}, "lincoln-county-74026": {"city": "Lincoln County", "rent": 1040, "zip": "74026"}, "lincoln-county-74028": {"city": "Lincoln County", "rent": 940, "zip": "74028"}, "lincoln-county-74059": {"city": "Lincoln County", "rent": 990, "zip": "74059"}, "lincoln-county-74079": {"city": "Lincoln County", "rent": 940, "zip": "74079"}, "lincoln-county-74824": {"city": "Lincoln County", "rent": 1010, "zip": "74824"}, "lincoln-county-74832": {"city": "Lincoln County", "rent": 1060, "zip": "74832"}, "lincoln-county-74834": {"city": "Lincoln County", "rent": 970, "zip": "74834"}, "lincoln-county-74851": {"city": "Lincoln County", "rent": 940, "zip": "74851"}, "lincoln-county-74855": {"city": "Lincoln County", "rent": 1130, "zip": "74855"}, "lincoln-county-74860": {"city": "Lincoln County", "rent": 950, "zip": "74860"}, "lincoln-county-74864": {"city": "Lincoln County", "rent": 940, "zip": "74864"}, "lincoln-county-74869": {"city": "Lincoln County", "rent": 940, "zip": "74869"}, "lincoln-county-74875": {"city": "Lincoln County", "rent": 940, "zip": "74875"}, "lincoln-county-74881": {"city": "Lincoln County", "rent": 940, "zip": "74881"}, "tulsa-74001": {"city": "Tulsa", "rent": 1110, "zip": "74001"}, "tulsa-74002": {"city": "Tulsa", "rent": 940, "zip": "74002"}, "tulsa-74003": {"city": "Tulsa", "rent": 940, "zip": "74003"}, "tulsa-74008": {"city": "Tulsa", "rent": 1460, "zip": "74008"}, "tulsa-74010": {"city": "Tulsa", "rent": 1000, "zip": "74010"}, "tulsa-74011": {"city": "Tulsa", "rent": 1560, "zip": "74011"}, "tulsa-74012": {"city": "Tulsa", "rent": 1420, "zip": "74012"}, "tulsa-74013": {"city": "Tulsa", "rent": 1230, "zip": "74013"}, "tulsa-74014": {"city": "Tulsa", "rent": 1620, "zip": "74014"}, "tulsa-74015": {"city": "Tulsa", "rent": 1260, "zip": "74015"}, "tulsa-74016": {"city": "Tulsa", "rent": 940, "zip": "74016"}, "tulsa-74017": {"city": "Tulsa", "rent": 1240, "zip": "74017"}, "tulsa-74018": {"city": "Tulsa", "rent": 1210, "zip": "74018"}, "tulsa-74019": {"city": "Tulsa", "rent": 1130, "zip": "74019"}, "tulsa-74021": {"city": "Tulsa", "rent": 1390, "zip": "74021"}, "tulsa-74022": {"city": "Tulsa", "rent": 940, "zip": "74022"}, "tulsa-74023": {"city": "Tulsa", "rent": 940, "zip": "74023"}, "tulsa-74028": {"city": "Tulsa", "rent": 940, "zip": "74028"}, "tulsa-74030": {"city": "Tulsa", "rent": 940, "zip": "74030"}, "tulsa-74031": {"city": "Tulsa", "rent": 1210, "zip": "74031"}, "tulsa-74033": {"city": "Tulsa", "rent": 1470, "zip": "74033"}, "tulsa-74035": {"city": "Tulsa", "rent": 940, "zip": "74035"}, "tulsa-74036": {"city": "Tulsa", "rent": 1090, "zip": "74036"}, "tulsa-74037": {"city": "Tulsa", "rent": 1720, "zip": "74037"}, "tulsa-74038": {"city": "Tulsa", "rent": 1170, "zip": "74038"}, "tulsa-74039": {"city": "Tulsa", "rent": 1100, "zip": "74039"}, "tulsa-74041": {"city": "Tulsa", "rent": 1280, "zip": "74041"}, "tulsa-74043": {"city": "Tulsa", "rent": 1230, "zip": "74043"}, "tulsa-74044": {"city": "Tulsa", "rent": 1080, "zip": "74044"}, "tulsa-74046": {"city": "Tulsa", "rent": 940, "zip": "74046"}, "tulsa-74047": {"city": "Tulsa", "rent": 1060, "zip": "74047"}, "tulsa-74048": {"city": "Tulsa", "rent": 940, "zip": "74048"}, "tulsa-74050": {"city": "Tulsa", "rent": 940, "zip": "74050"}, "tulsa-74051": {"city": "Tulsa", "rent": 940, "zip": "74051"}, "tulsa-74052": {"city": "Tulsa", "rent": 940, "zip": "74052"}, "tulsa-74053": {"city": "Tulsa", "rent": 1130, "zip": "74053"}, "tulsa-74054": {"city": "Tulsa", "rent": 960, "zip": "74054"}, "tulsa-74055": {"city": "Tulsa", "rent": 1390, "zip": "74055"}, "tulsa-74056": {"city": "Tulsa", "rent": 940, "zip": "74056"}, "tulsa-74060": {"city": "Tulsa", "rent": 940, "zip": "74060"}, "tulsa-74061": {"city": "Tulsa", "rent": 990, "zip": "74061"}, "tulsa-74063": {"city": "Tulsa", "rent": 1180, "zip": "74063"}, "tulsa-74066": {"city": "Tulsa", "rent": 1190, "zip": "74066"}, "tulsa-74067": {"city": "Tulsa", "rent": 1110, "zip": "74067"}, "tulsa-74068": {"city": "Tulsa", "rent": 940, "zip": "74068"}, "tulsa-74070": {"city": "Tulsa", "rent": 1110, "zip": "74070"}, "tulsa-74071": {"city": "Tulsa", "rent": 1000, "zip": "74071"}, "tulsa-74073": {"city": "Tulsa", "rent": 1150, "zip": "74073"}, "tulsa-74079": {"city": "Tulsa", "rent": 940, "zip": "74079"}, "tulsa-74080": {"city": "Tulsa", "rent": 1080, "zip": "74080"}, "tulsa-74081": {"city": "Tulsa", "rent": 1360, "zip": "74081"}, "tulsa-74084": {"city": "Tulsa", "rent": 940, "zip": "74084"}, "tulsa-74085": {"city": "Tulsa", "rent": 950, "zip": "74085"}, "tulsa-74101": {"city": "Tulsa", "rent": 1230, "zip": "74101"}, "tulsa-74103": {"city": "Tulsa", "rent": 1680, "zip": "74103"}, "tulsa-74104": {"city": "Tulsa", "rent": 1440, "zip": "74104"}, "tulsa-74105": {"city": "Tulsa", "rent": 1280, "zip": "74105"}, "tulsa-74106": {"city": "Tulsa", "rent": 1080, "zip": "74106"}, "tulsa-74107": {"city": "Tulsa", "rent": 1210, "zip": "74107"}, "tulsa-74108": {"city": "Tulsa", "rent": 1280, "zip": "74108"}, "tulsa-74110": {"city": "Tulsa", "rent": 1060, "zip": "74110"}, "tulsa-74112": {"city": "Tulsa", "rent": 1270, "zip": "74112"}, "tulsa-74114": {"city": "Tulsa", "rent": 1490, "zip": "74114"}, "tulsa-74115": {"city": "Tulsa", "rent": 1090, "zip": "74115"}, "tulsa-74116": {"city": "Tulsa", "rent": 960, "zip": "74116"}, "tulsa-74117": {"city": "Tulsa", "rent": 1190, "zip": "74117"}, "tulsa-74119": {"city": "Tulsa", "rent": 1280, "zip": "74119"}, "tulsa-74120": {"city": "Tulsa", "rent": 1190, "zip": "74120"}, "tulsa-74126": {"city": "Tulsa", "rent": 1000, "zip": "74126"}, "tulsa-74127": {"city": "Tulsa", "rent": 1180, "zip": "74127"}, "tulsa-74128": {"city": "Tulsa", "rent": 1220, "zip": "74128"}, "tulsa-74129": {"city": "Tulsa", "rent": 1080, "zip": "74129"}, "tulsa-74130": {"city": "Tulsa", "rent": 1270, "zip": "74130"}, "tulsa-74131": {"city": "Tulsa", "rent": 1230, "zip": "74131"}, "tulsa-74132": {"city": "Tulsa", "rent": 1310, "zip": "74132"}, "tulsa-74133": {"city": "Tulsa", "rent": 1500, "zip": "74133"}, "tulsa-74134": {"city": "Tulsa", "rent": 1150, "zip": "74134"}, "tulsa-74135": {"city": "Tulsa", "rent": 1230, "zip": "74135"}, "tulsa-74136": {"city": "Tulsa", "rent": 1250, "zip": "74136"}, "tulsa-74137": {"city": "Tulsa", "rent": 1400, "zip": "74137"}, "tulsa-74141": {"city": "Tulsa", "rent": 1230, "zip": "74141"}, "tulsa-74145": {"city": "Tulsa", "rent": 1220, "zip": "74145"}, "tulsa-74146": {"city": "Tulsa", "rent": 1170, "zip": "74146"}, "tulsa-74147": {"city": "Tulsa", "rent": 1230, "zip": "74147"}, "tulsa-74148": {"city": "Tulsa", "rent": 1230, "zip": "74148"}, "tulsa-74149": {"city": "Tulsa", "rent": 1230, "zip": "74149"}, "tulsa-74150": {"city": "Tulsa", "rent": 1230, "zip": "74150"}, "tulsa-74152": {"city": "Tulsa", "rent": 1230, "zip": "74152"}, "tulsa-74153": {"city": "Tulsa", "rent": 1230, "zip": "74153"}, "tulsa-74155": {"city": "Tulsa", "rent": 1230, "zip": "74155"}, "tulsa-74156": {"city": "Tulsa", "rent": 1230, "zip": "74156"}, "tulsa-74157": {"city": "Tulsa", "rent": 1230, "zip": "74157"}, "tulsa-74158": {"city": "Tulsa", "rent": 1230, "zip": "74158"}, "tulsa-74159": {"city": "Tulsa", "rent": 1230, "zip": "74159"}, "tulsa-74169": {"city": "Tulsa", "rent": 1230, "zip": "74169"}, "tulsa-74170": {"city": "Tulsa", "rent": 1230, "zip": "74170"}, "tulsa-74171": {"city": "Tulsa", "rent": 1290, "zip": "74171"}, "tulsa-74172": {"city": "Tulsa", "rent": 1230, "zip": "74172"}, "tulsa-74182": {"city": "Tulsa", "rent": 1230, "zip": "74182"}, "tulsa-74186": {"city": "Tulsa", "rent": 1230, "zip": "74186"}, "tulsa-74187": {"city": "Tulsa", "rent": 1230, "zip": "74187"}, "tulsa-74192": {"city": "Tulsa", "rent": 1230, "zip": "74192"}, "tulsa-74332": {"city": "Tulsa", "rent": 1100, "zip": "74332"}, "tulsa-74337": {"city": "Tulsa", "rent": 940, "zip": "74337"}, "tulsa-74352": {"city": "Tulsa", "rent": 940, "zip": "74352"}, "tulsa-74361": {"city": "Tulsa", "rent": 990, "zip": "74361"}, "tulsa-74403": {"city": "Tulsa", "rent": 1010, "zip": "74403"}, "tulsa-74421": {"city": "Tulsa", "rent": 1100, "zip": "74421"}, "tulsa-74429": {"city": "Tulsa", "rent": 1150, "zip": "74429"}, "tulsa-74434": {"city": "Tulsa", "rent": 940, "zip": "74434"}, "tulsa-74436": {"city": "Tulsa", "rent": 1000, "zip": "74436"}, "tulsa-74441": {"city": "Tulsa", "rent": 1010, "zip": "74441"}, "tulsa-74446": {"city": "Tulsa", "rent": 990, "zip": "74446"}, "tulsa-74454": {"city": "Tulsa", "rent": 940, "zip": "74454"}, "tulsa-74458": {"city": "Tulsa", "rent": 1010, "zip": "74458"}, "tulsa-74467": {"city": "Tulsa", "rent": 1020, "zip": "74467"}, "tulsa-74477": {"city": "Tulsa", "rent": 1020, "zip": "74477"}, "tulsa-74604": {"city": "Tulsa", "rent": 940, "zip": "74604"}, "tulsa-74633": {"city": "Tulsa", "rent": 940, "zip": "74633"}, "tulsa-74637": {"city": "Tulsa", "rent": 940, "zip": "74637"}, "tulsa-74650": {"city": "Tulsa", "rent": 950, "zip": "74650"}, "tulsa-74652": {"city": "Tulsa", "rent": 970, "zip": "74652"}, "okmulgee-county-74047": {"city": "Okmulgee County", "rent": 1060, "zip": "74047"}, "okmulgee-county-74421": {"city": "Okmulgee County", "rent": 1100, "zip": "74421"}, "okmulgee-county-74422": {"city": "Okmulgee County", "rent": 1420, "zip": "74422"}, "okmulgee-county-74428": {"city": "Okmulgee County", "rent": 1030, "zip": "74428"}, "okmulgee-county-74431": {"city": "Okmulgee County", "rent": 940, "zip": "74431"}, "okmulgee-county-74436": {"city": "Okmulgee County", "rent": 1000, "zip": "74436"}, "okmulgee-county-74437": {"city": "Okmulgee County", "rent": 940, "zip": "74437"}, "okmulgee-county-74445": {"city": "Okmulgee County", "rent": 960, "zip": "74445"}, "okmulgee-county-74447": {"city": "Okmulgee County", "rent": 940, "zip": "74447"}, "okmulgee-county-74456": {"city": "Okmulgee County", "rent": 990, "zip": "74456"}, "okmulgee-county-74460": {"city": "Okmulgee County", "rent": 940, "zip": "74460"}, "okmulgee-county-74859": {"city": "Okmulgee County", "rent": 940, "zip": "74859"}, "okmulgee-county-74880": {"city": "Okmulgee County", "rent": 940, "zip": "74880"}, "pawnee-county-73061": {"city": "Pawnee County", "rent": 1290, "zip": "73061"}, "pawnee-county-74020": {"city": "Pawnee County", "rent": 1020, "zip": "74020"}, "pawnee-county-74032": {"city": "Pawnee County", "rent": 940, "zip": "74032"}, "pawnee-county-74034": {"city": "Pawnee County", "rent": 1150, "zip": "74034"}, "pawnee-county-74038": {"city": "Pawnee County", "rent": 1170, "zip": "74038"}, "pawnee-county-74044": {"city": "Pawnee County", "rent": 1080, "zip": "74044"}, "pawnee-county-74045": {"city": "Pawnee County", "rent": 990, "zip": "74045"}, "pawnee-county-74058": {"city": "Pawnee County", "rent": 940, "zip": "74058"}, "pawnee-county-74081": {"city": "Pawnee County", "rent": 1360, "zip": "74081"}, "pawnee-county-74085": {"city": "Pawnee County", "rent": 950, "zip": "74085"}, "pawnee-county-74644": {"city": "Pawnee County", "rent": 940, "zip": "74644"}, "pawnee-county-74650": {"city": "Pawnee County", "rent": 950, "zip": "74650"}, "pawnee-county-74651": {"city": "Pawnee County", "rent": 940, "zip": "74651"}, "adair-county-74338": {"city": "Adair County", "rent": 940, "zip": "74338"}, "adair-county-74347": {"city": "Adair County", "rent": 940, "zip": "74347"}, "adair-county-74457": {"city": "Adair County", "rent": 990, "zip": "74457"}, "adair-county-74931": {"city": "Adair County", "rent": 1070, "zip": "74931"}, "adair-county-74948": {"city": "Adair County", "rent": 940, "zip": "74948"}, "adair-county-74960": {"city": "Adair County", "rent": 950, "zip": "74960"}, "adair-county-74964": {"city": "Adair County", "rent": 1160, "zip": "74964"}, "adair-county-74965": {"city": "Adair County", "rent": 940, "zip": "74965"}, "alfalfa-county-73716": {"city": "Alfalfa County", "rent": 1050, "zip": "73716"}, "alfalfa-county-73717": {"city": "Alfalfa County", "rent": 970, "zip": "73717"}, "alfalfa-county-73719": {"city": "Alfalfa County", "rent": 940, "zip": "73719"}, "alfalfa-county-73722": {"city": "Alfalfa County", "rent": 980, "zip": "73722"}, "alfalfa-county-73726": {"city": "Alfalfa County", "rent": 940, "zip": "73726"}, "alfalfa-county-73728": {"city": "Alfalfa County", "rent": 1020, "zip": "73728"}, "alfalfa-county-73739": {"city": "Alfalfa County", "rent": 950, "zip": "73739"}, "alfalfa-county-73741": {"city": "Alfalfa County", "rent": 1020, "zip": "73741"}, "alfalfa-county-73749": {"city": "Alfalfa County", "rent": 950, "zip": "73749"}, "alfalfa-county-73758": {"city": "Alfalfa County", "rent": 960, "zip": "73758"}, "alfalfa-county-73760": {"city": "Alfalfa County", "rent": 940, "zip": "73760"}, "atoka-county-73432": {"city": "Atoka County", "rent": 950, "zip": "73432"}, "atoka-county-73461": {"city": "Atoka County", "rent": 940, "zip": "73461"}, "atoka-county-74523": {"city": "Atoka County", "rent": 940, "zip": "74523"}, "atoka-county-74525": {"city": "Atoka County", "rent": 940, "zip": "74525"}, "atoka-county-74533": {"city": "Atoka County", "rent": 1010, "zip": "74533"}, "atoka-county-74538": {"city": "Atoka County", "rent": 940, "zip": "74538"}, "atoka-county-74540": {"city": "Atoka County", "rent": 980, "zip": "74540"}, "atoka-county-74553": {"city": "Atoka County", "rent": 940, "zip": "74553"}, "atoka-county-74555": {"city": "Atoka County", "rent": 970, "zip": "74555"}, "atoka-county-74560": {"city": "Atoka County", "rent": 940, "zip": "74560"}, "atoka-county-74569": {"city": "Atoka County", "rent": 950, "zip": "74569"}, "atoka-county-74576": {"city": "Atoka County", "rent": 940, "zip": "74576"}, "atoka-county-74727": {"city": "Atoka County", "rent": 940, "zip": "74727"}, "atoka-county-74729": {"city": "Atoka County", "rent": 990, "zip": "74729"}, "atoka-county-74748": {"city": "Atoka County", "rent": 940, "zip": "74748"}, "beaver-county-73843": {"city": "Beaver County", "rent": 970, "zip": "73843"}, "beaver-county-73844": {"city": "Beaver County", "rent": 960, "zip": "73844"}, "beaver-county-73848": {"city": "Beaver County", "rent": 960, "zip": "73848"}, "beaver-county-73931": {"city": "Beaver County", "rent": 1100, "zip": "73931"}, "beaver-county-73932": {"city": "Beaver County", "rent": 940, "zip": "73932"}, "beaver-county-73938": {"city": "Beaver County", "rent": 1130, "zip": "73938"}, "beaver-county-73950": {"city": "Beaver County", "rent": 1050, "zip": "73950"}, "beckham-county-73627": {"city": "Beckham County", "rent": 1040, "zip": "73627"}, "beckham-county-73644": {"city": "Beckham County", "rent": 1070, "zip": "73644"}, "beckham-county-73645": {"city": "Beckham County", "rent": 970, "zip": "73645"}, "beckham-county-73662": {"city": "Beckham County", "rent": 1030, "zip": "73662"}, "beckham-county-73664": {"city": "Beckham County", "rent": 940, "zip": "73664"}, "beckham-county-73666": {"city": "Beckham County", "rent": 990, "zip": "73666"}, "beckham-county-73668": {"city": "Beckham County", "rent": 980, "zip": "73668"}, "beckham-county-73673": {"city": "Beckham County", "rent": 1010, "zip": "73673"}, "blaine-county-73040": {"city": "Blaine County", "rent": 1020, "zip": "73040"}, "blaine-county-73043": {"city": "Blaine County", "rent": 990, "zip": "73043"}, "blaine-county-73047": {"city": "Blaine County", "rent": 1100, "zip": "73047"}, "blaine-county-73048": {"city": "Blaine County", "rent": 1000, "zip": "73048"}, "blaine-county-73096": {"city": "Blaine County", "rent": 940, "zip": "73096"}, "blaine-county-73646": {"city": "Blaine County", "rent": 960, "zip": "73646"}, "blaine-county-73658": {"city": "Blaine County", "rent": 950, "zip": "73658"}, "blaine-county-73669": {"city": "Blaine County", "rent": 940, "zip": "73669"}, "blaine-county-73724": {"city": "Blaine County", "rent": 940, "zip": "73724"}, "blaine-county-73744": {"city": "Blaine County", "rent": 990, "zip": "73744"}, "blaine-county-73747": {"city": "Blaine County", "rent": 1030, "zip": "73747"}, "blaine-county-73755": {"city": "Blaine County", "rent": 970, "zip": "73755"}, "blaine-county-73763": {"city": "Blaine County", "rent": 1040, "zip": "73763"}, "blaine-county-73764": {"city": "Blaine County", "rent": 940, "zip": "73764"}, "blaine-county-73770": {"city": "Blaine County", "rent": 990, "zip": "73770"}, "blaine-county-73772": {"city": "Blaine County", "rent": 970, "zip": "73772"}, "bryan-county-73449": {"city": "Bryan County", "rent": 960, "zip": "73449"}, "bryan-county-74701": {"city": "Bryan County", "rent": 1040, "zip": "74701"}, "bryan-county-74702": {"city": "Bryan County", "rent": 1000, "zip": "74702"}, "bryan-county-74720": {"city": "Bryan County", "rent": 940, "zip": "74720"}, "bryan-county-74721": {"city": "Bryan County", "rent": 1000, "zip": "74721"}, "bryan-county-74723": {"city": "Bryan County", "rent": 940, "zip": "74723"}, "bryan-county-74726": {"city": "Bryan County", "rent": 940, "zip": "74726"}, "bryan-county-74727": {"city": "Bryan County", "rent": 940, "zip": "74727"}, "bryan-county-74729": {"city": "Bryan County", "rent": 990, "zip": "74729"}, "bryan-county-74730": {"city": "Bryan County", "rent": 1050, "zip": "74730"}, "bryan-county-74731": {"city": "Bryan County", "rent": 1030, "zip": "74731"}, "bryan-county-74733": {"city": "Bryan County", "rent": 940, "zip": "74733"}, "bryan-county-74741": {"city": "Bryan County", "rent": 960, "zip": "74741"}, "bryan-county-74747": {"city": "Bryan County", "rent": 940, "zip": "74747"}, "bryan-county-74748": {"city": "Bryan County", "rent": 940, "zip": "74748"}, "bryan-county-74753": {"city": "Bryan County", "rent": 1050, "zip": "74753"}, "caddo-county-73001": {"city": "Caddo County", "rent": 940, "zip": "73001"}, "caddo-county-73005": {"city": "Caddo County", "rent": 940, "zip": "73005"}, "caddo-county-73006": {"city": "Caddo County", "rent": 940, "zip": "73006"}, "caddo-county-73009": {"city": "Caddo County", "rent": 940, "zip": "73009"}, "caddo-county-73015": {"city": "Caddo County", "rent": 940, "zip": "73015"}, "caddo-county-73017": {"city": "Caddo County", "rent": 940, "zip": "73017"}, "caddo-county-73021": {"city": "Caddo County", "rent": 940, "zip": "73021"}, "caddo-county-73029": {"city": "Caddo County", "rent": 970, "zip": "73029"}, "caddo-county-73033": {"city": "Caddo County", "rent": 960, "zip": "73033"}, "caddo-county-73038": {"city": "Caddo County", "rent": 940, "zip": "73038"}, "caddo-county-73042": {"city": "Caddo County", "rent": 940, "zip": "73042"}, "caddo-county-73047": {"city": "Caddo County", "rent": 1100, "zip": "73047"}, "caddo-county-73048": {"city": "Caddo County", "rent": 1000, "zip": "73048"}, "caddo-county-73053": {"city": "Caddo County", "rent": 940, "zip": "73053"}, "caddo-county-73059": {"city": "Caddo County", "rent": 1060, "zip": "73059"}, "caddo-county-73079": {"city": "Caddo County", "rent": 1120, "zip": "73079"}, "caddo-county-73092": {"city": "Caddo County", "rent": 940, "zip": "73092"}, "carter-county-73030": {"city": "Carter County", "rent": 950, "zip": "73030"}, "carter-county-73401": {"city": "Carter County", "rent": 1100, "zip": "73401"}, "carter-county-73402": {"city": "Carter County", "rent": 1050, "zip": "73402"}, "carter-county-73403": {"city": "Carter County", "rent": 1050, "zip": "73403"}, "carter-county-73425": {"city": "Carter County", "rent": 940, "zip": "73425"}, "carter-county-73433": {"city": "Carter County", "rent": 980, "zip": "73433"}, "carter-county-73435": {"city": "Carter County", "rent": 940, "zip": "73435"}, "carter-county-73436": {"city": "Carter County", "rent": 940, "zip": "73436"}, "carter-county-73437": {"city": "Carter County", "rent": 1010, "zip": "73437"}, "carter-county-73438": {"city": "Carter County", "rent": 940, "zip": "73438"}, "carter-county-73443": {"city": "Carter County", "rent": 1080, "zip": "73443"}, "carter-county-73444": {"city": "Carter County", "rent": 990, "zip": "73444"}, "carter-county-73446": {"city": "Carter County", "rent": 940, "zip": "73446"}, "carter-county-73453": {"city": "Carter County", "rent": 1020, "zip": "73453"}, "carter-county-73456": {"city": "Carter County", "rent": 960, "zip": "73456"}, "carter-county-73458": {"city": "Carter County", "rent": 1090, "zip": "73458"}, "carter-county-73463": {"city": "Carter County", "rent": 940, "zip": "73463"}, "carter-county-73481": {"city": "Carter County", "rent": 940, "zip": "73481"}, "carter-county-73487": {"city": "Carter County", "rent": 1000, "zip": "73487"}, "carter-county-73488": {"city": "Carter County", "rent": 940, "zip": "73488"}, "cherokee-county-74347": {"city": "Cherokee County", "rent": 940, "zip": "74347"}, "cherokee-county-74352": {"city": "Cherokee County", "rent": 940, "zip": "74352"}, "cherokee-county-74359": {"city": "Cherokee County", "rent": 940, "zip": "74359"}, "cherokee-county-74364": {"city": "Cherokee County", "rent": 1010, "zip": "74364"}, "cherokee-county-74427": {"city": "Cherokee County", "rent": 940, "zip": "74427"}, "cherokee-county-74434": {"city": "Cherokee County", "rent": 940, "zip": "74434"}, "cherokee-county-74441": {"city": "Cherokee County", "rent": 1010, "zip": "74441"}, "cherokee-county-74444": {"city": "Cherokee County", "rent": 950, "zip": "74444"}, "cherokee-county-74451": {"city": "Cherokee County", "rent": 1090, "zip": "74451"}, "cherokee-county-74452": {"city": "Cherokee County", "rent": 980, "zip": "74452"}, "cherokee-county-74457": {"city": "Cherokee County", "rent": 990, "zip": "74457"}, "cherokee-county-74464": {"city": "Cherokee County", "rent": 970, "zip": "74464"}, "cherokee-county-74465": {"city": "Cherokee County", "rent": 950, "zip": "74465"}, "cherokee-county-74471": {"city": "Cherokee County", "rent": 940, "zip": "74471"}, "cherokee-county-74931": {"city": "Cherokee County", "rent": 1070, "zip": "74931"}, "cherokee-county-74960": {"city": "Cherokee County", "rent": 950, "zip": "74960"}, "cherokee-county-74962": {"city": "Cherokee County", "rent": 940, "zip": "74962"}, "choctaw-county-74523": {"city": "Choctaw County", "rent": 940, "zip": "74523"}, "choctaw-county-74525": {"city": "Choctaw County", "rent": 940, "zip": "74525"}, "choctaw-county-74727": {"city": "Choctaw County", "rent": 940, "zip": "74727"}, "choctaw-county-74735": {"city": "Choctaw County", "rent": 1110, "zip": "74735"}, "choctaw-county-74738": {"city": "Choctaw County", "rent": 960, "zip": "74738"}, "choctaw-county-74743": {"city": "Choctaw County", "rent": 950, "zip": "74743"}, "choctaw-county-74754": {"city": "Choctaw County", "rent": 1020, "zip": "74754"}, "choctaw-county-74755": {"city": "Choctaw County", "rent": 1040, "zip": "74755"}, "choctaw-county-74756": {"city": "Choctaw County", "rent": 1130, "zip": "74756"}, "choctaw-county-74759": {"city": "Choctaw County", "rent": 940, "zip": "74759"}, "choctaw-county-74760": {"city": "Choctaw County", "rent": 950, "zip": "74760"}, "choctaw-county-74761": {"city": "Choctaw County", "rent": 1040, "zip": "74761"}, "choctaw-county-74764": {"city": "Choctaw County", "rent": 960, "zip": "74764"}, "cimarron-county-73933": {"city": "Cimarron County", "rent": 940, "zip": "73933"}, "cimarron-county-73937": {"city": "Cimarron County", "rent": 990, "zip": "73937"}, "cimarron-county-73946": {"city": "Cimarron County", "rent": 960, "zip": "73946"}, "cimarron-county-73947": {"city": "Cimarron County", "rent": 950, "zip": "73947"}, "cimarron-county-73949": {"city": "Cimarron County", "rent": 950, "zip": "73949"}, "coal-county-74525": {"city": "Coal County", "rent": 940, "zip": "74525"}, "coal-county-74530": {"city": "Coal County", "rent": 940, "zip": "74530"}, "coal-county-74534": {"city": "Coal County", "rent": 1080, "zip": "74534"}, "coal-county-74535": {"city": "Coal County", "rent": 940, "zip": "74535"}, "coal-county-74538": {"city": "Coal County", "rent": 940, "zip": "74538"}, "coal-county-74556": {"city": "Coal County", "rent": 940, "zip": "74556"}, "coal-county-74572": {"city": "Coal County", "rent": 1200, "zip": "74572"}, "coal-county-74825": {"city": "Coal County", "rent": 1070, "zip": "74825"}, "coal-county-74871": {"city": "Coal County", "rent": 940, "zip": "74871"}, "craig-county-74016": {"city": "Craig County", "rent": 940, "zip": "74016"}, "craig-county-74072": {"city": "Craig County", "rent": 1040, "zip": "74072"}, "craig-county-74301": {"city": "Craig County", "rent": 990, "zip": "74301"}, "craig-county-74330": {"city": "Craig County", "rent": 960, "zip": "74330"}, "craig-county-74331": {"city": "Craig County", "rent": 1060, "zip": "74331"}, "craig-county-74332": {"city": "Craig County", "rent": 1100, "zip": "74332"}, "craig-county-74333": {"city": "Craig County", "rent": 940, "zip": "74333"}, "craig-county-74349": {"city": "Craig County", "rent": 1020, "zip": "74349"}, "craig-county-74350": {"city": "Craig County", "rent": 940, "zip": "74350"}, "craig-county-74354": {"city": "Craig County", "rent": 1000, "zip": "74354"}, "craig-county-74369": {"city": "Craig County", "rent": 940, "zip": "74369"}, "custer-county-73024": {"city": "Custer County", "rent": 960, "zip": "73024"}, "custer-county-73048": {"city": "Custer County", "rent": 1000, "zip": "73048"}, "custer-county-73096": {"city": "Custer County", "rent": 940, "zip": "73096"}, "custer-county-73601": {"city": "Custer County", "rent": 1040, "zip": "73601"}, "custer-county-73620": {"city": "Custer County", "rent": 1000, "zip": "73620"}, "custer-county-73625": {"city": "Custer County", "rent": 940, "zip": "73625"}, "custer-county-73626": {"city": "Custer County", "rent": 1160, "zip": "73626"}, "custer-county-73639": {"city": "Custer County", "rent": 1340, "zip": "73639"}, "custer-county-73644": {"city": "Custer County", "rent": 1070, "zip": "73644"}, "custer-county-73646": {"city": "Custer County", "rent": 960, "zip": "73646"}, "custer-county-73647": {"city": "Custer County", "rent": 940, "zip": "73647"}, "custer-county-73650": {"city": "Custer County", "rent": 940, "zip": "73650"}, "custer-county-73654": {"city": "Custer County", "rent": 940, "zip": "73654"}, "custer-county-73669": {"city": "Custer County", "rent": 940, "zip": "73669"}, "delaware-county-74301": {"city": "Delaware County", "rent": 990, "zip": "74301"}, "delaware-county-74331": {"city": "Delaware County", "rent": 1060, "zip": "74331"}, "delaware-county-74338": {"city": "Delaware County", "rent": 940, "zip": "74338"}, "delaware-county-74342": {"city": "Delaware County", "rent": 1080, "zip": "74342"}, "delaware-county-74343": {"city": "Delaware County", "rent": 940, "zip": "74343"}, "delaware-county-74344": {"city": "Delaware County", "rent": 980, "zip": "74344"}, "delaware-county-74345": {"city": "Delaware County", "rent": 940, "zip": "74345"}, "delaware-county-74346": {"city": "Delaware County", "rent": 940, "zip": "74346"}, "delaware-county-74347": {"city": "Delaware County", "rent": 940, "zip": "74347"}, "delaware-county-74359": {"city": "Delaware County", "rent": 940, "zip": "74359"}, "delaware-county-74364": {"city": "Delaware County", "rent": 1010, "zip": "74364"}, "delaware-county-74365": {"city": "Delaware County", "rent": 940, "zip": "74365"}, "delaware-county-74366": {"city": "Delaware County", "rent": 940, "zip": "74366"}, "delaware-county-74368": {"city": "Delaware County", "rent": 940, "zip": "74368"}, "delaware-county-74370": {"city": "Delaware County", "rent": 940, "zip": "74370"}, "delaware-county-74964": {"city": "Delaware County", "rent": 1160, "zip": "74964"}, "dewey-county-73646": {"city": "Dewey County", "rent": 960, "zip": "73646"}, "dewey-county-73654": {"city": "Dewey County", "rent": 940, "zip": "73654"}, "dewey-county-73658": {"city": "Dewey County", "rent": 950, "zip": "73658"}, "dewey-county-73659": {"city": "Dewey County", "rent": 1050, "zip": "73659"}, "dewey-county-73663": {"city": "Dewey County", "rent": 1070, "zip": "73663"}, "dewey-county-73667": {"city": "Dewey County", "rent": 940, "zip": "73667"}, "dewey-county-73669": {"city": "Dewey County", "rent": 940, "zip": "73669"}, "dewey-county-73724": {"city": "Dewey County", "rent": 940, "zip": "73724"}, "dewey-county-73755": {"city": "Dewey County", "rent": 970, "zip": "73755"}, "dewey-county-73835": {"city": "Dewey County", "rent": 940, "zip": "73835"}, "dewey-county-73859": {"city": "Dewey County", "rent": 970, "zip": "73859"}, "ellis-county-73832": {"city": "Ellis County", "rent": 940, "zip": "73832"}, "ellis-county-73840": {"city": "Ellis County", "rent": 1270, "zip": "73840"}, "ellis-county-73841": {"city": "Ellis County", "rent": 940, "zip": "73841"}, "ellis-county-73843": {"city": "Ellis County", "rent": 970, "zip": "73843"}, "ellis-county-73851": {"city": "Ellis County", "rent": 990, "zip": "73851"}, "ellis-county-73858": {"city": "Ellis County", "rent": 970, "zip": "73858"}, "ellis-county-73859": {"city": "Ellis County", "rent": 970, "zip": "73859"}, "garvin-county-73011": {"city": "Garvin County", "rent": 990, "zip": "73011"}, "garvin-county-73030": {"city": "Garvin County", "rent": 950, "zip": "73030"}, "garvin-county-73052": {"city": "Garvin County", "rent": 1030, "zip": "73052"}, "garvin-county-73057": {"city": "Garvin County", "rent": 970, "zip": "73057"}, "garvin-county-73074": {"city": "Garvin County", "rent": 960, "zip": "73074"}, "garvin-county-73075": {"city": "Garvin County", "rent": 940, "zip": "73075"}, "garvin-county-73095": {"city": "Garvin County", "rent": 1010, "zip": "73095"}, "garvin-county-73098": {"city": "Garvin County", "rent": 960, "zip": "73098"}, "garvin-county-73433": {"city": "Garvin County", "rent": 980, "zip": "73433"}, "garvin-county-73434": {"city": "Garvin County", "rent": 970, "zip": "73434"}, "garvin-county-73444": {"city": "Garvin County", "rent": 990, "zip": "73444"}, "garvin-county-73481": {"city": "Garvin County", "rent": 940, "zip": "73481"}, "garvin-county-73488": {"city": "Garvin County", "rent": 940, "zip": "73488"}, "garvin-county-74831": {"city": "Garvin County", "rent": 990, "zip": "74831"}, "garvin-county-74865": {"city": "Garvin County", "rent": 940, "zip": "74865"}, "garvin-county-74872": {"city": "Garvin County", "rent": 940, "zip": "74872"}, "grant-county-73703": {"city": "Grant County", "rent": 1130, "zip": "73703"}, "grant-county-73758": {"city": "Grant County", "rent": 960, "zip": "73758"}, "grant-county-73759": {"city": "Grant County", "rent": 940, "zip": "73759"}, "grant-county-73761": {"city": "Grant County", "rent": 990, "zip": "73761"}, "grant-county-73766": {"city": "Grant County", "rent": 1020, "zip": "73766"}, "grant-county-73771": {"city": "Grant County", "rent": 940, "zip": "73771"}, "grant-county-74636": {"city": "Grant County", "rent": 970, "zip": "74636"}, "grant-county-74640": {"city": "Grant County", "rent": 990, "zip": "74640"}, "grant-county-74643": {"city": "Grant County", "rent": 940, "zip": "74643"}, "grant-county-74646": {"city": "Grant County", "rent": 970, "zip": "74646"}, "greer-county-73526": {"city": "Greer County", "rent": 940, "zip": "73526"}, "greer-county-73547": {"city": "Greer County", "rent": 1160, "zip": "73547"}, "greer-county-73554": {"city": "Greer County", "rent": 950, "zip": "73554"}, "greer-county-73673": {"city": "Greer County", "rent": 1010, "zip": "73673"}, "harmon-county-73532": {"city": "Harmon County", "rent": 940, "zip": "73532"}, "harmon-county-73537": {"city": "Harmon County", "rent": 940, "zip": "73537"}, "harmon-county-73544": {"city": "Harmon County", "rent": 940, "zip": "73544"}, "harmon-county-73550": {"city": "Harmon County", "rent": 940, "zip": "73550"}, "harmon-county-73554": {"city": "Harmon County", "rent": 950, "zip": "73554"}, "harmon-county-73571": {"city": "Harmon County", "rent": 960, "zip": "73571"}, "harper-county-73801": {"city": "Harper County", "rent": 1050, "zip": "73801"}, "harper-county-73834": {"city": "Harper County", "rent": 940, "zip": "73834"}, "harper-county-73842": {"city": "Harper County", "rent": 1170, "zip": "73842"}, "harper-county-73844": {"city": "Harper County", "rent": 960, "zip": "73844"}, "harper-county-73848": {"city": "Harper County", "rent": 960, "zip": "73848"}, "harper-county-73851": {"city": "Harper County", "rent": 990, "zip": "73851"}, "harper-county-73855": {"city": "Harper County", "rent": 940, "zip": "73855"}, "haskell-county-74432": {"city": "Haskell County", "rent": 940, "zip": "74432"}, "haskell-county-74462": {"city": "Haskell County", "rent": 950, "zip": "74462"}, "haskell-county-74472": {"city": "Haskell County", "rent": 1090, "zip": "74472"}, "haskell-county-74552": {"city": "Haskell County", "rent": 940, "zip": "74552"}, "haskell-county-74561": {"city": "Haskell County", "rent": 940, "zip": "74561"}, "haskell-county-74941": {"city": "Haskell County", "rent": 940, "zip": "74941"}, "haskell-county-74943": {"city": "Haskell County", "rent": 940, "zip": "74943"}, "haskell-county-74944": {"city": "Haskell County", "rent": 940, "zip": "74944"}, "hughes-county-74531": {"city": "Hughes County", "rent": 950, "zip": "74531"}, "hughes-county-74570": {"city": "Hughes County", "rent": 940, "zip": "74570"}, "hughes-county-74825": {"city": "Hughes County", "rent": 1070, "zip": "74825"}, "hughes-county-74827": {"city": "Hughes County", "rent": 950, "zip": "74827"}, "hughes-county-74839": {"city": "Hughes County", "rent": 1030, "zip": "74839"}, "hughes-county-74848": {"city": "Hughes County", "rent": 940, "zip": "74848"}, "hughes-county-74850": {"city": "Hughes County", "rent": 1090, "zip": "74850"}, "hughes-county-74867": {"city": "Hughes County", "rent": 980, "zip": "74867"}, "hughes-county-74883": {"city": "Hughes County", "rent": 980, "zip": "74883"}, "hughes-county-74884": {"city": "Hughes County", "rent": 1040, "zip": "74884"}, "jackson-county-73521": {"city": "Jackson County", "rent": 970, "zip": "73521"}, "jackson-county-73522": {"city": "Jackson County", "rent": 940, "zip": "73522"}, "jackson-county-73523": {"city": "Jackson County", "rent": 970, "zip": "73523"}, "jackson-county-73526": {"city": "Jackson County", "rent": 940, "zip": "73526"}, "jackson-county-73532": {"city": "Jackson County", "rent": 940, "zip": "73532"}, "jackson-county-73537": {"city": "Jackson County", "rent": 940, "zip": "73537"}, "jackson-county-73539": {"city": "Jackson County", "rent": 960, "zip": "73539"}, "jackson-county-73549": {"city": "Jackson County", "rent": 1020, "zip": "73549"}, "jackson-county-73554": {"city": "Jackson County", "rent": 950, "zip": "73554"}, "jackson-county-73556": {"city": "Jackson County", "rent": 970, "zip": "73556"}, "jackson-county-73560": {"city": "Jackson County", "rent": 940, "zip": "73560"}, "jackson-county-73655": {"city": "Jackson County", "rent": 940, "zip": "73655"}, "jefferson-county-73442": {"city": "Jefferson County", "rent": 950, "zip": "73442"}, "jefferson-county-73456": {"city": "Jefferson County", "rent": 960, "zip": "73456"}, "jefferson-county-73520": {"city": "Jefferson County", "rent": 940, "zip": "73520"}, "jefferson-county-73529": {"city": "Jefferson County", "rent": 940, "zip": "73529"}, "jefferson-county-73548": {"city": "Jefferson County", "rent": 950, "zip": "73548"}, "jefferson-county-73565": {"city": "Jefferson County", "rent": 940, "zip": "73565"}, "jefferson-county-73569": {"city": "Jefferson County", "rent": 940, "zip": "73569"}, "jefferson-county-73573": {"city": "Jefferson County", "rent": 960, "zip": "73573"}, "johnston-county-73086": {"city": "Johnston County", "rent": 1040, "zip": "73086"}, "johnston-county-73401": {"city": "Johnston County", "rent": 1100, "zip": "73401"}, "johnston-county-73432": {"city": "Johnston County", "rent": 950, "zip": "73432"}, "johnston-county-73446": {"city": "Johnston County", "rent": 940, "zip": "73446"}, "johnston-county-73447": {"city": "Johnston County", "rent": 1110, "zip": "73447"}, "johnston-county-73450": {"city": "Johnston County", "rent": 950, "zip": "73450"}, "johnston-county-73455": {"city": "Johnston County", "rent": 1060, "zip": "73455"}, "johnston-county-73460": {"city": "Johnston County", "rent": 940, "zip": "73460"}, "johnston-county-73461": {"city": "Johnston County", "rent": 940, "zip": "73461"}, "johnston-county-74525": {"city": "Johnston County", "rent": 940, "zip": "74525"}, "johnston-county-74530": {"city": "Johnston County", "rent": 940, "zip": "74530"}, "johnston-county-74748": {"city": "Johnston County", "rent": 940, "zip": "74748"}, "johnston-county-74820": {"city": "Johnston County", "rent": 1040, "zip": "74820"}, "johnston-county-74836": {"city": "Johnston County", "rent": 990, "zip": "74836"}, "johnston-county-74856": {"city": "Johnston County", "rent": 1060, "zip": "74856"}, "johnston-county-74871": {"city": "Johnston County", "rent": 940, "zip": "74871"}, "kay-county-74601": {"city": "Kay County", "rent": 960, "zip": "74601"}, "kay-county-74602": {"city": "Kay County", "rent": 940, "zip": "74602"}, "kay-county-74604": {"city": "Kay County", "rent": 940, "zip": "74604"}, "kay-county-74630": {"city": "Kay County", "rent": 940, "zip": "74630"}, "kay-county-74631": {"city": "Kay County", "rent": 980, "zip": "74631"}, "kay-county-74632": {"city": "Kay County", "rent": 940, "zip": "74632"}, "kay-county-74641": {"city": "Kay County", "rent": 940, "zip": "74641"}, "kay-county-74643": {"city": "Kay County", "rent": 940, "zip": "74643"}, "kay-county-74646": {"city": "Kay County", "rent": 970, "zip": "74646"}, "kay-county-74647": {"city": "Kay County", "rent": 940, "zip": "74647"}, "kay-county-74652": {"city": "Kay County", "rent": 970, "zip": "74652"}, "kay-county-74653": {"city": "Kay County", "rent": 940, "zip": "74653"}, "kingfisher-county-73016": {"city": "Kingfisher County", "rent": 1450, "zip": "73016"}, "kingfisher-county-73028": {"city": "Kingfisher County", "rent": 1100, "zip": "73028"}, "kingfisher-county-73056": {"city": "Kingfisher County", "rent": 1030, "zip": "73056"}, "kingfisher-county-73078": {"city": "Kingfisher County", "rent": 1870, "zip": "73078"}, "kingfisher-county-73718": {"city": "Kingfisher County", "rent": 1040, "zip": "73718"}, "kingfisher-county-73734": {"city": "Kingfisher County", "rent": 1010, "zip": "73734"}, "kingfisher-county-73742": {"city": "Kingfisher County", "rent": 1020, "zip": "73742"}, "kingfisher-county-73750": {"city": "Kingfisher County", "rent": 1050, "zip": "73750"}, "kingfisher-county-73756": {"city": "Kingfisher County", "rent": 1050, "zip": "73756"}, "kingfisher-county-73762": {"city": "Kingfisher County", "rent": 1060, "zip": "73762"}, "kingfisher-county-73763": {"city": "Kingfisher County", "rent": 1040, "zip": "73763"}, "kingfisher-county-73764": {"city": "Kingfisher County", "rent": 940, "zip": "73764"}, "kiowa-county-73015": {"city": "Kiowa County", "rent": 940, "zip": "73015"}, "kiowa-county-73041": {"city": "Kiowa County", "rent": 940, "zip": "73041"}, "kiowa-county-73062": {"city": "Kiowa County", "rent": 940, "zip": "73062"}, "kiowa-county-73507": {"city": "Kiowa County", "rent": 980, "zip": "73507"}, "kiowa-county-73552": {"city": "Kiowa County", "rent": 990, "zip": "73552"}, "kiowa-county-73559": {"city": "Kiowa County", "rent": 940, "zip": "73559"}, "kiowa-county-73564": {"city": "Kiowa County", "rent": 940, "zip": "73564"}, "kiowa-county-73566": {"city": "Kiowa County", "rent": 940, "zip": "73566"}, "kiowa-county-73651": {"city": "Kiowa County", "rent": 1100, "zip": "73651"}, "kiowa-county-73655": {"city": "Kiowa County", "rent": 940, "zip": "73655"}, "latimer-county-74536": {"city": "Latimer County", "rent": 1040, "zip": "74536"}, "latimer-county-74545": {"city": "Latimer County", "rent": 940, "zip": "74545"}, "latimer-county-74547": {"city": "Latimer County", "rent": 940, "zip": "74547"}, "latimer-county-74559": {"city": "Latimer County", "rent": 940, "zip": "74559"}, "latimer-county-74563": {"city": "Latimer County", "rent": 970, "zip": "74563"}, "latimer-county-74571": {"city": "Latimer County", "rent": 940, "zip": "74571"}, "latimer-county-74574": {"city": "Latimer County", "rent": 1000, "zip": "74574"}, "latimer-county-74578": {"city": "Latimer County", "rent": 950, "zip": "74578"}, "latimer-county-74966": {"city": "Latimer County", "rent": 940, "zip": "74966"}, "le-flore-county-71953": {"city": "Le Flore County", "rent": 950, "zip": "71953"}, "le-flore-county-74549": {"city": "Le Flore County", "rent": 940, "zip": "74549"}, "le-flore-county-74563": {"city": "Le Flore County", "rent": 970, "zip": "74563"}, "le-flore-county-74571": {"city": "Le Flore County", "rent": 940, "zip": "74571"}, "le-flore-county-74577": {"city": "Le Flore County", "rent": 940, "zip": "74577"}, "le-flore-county-74901": {"city": "Le Flore County", "rent": 940, "zip": "74901"}, "le-flore-county-74902": {"city": "Le Flore County", "rent": 940, "zip": "74902"}, "le-flore-county-74930": {"city": "Le Flore County", "rent": 940, "zip": "74930"}, "le-flore-county-74932": {"city": "Le Flore County", "rent": 960, "zip": "74932"}, "le-flore-county-74935": {"city": "Le Flore County", "rent": 990, "zip": "74935"}, "le-flore-county-74937": {"city": "Le Flore County", "rent": 940, "zip": "74937"}, "le-flore-county-74939": {"city": "Le Flore County", "rent": 940, "zip": "74939"}, "le-flore-county-74940": {"city": "Le Flore County", "rent": 940, "zip": "74940"}, "le-flore-county-74941": {"city": "Le Flore County", "rent": 940, "zip": "74941"}, "le-flore-county-74942": {"city": "Le Flore County", "rent": 940, "zip": "74942"}, "le-flore-county-74944": {"city": "Le Flore County", "rent": 940, "zip": "74944"}, "le-flore-county-74947": {"city": "Le Flore County", "rent": 940, "zip": "74947"}, "le-flore-county-74949": {"city": "Le Flore County", "rent": 1240, "zip": "74949"}, "le-flore-county-74951": {"city": "Le Flore County", "rent": 1010, "zip": "74951"}, "le-flore-county-74953": {"city": "Le Flore County", "rent": 980, "zip": "74953"}, "le-flore-county-74956": {"city": "Le Flore County", "rent": 940, "zip": "74956"}, "le-flore-county-74957": {"city": "Le Flore County", "rent": 940, "zip": "74957"}, "le-flore-county-74959": {"city": "Le Flore County", "rent": 1010, "zip": "74959"}, "le-flore-county-74966": {"city": "Le Flore County", "rent": 940, "zip": "74966"}, "love-county-73401": {"city": "Love County", "rent": 1100, "zip": "73401"}, "love-county-73430": {"city": "Love County", "rent": 1010, "zip": "73430"}, "love-county-73441": {"city": "Love County", "rent": 1000, "zip": "73441"}, "love-county-73446": {"city": "Love County", "rent": 940, "zip": "73446"}, "love-county-73448": {"city": "Love County", "rent": 1010, "zip": "73448"}, "love-county-73453": {"city": "Love County", "rent": 1020, "zip": "73453"}, "love-county-73456": {"city": "Love County", "rent": 960, "zip": "73456"}, "love-county-73459": {"city": "Love County", "rent": 1270, "zip": "73459"}, "love-county-73463": {"city": "Love County", "rent": 940, "zip": "73463"}, "mccurtain-county-71937": {"city": "McCurtain County", "rent": 940, "zip": "71937"}, "mccurtain-county-74562": {"city": "McCurtain County", "rent": 940, "zip": "74562"}, "mccurtain-county-74722": {"city": "McCurtain County", "rent": 940, "zip": "74722"}, "mccurtain-county-74724": {"city": "McCurtain County", "rent": 940, "zip": "74724"}, "mccurtain-county-74728": {"city": "McCurtain County", "rent": 940, "zip": "74728"}, "mccurtain-county-74734": {"city": "McCurtain County", "rent": 940, "zip": "74734"}, "mccurtain-county-74736": {"city": "McCurtain County", "rent": 940, "zip": "74736"}, "mccurtain-county-74737": {"city": "McCurtain County", "rent": 940, "zip": "74737"}, "mccurtain-county-74740": {"city": "McCurtain County", "rent": 940, "zip": "74740"}, "mccurtain-county-74745": {"city": "McCurtain County", "rent": 950, "zip": "74745"}, "mccurtain-county-74750": {"city": "McCurtain County", "rent": 960, "zip": "74750"}, "mccurtain-county-74752": {"city": "McCurtain County", "rent": 940, "zip": "74752"}, "mccurtain-county-74754": {"city": "McCurtain County", "rent": 1020, "zip": "74754"}, "mccurtain-county-74755": {"city": "McCurtain County", "rent": 1040, "zip": "74755"}, "mccurtain-county-74764": {"city": "McCurtain County", "rent": 960, "zip": "74764"}, "mccurtain-county-74766": {"city": "McCurtain County", "rent": 950, "zip": "74766"}, "mccurtain-county-74957": {"city": "McCurtain County", "rent": 940, "zip": "74957"}, "mccurtain-county-74963": {"city": "McCurtain County", "rent": 940, "zip": "74963"}, "mcintosh-county-74426": {"city": "McIntosh County", "rent": 940, "zip": "74426"}, "mcintosh-county-74428": {"city": "McIntosh County", "rent": 1030, "zip": "74428"}, "mcintosh-county-74432": {"city": "McIntosh County", "rent": 940, "zip": "74432"}, "mcintosh-county-74437": {"city": "McIntosh County", "rent": 940, "zip": "74437"}, "mcintosh-county-74438": {"city": "McIntosh County", "rent": 940, "zip": "74438"}, "mcintosh-county-74445": {"city": "McIntosh County", "rent": 960, "zip": "74445"}, "mcintosh-county-74450": {"city": "McIntosh County", "rent": 940, "zip": "74450"}, "mcintosh-county-74455": {"city": "McIntosh County", "rent": 940, "zip": "74455"}, "mcintosh-county-74459": {"city": "McIntosh County", "rent": 940, "zip": "74459"}, "mcintosh-county-74469": {"city": "McIntosh County", "rent": 940, "zip": "74469"}, "mcintosh-county-74839": {"city": "McIntosh County", "rent": 1030, "zip": "74839"}, "mcintosh-county-74845": {"city": "McIntosh County", "rent": 970, "zip": "74845"}, "mcintosh-county-74880": {"city": "McIntosh County", "rent": 940, "zip": "74880"}, "major-county-73663": {"city": "Major County", "rent": 1070, "zip": "73663"}, "major-county-73716": {"city": "Major County", "rent": 1050, "zip": "73716"}, "major-county-73718": {"city": "Major County", "rent": 1040, "zip": "73718"}, "major-county-73726": {"city": "Major County", "rent": 940, "zip": "73726"}, "major-county-73729": {"city": "Major County", "rent": 1150, "zip": "73729"}, "major-county-73735": {"city": "Major County", "rent": 990, "zip": "73735"}, "major-county-73737": {"city": "Major County", "rent": 940, "zip": "73737"}, "major-county-73747": {"city": "Major County", "rent": 1030, "zip": "73747"}, "major-county-73754": {"city": "Major County", "rent": 970, "zip": "73754"}, "major-county-73755": {"city": "Major County", "rent": 970, "zip": "73755"}, "major-county-73760": {"city": "Major County", "rent": 940, "zip": "73760"}, "major-county-73763": {"city": "Major County", "rent": 1040, "zip": "73763"}, "major-county-73768": {"city": "Major County", "rent": 1130, "zip": "73768"}, "major-county-73838": {"city": "Major County", "rent": 1150, "zip": "73838"}, "major-county-73852": {"city": "Major County", "rent": 1300, "zip": "73852"}, "major-county-73860": {"city": "Major County", "rent": 990, "zip": "73860"}, "marshall-county-73401": {"city": "Marshall County", "rent": 1100, "zip": "73401"}, "marshall-county-73439": {"city": "Marshall County", "rent": 990, "zip": "73439"}, "marshall-county-73440": {"city": "Marshall County", "rent": 1070, "zip": "73440"}, "marshall-county-73446": {"city": "Marshall County", "rent": 940, "zip": "73446"}, "marshall-county-73447": {"city": "Marshall County", "rent": 1110, "zip": "73447"}, "marshall-county-73448": {"city": "Marshall County", "rent": 1010, "zip": "73448"}, "mayes-county-74016": {"city": "Mayes County", "rent": 940, "zip": "74016"}, "mayes-county-74019": {"city": "Mayes County", "rent": 1130, "zip": "74019"}, "mayes-county-74036": {"city": "Mayes County", "rent": 1090, "zip": "74036"}, "mayes-county-74301": {"city": "Mayes County", "rent": 990, "zip": "74301"}, "mayes-county-74330": {"city": "Mayes County", "rent": 960, "zip": "74330"}, "mayes-county-74331": {"city": "Mayes County", "rent": 1060, "zip": "74331"}, "mayes-county-74332": {"city": "Mayes County", "rent": 1100, "zip": "74332"}, "mayes-county-74337": {"city": "Mayes County", "rent": 940, "zip": "74337"}, "mayes-county-74340": {"city": "Mayes County", "rent": 940, "zip": "74340"}, "mayes-county-74349": {"city": "Mayes County", "rent": 1020, "zip": "74349"}, "mayes-county-74350": {"city": "Mayes County", "rent": 940, "zip": "74350"}, "mayes-county-74352": {"city": "Mayes County", "rent": 940, "zip": "74352"}, "mayes-county-74361": {"city": "Mayes County", "rent": 990, "zip": "74361"}, "mayes-county-74364": {"city": "Mayes County", "rent": 1010, "zip": "74364"}, "mayes-county-74365": {"city": "Mayes County", "rent": 940, "zip": "74365"}, "mayes-county-74366": {"city": "Mayes County", "rent": 940, "zip": "74366"}, "mayes-county-74367": {"city": "Mayes County", "rent": 980, "zip": "74367"}, "mayes-county-74441": {"city": "Mayes County", "rent": 1010, "zip": "74441"}, "mayes-county-74452": {"city": "Mayes County", "rent": 980, "zip": "74452"}, "murray-county-73030": {"city": "Murray County", "rent": 950, "zip": "73030"}, "murray-county-73032": {"city": "Murray County", "rent": 1150, "zip": "73032"}, "murray-county-73086": {"city": "Murray County", "rent": 1040, "zip": "73086"}, "murray-county-73098": {"city": "Murray County", "rent": 960, "zip": "73098"}, "murray-county-73444": {"city": "Murray County", "rent": 990, "zip": "73444"}, "murray-county-74856": {"city": "Murray County", "rent": 1060, "zip": "74856"}, "murray-county-74865": {"city": "Murray County", "rent": 940, "zip": "74865"}, "muskogee-county-74401": {"city": "Muskogee County", "rent": 970, "zip": "74401"}, "muskogee-county-74402": {"city": "Muskogee County", "rent": 950, "zip": "74402"}, "muskogee-county-74403": {"city": "Muskogee County", "rent": 1010, "zip": "74403"}, "muskogee-county-74422": {"city": "Muskogee County", "rent": 1420, "zip": "74422"}, "muskogee-county-74423": {"city": "Muskogee County", "rent": 1200, "zip": "74423"}, "muskogee-county-74426": {"city": "Muskogee County", "rent": 940, "zip": "74426"}, "muskogee-county-74428": {"city": "Muskogee County", "rent": 1030, "zip": "74428"}, "muskogee-county-74434": {"city": "Muskogee County", "rent": 940, "zip": "74434"}, "muskogee-county-74435": {"city": "Muskogee County", "rent": 940, "zip": "74435"}, "muskogee-county-74436": {"city": "Muskogee County", "rent": 1000, "zip": "74436"}, "muskogee-county-74445": {"city": "Muskogee County", "rent": 960, "zip": "74445"}, "muskogee-county-74450": {"city": "Muskogee County", "rent": 940, "zip": "74450"}, "muskogee-county-74455": {"city": "Muskogee County", "rent": 940, "zip": "74455"}, "muskogee-county-74463": {"city": "Muskogee County", "rent": 940, "zip": "74463"}, "muskogee-county-74468": {"city": "Muskogee County", "rent": 970, "zip": "74468"}, "muskogee-county-74469": {"city": "Muskogee County", "rent": 940, "zip": "74469"}, "muskogee-county-74470": {"city": "Muskogee County", "rent": 940, "zip": "74470"}, "noble-county-73061": {"city": "Noble County", "rent": 1290, "zip": "73061"}, "noble-county-73073": {"city": "Noble County", "rent": 990, "zip": "73073"}, "noble-county-73077": {"city": "Noble County", "rent": 950, "zip": "73077"}, "noble-county-73757": {"city": "Noble County", "rent": 990, "zip": "73757"}, "noble-county-74032": {"city": "Noble County", "rent": 940, "zip": "74032"}, "noble-county-74075": {"city": "Noble County", "rent": 1100, "zip": "74075"}, "noble-county-74601": {"city": "Noble County", "rent": 960, "zip": "74601"}, "noble-county-74630": {"city": "Noble County", "rent": 940, "zip": "74630"}, "noble-county-74644": {"city": "Noble County", "rent": 940, "zip": "74644"}, "noble-county-74651": {"city": "Noble County", "rent": 940, "zip": "74651"}, "noble-county-74653": {"city": "Noble County", "rent": 940, "zip": "74653"}, "nowata-county-74006": {"city": "Nowata County", "rent": 980, "zip": "74006"}, "nowata-county-74016": {"city": "Nowata County", "rent": 940, "zip": "74016"}, "nowata-county-74027": {"city": "Nowata County", "rent": 940, "zip": "74027"}, "nowata-county-74042": {"city": "Nowata County", "rent": 940, "zip": "74042"}, "nowata-county-74048": {"city": "Nowata County", "rent": 940, "zip": "74048"}, "nowata-county-74072": {"city": "Nowata County", "rent": 1040, "zip": "74072"}, "nowata-county-74080": {"city": "Nowata County", "rent": 1080, "zip": "74080"}, "nowata-county-74083": {"city": "Nowata County", "rent": 1220, "zip": "74083"}, "nowata-county-74301": {"city": "Nowata County", "rent": 990, "zip": "74301"}, "okfuskee-county-74010": {"city": "Okfuskee County", "rent": 1000, "zip": "74010"}, "okfuskee-county-74079": {"city": "Okfuskee County", "rent": 940, "zip": "74079"}, "okfuskee-county-74437": {"city": "Okfuskee County", "rent": 940, "zip": "74437"}, "okfuskee-county-74829": {"city": "Okfuskee County", "rent": 940, "zip": "74829"}, "okfuskee-county-74833": {"city": "Okfuskee County", "rent": 950, "zip": "74833"}, "okfuskee-county-74839": {"city": "Okfuskee County", "rent": 1030, "zip": "74839"}, "okfuskee-county-74859": {"city": "Okfuskee County", "rent": 940, "zip": "74859"}, "okfuskee-county-74860": {"city": "Okfuskee County", "rent": 950, "zip": "74860"}, "okfuskee-county-74864": {"city": "Okfuskee County", "rent": 940, "zip": "74864"}, "okfuskee-county-74880": {"city": "Okfuskee County", "rent": 940, "zip": "74880"}, "okfuskee-county-74883": {"city": "Okfuskee County", "rent": 980, "zip": "74883"}, "ottawa-county-74331": {"city": "Ottawa County", "rent": 1060, "zip": "74331"}, "ottawa-county-74333": {"city": "Ottawa County", "rent": 940, "zip": "74333"}, "ottawa-county-74335": {"city": "Ottawa County", "rent": 940, "zip": "74335"}, "ottawa-county-74339": {"city": "Ottawa County", "rent": 940, "zip": "74339"}, "ottawa-county-74343": {"city": "Ottawa County", "rent": 940, "zip": "74343"}, "ottawa-county-74344": {"city": "Ottawa County", "rent": 980, "zip": "74344"}, "ottawa-county-74354": {"city": "Ottawa County", "rent": 1000, "zip": "74354"}, "ottawa-county-74358": {"city": "Ottawa County", "rent": 1180, "zip": "74358"}, "ottawa-county-74360": {"city": "Ottawa County", "rent": 970, "zip": "74360"}, "ottawa-county-74363": {"city": "Ottawa County", "rent": 940, "zip": "74363"}, "ottawa-county-74370": {"city": "Ottawa County", "rent": 940, "zip": "74370"}, "payne-county-73027": {"city": "Payne County", "rent": 940, "zip": "73027"}, "payne-county-73063": {"city": "Payne County", "rent": 940, "zip": "73063"}, "payne-county-73073": {"city": "Payne County", "rent": 990, "zip": "73073"}, "payne-county-73077": {"city": "Payne County", "rent": 950, "zip": "73077"}, "payne-county-74023": {"city": "Payne County", "rent": 940, "zip": "74023"}, "payne-county-74030": {"city": "Payne County", "rent": 940, "zip": "74030"}, "payne-county-74032": {"city": "Payne County", "rent": 940, "zip": "74032"}, "payne-county-74045": {"city": "Payne County", "rent": 990, "zip": "74045"}, "payne-county-74059": {"city": "Payne County", "rent": 990, "zip": "74059"}, "payne-county-74062": {"city": "Payne County", "rent": 940, "zip": "74062"}, "payne-county-74074": {"city": "Payne County", "rent": 1150, "zip": "74074"}, "payne-county-74075": {"city": "Payne County", "rent": 1100, "zip": "74075"}, "payne-county-74076": {"city": "Payne County", "rent": 1040, "zip": "74076"}, "payne-county-74077": {"city": "Payne County", "rent": 1120, "zip": "74077"}, "payne-county-74078": {"city": "Payne County", "rent": 1130, "zip": "74078"}, "payne-county-74085": {"city": "Payne County", "rent": 950, "zip": "74085"}, "payne-county-74824": {"city": "Payne County", "rent": 1010, "zip": "74824"}, "pittsburg-county-74425": {"city": "Pittsburg County", "rent": 940, "zip": "74425"}, "pittsburg-county-74430": {"city": "Pittsburg County", "rent": 940, "zip": "74430"}, "pittsburg-county-74432": {"city": "Pittsburg County", "rent": 940, "zip": "74432"}, "pittsburg-county-74442": {"city": "Pittsburg County", "rent": 1010, "zip": "74442"}, "pittsburg-county-74462": {"city": "Pittsburg County", "rent": 950, "zip": "74462"}, "pittsburg-county-74501": {"city": "Pittsburg County", "rent": 980, "zip": "74501"}, "pittsburg-county-74502": {"city": "Pittsburg County", "rent": 940, "zip": "74502"}, "pittsburg-county-74522": {"city": "Pittsburg County", "rent": 980, "zip": "74522"}, "pittsburg-county-74528": {"city": "Pittsburg County", "rent": 940, "zip": "74528"}, "pittsburg-county-74529": {"city": "Pittsburg County", "rent": 940, "zip": "74529"}, "pittsburg-county-74536": {"city": "Pittsburg County", "rent": 1040, "zip": "74536"}, "pittsburg-county-74546": {"city": "Pittsburg County", "rent": 940, "zip": "74546"}, "pittsburg-county-74547": {"city": "Pittsburg County", "rent": 940, "zip": "74547"}, "pittsburg-county-74552": {"city": "Pittsburg County", "rent": 940, "zip": "74552"}, "pittsburg-county-74553": {"city": "Pittsburg County", "rent": 940, "zip": "74553"}, "pittsburg-county-74554": {"city": "Pittsburg County", "rent": 940, "zip": "74554"}, "pittsburg-county-74560": {"city": "Pittsburg County", "rent": 940, "zip": "74560"}, "pittsburg-county-74561": {"city": "Pittsburg County", "rent": 940, "zip": "74561"}, "pittsburg-county-74565": {"city": "Pittsburg County", "rent": 940, "zip": "74565"}, "pittsburg-county-74570": {"city": "Pittsburg County", "rent": 940, "zip": "74570"}, "pittsburg-county-74576": {"city": "Pittsburg County", "rent": 940, "zip": "74576"}, "pittsburg-county-74578": {"city": "Pittsburg County", "rent": 950, "zip": "74578"}, "pontotoc-county-74572": {"city": "Pontotoc County", "rent": 1200, "zip": "74572"}, "pontotoc-county-74820": {"city": "Pontotoc County", "rent": 1040, "zip": "74820"}, "pontotoc-county-74821": {"city": "Pontotoc County", "rent": 990, "zip": "74821"}, "pontotoc-county-74825": {"city": "Pontotoc County", "rent": 1070, "zip": "74825"}, "pontotoc-county-74831": {"city": "Pontotoc County", "rent": 990, "zip": "74831"}, "pontotoc-county-74842": {"city": "Pontotoc County", "rent": 940, "zip": "74842"}, "pontotoc-county-74843": {"city": "Pontotoc County", "rent": 970, "zip": "74843"}, "pontotoc-county-74844": {"city": "Pontotoc County", "rent": 950, "zip": "74844"}, "pontotoc-county-74865": {"city": "Pontotoc County", "rent": 940, "zip": "74865"}, "pontotoc-county-74871": {"city": "Pontotoc County", "rent": 940, "zip": "74871"}, "pontotoc-county-74872": {"city": "Pontotoc County", "rent": 940, "zip": "74872"}, "pottawatomie-county-73026": {"city": "Pottawatomie County", "rent": 1200, "zip": "73026"}, "pottawatomie-county-73045": {"city": "Pottawatomie County", "rent": 1150, "zip": "73045"}, "pottawatomie-county-73051": {"city": "Pottawatomie County", "rent": 1060, "zip": "73051"}, "pottawatomie-county-74079": {"city": "Pottawatomie County", "rent": 940, "zip": "74079"}, "pottawatomie-county-74801": {"city": "Pottawatomie County", "rent": 980, "zip": "74801"}, "pottawatomie-county-74802": {"city": "Pottawatomie County", "rent": 940, "zip": "74802"}, "pottawatomie-county-74804": {"city": "Pottawatomie County", "rent": 1000, "zip": "74804"}, "pottawatomie-county-74826": {"city": "Pottawatomie County", "rent": 940, "zip": "74826"}, "pottawatomie-county-74840": {"city": "Pottawatomie County", "rent": 940, "zip": "74840"}, "pottawatomie-county-74849": {"city": "Pottawatomie County", "rent": 940, "zip": "74849"}, "pottawatomie-county-74851": {"city": "Pottawatomie County", "rent": 940, "zip": "74851"}, "pottawatomie-county-74852": {"city": "Pottawatomie County", "rent": 940, "zip": "74852"}, "pottawatomie-county-74854": {"city": "Pottawatomie County", "rent": 940, "zip": "74854"}, "pottawatomie-county-74855": {"city": "Pottawatomie County", "rent": 1130, "zip": "74855"}, "pottawatomie-county-74857": {"city": "Pottawatomie County", "rent": 1410, "zip": "74857"}, "pottawatomie-county-74864": {"city": "Pottawatomie County", "rent": 940, "zip": "74864"}, "pottawatomie-county-74866": {"city": "Pottawatomie County", "rent": 940, "zip": "74866"}, "pottawatomie-county-74873": {"city": "Pottawatomie County", "rent": 940, "zip": "74873"}, "pottawatomie-county-74878": {"city": "Pottawatomie County", "rent": 980, "zip": "74878"}, "pushmataha-county-74521": {"city": "Pushmataha County", "rent": 1180, "zip": "74521"}, "pushmataha-county-74523": {"city": "Pushmataha County", "rent": 940, "zip": "74523"}, "pushmataha-county-74536": {"city": "Pushmataha County", "rent": 1040, "zip": "74536"}, "pushmataha-county-74540": {"city": "Pushmataha County", "rent": 980, "zip": "74540"}, "pushmataha-county-74543": {"city": "Pushmataha County", "rent": 940, "zip": "74543"}, "pushmataha-county-74549": {"city": "Pushmataha County", "rent": 940, "zip": "74549"}, "pushmataha-county-74557": {"city": "Pushmataha County", "rent": 1070, "zip": "74557"}, "pushmataha-county-74558": {"city": "Pushmataha County", "rent": 940, "zip": "74558"}, "pushmataha-county-74562": {"city": "Pushmataha County", "rent": 940, "zip": "74562"}, "pushmataha-county-74567": {"city": "Pushmataha County", "rent": 1020, "zip": "74567"}, "pushmataha-county-74571": {"city": "Pushmataha County", "rent": 940, "zip": "74571"}, "pushmataha-county-74574": {"city": "Pushmataha County", "rent": 1000, "zip": "74574"}, "pushmataha-county-74728": {"city": "Pushmataha County", "rent": 940, "zip": "74728"}, "pushmataha-county-74735": {"city": "Pushmataha County", "rent": 1110, "zip": "74735"}, "pushmataha-county-74754": {"city": "Pushmataha County", "rent": 1020, "zip": "74754"}, "pushmataha-county-74760": {"city": "Pushmataha County", "rent": 950, "zip": "74760"}, "pushmataha-county-74957": {"city": "Pushmataha County", "rent": 940, "zip": "74957"}, "roger-mills-county-73628": {"city": "Roger Mills County", "rent": 1000, "zip": "73628"}, "roger-mills-county-73638": {"city": "Roger Mills County", "rent": 970, "zip": "73638"}, "roger-mills-county-73642": {"city": "Roger Mills County", "rent": 980, "zip": "73642"}, "roger-mills-county-73644": {"city": "Roger Mills County", "rent": 1070, "zip": "73644"}, "roger-mills-county-73650": {"city": "Roger Mills County", "rent": 940, "zip": "73650"}, "roger-mills-county-73654": {"city": "Roger Mills County", "rent": 940, "zip": "73654"}, "roger-mills-county-73660": {"city": "Roger Mills County", "rent": 940, "zip": "73660"}, "roger-mills-county-73662": {"city": "Roger Mills County", "rent": 1030, "zip": "73662"}, "roger-mills-county-73666": {"city": "Roger Mills County", "rent": 990, "zip": "73666"}, "seminole-county-74804": {"city": "Seminole County", "rent": 1000, "zip": "74804"}, "seminole-county-74830": {"city": "Seminole County", "rent": 950, "zip": "74830"}, "seminole-county-74837": {"city": "Seminole County", "rent": 1060, "zip": "74837"}, "seminole-county-74840": {"city": "Seminole County", "rent": 940, "zip": "74840"}, "seminole-county-74848": {"city": "Seminole County", "rent": 940, "zip": "74848"}, "seminole-county-74849": {"city": "Seminole County", "rent": 940, "zip": "74849"}, "seminole-county-74854": {"city": "Seminole County", "rent": 940, "zip": "74854"}, "seminole-county-74859": {"city": "Seminole County", "rent": 940, "zip": "74859"}, "seminole-county-74867": {"city": "Seminole County", "rent": 980, "zip": "74867"}, "seminole-county-74868": {"city": "Seminole County", "rent": 950, "zip": "74868"}, "seminole-county-74884": {"city": "Seminole County", "rent": 1040, "zip": "74884"}, "stephens-county-73055": {"city": "Stephens County", "rent": 940, "zip": "73055"}, "stephens-county-73425": {"city": "Stephens County", "rent": 940, "zip": "73425"}, "stephens-county-73434": {"city": "Stephens County", "rent": 970, "zip": "73434"}, "stephens-county-73442": {"city": "Stephens County", "rent": 950, "zip": "73442"}, "stephens-county-73481": {"city": "Stephens County", "rent": 940, "zip": "73481"}, "stephens-county-73491": {"city": "Stephens County", "rent": 1040, "zip": "73491"}, "stephens-county-73501": {"city": "Stephens County", "rent": 940, "zip": "73501"}, "stephens-county-73529": {"city": "Stephens County", "rent": 940, "zip": "73529"}, "stephens-county-73533": {"city": "Stephens County", "rent": 940, "zip": "73533"}, "stephens-county-73534": {"city": "Stephens County", "rent": 940, "zip": "73534"}, "stephens-county-73548": {"city": "Stephens County", "rent": 950, "zip": "73548"}, "stephens-county-73573": {"city": "Stephens County", "rent": 960, "zip": "73573"}, "texas-county-73901": {"city": "Texas County", "rent": 1120, "zip": "73901"}, "texas-county-73939": {"city": "Texas County", "rent": 990, "zip": "73939"}, "texas-county-73942": {"city": "Texas County", "rent": 1150, "zip": "73942"}, "texas-county-73944": {"city": "Texas County", "rent": 950, "zip": "73944"}, "texas-county-73945": {"city": "Texas County", "rent": 1120, "zip": "73945"}, "texas-county-73947": {"city": "Texas County", "rent": 950, "zip": "73947"}, "texas-county-73949": {"city": "Texas County", "rent": 950, "zip": "73949"}, "texas-county-73950": {"city": "Texas County", "rent": 1050, "zip": "73950"}, "texas-county-73951": {"city": "Texas County", "rent": 1020, "zip": "73951"}, "tillman-county-73528": {"city": "Tillman County", "rent": 940, "zip": "73528"}, "tillman-county-73530": {"city": "Tillman County", "rent": 940, "zip": "73530"}, "tillman-county-73542": {"city": "Tillman County", "rent": 950, "zip": "73542"}, "tillman-county-73546": {"city": "Tillman County", "rent": 1020, "zip": "73546"}, "tillman-county-73551": {"city": "Tillman County", "rent": 970, "zip": "73551"}, "tillman-county-73552": {"city": "Tillman County", "rent": 990, "zip": "73552"}, "tillman-county-73553": {"city": "Tillman County", "rent": 970, "zip": "73553"}, "tillman-county-73555": {"city": "Tillman County", "rent": 940, "zip": "73555"}, "tillman-county-73566": {"city": "Tillman County", "rent": 940, "zip": "73566"}, "tillman-county-73570": {"city": "Tillman County", "rent": 940, "zip": "73570"}, "washington-county-74003": {"city": "Washington County", "rent": 940, "zip": "74003"}, "washington-county-74005": {"city": "Washington County", "rent": 950, "zip": "74005"}, "washington-county-74006": {"city": "Washington County", "rent": 980, "zip": "74006"}, "washington-county-74021": {"city": "Washington County", "rent": 1390, "zip": "74021"}, "washington-county-74022": {"city": "Washington County", "rent": 940, "zip": "74022"}, "washington-county-74029": {"city": "Washington County", "rent": 940, "zip": "74029"}, "washington-county-74048": {"city": "Washington County", "rent": 940, "zip": "74048"}, "washington-county-74051": {"city": "Washington County", "rent": 940, "zip": "74051"}, "washington-county-74061": {"city": "Washington County", "rent": 990, "zip": "74061"}, "washington-county-74070": {"city": "Washington County", "rent": 1110, "zip": "74070"}, "washington-county-74080": {"city": "Washington County", "rent": 1080, "zip": "74080"}, "washington-county-74082": {"city": "Washington County", "rent": 1200, "zip": "74082"}, "washington-county-74083": {"city": "Washington County", "rent": 1220, "zip": "74083"}, "washita-county-73015": {"city": "Washita County", "rent": 940, "zip": "73015"}, "washita-county-73021": {"city": "Washita County", "rent": 940, "zip": "73021"}, "washita-county-73024": {"city": "Washita County", "rent": 960, "zip": "73024"}, "washita-county-73041": {"city": "Washita County", "rent": 940, "zip": "73041"}, "washita-county-73062": {"city": "Washita County", "rent": 940, "zip": "73062"}, "washita-county-73096": {"city": "Washita County", "rent": 940, "zip": "73096"}, "washita-county-73601": {"city": "Washita County", "rent": 1040, "zip": "73601"}, "washita-county-73622": {"city": "Washita County", "rent": 1120, "zip": "73622"}, "washita-county-73624": {"city": "Washita County", "rent": 960, "zip": "73624"}, "washita-county-73626": {"city": "Washita County", "rent": 1160, "zip": "73626"}, "washita-county-73627": {"city": "Washita County", "rent": 1040, "zip": "73627"}, "washita-county-73632": {"city": "Washita County", "rent": 960, "zip": "73632"}, "washita-county-73641": {"city": "Washita County", "rent": 990, "zip": "73641"}, "washita-county-73644": {"city": "Washita County", "rent": 1070, "zip": "73644"}, "washita-county-73647": {"city": "Washita County", "rent": 940, "zip": "73647"}, "washita-county-73651": {"city": "Washita County", "rent": 1100, "zip": "73651"}, "washita-county-73655": {"city": "Washita County", "rent": 940, "zip": "73655"}, "washita-county-73661": {"city": "Washita County", "rent": 1220, "zip": "73661"}, "washita-county-73664": {"city": "Washita County", "rent": 940, "zip": "73664"}, "woods-county-73716": {"city": "Woods County", "rent": 1050, "zip": "73716"}, "woods-county-73717": {"city": "Woods County", "rent": 970, "zip": "73717"}, "woods-county-73726": {"city": "Woods County", "rent": 940, "zip": "73726"}, "woods-county-73729": {"city": "Woods County", "rent": 1150, "zip": "73729"}, "woods-county-73731": {"city": "Woods County", "rent": 980, "zip": "73731"}, "woods-county-73746": {"city": "Woods County", "rent": 970, "zip": "73746"}, "woods-county-73842": {"city": "Woods County", "rent": 1170, "zip": "73842"}, "woods-county-73860": {"city": "Woods County", "rent": 990, "zip": "73860"}, "woodward-county-73801": {"city": "Woodward County", "rent": 1050, "zip": "73801"}, "woodward-county-73802": {"city": "Woodward County", "rent": 1060, "zip": "73802"}, "woodward-county-73832": {"city": "Woodward County", "rent": 940, "zip": "73832"}, "woodward-county-73838": {"city": "Woodward County", "rent": 1150, "zip": "73838"}, "woodward-county-73840": {"city": "Woodward County", "rent": 1270, "zip": "73840"}, "woodward-county-73841": {"city": "Woodward County", "rent": 940, "zip": "73841"}, "woodward-county-73842": {"city": "Woodward County", "rent": 1170, "zip": "73842"}, "woodward-county-73852": {"city": "Woodward County", "rent": 1300, "zip": "73852"}, "woodward-county-73853": {"city": "Woodward County", "rent": 1390, "zip": "73853"}, "woodward-county-73857": {"city": "Woodward County", "rent": 1230, "zip": "73857"}, "woodward-county-73859": {"city": "Woodward County", "rent": 970, "zip": "73859"}}