{"providence-fall-river-02048": {"city": "Providence-Fall River", "rent": 2560, "zip": "02048"}, "providence-fall-river-02703": {"city": "Providence-Fall River", "rent": 1980, "zip": "02703"}, "providence-fall-river-02715": {"city": "Providence-Fall River", "rent": 1870, "zip": "02715"}, "providence-fall-river-02717": {"city": "Providence-Fall River", "rent": 2350, "zip": "02717"}, "providence-fall-river-02720": {"city": "Providence-Fall River", "rent": 1620, "zip": "02720"}, "providence-fall-river-02721": {"city": "Providence-Fall River", "rent": 1460, "zip": "02721"}, "providence-fall-river-02722": {"city": "Providence-Fall River", "rent": 1650, "zip": "02722"}, "providence-fall-river-02723": {"city": "Providence-Fall River", "rent": 1510, "zip": "02723"}, "providence-fall-river-02724": {"city": "Providence-Fall River", "rent": 1540, "zip": "02724"}, "providence-fall-river-02725": {"city": "Providence-Fall River", "rent": 1710, "zip": "02725"}, "providence-fall-river-02726": {"city": "Providence-Fall River", "rent": 1830, "zip": "02726"}, "providence-fall-river-02747": {"city": "Providence-Fall River", "rent": 2090, "zip": "02747"}, "providence-fall-river-02748": {"city": "Providence-Fall River", "rent": 1890, "zip": "02748"}, "providence-fall-river-02760": {"city": "Providence-Fall River", "rent": 2560, "zip": "02760"}, "providence-fall-river-02761": {"city": "Providence-Fall River", "rent": 1650, "zip": "02761"}, "providence-fall-river-02763": {"city": "Providence-Fall River", "rent": 1820, "zip": "02763"}, "providence-fall-river-02766": {"city": "Providence-Fall River", "rent": 2840, "zip": "02766"}, "providence-fall-river-02769": {"city": "Providence-Fall River", "rent": 1630, "zip": "02769"}, "providence-fall-river-02771": {"city": "Providence-Fall River", "rent": 2370, "zip": "02771"}, "providence-fall-river-02777": {"city": "Providence-Fall River", "rent": 1870, "zip": "02777"}, "providence-fall-river-02790": {"city": "Providence-Fall River", "rent": 1750, "zip": "02790"}, "providence-fall-river-02791": {"city": "Providence-Fall River", "rent": 1750, "zip": "02791"}, "providence-fall-river-02801": {"city": "Providence-Fall River", "rent": 2330, "zip": "02801"}, "providence-fall-river-02802": {"city": "Providence-Fall River", "rent": 1770, "zip": "02802"}, "providence-fall-river-02806": {"city": "Providence-Fall River", "rent": 2290, "zip": "02806"}, "providence-fall-river-02808": {"city": "Providence-Fall River", "rent": 1480, "zip": "02808"}, "providence-fall-river-02809": {"city": "Providence-Fall River", "rent": 1830, "zip": "02809"}, "providence-fall-river-02812": {"city": "Providence-Fall River", "rent": 1980, "zip": "02812"}, "providence-fall-river-02813": {"city": "Providence-Fall River", "rent": 1960, "zip": "02813"}, "providence-fall-river-02814": {"city": "Providence-Fall River", "rent": 1600, "zip": "02814"}, "providence-fall-river-02815": {"city": "Providence-Fall River", "rent": 1930, "zip": "02815"}, "providence-fall-river-02816": {"city": "Providence-Fall River", "rent": 1700, "zip": "02816"}, "providence-fall-river-02817": {"city": "Providence-Fall River", "rent": 2590, "zip": "02817"}, "providence-fall-river-02818": {"city": "Providence-Fall River", "rent": 2030, "zip": "02818"}, "providence-fall-river-02822": {"city": "Providence-Fall River", "rent": 2190, "zip": "02822"}, "providence-fall-river-02823": {"city": "Providence-Fall River", "rent": 2190, "zip": "02823"}, "providence-fall-river-02824": {"city": "Providence-Fall River", "rent": 1590, "zip": "02824"}, "providence-fall-river-02825": {"city": "Providence-Fall River", "rent": 2060, "zip": "02825"}, "providence-fall-river-02826": {"city": "Providence-Fall River", "rent": 1460, "zip": "02826"}, "providence-fall-river-02827": {"city": "Providence-Fall River", "rent": 2590, "zip": "02827"}, "providence-fall-river-02828": {"city": "Providence-Fall River", "rent": 1810, "zip": "02828"}, "providence-fall-river-02829": {"city": "Providence-Fall River", "rent": 1600, "zip": "02829"}, "providence-fall-river-02830": {"city": "Providence-Fall River", "rent": 1460, "zip": "02830"}, "providence-fall-river-02831": {"city": "Providence-Fall River", "rent": 2320, "zip": "02831"}, "providence-fall-river-02832": {"city": "Providence-Fall River", "rent": 1650, "zip": "02832"}, "providence-fall-river-02835": {"city": "Providence-Fall River", "rent": 2530, "zip": "02835"}, "providence-fall-river-02836": {"city": "Providence-Fall River", "rent": 2170, "zip": "02836"}, "providence-fall-river-02837": {"city": "Providence-Fall River", "rent": 2590, "zip": "02837"}, "providence-fall-river-02838": {"city": "Providence-Fall River", "rent": 1740, "zip": "02838"}, "providence-fall-river-02839": {"city": "Providence-Fall River", "rent": 2040, "zip": "02839"}, "providence-fall-river-02852": {"city": "Providence-Fall River", "rent": 1780, "zip": "02852"}, "providence-fall-river-02857": {"city": "Providence-Fall River", "rent": 1930, "zip": "02857"}, "providence-fall-river-02858": {"city": "Providence-Fall River", "rent": 1480, "zip": "02858"}, "providence-fall-river-02859": {"city": "Providence-Fall River", "rent": 1540, "zip": "02859"}, "providence-fall-river-02860": {"city": "Providence-Fall River", "rent": 1610, "zip": "02860"}, "providence-fall-river-02861": {"city": "Providence-Fall River", "rent": 1670, "zip": "02861"}, "providence-fall-river-02862": {"city": "Providence-Fall River", "rent": 1730, "zip": "02862"}, "providence-fall-river-02863": {"city": "Providence-Fall River", "rent": 1500, "zip": "02863"}, "providence-fall-river-02864": {"city": "Providence-Fall River", "rent": 1630, "zip": "02864"}, "providence-fall-river-02865": {"city": "Providence-Fall River", "rent": 1800, "zip": "02865"}, "providence-fall-river-02874": {"city": "Providence-Fall River", "rent": 1880, "zip": "02874"}, "providence-fall-river-02875": {"city": "Providence-Fall River", "rent": 2170, "zip": "02875"}, "providence-fall-river-02876": {"city": "Providence-Fall River", "rent": 2590, "zip": "02876"}, "providence-fall-river-02877": {"city": "Providence-Fall River", "rent": 1860, "zip": "02877"}, "providence-fall-river-02878": {"city": "Providence-Fall River", "rent": 1980, "zip": "02878"}, "providence-fall-river-02879": {"city": "Providence-Fall River", "rent": 1880, "zip": "02879"}, "providence-fall-river-02880": {"city": "Providence-Fall River", "rent": 1860, "zip": "02880"}, "providence-fall-river-02881": {"city": "Providence-Fall River", "rent": 1850, "zip": "02881"}, "providence-fall-river-02882": {"city": "Providence-Fall River", "rent": 2260, "zip": "02882"}, "providence-fall-river-02883": {"city": "Providence-Fall River", "rent": 1860, "zip": "02883"}, "providence-fall-river-02885": {"city": "Providence-Fall River", "rent": 1690, "zip": "02885"}, "providence-fall-river-02886": {"city": "Providence-Fall River", "rent": 1960, "zip": "02886"}, "providence-fall-river-02887": {"city": "Providence-Fall River", "rent": 1810, "zip": "02887"}, "providence-fall-river-02888": {"city": "Providence-Fall River", "rent": 1700, "zip": "02888"}, "providence-fall-river-02889": {"city": "Providence-Fall River", "rent": 1840, "zip": "02889"}, "providence-fall-river-02891": {"city": "Providence-Fall River", "rent": 1780, "zip": "02891"}, "providence-fall-river-02892": {"city": "Providence-Fall River", "rent": 2270, "zip": "02892"}, "providence-fall-river-02893": {"city": "Providence-Fall River", "rent": 1680, "zip": "02893"}, "providence-fall-river-02894": {"city": "Providence-Fall River", "rent": 1820, "zip": "02894"}, "providence-fall-river-02895": {"city": "Providence-Fall River", "rent": 1600, "zip": "02895"}, "providence-fall-river-02896": {"city": "Providence-Fall River", "rent": 1580, "zip": "02896"}, "providence-fall-river-02898": {"city": "Providence-Fall River", "rent": 1960, "zip": "02898"}, "providence-fall-river-02901": {"city": "Providence-Fall River", "rent": 1730, "zip": "02901"}, "providence-fall-river-02903": {"city": "Providence-Fall River", "rent": 2430, "zip": "02903"}, "providence-fall-river-02904": {"city": "Providence-Fall River", "rent": 1740, "zip": "02904"}, "providence-fall-river-02905": {"city": "Providence-Fall River", "rent": 1700, "zip": "02905"}, "providence-fall-river-02906": {"city": "Providence-Fall River", "rent": 2340, "zip": "02906"}, "providence-fall-river-02907": {"city": "Providence-Fall River", "rent": 1590, "zip": "02907"}, "providence-fall-river-02908": {"city": "Providence-Fall River", "rent": 1730, "zip": "02908"}, "providence-fall-river-02909": {"city": "Providence-Fall River", "rent": 1600, "zip": "02909"}, "providence-fall-river-02910": {"city": "Providence-Fall River", "rent": 1800, "zip": "02910"}, "providence-fall-river-02911": {"city": "Providence-Fall River", "rent": 1950, "zip": "02911"}, "providence-fall-river-02912": {"city": "Providence-Fall River", "rent": 2350, "zip": "02912"}, "providence-fall-river-02914": {"city": "Providence-Fall River", "rent": 1810, "zip": "02914"}, "providence-fall-river-02915": {"city": "Providence-Fall River", "rent": 1960, "zip": "02915"}, "providence-fall-river-02916": {"city": "Providence-Fall River", "rent": 1640, "zip": "02916"}, "providence-fall-river-02917": {"city": "Providence-Fall River", "rent": 1460, "zip": "02917"}, "providence-fall-river-02918": {"city": "Providence-Fall River", "rent": 1730, "zip": "02918"}, "providence-fall-river-02919": {"city": "Providence-Fall River", "rent": 1720, "zip": "02919"}, "providence-fall-river-02920": {"city": "Providence-Fall River", "rent": 1890, "zip": "02920"}, "providence-fall-river-02921": {"city": "Providence-Fall River", "rent": 2140, "zip": "02921"}, "providence-fall-river-02940": {"city": "Providence-Fall River", "rent": 1730, "zip": "02940"}, "westerly-hopkinton-new-shoreham-02804": {"city": "Westerly-Hopkinton-New Shoreham", "rent": 1790, "zip": "02804"}, "westerly-hopkinton-new-shoreham-02807": {"city": "Westerly-Hopkinton-New Shoreham", "rent": 1880, "zip": "02807"}, "westerly-hopkinton-new-shoreham-02808": {"city": "Westerly-Hopkinton-New Shoreham", "rent": 1480, "zip": "02808"}, "westerly-hopkinton-new-shoreham-02832": {"city": "Westerly-Hopkinton-New Shoreham", "rent": 1650, "zip": "02832"}, "westerly-hopkinton-new-shoreham-02833": {"city": "Westerly-Hopkinton-New Shoreham", "rent": 1730, "zip": "02833"}, "westerly-hopkinton-new-shoreham-02873": {"city": "Westerly-Hopkinton-New Shoreham", "rent": 1840, "zip": "02873"}, "westerly-hopkinton-new-shoreham-02891": {"city": "Westerly-Hopkinton-New Shoreham", "rent": 1780, "zip": "02891"}, "westerly-hopkinton-new-shoreham-02894": {"city": "Westerly-Hopkinton-New Shoreham", "rent": 1820, "zip": "02894"}, "westerly-hopkinton-new-shoreham-02898": {"city": "Westerly-Hopkinton-New Shoreham", "rent": 1960, "zip": "02898"}, "newport-middleton-portsmouth-02840": {"city": "Newport-Middleton-Portsmouth", "rent": 2380, "zip": "02840"}, "newport-middleton-portsmouth-02841": {"city": "Newport-Middleton-Portsmouth", "rent": 2380, "zip": "02841"}, "newport-middleton-portsmouth-02842": {"city": "Newport-Middleton-Portsmouth", "rent": 2290, "zip": "02842"}, "newport-middleton-portsmouth-02871": {"city": "Newport-Middleton-Portsmouth", "rent": 2370, "zip": "02871"}, "newport-middleton-portsmouth-02872": {"city": "Newport-Middleton-Portsmouth", "rent": 2250, "zip": "02872"}, "newport-middleton-portsmouth-02878": {"city": "Newport-Middleton-Portsmouth", "rent": 1980, "zip": "02878"}}