{"rapid-city-57553": {"city": "Rapid City", "rent": 1010, "zip": "57553"}, "rapid-city-57701": {"city": "Rapid City", "rent": 1200, "zip": "57701"}, "rapid-city-57702": {"city": "Rapid City", "rent": 1410, "zip": "57702"}, "rapid-city-57703": {"city": "Rapid City", "rent": 1700, "zip": "57703"}, "rapid-city-57706": {"city": "Rapid City", "rent": 1770, "zip": "57706"}, "rapid-city-57709": {"city": "Rapid City", "rent": 1340, "zip": "57709"}, "rapid-city-57718": {"city": "Rapid City", "rent": 1230, "zip": "57718"}, "rapid-city-57719": {"city": "Rapid City", "rent": 1400, "zip": "57719"}, "rapid-city-57725": {"city": "Rapid City", "rent": 1340, "zip": "57725"}, "rapid-city-57730": {"city": "Rapid City", "rent": 1170, "zip": "57730"}, "rapid-city-57732": {"city": "Rapid City", "rent": 1010, "zip": "57732"}, "rapid-city-57744": {"city": "Rapid City", "rent": 1280, "zip": "57744"}, "rapid-city-57745": {"city": "Rapid City", "rent": 1300, "zip": "57745"}, "rapid-city-57750": {"city": "Rapid City", "rent": 1010, "zip": "57750"}, "rapid-city-57751": {"city": "Rapid City", "rent": 1010, "zip": "57751"}, "rapid-city-57754": {"city": "Rapid City", "rent": 1010, "zip": "57754"}, "rapid-city-57761": {"city": "Rapid City", "rent": 1060, "zip": "57761"}, "rapid-city-57767": {"city": "Rapid City", "rent": 1060, "zip": "57767"}, "rapid-city-57775": {"city": "Rapid City", "rent": 1010, "zip": "57775"}, "rapid-city-57780": {"city": "Rapid City", "rent": 1340, "zip": "57780"}, "rapid-city-57790": {"city": "Rapid City", "rent": 1010, "zip": "57790"}, "rapid-city-57791": {"city": "Rapid City", "rent": 1310, "zip": "57791"}, "custer-county-57722": {"city": "Custer County", "rent": 1150, "zip": "57722"}, "custer-county-57730": {"city": "Custer County", "rent": 1170, "zip": "57730"}, "custer-county-57735": {"city": "Custer County", "rent": 990, "zip": "57735"}, "custer-county-57738": {"city": "Custer County", "rent": 1270, "zip": "57738"}, "custer-county-57744": {"city": "Custer County", "rent": 1280, "zip": "57744"}, "custer-county-57747": {"city": "Custer County", "rent": 1140, "zip": "57747"}, "custer-county-57751": {"city": "Custer County", "rent": 1010, "zip": "57751"}, "custer-county-57773": {"city": "Custer County", "rent": 1150, "zip": "57773"}, "custer-county-82701": {"city": "Custer County", "rent": 1040, "zip": "82701"}, "meade-county-57626": {"city": "Meade County", "rent": 1090, "zip": "57626"}, "meade-county-57701": {"city": "Meade County", "rent": 1200, "zip": "57701"}, "meade-county-57702": {"city": "Meade County", "rent": 1410, "zip": "57702"}, "meade-county-57706": {"city": "Meade County", "rent": 1770, "zip": "57706"}, "meade-county-57718": {"city": "Meade County", "rent": 1230, "zip": "57718"}, "meade-county-57719": {"city": "Meade County", "rent": 1400, "zip": "57719"}, "meade-county-57737": {"city": "Meade County", "rent": 1270, "zip": "57737"}, "meade-county-57741": {"city": "Meade County", "rent": 990, "zip": "57741"}, "meade-county-57748": {"city": "Meade County", "rent": 1100, "zip": "57748"}, "meade-county-57758": {"city": "Meade County", "rent": 1240, "zip": "57758"}, "meade-county-57761": {"city": "Meade County", "rent": 1060, "zip": "57761"}, "meade-county-57767": {"city": "Meade County", "rent": 1060, "zip": "57767"}, "meade-county-57769": {"city": "Meade County", "rent": 1360, "zip": "57769"}, "meade-county-57785": {"city": "Meade County", "rent": 990, "zip": "57785"}, "meade-county-57787": {"city": "Meade County", "rent": 1270, "zip": "57787"}, "meade-county-57788": {"city": "Meade County", "rent": 1090, "zip": "57788"}, "meade-county-57791": {"city": "Meade County", "rent": 1310, "zip": "57791"}, "meade-county-57792": {"city": "Meade County", "rent": 1270, "zip": "57792"}, "meade-county-57793": {"city": "Meade County", "rent": 1010, "zip": "57793"}, "sioux-falls-57001": {"city": "Sioux Falls", "rent": 980, "zip": "57001"}, "sioux-falls-57003": {"city": "Sioux Falls", "rent": 1200, "zip": "57003"}, "sioux-falls-57004": {"city": "Sioux Falls", "rent": 1010, "zip": "57004"}, "sioux-falls-57005": {"city": "Sioux Falls", "rent": 1180, "zip": "57005"}, "sioux-falls-57012": {"city": "Sioux Falls", "rent": 1420, "zip": "57012"}, "sioux-falls-57013": {"city": "Sioux Falls", "rent": 930, "zip": "57013"}, "sioux-falls-57014": {"city": "Sioux Falls", "rent": 930, "zip": "57014"}, "sioux-falls-57015": {"city": "Sioux Falls", "rent": 930, "zip": "57015"}, "sioux-falls-57016": {"city": "Sioux Falls", "rent": 1230, "zip": "57016"}, "sioux-falls-57018": {"city": "Sioux Falls", "rent": 930, "zip": "57018"}, "sioux-falls-57020": {"city": "Sioux Falls", "rent": 1300, "zip": "57020"}, "sioux-falls-57021": {"city": "Sioux Falls", "rent": 1130, "zip": "57021"}, "sioux-falls-57022": {"city": "Sioux Falls", "rent": 1090, "zip": "57022"}, "sioux-falls-57027": {"city": "Sioux Falls", "rent": 970, "zip": "57027"}, "sioux-falls-57029": {"city": "Sioux Falls", "rent": 930, "zip": "57029"}, "sioux-falls-57030": {"city": "Sioux Falls", "rent": 970, "zip": "57030"}, "sioux-falls-57032": {"city": "Sioux Falls", "rent": 1430, "zip": "57032"}, "sioux-falls-57033": {"city": "Sioux Falls", "rent": 1100, "zip": "57033"}, "sioux-falls-57034": {"city": "Sioux Falls", "rent": 960, "zip": "57034"}, "sioux-falls-57035": {"city": "Sioux Falls", "rent": 930, "zip": "57035"}, "sioux-falls-57036": {"city": "Sioux Falls", "rent": 1400, "zip": "57036"}, "sioux-falls-57037": {"city": "Sioux Falls", "rent": 960, "zip": "57037"}, "sioux-falls-57039": {"city": "Sioux Falls", "rent": 1060, "zip": "57039"}, "sioux-falls-57041": {"city": "Sioux Falls", "rent": 1080, "zip": "57041"}, "sioux-falls-57042": {"city": "Sioux Falls", "rent": 960, "zip": "57042"}, "sioux-falls-57043": {"city": "Sioux Falls", "rent": 950, "zip": "57043"}, "sioux-falls-57045": {"city": "Sioux Falls", "rent": 940, "zip": "57045"}, "sioux-falls-57047": {"city": "Sioux Falls", "rent": 930, "zip": "57047"}, "sioux-falls-57048": {"city": "Sioux Falls", "rent": 930, "zip": "57048"}, "sioux-falls-57053": {"city": "Sioux Falls", "rent": 1110, "zip": "57053"}, "sioux-falls-57055": {"city": "Sioux Falls", "rent": 1150, "zip": "57055"}, "sioux-falls-57058": {"city": "Sioux Falls", "rent": 1100, "zip": "57058"}, "sioux-falls-57064": {"city": "Sioux Falls", "rent": 1340, "zip": "57064"}, "sioux-falls-57068": {"city": "Sioux Falls", "rent": 1220, "zip": "57068"}, "sioux-falls-57070": {"city": "Sioux Falls", "rent": 930, "zip": "57070"}, "sioux-falls-57073": {"city": "Sioux Falls", "rent": 940, "zip": "57073"}, "sioux-falls-57077": {"city": "Sioux Falls", "rent": 1230, "zip": "57077"}, "sioux-falls-57101": {"city": "Sioux Falls", "rent": 1110, "zip": "57101"}, "sioux-falls-57103": {"city": "Sioux Falls", "rent": 1100, "zip": "57103"}, "sioux-falls-57104": {"city": "Sioux Falls", "rent": 1030, "zip": "57104"}, "sioux-falls-57105": {"city": "Sioux Falls", "rent": 1110, "zip": "57105"}, "sioux-falls-57106": {"city": "Sioux Falls", "rent": 1200, "zip": "57106"}, "sioux-falls-57107": {"city": "Sioux Falls", "rent": 1240, "zip": "57107"}, "sioux-falls-57108": {"city": "Sioux Falls", "rent": 1500, "zip": "57108"}, "sioux-falls-57109": {"city": "Sioux Falls", "rent": 1110, "zip": "57109"}, "sioux-falls-57110": {"city": "Sioux Falls", "rent": 1210, "zip": "57110"}, "sioux-falls-57117": {"city": "Sioux Falls", "rent": 1110, "zip": "57117"}, "sioux-falls-57118": {"city": "Sioux Falls", "rent": 1110, "zip": "57118"}, "sioux-falls-57197": {"city": "Sioux Falls", "rent": 1110, "zip": "57197"}, "sioux-falls-57319": {"city": "Sioux Falls", "rent": 990, "zip": "57319"}, "sioux-falls-57321": {"city": "Sioux Falls", "rent": 980, "zip": "57321"}, "sioux-falls-57332": {"city": "Sioux Falls", "rent": 930, "zip": "57332"}, "sioux-falls-57374": {"city": "Sioux Falls", "rent": 1010, "zip": "57374"}, "aurora-county-57328": {"city": "Aurora County", "rent": 990, "zip": "57328"}, "aurora-county-57359": {"city": "Aurora County", "rent": 1070, "zip": "57359"}, "aurora-county-57363": {"city": "Aurora County", "rent": 1180, "zip": "57363"}, "aurora-county-57368": {"city": "Aurora County", "rent": 1010, "zip": "57368"}, "aurora-county-57369": {"city": "Aurora County", "rent": 1020, "zip": "57369"}, "aurora-county-57375": {"city": "Aurora County", "rent": 930, "zip": "57375"}, "aurora-county-57382": {"city": "Aurora County", "rent": 930, "zip": "57382"}, "aurora-county-57383": {"city": "Aurora County", "rent": 930, "zip": "57383"}, "aurora-county-57385": {"city": "Aurora County", "rent": 930, "zip": "57385"}, "beadle-county-57312": {"city": "Beadle County", "rent": 1210, "zip": "57312"}, "beadle-county-57314": {"city": "Beadle County", "rent": 1260, "zip": "57314"}, "beadle-county-57322": {"city": "Beadle County", "rent": 1060, "zip": "57322"}, "beadle-county-57324": {"city": "Beadle County", "rent": 1010, "zip": "57324"}, "beadle-county-57348": {"city": "Beadle County", "rent": 1020, "zip": "57348"}, "beadle-county-57350": {"city": "Beadle County", "rent": 960, "zip": "57350"}, "beadle-county-57353": {"city": "Beadle County", "rent": 990, "zip": "57353"}, "beadle-county-57379": {"city": "Beadle County", "rent": 1040, "zip": "57379"}, "beadle-county-57381": {"city": "Beadle County", "rent": 1120, "zip": "57381"}, "beadle-county-57382": {"city": "Beadle County", "rent": 930, "zip": "57382"}, "beadle-county-57384": {"city": "Beadle County", "rent": 930, "zip": "57384"}, "beadle-county-57386": {"city": "Beadle County", "rent": 970, "zip": "57386"}, "bennett-county-57551": {"city": "Bennett County", "rent": 1170, "zip": "57551"}, "bennett-county-57560": {"city": "Bennett County", "rent": 960, "zip": "57560"}, "bennett-county-57574": {"city": "Bennett County", "rent": 1080, "zip": "57574"}, "bennett-county-57577": {"city": "Bennett County", "rent": 1010, "zip": "57577"}, "bennett-county-57714": {"city": "Bennett County", "rent": 1200, "zip": "57714"}, "bennett-county-57716": {"city": "Bennett County", "rent": 1040, "zip": "57716"}, "bon-homme-county-57040": {"city": "Bon Homme County", "rent": 1030, "zip": "57040"}, "bon-homme-county-57059": {"city": "Bon Homme County", "rent": 930, "zip": "57059"}, "bon-homme-county-57062": {"city": "Bon Homme County", "rent": 950, "zip": "57062"}, "bon-homme-county-57063": {"city": "Bon Homme County", "rent": 1190, "zip": "57063"}, "bon-homme-county-57066": {"city": "Bon Homme County", "rent": 950, "zip": "57066"}, "bon-homme-county-57315": {"city": "Bon Homme County", "rent": 1070, "zip": "57315"}, "bon-homme-county-57376": {"city": "Bon Homme County", "rent": 990, "zip": "57376"}, "brookings-county-56136": {"city": "Brookings County", "rent": 970, "zip": "56136"}, "brookings-county-57002": {"city": "Brookings County", "rent": 930, "zip": "57002"}, "brookings-county-57006": {"city": "Brookings County", "rent": 950, "zip": "57006"}, "brookings-county-57007": {"city": "Brookings County", "rent": 950, "zip": "57007"}, "brookings-county-57026": {"city": "Brookings County", "rent": 970, "zip": "57026"}, "brookings-county-57061": {"city": "Brookings County", "rent": 1010, "zip": "57061"}, "brookings-county-57071": {"city": "Brookings County", "rent": 1040, "zip": "57071"}, "brookings-county-57212": {"city": "Brookings County", "rent": 970, "zip": "57212"}, "brookings-county-57213": {"city": "Brookings County", "rent": 1110, "zip": "57213"}, "brookings-county-57220": {"city": "Brookings County", "rent": 960, "zip": "57220"}, "brookings-county-57234": {"city": "Brookings County", "rent": 930, "zip": "57234"}, "brookings-county-57268": {"city": "Brookings County", "rent": 1110, "zip": "57268"}, "brookings-county-57276": {"city": "Brookings County", "rent": 930, "zip": "57276"}, "brown-county-57401": {"city": "Brown County", "rent": 930, "zip": "57401"}, "brown-county-57402": {"city": "Brown County", "rent": 930, "zip": "57402"}, "brown-county-57422": {"city": "Brown County", "rent": 980, "zip": "57422"}, "brown-county-57426": {"city": "Brown County", "rent": 930, "zip": "57426"}, "brown-county-57427": {"city": "Brown County", "rent": 980, "zip": "57427"}, "brown-county-57432": {"city": "Brown County", "rent": 930, "zip": "57432"}, "brown-county-57433": {"city": "Brown County", "rent": 930, "zip": "57433"}, "brown-county-57434": {"city": "Brown County", "rent": 930, "zip": "57434"}, "brown-county-57439": {"city": "Brown County", "rent": 1020, "zip": "57439"}, "brown-county-57441": {"city": "Brown County", "rent": 930, "zip": "57441"}, "brown-county-57445": {"city": "Brown County", "rent": 1020, "zip": "57445"}, "brown-county-57446": {"city": "Brown County", "rent": 930, "zip": "57446"}, "brown-county-57449": {"city": "Brown County", "rent": 930, "zip": "57449"}, "brown-county-57451": {"city": "Brown County", "rent": 1010, "zip": "57451"}, "brown-county-57454": {"city": "Brown County", "rent": 930, "zip": "57454"}, "brown-county-57460": {"city": "Brown County", "rent": 1000, "zip": "57460"}, "brown-county-57461": {"city": "Brown County", "rent": 980, "zip": "57461"}, "brown-county-57474": {"city": "Brown County", "rent": 1010, "zip": "57474"}, "brown-county-57479": {"city": "Brown County", "rent": 1080, "zip": "57479"}, "brown-county-57481": {"city": "Brown County", "rent": 1080, "zip": "57481"}, "brown-county-58436": {"city": "Brown County", "rent": 930, "zip": "58436"}, "brown-county-58439": {"city": "Brown County", "rent": 1070, "zip": "58439"}, "brule-county-57325": {"city": "Brule County", "rent": 980, "zip": "57325"}, "brule-county-57355": {"city": "Brule County", "rent": 980, "zip": "57355"}, "brule-county-57369": {"city": "Brule County", "rent": 1020, "zip": "57369"}, "brule-county-57370": {"city": "Brule County", "rent": 990, "zip": "57370"}, "brule-county-57383": {"city": "Brule County", "rent": 930, "zip": "57383"}, "brule-county-57523": {"city": "Brule County", "rent": 930, "zip": "57523"}, "buffalo-county-57325": {"city": "Buffalo County", "rent": 980, "zip": "57325"}, "buffalo-county-57339": {"city": "Buffalo County", "rent": 1210, "zip": "57339"}, "buffalo-county-57341": {"city": "Buffalo County", "rent": 980, "zip": "57341"}, "buffalo-county-57355": {"city": "Buffalo County", "rent": 980, "zip": "57355"}, "buffalo-county-57362": {"city": "Buffalo County", "rent": 980, "zip": "57362"}, "buffalo-county-57370": {"city": "Buffalo County", "rent": 990, "zip": "57370"}, "butte-county-57717": {"city": "Butte County", "rent": 1090, "zip": "57717"}, "butte-county-57758": {"city": "Butte County", "rent": 1240, "zip": "57758"}, "butte-county-57760": {"city": "Butte County", "rent": 1250, "zip": "57760"}, "butte-county-57762": {"city": "Butte County", "rent": 1080, "zip": "57762"}, "butte-county-57779": {"city": "Butte County", "rent": 1070, "zip": "57779"}, "butte-county-57783": {"city": "Butte County", "rent": 1080, "zip": "57783"}, "butte-county-57788": {"city": "Butte County", "rent": 1090, "zip": "57788"}, "butte-county-57793": {"city": "Butte County", "rent": 1010, "zip": "57793"}, "campbell-county-57437": {"city": "Campbell County", "rent": 930, "zip": "57437"}, "campbell-county-57452": {"city": "Campbell County", "rent": 1000, "zip": "57452"}, "campbell-county-57472": {"city": "Campbell County", "rent": 1110, "zip": "57472"}, "campbell-county-57601": {"city": "Campbell County", "rent": 970, "zip": "57601"}, "campbell-county-57631": {"city": "Campbell County", "rent": 1010, "zip": "57631"}, "campbell-county-57632": {"city": "Campbell County", "rent": 940, "zip": "57632"}, "campbell-county-57646": {"city": "Campbell County", "rent": 970, "zip": "57646"}, "campbell-county-57648": {"city": "Campbell County", "rent": 930, "zip": "57648"}, "charles-mix-county-57313": {"city": "Charles Mix County", "rent": 930, "zip": "57313"}, "charles-mix-county-57315": {"city": "Charles Mix County", "rent": 1070, "zip": "57315"}, "charles-mix-county-57329": {"city": "Charles Mix County", "rent": 1290, "zip": "57329"}, "charles-mix-county-57330": {"city": "Charles Mix County", "rent": 960, "zip": "57330"}, "charles-mix-county-57342": {"city": "Charles Mix County", "rent": 980, "zip": "57342"}, "charles-mix-county-57356": {"city": "Charles Mix County", "rent": 930, "zip": "57356"}, "charles-mix-county-57361": {"city": "Charles Mix County", "rent": 940, "zip": "57361"}, "charles-mix-county-57367": {"city": "Charles Mix County", "rent": 970, "zip": "57367"}, "charles-mix-county-57369": {"city": "Charles Mix County", "rent": 1020, "zip": "57369"}, "charles-mix-county-57376": {"city": "Charles Mix County", "rent": 990, "zip": "57376"}, "charles-mix-county-57380": {"city": "Charles Mix County", "rent": 940, "zip": "57380"}, "clark-county-57217": {"city": "Clark County", "rent": 930, "zip": "57217"}, "clark-county-57221": {"city": "Clark County", "rent": 930, "zip": "57221"}, "clark-county-57225": {"city": "Clark County", "rent": 930, "zip": "57225"}, "clark-county-57236": {"city": "Clark County", "rent": 950, "zip": "57236"}, "clark-county-57243": {"city": "Clark County", "rent": 1050, "zip": "57243"}, "clark-county-57258": {"city": "Clark County", "rent": 930, "zip": "57258"}, "clark-county-57271": {"city": "Clark County", "rent": 940, "zip": "57271"}, "clark-county-57272": {"city": "Clark County", "rent": 980, "zip": "57272"}, "clark-county-57274": {"city": "Clark County", "rent": 930, "zip": "57274"}, "clark-county-57278": {"city": "Clark County", "rent": 940, "zip": "57278"}, "clark-county-57322": {"city": "Clark County", "rent": 1060, "zip": "57322"}, "clark-county-57353": {"city": "Clark County", "rent": 990, "zip": "57353"}, "clark-county-57434": {"city": "Clark County", "rent": 930, "zip": "57434"}, "clay-county-57004": {"city": "Clay County", "rent": 1010, "zip": "57004"}, "clay-county-57010": {"city": "Clay County", "rent": 960, "zip": "57010"}, "clay-county-57014": {"city": "Clay County", "rent": 930, "zip": "57014"}, "clay-county-57031": {"city": "Clay County", "rent": 930, "zip": "57031"}, "clay-county-57037": {"city": "Clay County", "rent": 960, "zip": "57037"}, "clay-county-57069": {"city": "Clay County", "rent": 930, "zip": "57069"}, "clay-county-57072": {"city": "Clay County", "rent": 1280, "zip": "57072"}, "clay-county-57073": {"city": "Clay County", "rent": 940, "zip": "57073"}, "codington-county-57201": {"city": "Codington County", "rent": 1080, "zip": "57201"}, "codington-county-57217": {"city": "Codington County", "rent": 930, "zip": "57217"}, "codington-county-57235": {"city": "Codington County", "rent": 1010, "zip": "57235"}, "codington-county-57238": {"city": "Codington County", "rent": 970, "zip": "57238"}, "codington-county-57242": {"city": "Codington County", "rent": 1010, "zip": "57242"}, "codington-county-57243": {"city": "Codington County", "rent": 1050, "zip": "57243"}, "codington-county-57245": {"city": "Codington County", "rent": 1020, "zip": "57245"}, "codington-county-57256": {"city": "Codington County", "rent": 1010, "zip": "57256"}, "codington-county-57263": {"city": "Codington County", "rent": 930, "zip": "57263"}, "codington-county-57264": {"city": "Codington County", "rent": 930, "zip": "57264"}, "codington-county-57265": {"city": "Codington County", "rent": 990, "zip": "57265"}, "codington-county-57272": {"city": "Codington County", "rent": 980, "zip": "57272"}, "corson-county-57601": {"city": "Corson County", "rent": 970, "zip": "57601"}, "corson-county-57621": {"city": "Corson County", "rent": 930, "zip": "57621"}, "corson-county-57633": {"city": "Corson County", "rent": 930, "zip": "57633"}, "corson-county-57634": {"city": "Corson County", "rent": 930, "zip": "57634"}, "corson-county-57638": {"city": "Corson County", "rent": 930, "zip": "57638"}, "corson-county-57639": {"city": "Corson County", "rent": 950, "zip": "57639"}, "corson-county-57641": {"city": "Corson County", "rent": 950, "zip": "57641"}, "corson-county-57642": {"city": "Corson County", "rent": 950, "zip": "57642"}, "corson-county-57644": {"city": "Corson County", "rent": 1010, "zip": "57644"}, "corson-county-57645": {"city": "Corson County", "rent": 930, "zip": "57645"}, "corson-county-57656": {"city": "Corson County", "rent": 930, "zip": "57656"}, "corson-county-57657": {"city": "Corson County", "rent": 950, "zip": "57657"}, "corson-county-57658": {"city": "Corson County", "rent": 950, "zip": "57658"}, "corson-county-57659": {"city": "Corson County", "rent": 960, "zip": "57659"}, "corson-county-57660": {"city": "Corson County", "rent": 930, "zip": "57660"}, "corson-county-58568": {"city": "Corson County", "rent": 980, "zip": "58568"}, "davison-county-57301": {"city": "Davison County", "rent": 930, "zip": "57301"}, "davison-county-57328": {"city": "Davison County", "rent": 990, "zip": "57328"}, "davison-county-57331": {"city": "Davison County", "rent": 970, "zip": "57331"}, "davison-county-57334": {"city": "Davison County", "rent": 990, "zip": "57334"}, "davison-county-57359": {"city": "Davison County", "rent": 1070, "zip": "57359"}, "davison-county-57363": {"city": "Davison County", "rent": 1180, "zip": "57363"}, "davison-county-57375": {"city": "Davison County", "rent": 930, "zip": "57375"}, "day-county-57219": {"city": "Day County", "rent": 930, "zip": "57219"}, "day-county-57232": {"city": "Day County", "rent": 1060, "zip": "57232"}, "day-county-57235": {"city": "Day County", "rent": 1010, "zip": "57235"}, "day-county-57239": {"city": "Day County", "rent": 990, "zip": "57239"}, "day-county-57256": {"city": "Day County", "rent": 1010, "zip": "57256"}, "day-county-57261": {"city": "Day County", "rent": 980, "zip": "57261"}, "day-county-57273": {"city": "Day County", "rent": 1010, "zip": "57273"}, "day-county-57274": {"city": "Day County", "rent": 930, "zip": "57274"}, "day-county-57422": {"city": "Day County", "rent": 980, "zip": "57422"}, "day-county-57434": {"city": "Day County", "rent": 930, "zip": "57434"}, "day-county-57445": {"city": "Day County", "rent": 1020, "zip": "57445"}, "day-county-57454": {"city": "Day County", "rent": 930, "zip": "57454"}, "day-county-57468": {"city": "Day County", "rent": 930, "zip": "57468"}, "deuel-county-57213": {"city": "Deuel County", "rent": 1110, "zip": "57213"}, "deuel-county-57218": {"city": "Deuel County", "rent": 1390, "zip": "57218"}, "deuel-county-57223": {"city": "Deuel County", "rent": 1170, "zip": "57223"}, "deuel-county-57226": {"city": "Deuel County", "rent": 930, "zip": "57226"}, "deuel-county-57234": {"city": "Deuel County", "rent": 930, "zip": "57234"}, "deuel-county-57237": {"city": "Deuel County", "rent": 1070, "zip": "57237"}, "deuel-county-57238": {"city": "Deuel County", "rent": 970, "zip": "57238"}, "deuel-county-57259": {"city": "Deuel County", "rent": 930, "zip": "57259"}, "deuel-county-57265": {"city": "Deuel County", "rent": 990, "zip": "57265"}, "deuel-county-57268": {"city": "Deuel County", "rent": 1110, "zip": "57268"}, "dewey-county-57442": {"city": "Dewey County", "rent": 1010, "zip": "57442"}, "dewey-county-57601": {"city": "Dewey County", "rent": 970, "zip": "57601"}, "dewey-county-57623": {"city": "Dewey County", "rent": 930, "zip": "57623"}, "dewey-county-57625": {"city": "Dewey County", "rent": 970, "zip": "57625"}, "dewey-county-57630": {"city": "Dewey County", "rent": 950, "zip": "57630"}, "dewey-county-57633": {"city": "Dewey County", "rent": 930, "zip": "57633"}, "dewey-county-57636": {"city": "Dewey County", "rent": 950, "zip": "57636"}, "dewey-county-57652": {"city": "Dewey County", "rent": 970, "zip": "57652"}, "dewey-county-57656": {"city": "Dewey County", "rent": 930, "zip": "57656"}, "dewey-county-57657": {"city": "Dewey County", "rent": 950, "zip": "57657"}, "dewey-county-57661": {"city": "Dewey County", "rent": 960, "zip": "57661"}, "douglas-county-57313": {"city": "Douglas County", "rent": 930, "zip": "57313"}, "douglas-county-57328": {"city": "Douglas County", "rent": 990, "zip": "57328"}, "douglas-county-57330": {"city": "Douglas County", "rent": 960, "zip": "57330"}, "douglas-county-57331": {"city": "Douglas County", "rent": 970, "zip": "57331"}, "douglas-county-57342": {"city": "Douglas County", "rent": 980, "zip": "57342"}, "douglas-county-57344": {"city": "Douglas County", "rent": 990, "zip": "57344"}, "douglas-county-57364": {"city": "Douglas County", "rent": 990, "zip": "57364"}, "douglas-county-57366": {"city": "Douglas County", "rent": 930, "zip": "57366"}, "douglas-county-57369": {"city": "Douglas County", "rent": 1020, "zip": "57369"}, "douglas-county-57375": {"city": "Douglas County", "rent": 930, "zip": "57375"}, "edmunds-county-57428": {"city": "Edmunds County", "rent": 930, "zip": "57428"}, "edmunds-county-57435": {"city": "Edmunds County", "rent": 950, "zip": "57435"}, "edmunds-county-57448": {"city": "Edmunds County", "rent": 960, "zip": "57448"}, "edmunds-county-57451": {"city": "Edmunds County", "rent": 1010, "zip": "57451"}, "edmunds-county-57456": {"city": "Edmunds County", "rent": 1330, "zip": "57456"}, "edmunds-county-57460": {"city": "Edmunds County", "rent": 1000, "zip": "57460"}, "edmunds-county-57466": {"city": "Edmunds County", "rent": 950, "zip": "57466"}, "edmunds-county-57471": {"city": "Edmunds County", "rent": 1030, "zip": "57471"}, "edmunds-county-57475": {"city": "Edmunds County", "rent": 1010, "zip": "57475"}, "edmunds-county-57481": {"city": "Edmunds County", "rent": 1080, "zip": "57481"}, "fall-river-county-57722": {"city": "Fall River County", "rent": 1150, "zip": "57722"}, "fall-river-county-57735": {"city": "Fall River County", "rent": 990, "zip": "57735"}, "fall-river-county-57747": {"city": "Fall River County", "rent": 1140, "zip": "57747"}, "fall-river-county-57763": {"city": "Fall River County", "rent": 1160, "zip": "57763"}, "fall-river-county-57766": {"city": "Fall River County", "rent": 1150, "zip": "57766"}, "fall-river-county-57782": {"city": "Fall River County", "rent": 1160, "zip": "57782"}, "faulk-county-57345": {"city": "Faulk County", "rent": 970, "zip": "57345"}, "faulk-county-57424": {"city": "Faulk County", "rent": 930, "zip": "57424"}, "faulk-county-57435": {"city": "Faulk County", "rent": 950, "zip": "57435"}, "faulk-county-57438": {"city": "Faulk County", "rent": 1040, "zip": "57438"}, "faulk-county-57460": {"city": "Faulk County", "rent": 1000, "zip": "57460"}, "faulk-county-57465": {"city": "Faulk County", "rent": 940, "zip": "57465"}, "faulk-county-57466": {"city": "Faulk County", "rent": 950, "zip": "57466"}, "faulk-county-57467": {"city": "Faulk County", "rent": 980, "zip": "57467"}, "faulk-county-57469": {"city": "Faulk County", "rent": 930, "zip": "57469"}, "faulk-county-57470": {"city": "Faulk County", "rent": 950, "zip": "57470"}, "faulk-county-57473": {"city": "Faulk County", "rent": 1010, "zip": "57473"}, "grant-county-57216": {"city": "Grant County", "rent": 940, "zip": "57216"}, "grant-county-57227": {"city": "Grant County", "rent": 1050, "zip": "57227"}, "grant-county-57246": {"city": "Grant County", "rent": 930, "zip": "57246"}, "grant-county-57251": {"city": "Grant County", "rent": 1020, "zip": "57251"}, "grant-county-57252": {"city": "Grant County", "rent": 930, "zip": "57252"}, "grant-county-57256": {"city": "Grant County", "rent": 1010, "zip": "57256"}, "grant-county-57259": {"city": "Grant County", "rent": 930, "zip": "57259"}, "grant-county-57263": {"city": "Grant County", "rent": 930, "zip": "57263"}, "grant-county-57264": {"city": "Grant County", "rent": 930, "zip": "57264"}, "grant-county-57265": {"city": "Grant County", "rent": 990, "zip": "57265"}, "grant-county-57266": {"city": "Grant County", "rent": 1010, "zip": "57266"}, "grant-county-57269": {"city": "Grant County", "rent": 940, "zip": "57269"}, "grant-county-57273": {"city": "Grant County", "rent": 1010, "zip": "57273"}, "grant-county-57279": {"city": "Grant County", "rent": 1120, "zip": "57279"}, "gregory-county-57317": {"city": "Gregory County", "rent": 930, "zip": "57317"}, "gregory-county-57335": {"city": "Gregory County", "rent": 950, "zip": "57335"}, "gregory-county-57523": {"city": "Gregory County", "rent": 930, "zip": "57523"}, "gregory-county-57529": {"city": "Gregory County", "rent": 1010, "zip": "57529"}, "gregory-county-57533": {"city": "Gregory County", "rent": 1080, "zip": "57533"}, "gregory-county-57538": {"city": "Gregory County", "rent": 930, "zip": "57538"}, "gregory-county-57571": {"city": "Gregory County", "rent": 930, "zip": "57571"}, "gregory-county-68719": {"city": "Gregory County", "rent": 980, "zip": "68719"}, "haakon-county-57537": {"city": "Haakon County", "rent": 1020, "zip": "57537"}, "haakon-county-57543": {"city": "Haakon County", "rent": 930, "zip": "57543"}, "haakon-county-57552": {"city": "Haakon County", "rent": 970, "zip": "57552"}, "haakon-county-57553": {"city": "Haakon County", "rent": 1010, "zip": "57553"}, "haakon-county-57567": {"city": "Haakon County", "rent": 950, "zip": "57567"}, "haakon-county-57775": {"city": "Haakon County", "rent": 1010, "zip": "57775"}, "hamlin-county-57201": {"city": "Hamlin County", "rent": 1080, "zip": "57201"}, "hamlin-county-57212": {"city": "Hamlin County", "rent": 970, "zip": "57212"}, "hamlin-county-57220": {"city": "Hamlin County", "rent": 960, "zip": "57220"}, "hamlin-county-57221": {"city": "Hamlin County", "rent": 930, "zip": "57221"}, "hamlin-county-57223": {"city": "Hamlin County", "rent": 1170, "zip": "57223"}, "hamlin-county-57226": {"city": "Hamlin County", "rent": 930, "zip": "57226"}, "hamlin-county-57233": {"city": "Hamlin County", "rent": 970, "zip": "57233"}, "hamlin-county-57234": {"city": "Hamlin County", "rent": 930, "zip": "57234"}, "hamlin-county-57238": {"city": "Hamlin County", "rent": 970, "zip": "57238"}, "hamlin-county-57241": {"city": "Hamlin County", "rent": 930, "zip": "57241"}, "hamlin-county-57242": {"city": "Hamlin County", "rent": 1010, "zip": "57242"}, "hamlin-county-57243": {"city": "Hamlin County", "rent": 1050, "zip": "57243"}, "hamlin-county-57248": {"city": "Hamlin County", "rent": 1180, "zip": "57248"}, "hamlin-county-57271": {"city": "Hamlin County", "rent": 940, "zip": "57271"}, "hand-county-57345": {"city": "Hand County", "rent": 970, "zip": "57345"}, "hand-county-57362": {"city": "Hand County", "rent": 980, "zip": "57362"}, "hand-county-57371": {"city": "Hand County", "rent": 940, "zip": "57371"}, "hand-county-57373": {"city": "Hand County", "rent": 1020, "zip": "57373"}, "hand-county-57381": {"city": "Hand County", "rent": 1120, "zip": "57381"}, "hand-county-57382": {"city": "Hand County", "rent": 930, "zip": "57382"}, "hand-county-57467": {"city": "Hand County", "rent": 980, "zip": "57467"}, "hand-county-57469": {"city": "Hand County", "rent": 930, "zip": "57469"}, "hand-county-57470": {"city": "Hand County", "rent": 950, "zip": "57470"}, "hand-county-57476": {"city": "Hand County", "rent": 980, "zip": "57476"}, "hanson-county-57301": {"city": "Hanson County", "rent": 930, "zip": "57301"}, "hanson-county-57311": {"city": "Hanson County", "rent": 930, "zip": "57311"}, "hanson-county-57319": {"city": "Hanson County", "rent": 990, "zip": "57319"}, "hanson-county-57321": {"city": "Hanson County", "rent": 980, "zip": "57321"}, "hanson-county-57332": {"city": "Hanson County", "rent": 930, "zip": "57332"}, "hanson-county-57334": {"city": "Hanson County", "rent": 990, "zip": "57334"}, "hanson-county-57340": {"city": "Hanson County", "rent": 980, "zip": "57340"}, "hanson-county-57366": {"city": "Hanson County", "rent": 930, "zip": "57366"}, "hanson-county-57374": {"city": "Hanson County", "rent": 1010, "zip": "57374"}, "harding-county-57649": {"city": "Harding County", "rent": 930, "zip": "57649"}, "harding-county-57650": {"city": "Harding County", "rent": 950, "zip": "57650"}, "harding-county-57651": {"city": "Harding County", "rent": 950, "zip": "57651"}, "harding-county-57717": {"city": "Harding County", "rent": 1090, "zip": "57717"}, "harding-county-57720": {"city": "Harding County", "rent": 950, "zip": "57720"}, "harding-county-57724": {"city": "Harding County", "rent": 1090, "zip": "57724"}, "harding-county-57755": {"city": "Harding County", "rent": 930, "zip": "57755"}, "harding-county-57760": {"city": "Harding County", "rent": 1250, "zip": "57760"}, "harding-county-57776": {"city": "Harding County", "rent": 950, "zip": "57776"}, "harding-county-58649": {"city": "Harding County", "rent": 930, "zip": "58649"}, "harding-county-58653": {"city": "Harding County", "rent": 930, "zip": "58653"}, "hughes-county-57501": {"city": "Hughes County", "rent": 1040, "zip": "57501"}, "hughes-county-57522": {"city": "Hughes County", "rent": 930, "zip": "57522"}, "hughes-county-57536": {"city": "Hughes County", "rent": 970, "zip": "57536"}, "hughes-county-57540": {"city": "Hughes County", "rent": 990, "zip": "57540"}, "hughes-county-57564": {"city": "Hughes County", "rent": 950, "zip": "57564"}, "hutchinson-county-57029": {"city": "Hutchinson County", "rent": 930, "zip": "57029"}, "hutchinson-county-57043": {"city": "Hutchinson County", "rent": 950, "zip": "57043"}, "hutchinson-county-57045": {"city": "Hutchinson County", "rent": 940, "zip": "57045"}, "hutchinson-county-57052": {"city": "Hutchinson County", "rent": 940, "zip": "57052"}, "hutchinson-county-57059": {"city": "Hutchinson County", "rent": 930, "zip": "57059"}, "hutchinson-county-57311": {"city": "Hutchinson County", "rent": 930, "zip": "57311"}, "hutchinson-county-57319": {"city": "Hutchinson County", "rent": 990, "zip": "57319"}, "hutchinson-county-57330": {"city": "Hutchinson County", "rent": 960, "zip": "57330"}, "hutchinson-county-57331": {"city": "Hutchinson County", "rent": 970, "zip": "57331"}, "hutchinson-county-57332": {"city": "Hutchinson County", "rent": 930, "zip": "57332"}, "hutchinson-county-57334": {"city": "Hutchinson County", "rent": 990, "zip": "57334"}, "hutchinson-county-57354": {"city": "Hutchinson County", "rent": 950, "zip": "57354"}, "hutchinson-county-57366": {"city": "Hutchinson County", "rent": 930, "zip": "57366"}, "hutchinson-county-57376": {"city": "Hutchinson County", "rent": 990, "zip": "57376"}, "hyde-county-57345": {"city": "Hyde County", "rent": 970, "zip": "57345"}, "hyde-county-57346": {"city": "Hyde County", "rent": 970, "zip": "57346"}, "hyde-county-57371": {"city": "Hyde County", "rent": 940, "zip": "57371"}, "hyde-county-57536": {"city": "Hyde County", "rent": 970, "zip": "57536"}, "hyde-county-57540": {"city": "Hyde County", "rent": 990, "zip": "57540"}, "hyde-county-57564": {"city": "Hyde County", "rent": 950, "zip": "57564"}, "jackson-county-57521": {"city": "Jackson County", "rent": 940, "zip": "57521"}, "jackson-county-57543": {"city": "Jackson County", "rent": 930, "zip": "57543"}, "jackson-county-57547": {"city": "Jackson County", "rent": 1040, "zip": "57547"}, "jackson-county-57552": {"city": "Jackson County", "rent": 970, "zip": "57552"}, "jackson-county-57560": {"city": "Jackson County", "rent": 960, "zip": "57560"}, "jackson-county-57567": {"city": "Jackson County", "rent": 950, "zip": "57567"}, "jackson-county-57577": {"city": "Jackson County", "rent": 1010, "zip": "57577"}, "jackson-county-57714": {"city": "Jackson County", "rent": 1200, "zip": "57714"}, "jackson-county-57750": {"city": "Jackson County", "rent": 1010, "zip": "57750"}, "jackson-county-57752": {"city": "Jackson County", "rent": 950, "zip": "57752"}, "jackson-county-57775": {"city": "Jackson County", "rent": 1010, "zip": "57775"}, "jackson-county-57790": {"city": "Jackson County", "rent": 1010, "zip": "57790"}, "jerauld-county-57312": {"city": "Jerauld County", "rent": 1210, "zip": "57312"}, "jerauld-county-57341": {"city": "Jerauld County", "rent": 980, "zip": "57341"}, "jerauld-county-57355": {"city": "Jerauld County", "rent": 980, "zip": "57355"}, "jerauld-county-57358": {"city": "Jerauld County", "rent": 930, "zip": "57358"}, "jerauld-county-57382": {"city": "Jerauld County", "rent": 930, "zip": "57382"}, "jerauld-county-57385": {"city": "Jerauld County", "rent": 930, "zip": "57385"}, "jones-county-57531": {"city": "Jones County", "rent": 960, "zip": "57531"}, "jones-county-57552": {"city": "Jones County", "rent": 970, "zip": "57552"}, "jones-county-57559": {"city": "Jones County", "rent": 930, "zip": "57559"}, "jones-county-57562": {"city": "Jones County", "rent": 960, "zip": "57562"}, "kingsbury-county-57051": {"city": "Kingsbury County", "rent": 940, "zip": "57051"}, "kingsbury-county-57054": {"city": "Kingsbury County", "rent": 930, "zip": "57054"}, "kingsbury-county-57212": {"city": "Kingsbury County", "rent": 970, "zip": "57212"}, "kingsbury-county-57214": {"city": "Kingsbury County", "rent": 1010, "zip": "57214"}, "kingsbury-county-57221": {"city": "Kingsbury County", "rent": 930, "zip": "57221"}, "kingsbury-county-57231": {"city": "Kingsbury County", "rent": 970, "zip": "57231"}, "kingsbury-county-57233": {"city": "Kingsbury County", "rent": 970, "zip": "57233"}, "kingsbury-county-57248": {"city": "Kingsbury County", "rent": 1180, "zip": "57248"}, "kingsbury-county-57249": {"city": "Kingsbury County", "rent": 930, "zip": "57249"}, "kingsbury-county-57323": {"city": "Kingsbury County", "rent": 1010, "zip": "57323"}, "kingsbury-county-57353": {"city": "Kingsbury County", "rent": 990, "zip": "57353"}, "kingsbury-county-57386": {"city": "Kingsbury County", "rent": 970, "zip": "57386"}, "lake-county-57016": {"city": "Lake County", "rent": 1230, "zip": "57016"}, "lake-county-57017": {"city": "Lake County", "rent": 930, "zip": "57017"}, "lake-county-57018": {"city": "Lake County", "rent": 930, "zip": "57018"}, "lake-county-57022": {"city": "Lake County", "rent": 1090, "zip": "57022"}, "lake-county-57042": {"city": "Lake County", "rent": 960, "zip": "57042"}, "lake-county-57048": {"city": "Lake County", "rent": 930, "zip": "57048"}, "lake-county-57050": {"city": "Lake County", "rent": 990, "zip": "57050"}, "lake-county-57051": {"city": "Lake County", "rent": 940, "zip": "57051"}, "lake-county-57054": {"city": "Lake County", "rent": 930, "zip": "57054"}, "lake-county-57057": {"city": "Lake County", "rent": 940, "zip": "57057"}, "lake-county-57058": {"city": "Lake County", "rent": 1100, "zip": "57058"}, "lake-county-57071": {"city": "Lake County", "rent": 1040, "zip": "57071"}, "lake-county-57075": {"city": "Lake County", "rent": 930, "zip": "57075"}, "lake-county-57076": {"city": "Lake County", "rent": 960, "zip": "57076"}, "lake-county-57212": {"city": "Lake County", "rent": 970, "zip": "57212"}, "lawrence-county-57717": {"city": "Lawrence County", "rent": 1090, "zip": "57717"}, "lawrence-county-57732": {"city": "Lawrence County", "rent": 1010, "zip": "57732"}, "lawrence-county-57754": {"city": "Lawrence County", "rent": 1010, "zip": "57754"}, "lawrence-county-57759": {"city": "Lawrence County", "rent": 1040, "zip": "57759"}, "lawrence-county-57779": {"city": "Lawrence County", "rent": 1070, "zip": "57779"}, "lawrence-county-57783": {"city": "Lawrence County", "rent": 1080, "zip": "57783"}, "lawrence-county-57785": {"city": "Lawrence County", "rent": 990, "zip": "57785"}, "lawrence-county-57793": {"city": "Lawrence County", "rent": 1010, "zip": "57793"}, "lawrence-county-57799": {"city": "Lawrence County", "rent": 1080, "zip": "57799"}, "lyman-county-57365": {"city": "Lyman County", "rent": 1000, "zip": "57365"}, "lyman-county-57532": {"city": "Lyman County", "rent": 1030, "zip": "57532"}, "lyman-county-57533": {"city": "Lyman County", "rent": 1080, "zip": "57533"}, "lyman-county-57534": {"city": "Lyman County", "rent": 1020, "zip": "57534"}, "lyman-county-57544": {"city": "Lyman County", "rent": 1050, "zip": "57544"}, "lyman-county-57548": {"city": "Lyman County", "rent": 930, "zip": "57548"}, "lyman-county-57568": {"city": "Lyman County", "rent": 940, "zip": "57568"}, "lyman-county-57569": {"city": "Lyman County", "rent": 1000, "zip": "57569"}, "lyman-county-57576": {"city": "Lyman County", "rent": 980, "zip": "57576"}, "mcpherson-county-57428": {"city": "McPherson County", "rent": 930, "zip": "57428"}, "mcpherson-county-57437": {"city": "McPherson County", "rent": 930, "zip": "57437"}, "mcpherson-county-57448": {"city": "McPherson County", "rent": 960, "zip": "57448"}, "mcpherson-county-57456": {"city": "McPherson County", "rent": 1330, "zip": "57456"}, "mcpherson-county-57457": {"city": "McPherson County", "rent": 1090, "zip": "57457"}, "mcpherson-county-57471": {"city": "McPherson County", "rent": 1030, "zip": "57471"}, "mcpherson-county-57481": {"city": "McPherson County", "rent": 1080, "zip": "57481"}, "mcpherson-county-58413": {"city": "McPherson County", "rent": 930, "zip": "58413"}, "mcpherson-county-58439": {"city": "McPherson County", "rent": 1070, "zip": "58439"}, "marshall-county-57224": {"city": "Marshall County", "rent": 930, "zip": "57224"}, "marshall-county-57232": {"city": "Marshall County", "rent": 1060, "zip": "57232"}, "marshall-county-57247": {"city": "Marshall County", "rent": 980, "zip": "57247"}, "marshall-county-57262": {"city": "Marshall County", "rent": 930, "zip": "57262"}, "marshall-county-57270": {"city": "Marshall County", "rent": 930, "zip": "57270"}, "marshall-county-57421": {"city": "Marshall County", "rent": 930, "zip": "57421"}, "marshall-county-57430": {"city": "Marshall County", "rent": 930, "zip": "57430"}, "marshall-county-57432": {"city": "Marshall County", "rent": 930, "zip": "57432"}, "marshall-county-57454": {"city": "Marshall County", "rent": 930, "zip": "57454"}, "mellette-county-57521": {"city": "Mellette County", "rent": 940, "zip": "57521"}, "mellette-county-57559": {"city": "Mellette County", "rent": 930, "zip": "57559"}, "mellette-county-57560": {"city": "Mellette County", "rent": 960, "zip": "57560"}, "mellette-county-57579": {"city": "Mellette County", "rent": 980, "zip": "57579"}, "mellette-county-57580": {"city": "Mellette County", "rent": 970, "zip": "57580"}, "mellette-county-57585": {"city": "Mellette County", "rent": 970, "zip": "57585"}, "miner-county-57051": {"city": "Miner County", "rent": 940, "zip": "57051"}, "miner-county-57054": {"city": "Miner County", "rent": 930, "zip": "57054"}, "miner-county-57058": {"city": "Miner County", "rent": 1100, "zip": "57058"}, "miner-county-57076": {"city": "Miner County", "rent": 960, "zip": "57076"}, "miner-county-57321": {"city": "Miner County", "rent": 980, "zip": "57321"}, "miner-county-57323": {"city": "Miner County", "rent": 1010, "zip": "57323"}, "miner-county-57337": {"city": "Miner County", "rent": 1060, "zip": "57337"}, "miner-county-57340": {"city": "Miner County", "rent": 980, "zip": "57340"}, "miner-county-57349": {"city": "Miner County", "rent": 930, "zip": "57349"}, "moody-county-56144": {"city": "Moody County", "rent": 980, "zip": "56144"}, "moody-county-56164": {"city": "Moody County", "rent": 970, "zip": "56164"}, "moody-county-57002": {"city": "Moody County", "rent": 930, "zip": "57002"}, "moody-county-57006": {"city": "Moody County", "rent": 950, "zip": "57006"}, "moody-county-57017": {"city": "Moody County", "rent": 930, "zip": "57017"}, "moody-county-57022": {"city": "Moody County", "rent": 1090, "zip": "57022"}, "moody-county-57024": {"city": "Moody County", "rent": 940, "zip": "57024"}, "moody-county-57026": {"city": "Moody County", "rent": 970, "zip": "57026"}, "moody-county-57028": {"city": "Moody County", "rent": 940, "zip": "57028"}, "moody-county-57057": {"city": "Moody County", "rent": 940, "zip": "57057"}, "moody-county-57065": {"city": "Moody County", "rent": 930, "zip": "57065"}, "moody-county-57071": {"city": "Moody County", "rent": 1040, "zip": "57071"}, "moody-county-57075": {"city": "Moody County", "rent": 930, "zip": "57075"}, "perkins-county-57620": {"city": "Perkins County", "rent": 1210, "zip": "57620"}, "perkins-county-57626": {"city": "Perkins County", "rent": 1090, "zip": "57626"}, "perkins-county-57638": {"city": "Perkins County", "rent": 930, "zip": "57638"}, "perkins-county-57640": {"city": "Perkins County", "rent": 960, "zip": "57640"}, "perkins-county-57644": {"city": "Perkins County", "rent": 1010, "zip": "57644"}, "perkins-county-57649": {"city": "Perkins County", "rent": 930, "zip": "57649"}, "perkins-county-57651": {"city": "Perkins County", "rent": 950, "zip": "57651"}, "perkins-county-57758": {"city": "Perkins County", "rent": 1240, "zip": "57758"}, "perkins-county-58639": {"city": "Perkins County", "rent": 930, "zip": "58639"}, "potter-county-57442": {"city": "Potter County", "rent": 1010, "zip": "57442"}, "potter-county-57450": {"city": "Potter County", "rent": 1050, "zip": "57450"}, "potter-county-57455": {"city": "Potter County", "rent": 1070, "zip": "57455"}, "potter-county-57473": {"city": "Potter County", "rent": 1010, "zip": "57473"}, "potter-county-57475": {"city": "Potter County", "rent": 1010, "zip": "57475"}, "roberts-county-56219": {"city": "Roberts County", "rent": 1320, "zip": "56219"}, "roberts-county-57216": {"city": "Roberts County", "rent": 940, "zip": "57216"}, "roberts-county-57224": {"city": "Roberts County", "rent": 930, "zip": "57224"}, "roberts-county-57227": {"city": "Roberts County", "rent": 1050, "zip": "57227"}, "roberts-county-57252": {"city": "Roberts County", "rent": 930, "zip": "57252"}, "roberts-county-57255": {"city": "Roberts County", "rent": 930, "zip": "57255"}, "roberts-county-57256": {"city": "Roberts County", "rent": 1010, "zip": "57256"}, "roberts-county-57257": {"city": "Roberts County", "rent": 930, "zip": "57257"}, "roberts-county-57260": {"city": "Roberts County", "rent": 980, "zip": "57260"}, "roberts-county-57262": {"city": "Roberts County", "rent": 930, "zip": "57262"}, "roberts-county-57266": {"city": "Roberts County", "rent": 1010, "zip": "57266"}, "roberts-county-57269": {"city": "Roberts County", "rent": 940, "zip": "57269"}, "roberts-county-57270": {"city": "Roberts County", "rent": 930, "zip": "57270"}, "roberts-county-57273": {"city": "Roberts County", "rent": 1010, "zip": "57273"}, "roberts-county-57279": {"city": "Roberts County", "rent": 1120, "zip": "57279"}, "roberts-county-58041": {"city": "Roberts County", "rent": 1040, "zip": "58041"}, "sanborn-county-57312": {"city": "Sanborn County", "rent": 1210, "zip": "57312"}, "sanborn-county-57314": {"city": "Sanborn County", "rent": 1260, "zip": "57314"}, "sanborn-county-57323": {"city": "Sanborn County", "rent": 1010, "zip": "57323"}, "sanborn-county-57337": {"city": "Sanborn County", "rent": 1060, "zip": "57337"}, "sanborn-county-57350": {"city": "Sanborn County", "rent": 960, "zip": "57350"}, "sanborn-county-57358": {"city": "Sanborn County", "rent": 930, "zip": "57358"}, "sanborn-county-57359": {"city": "Sanborn County", "rent": 1070, "zip": "57359"}, "sanborn-county-57363": {"city": "Sanborn County", "rent": 1180, "zip": "57363"}, "sanborn-county-57385": {"city": "Sanborn County", "rent": 930, "zip": "57385"}, "spink-county-57258": {"city": "Spink County", "rent": 930, "zip": "57258"}, "spink-county-57322": {"city": "Spink County", "rent": 1060, "zip": "57322"}, "spink-county-57348": {"city": "Spink County", "rent": 1020, "zip": "57348"}, "spink-county-57424": {"city": "Spink County", "rent": 930, "zip": "57424"}, "spink-county-57429": {"city": "Spink County", "rent": 930, "zip": "57429"}, "spink-county-57434": {"city": "Spink County", "rent": 930, "zip": "57434"}, "spink-county-57436": {"city": "Spink County", "rent": 1180, "zip": "57436"}, "spink-county-57440": {"city": "Spink County", "rent": 1060, "zip": "57440"}, "spink-county-57460": {"city": "Spink County", "rent": 1000, "zip": "57460"}, "spink-county-57461": {"city": "Spink County", "rent": 980, "zip": "57461"}, "spink-county-57465": {"city": "Spink County", "rent": 940, "zip": "57465"}, "spink-county-57469": {"city": "Spink County", "rent": 930, "zip": "57469"}, "spink-county-57474": {"city": "Spink County", "rent": 1010, "zip": "57474"}, "spink-county-57476": {"city": "Spink County", "rent": 980, "zip": "57476"}, "spink-county-57477": {"city": "Spink County", "rent": 930, "zip": "57477"}, "stanley-county-57532": {"city": "Stanley County", "rent": 1030, "zip": "57532"}, "stanley-county-57537": {"city": "Stanley County", "rent": 1020, "zip": "57537"}, "stanley-county-57552": {"city": "Stanley County", "rent": 970, "zip": "57552"}, "sully-county-57442": {"city": "Sully County", "rent": 1010, "zip": "57442"}, "sully-county-57501": {"city": "Sully County", "rent": 1040, "zip": "57501"}, "sully-county-57520": {"city": "Sully County", "rent": 1000, "zip": "57520"}, "sully-county-57522": {"city": "Sully County", "rent": 930, "zip": "57522"}, "sully-county-57536": {"city": "Sully County", "rent": 970, "zip": "57536"}, "sully-county-57564": {"city": "Sully County", "rent": 950, "zip": "57564"}, "todd-county-57555": {"city": "Todd County", "rent": 930, "zip": "57555"}, "todd-county-57563": {"city": "Todd County", "rent": 950, "zip": "57563"}, "todd-county-57566": {"city": "Todd County", "rent": 960, "zip": "57566"}, "todd-county-57570": {"city": "Todd County", "rent": 930, "zip": "57570"}, "todd-county-57572": {"city": "Todd County", "rent": 930, "zip": "57572"}, "todd-county-57580": {"city": "Todd County", "rent": 970, "zip": "57580"}, "todd-county-69201": {"city": "Todd County", "rent": 1060, "zip": "69201"}, "todd-county-69212": {"city": "Todd County", "rent": 1020, "zip": "69212"}, "todd-county-69216": {"city": "Todd County", "rent": 1020, "zip": "69216"}, "tripp-county-57528": {"city": "Tripp County", "rent": 930, "zip": "57528"}, "tripp-county-57529": {"city": "Tripp County", "rent": 1010, "zip": "57529"}, "tripp-county-57533": {"city": "Tripp County", "rent": 1080, "zip": "57533"}, "tripp-county-57534": {"city": "Tripp County", "rent": 1020, "zip": "57534"}, "tripp-county-57541": {"city": "Tripp County", "rent": 990, "zip": "57541"}, "tripp-county-57544": {"city": "Tripp County", "rent": 1050, "zip": "57544"}, "tripp-county-57580": {"city": "Tripp County", "rent": 970, "zip": "57580"}, "tripp-county-57584": {"city": "Tripp County", "rent": 970, "zip": "57584"}, "walworth-county-57420": {"city": "Walworth County", "rent": 1080, "zip": "57420"}, "walworth-county-57428": {"city": "Walworth County", "rent": 930, "zip": "57428"}, "walworth-county-57450": {"city": "Walworth County", "rent": 1050, "zip": "57450"}, "walworth-county-57452": {"city": "Walworth County", "rent": 1000, "zip": "57452"}, "walworth-county-57472": {"city": "Walworth County", "rent": 1110, "zip": "57472"}, "walworth-county-57601": {"city": "Walworth County", "rent": 970, "zip": "57601"}, "walworth-county-57631": {"city": "Walworth County", "rent": 1010, "zip": "57631"}, "yankton-county-57031": {"city": "Yankton County", "rent": 930, "zip": "57031"}, "yankton-county-57037": {"city": "Yankton County", "rent": 960, "zip": "57037"}, "yankton-county-57040": {"city": "Yankton County", "rent": 1030, "zip": "57040"}, "yankton-county-57045": {"city": "Yankton County", "rent": 940, "zip": "57045"}, "yankton-county-57046": {"city": "Yankton County", "rent": 1020, "zip": "57046"}, "yankton-county-57059": {"city": "Yankton County", "rent": 930, "zip": "57059"}, "yankton-county-57063": {"city": "Yankton County", "rent": 1190, "zip": "57063"}, "yankton-county-57067": {"city": "Yankton County", "rent": 950, "zip": "57067"}, "yankton-county-57070": {"city": "Yankton County", "rent": 930, "zip": "57070"}, "yankton-county-57072": {"city": "Yankton County", "rent": 1280, "zip": "57072"}, "yankton-county-57078": {"city": "Yankton County", "rent": 930, "zip": "57078"}, "ziebach-county-57622": {"city": "Ziebach County", "rent": 930, "zip": "57622"}, "ziebach-county-57623": {"city": "Ziebach County", "rent": 930, "zip": "57623"}, "ziebach-county-57625": {"city": "Ziebach County", "rent": 970, "zip": "57625"}, "ziebach-county-57626": {"city": "Ziebach County", "rent": 1090, "zip": "57626"}, "ziebach-county-57633": {"city": "Ziebach County", "rent": 930, "zip": "57633"}, "ziebach-county-57644": {"city": "Ziebach County", "rent": 1010, "zip": "57644"}, "ziebach-county-57748": {"city": "Ziebach County", "rent": 1100, "zip": "57748"}}