{"chattanooga-30707": {"city": "Chattanooga", "rent": 1160, "zip": "30707"}, "chattanooga-30710": {"city": "Chattanooga", "rent": 1210, "zip": "30710"}, "chattanooga-30725": {"city": "Chattanooga", "rent": 1100, "zip": "30725"}, "chattanooga-30726": {"city": "Chattanooga", "rent": 1260, "zip": "30726"}, "chattanooga-30728": {"city": "Chattanooga", "rent": 1070, "zip": "30728"}, "chattanooga-30731": {"city": "Chattanooga", "rent": 1010, "zip": "30731"}, "chattanooga-30736": {"city": "Chattanooga", "rent": 1250, "zip": "30736"}, "chattanooga-30738": {"city": "Chattanooga", "rent": 1170, "zip": "30738"}, "chattanooga-30739": {"city": "Chattanooga", "rent": 1350, "zip": "30739"}, "chattanooga-30740": {"city": "Chattanooga", "rent": 1070, "zip": "30740"}, "chattanooga-30741": {"city": "Chattanooga", "rent": 1270, "zip": "30741"}, "chattanooga-30742": {"city": "Chattanooga", "rent": 1250, "zip": "30742"}, "chattanooga-30746": {"city": "Chattanooga", "rent": 1090, "zip": "30746"}, "chattanooga-30747": {"city": "Chattanooga", "rent": 970, "zip": "30747"}, "chattanooga-30750": {"city": "Chattanooga", "rent": 1270, "zip": "30750"}, "chattanooga-30752": {"city": "Chattanooga", "rent": 1130, "zip": "30752"}, "chattanooga-30753": {"city": "Chattanooga", "rent": 970, "zip": "30753"}, "chattanooga-30755": {"city": "Chattanooga", "rent": 1060, "zip": "30755"}, "chattanooga-30757": {"city": "Chattanooga", "rent": 1200, "zip": "30757"}, "chattanooga-37110": {"city": "Chattanooga", "rent": 970, "zip": "37110"}, "chattanooga-37302": {"city": "Chattanooga", "rent": 1310, "zip": "37302"}, "chattanooga-37304": {"city": "Chattanooga", "rent": 1480, "zip": "37304"}, "chattanooga-37308": {"city": "Chattanooga", "rent": 1060, "zip": "37308"}, "chattanooga-37311": {"city": "Chattanooga", "rent": 1220, "zip": "37311"}, "chattanooga-37315": {"city": "Chattanooga", "rent": 1870, "zip": "37315"}, "chattanooga-37327": {"city": "Chattanooga", "rent": 1080, "zip": "37327"}, "chattanooga-37336": {"city": "Chattanooga", "rent": 1250, "zip": "37336"}, "chattanooga-37338": {"city": "Chattanooga", "rent": 1010, "zip": "37338"}, "chattanooga-37340": {"city": "Chattanooga", "rent": 1180, "zip": "37340"}, "chattanooga-37341": {"city": "Chattanooga", "rent": 1510, "zip": "37341"}, "chattanooga-37343": {"city": "Chattanooga", "rent": 1570, "zip": "37343"}, "chattanooga-37347": {"city": "Chattanooga", "rent": 1100, "zip": "37347"}, "chattanooga-37350": {"city": "Chattanooga", "rent": 1900, "zip": "37350"}, "chattanooga-37351": {"city": "Chattanooga", "rent": 1480, "zip": "37351"}, "chattanooga-37353": {"city": "Chattanooga", "rent": 1290, "zip": "37353"}, "chattanooga-37356": {"city": "Chattanooga", "rent": 970, "zip": "37356"}, "chattanooga-37363": {"city": "Chattanooga", "rent": 1870, "zip": "37363"}, "chattanooga-37365": {"city": "Chattanooga", "rent": 970, "zip": "37365"}, "chattanooga-37366": {"city": "Chattanooga", "rent": 1160, "zip": "37366"}, "chattanooga-37367": {"city": "Chattanooga", "rent": 980, "zip": "37367"}, "chattanooga-37373": {"city": "Chattanooga", "rent": 1450, "zip": "37373"}, "chattanooga-37374": {"city": "Chattanooga", "rent": 1150, "zip": "37374"}, "chattanooga-37375": {"city": "Chattanooga", "rent": 1460, "zip": "37375"}, "chattanooga-37377": {"city": "Chattanooga", "rent": 1570, "zip": "37377"}, "chattanooga-37379": {"city": "Chattanooga", "rent": 1260, "zip": "37379"}, "chattanooga-37380": {"city": "Chattanooga", "rent": 1210, "zip": "37380"}, "chattanooga-37384": {"city": "Chattanooga", "rent": 1480, "zip": "37384"}, "chattanooga-37387": {"city": "Chattanooga", "rent": 970, "zip": "37387"}, "chattanooga-37396": {"city": "Chattanooga", "rent": 1210, "zip": "37396"}, "chattanooga-37397": {"city": "Chattanooga", "rent": 1030, "zip": "37397"}, "chattanooga-37401": {"city": "Chattanooga", "rent": 1480, "zip": "37401"}, "chattanooga-37402": {"city": "Chattanooga", "rent": 1520, "zip": "37402"}, "chattanooga-37403": {"city": "Chattanooga", "rent": 1650, "zip": "37403"}, "chattanooga-37404": {"city": "Chattanooga", "rent": 1300, "zip": "37404"}, "chattanooga-37405": {"city": "Chattanooga", "rent": 1720, "zip": "37405"}, "chattanooga-37406": {"city": "Chattanooga", "rent": 1200, "zip": "37406"}, "chattanooga-37407": {"city": "Chattanooga", "rent": 1180, "zip": "37407"}, "chattanooga-37408": {"city": "Chattanooga", "rent": 1660, "zip": "37408"}, "chattanooga-37409": {"city": "Chattanooga", "rent": 1450, "zip": "37409"}, "chattanooga-37410": {"city": "Chattanooga", "rent": 1100, "zip": "37410"}, "chattanooga-37411": {"city": "Chattanooga", "rent": 1340, "zip": "37411"}, "chattanooga-37412": {"city": "Chattanooga", "rent": 1390, "zip": "37412"}, "chattanooga-37414": {"city": "Chattanooga", "rent": 1480, "zip": "37414"}, "chattanooga-37415": {"city": "Chattanooga", "rent": 1580, "zip": "37415"}, "chattanooga-37416": {"city": "Chattanooga", "rent": 1360, "zip": "37416"}, "chattanooga-37419": {"city": "Chattanooga", "rent": 1260, "zip": "37419"}, "chattanooga-37421": {"city": "Chattanooga", "rent": 1830, "zip": "37421"}, "chattanooga-37422": {"city": "Chattanooga", "rent": 1480, "zip": "37422"}, "chattanooga-37424": {"city": "Chattanooga", "rent": 1480, "zip": "37424"}, "chattanooga-37450": {"city": "Chattanooga", "rent": 1480, "zip": "37450"}, "chattanooga-38585": {"city": "Chattanooga", "rent": 970, "zip": "38585"}, "clarksville-37010": {"city": "Clarksville", "rent": 1360, "zip": "37010"}, "clarksville-37015": {"city": "Clarksville", "rent": 1460, "zip": "37015"}, "clarksville-37032": {"city": "Clarksville", "rent": 1320, "zip": "37032"}, "clarksville-37035": {"city": "Clarksville", "rent": 1640, "zip": "37035"}, "clarksville-37040": {"city": "Clarksville", "rent": 1380, "zip": "37040"}, "clarksville-37041": {"city": "Clarksville", "rent": 1410, "zip": "37041"}, "clarksville-37042": {"city": "Clarksville", "rent": 1400, "zip": "37042"}, "clarksville-37043": {"city": "Clarksville", "rent": 1440, "zip": "37043"}, "clarksville-37050": {"city": "Clarksville", "rent": 1110, "zip": "37050"}, "clarksville-37051": {"city": "Clarksville", "rent": 1320, "zip": "37051"}, "clarksville-37052": {"city": "Clarksville", "rent": 1320, "zip": "37052"}, "clarksville-37061": {"city": "Clarksville", "rent": 1110, "zip": "37061"}, "clarksville-37079": {"city": "Clarksville", "rent": 1120, "zip": "37079"}, "clarksville-37142": {"city": "Clarksville", "rent": 1110, "zip": "37142"}, "clarksville-37171": {"city": "Clarksville", "rent": 1320, "zip": "37171"}, "clarksville-37191": {"city": "Clarksville", "rent": 1280, "zip": "37191"}, "clarksville-42038": {"city": "Clarksville", "rent": 1110, "zip": "42038"}, "clarksville-42211": {"city": "Clarksville", "rent": 1110, "zip": "42211"}, "clarksville-42215": {"city": "Clarksville", "rent": 1110, "zip": "42215"}, "clarksville-42217": {"city": "Clarksville", "rent": 1110, "zip": "42217"}, "clarksville-42220": {"city": "Clarksville", "rent": 1110, "zip": "42220"}, "clarksville-42223": {"city": "Clarksville", "rent": 1610, "zip": "42223"}, "clarksville-42232": {"city": "Clarksville", "rent": 1110, "zip": "42232"}, "clarksville-42236": {"city": "Clarksville", "rent": 1110, "zip": "42236"}, "clarksville-42240": {"city": "Clarksville", "rent": 1190, "zip": "42240"}, "clarksville-42241": {"city": "Clarksville", "rent": 1220, "zip": "42241"}, "clarksville-42254": {"city": "Clarksville", "rent": 1110, "zip": "42254"}, "clarksville-42262": {"city": "Clarksville", "rent": 1340, "zip": "42262"}, "clarksville-42266": {"city": "Clarksville", "rent": 1110, "zip": "42266"}, "clarksville-42286": {"city": "Clarksville", "rent": 1110, "zip": "42286"}, "clarksville-42408": {"city": "Clarksville", "rent": 1110, "zip": "42408"}, "clarksville-42442": {"city": "Clarksville", "rent": 1110, "zip": "42442"}, "clarksville-42445": {"city": "Clarksville", "rent": 1110, "zip": "42445"}, "clarksville-42453": {"city": "Clarksville", "rent": 1110, "zip": "42453"}, "clarksville-42464": {"city": "Clarksville", "rent": 1110, "zip": "42464"}, "stewart-county-37023": {"city": "Stewart County", "rent": 1430, "zip": "37023"}, "stewart-county-37028": {"city": "Stewart County", "rent": 1080, "zip": "37028"}, "stewart-county-37050": {"city": "Stewart County", "rent": 1110, "zip": "37050"}, "stewart-county-37058": {"city": "Stewart County", "rent": 1040, "zip": "37058"}, "stewart-county-37061": {"city": "Stewart County", "rent": 1110, "zip": "37061"}, "stewart-county-37079": {"city": "Stewart County", "rent": 1120, "zip": "37079"}, "stewart-county-37175": {"city": "Stewart County", "rent": 1010, "zip": "37175"}, "stewart-county-37178": {"city": "Stewart County", "rent": 980, "zip": "37178"}, "cleveland-37307": {"city": "Cleveland", "rent": 1090, "zip": "37307"}, "cleveland-37309": {"city": "Cleveland", "rent": 1090, "zip": "37309"}, "cleveland-37310": {"city": "Cleveland", "rent": 1110, "zip": "37310"}, "cleveland-37311": {"city": "Cleveland", "rent": 1220, "zip": "37311"}, "cleveland-37312": {"city": "Cleveland", "rent": 1420, "zip": "37312"}, "cleveland-37316": {"city": "Cleveland", "rent": 1090, "zip": "37316"}, "cleveland-37317": {"city": "Cleveland", "rent": 1090, "zip": "37317"}, "cleveland-37320": {"city": "Cleveland", "rent": 1270, "zip": "37320"}, "cleveland-37323": {"city": "Cleveland", "rent": 1220, "zip": "37323"}, "cleveland-37325": {"city": "Cleveland", "rent": 1090, "zip": "37325"}, "cleveland-37326": {"city": "Cleveland", "rent": 1090, "zip": "37326"}, "cleveland-37331": {"city": "Cleveland", "rent": 1090, "zip": "37331"}, "cleveland-37333": {"city": "Cleveland", "rent": 1090, "zip": "37333"}, "cleveland-37336": {"city": "Cleveland", "rent": 1250, "zip": "37336"}, "cleveland-37353": {"city": "Cleveland", "rent": 1290, "zip": "37353"}, "cleveland-37361": {"city": "Cleveland", "rent": 1090, "zip": "37361"}, "cleveland-37362": {"city": "Cleveland", "rent": 1090, "zip": "37362"}, "cleveland-37364": {"city": "Cleveland", "rent": 1270, "zip": "37364"}, "cleveland-37369": {"city": "Cleveland", "rent": 1090, "zip": "37369"}, "cleveland-37385": {"city": "Cleveland", "rent": 1090, "zip": "37385"}, "cleveland-37391": {"city": "Cleveland", "rent": 1130, "zip": "37391"}, "jackson-38006": {"city": "Jackson", "rent": 1150, "zip": "38006"}, "jackson-38044": {"city": "Jackson", "rent": 1120, "zip": "38044"}, "jackson-38301": {"city": "Jackson", "rent": 1230, "zip": "38301"}, "jackson-38302": {"city": "Jackson", "rent": 1290, "zip": "38302"}, "jackson-38303": {"city": "Jackson", "rent": 1290, "zip": "38303"}, "jackson-38305": {"city": "Jackson", "rent": 1430, "zip": "38305"}, "jackson-38308": {"city": "Jackson", "rent": 1290, "zip": "38308"}, "jackson-38313": {"city": "Jackson", "rent": 1130, "zip": "38313"}, "jackson-38315": {"city": "Jackson", "rent": 1120, "zip": "38315"}, "jackson-38332": {"city": "Jackson", "rent": 1120, "zip": "38332"}, "jackson-38334": {"city": "Jackson", "rent": 1120, "zip": "38334"}, "jackson-38340": {"city": "Jackson", "rent": 1120, "zip": "38340"}, "jackson-38343": {"city": "Jackson", "rent": 1120, "zip": "38343"}, "jackson-38345": {"city": "Jackson", "rent": 1120, "zip": "38345"}, "jackson-38347": {"city": "Jackson", "rent": 1120, "zip": "38347"}, "jackson-38348": {"city": "Jackson", "rent": 1120, "zip": "38348"}, "jackson-38351": {"city": "Jackson", "rent": 1120, "zip": "38351"}, "jackson-38352": {"city": "Jackson", "rent": 1120, "zip": "38352"}, "jackson-38355": {"city": "Jackson", "rent": 1230, "zip": "38355"}, "jackson-38356": {"city": "Jackson", "rent": 1120, "zip": "38356"}, "jackson-38359": {"city": "Jackson", "rent": 1120, "zip": "38359"}, "jackson-38362": {"city": "Jackson", "rent": 1530, "zip": "38362"}, "jackson-38366": {"city": "Jackson", "rent": 1120, "zip": "38366"}, "jackson-38368": {"city": "Jackson", "rent": 1120, "zip": "38368"}, "jackson-38371": {"city": "Jackson", "rent": 1120, "zip": "38371"}, "jackson-38391": {"city": "Jackson", "rent": 1310, "zip": "38391"}, "jackson-38392": {"city": "Jackson", "rent": 1060, "zip": "38392"}, "gibson-county-38059": {"city": "Gibson County", "rent": 990, "zip": "38059"}, "gibson-county-38220": {"city": "Gibson County", "rent": 930, "zip": "38220"}, "gibson-county-38233": {"city": "Gibson County", "rent": 930, "zip": "38233"}, "gibson-county-38259": {"city": "Gibson County", "rent": 930, "zip": "38259"}, "gibson-county-38316": {"city": "Gibson County", "rent": 930, "zip": "38316"}, "gibson-county-38330": {"city": "Gibson County", "rent": 930, "zip": "38330"}, "gibson-county-38338": {"city": "Gibson County", "rent": 1200, "zip": "38338"}, "gibson-county-38343": {"city": "Gibson County", "rent": 1120, "zip": "38343"}, "gibson-county-38348": {"city": "Gibson County", "rent": 1120, "zip": "38348"}, "gibson-county-38355": {"city": "Gibson County", "rent": 1230, "zip": "38355"}, "gibson-county-38358": {"city": "Gibson County", "rent": 930, "zip": "38358"}, "gibson-county-38369": {"city": "Gibson County", "rent": 930, "zip": "38369"}, "gibson-county-38382": {"city": "Gibson County", "rent": 930, "zip": "38382"}, "gibson-county-38389": {"city": "Gibson County", "rent": 970, "zip": "38389"}, "crockett-county-38001": {"city": "Crockett County", "rent": 1000, "zip": "38001"}, "crockett-county-38006": {"city": "Crockett County", "rent": 1150, "zip": "38006"}, "crockett-county-38021": {"city": "Crockett County", "rent": 970, "zip": "38021"}, "crockett-county-38034": {"city": "Crockett County", "rent": 970, "zip": "38034"}, "crockett-county-38040": {"city": "Crockett County", "rent": 970, "zip": "38040"}, "crockett-county-38050": {"city": "Crockett County", "rent": 1010, "zip": "38050"}, "crockett-county-38336": {"city": "Crockett County", "rent": 1080, "zip": "38336"}, "crockett-county-38337": {"city": "Crockett County", "rent": 1080, "zip": "38337"}, "crockett-county-38343": {"city": "Crockett County", "rent": 1120, "zip": "38343"}, "johnson-city-37601": {"city": "Johnson City", "rent": 1200, "zip": "37601"}, "johnson-city-37602": {"city": "Johnson City", "rent": 1190, "zip": "37602"}, "johnson-city-37604": {"city": "Johnson City", "rent": 1270, "zip": "37604"}, "johnson-city-37605": {"city": "Johnson City", "rent": 1190, "zip": "37605"}, "johnson-city-37614": {"city": "Johnson City", "rent": 1270, "zip": "37614"}, "johnson-city-37615": {"city": "Johnson City", "rent": 1230, "zip": "37615"}, "johnson-city-37640": {"city": "Johnson City", "rent": 1010, "zip": "37640"}, "johnson-city-37641": {"city": "Johnson City", "rent": 1010, "zip": "37641"}, "johnson-city-37643": {"city": "Johnson City", "rent": 1010, "zip": "37643"}, "johnson-city-37644": {"city": "Johnson City", "rent": 1010, "zip": "37644"}, "johnson-city-37650": {"city": "Johnson City", "rent": 1010, "zip": "37650"}, "johnson-city-37656": {"city": "Johnson City", "rent": 1070, "zip": "37656"}, "johnson-city-37657": {"city": "Johnson City", "rent": 1010, "zip": "37657"}, "johnson-city-37658": {"city": "Johnson City", "rent": 1010, "zip": "37658"}, "johnson-city-37659": {"city": "Johnson City", "rent": 1300, "zip": "37659"}, "johnson-city-37663": {"city": "Johnson City", "rent": 1080, "zip": "37663"}, "johnson-city-37681": {"city": "Johnson City", "rent": 1010, "zip": "37681"}, "johnson-city-37682": {"city": "Johnson City", "rent": 1200, "zip": "37682"}, "johnson-city-37683": {"city": "Johnson City", "rent": 1010, "zip": "37683"}, "johnson-city-37684": {"city": "Johnson City", "rent": 1190, "zip": "37684"}, "johnson-city-37686": {"city": "Johnson City", "rent": 1430, "zip": "37686"}, "johnson-city-37687": {"city": "Johnson City", "rent": 1080, "zip": "37687"}, "johnson-city-37688": {"city": "Johnson City", "rent": 1010, "zip": "37688"}, "johnson-city-37690": {"city": "Johnson City", "rent": 1140, "zip": "37690"}, "johnson-city-37692": {"city": "Johnson City", "rent": 1110, "zip": "37692"}, "johnson-city-37694": {"city": "Johnson City", "rent": 1010, "zip": "37694"}, "kingsport-bristol-24201": {"city": "Kingsport-Bristol", "rent": 1080, "zip": "24201"}, "kingsport-bristol-24202": {"city": "Kingsport-Bristol", "rent": 1060, "zip": "24202"}, "kingsport-bristol-24203": {"city": "Kingsport-Bristol", "rent": 1090, "zip": "24203"}, "kingsport-bristol-24209": {"city": "Kingsport-Bristol", "rent": 1090, "zip": "24209"}, "kingsport-bristol-24210": {"city": "Kingsport-Bristol", "rent": 1030, "zip": "24210"}, "kingsport-bristol-24211": {"city": "Kingsport-Bristol", "rent": 1180, "zip": "24211"}, "kingsport-bristol-24212": {"city": "Kingsport-Bristol", "rent": 1060, "zip": "24212"}, "kingsport-bristol-24219": {"city": "Kingsport-Bristol", "rent": 940, "zip": "24219"}, "kingsport-bristol-24221": {"city": "Kingsport-Bristol", "rent": 940, "zip": "24221"}, "kingsport-bristol-24224": {"city": "Kingsport-Bristol", "rent": 1040, "zip": "24224"}, "kingsport-bristol-24230": {"city": "Kingsport-Bristol", "rent": 1010, "zip": "24230"}, "kingsport-bristol-24236": {"city": "Kingsport-Bristol", "rent": 970, "zip": "24236"}, "kingsport-bristol-24244": {"city": "Kingsport-Bristol", "rent": 970, "zip": "24244"}, "kingsport-bristol-24245": {"city": "Kingsport-Bristol", "rent": 940, "zip": "24245"}, "kingsport-bristol-24250": {"city": "Kingsport-Bristol", "rent": 940, "zip": "24250"}, "kingsport-bristol-24251": {"city": "Kingsport-Bristol", "rent": 940, "zip": "24251"}, "kingsport-bristol-24258": {"city": "Kingsport-Bristol", "rent": 1000, "zip": "24258"}, "kingsport-bristol-24270": {"city": "Kingsport-Bristol", "rent": 1020, "zip": "24270"}, "kingsport-bristol-24271": {"city": "Kingsport-Bristol", "rent": 990, "zip": "24271"}, "kingsport-bristol-24290": {"city": "Kingsport-Bristol", "rent": 1010, "zip": "24290"}, "kingsport-bristol-24292": {"city": "Kingsport-Bristol", "rent": 1170, "zip": "24292"}, "kingsport-bristol-24319": {"city": "Kingsport-Bristol", "rent": 970, "zip": "24319"}, "kingsport-bristol-24327": {"city": "Kingsport-Bristol", "rent": 1050, "zip": "24327"}, "kingsport-bristol-24340": {"city": "Kingsport-Bristol", "rent": 1000, "zip": "24340"}, "kingsport-bristol-24361": {"city": "Kingsport-Bristol", "rent": 1130, "zip": "24361"}, "kingsport-bristol-24370": {"city": "Kingsport-Bristol", "rent": 940, "zip": "24370"}, "kingsport-bristol-37615": {"city": "Kingsport-Bristol", "rent": 1230, "zip": "37615"}, "kingsport-bristol-37617": {"city": "Kingsport-Bristol", "rent": 990, "zip": "37617"}, "kingsport-bristol-37618": {"city": "Kingsport-Bristol", "rent": 1100, "zip": "37618"}, "kingsport-bristol-37620": {"city": "Kingsport-Bristol", "rent": 1090, "zip": "37620"}, "kingsport-bristol-37621": {"city": "Kingsport-Bristol", "rent": 1050, "zip": "37621"}, "kingsport-bristol-37625": {"city": "Kingsport-Bristol", "rent": 1050, "zip": "37625"}, "kingsport-bristol-37642": {"city": "Kingsport-Bristol", "rent": 1130, "zip": "37642"}, "kingsport-bristol-37645": {"city": "Kingsport-Bristol", "rent": 980, "zip": "37645"}, "kingsport-bristol-37656": {"city": "Kingsport-Bristol", "rent": 1070, "zip": "37656"}, "kingsport-bristol-37659": {"city": "Kingsport-Bristol", "rent": 1300, "zip": "37659"}, "kingsport-bristol-37660": {"city": "Kingsport-Bristol", "rent": 1100, "zip": "37660"}, "kingsport-bristol-37662": {"city": "Kingsport-Bristol", "rent": 1050, "zip": "37662"}, "kingsport-bristol-37663": {"city": "Kingsport-Bristol", "rent": 1080, "zip": "37663"}, "kingsport-bristol-37664": {"city": "Kingsport-Bristol", "rent": 990, "zip": "37664"}, "kingsport-bristol-37665": {"city": "Kingsport-Bristol", "rent": 1000, "zip": "37665"}, "kingsport-bristol-37669": {"city": "Kingsport-Bristol", "rent": 1050, "zip": "37669"}, "kingsport-bristol-37686": {"city": "Kingsport-Bristol", "rent": 1430, "zip": "37686"}, "kingsport-bristol-37694": {"city": "Kingsport-Bristol", "rent": 1010, "zip": "37694"}, "kingsport-bristol-37711": {"city": "Kingsport-Bristol", "rent": 970, "zip": "37711"}, "kingsport-bristol-37731": {"city": "Kingsport-Bristol", "rent": 950, "zip": "37731"}, "kingsport-bristol-37745": {"city": "Kingsport-Bristol", "rent": 970, "zip": "37745"}, "kingsport-bristol-37811": {"city": "Kingsport-Bristol", "rent": 940, "zip": "37811"}, "kingsport-bristol-37857": {"city": "Kingsport-Bristol", "rent": 940, "zip": "37857"}, "kingsport-bristol-37869": {"city": "Kingsport-Bristol", "rent": 940, "zip": "37869"}, "kingsport-bristol-37873": {"city": "Kingsport-Bristol", "rent": 960, "zip": "37873"}, "kingsport-bristol-37881": {"city": "Kingsport-Bristol", "rent": 940, "zip": "37881"}, "kingsport-bristol-37891": {"city": "Kingsport-Bristol", "rent": 1000, "zip": "37891"}, "knoxville-37701": {"city": "Knoxville", "rent": 1470, "zip": "37701"}, "knoxville-37705": {"city": "Knoxville", "rent": 1680, "zip": "37705"}, "knoxville-37709": {"city": "Knoxville", "rent": 1070, "zip": "37709"}, "knoxville-37710": {"city": "Knoxville", "rent": 1030, "zip": "37710"}, "knoxville-37716": {"city": "Knoxville", "rent": 1210, "zip": "37716"}, "knoxville-37717": {"city": "Knoxville", "rent": 1290, "zip": "37717"}, "knoxville-37721": {"city": "Knoxville", "rent": 1380, "zip": "37721"}, "knoxville-37737": {"city": "Knoxville", "rent": 1410, "zip": "37737"}, "knoxville-37742": {"city": "Knoxville", "rent": 1240, "zip": "37742"}, "knoxville-37754": {"city": "Knoxville", "rent": 1360, "zip": "37754"}, "knoxville-37764": {"city": "Knoxville", "rent": 1260, "zip": "37764"}, "knoxville-37769": {"city": "Knoxville", "rent": 990, "zip": "37769"}, "knoxville-37771": {"city": "Knoxville", "rent": 1280, "zip": "37771"}, "knoxville-37772": {"city": "Knoxville", "rent": 1710, "zip": "37772"}, "knoxville-37774": {"city": "Knoxville", "rent": 1310, "zip": "37774"}, "knoxville-37777": {"city": "Knoxville", "rent": 1080, "zip": "37777"}, "knoxville-37779": {"city": "Knoxville", "rent": 1090, "zip": "37779"}, "knoxville-37801": {"city": "Knoxville", "rent": 1360, "zip": "37801"}, "knoxville-37802": {"city": "Knoxville", "rent": 1340, "zip": "37802"}, "knoxville-37803": {"city": "Knoxville", "rent": 1410, "zip": "37803"}, "knoxville-37804": {"city": "Knoxville", "rent": 1470, "zip": "37804"}, "knoxville-37806": {"city": "Knoxville", "rent": 1080, "zip": "37806"}, "knoxville-37807": {"city": "Knoxville", "rent": 1180, "zip": "37807"}, "knoxville-37825": {"city": "Knoxville", "rent": 990, "zip": "37825"}, "knoxville-37828": {"city": "Knoxville", "rent": 1330, "zip": "37828"}, "knoxville-37830": {"city": "Knoxville", "rent": 1360, "zip": "37830"}, "knoxville-37831": {"city": "Knoxville", "rent": 1290, "zip": "37831"}, "knoxville-37840": {"city": "Knoxville", "rent": 1080, "zip": "37840"}, "knoxville-37846": {"city": "Knoxville", "rent": 1040, "zip": "37846"}, "knoxville-37848": {"city": "Knoxville", "rent": 1070, "zip": "37848"}, "knoxville-37849": {"city": "Knoxville", "rent": 1330, "zip": "37849"}, "knoxville-37853": {"city": "Knoxville", "rent": 1070, "zip": "37853"}, "knoxville-37865": {"city": "Knoxville", "rent": 1440, "zip": "37865"}, "knoxville-37866": {"city": "Knoxville", "rent": 1020, "zip": "37866"}, "knoxville-37870": {"city": "Knoxville", "rent": 990, "zip": "37870"}, "knoxville-37871": {"city": "Knoxville", "rent": 1100, "zip": "37871"}, "knoxville-37874": {"city": "Knoxville", "rent": 990, "zip": "37874"}, "knoxville-37878": {"city": "Knoxville", "rent": 1330, "zip": "37878"}, "knoxville-37882": {"city": "Knoxville", "rent": 1310, "zip": "37882"}, "knoxville-37885": {"city": "Knoxville", "rent": 1180, "zip": "37885"}, "knoxville-37886": {"city": "Knoxville", "rent": 1340, "zip": "37886"}, "knoxville-37888": {"city": "Knoxville", "rent": 1020, "zip": "37888"}, "knoxville-37901": {"city": "Knoxville", "rent": 1530, "zip": "37901"}, "knoxville-37902": {"city": "Knoxville", "rent": 1840, "zip": "37902"}, "knoxville-37909": {"city": "Knoxville", "rent": 1470, "zip": "37909"}, "knoxville-37912": {"city": "Knoxville", "rent": 1380, "zip": "37912"}, "knoxville-37914": {"city": "Knoxville", "rent": 1330, "zip": "37914"}, "knoxville-37915": {"city": "Knoxville", "rent": 1220, "zip": "37915"}, "knoxville-37916": {"city": "Knoxville", "rent": 1500, "zip": "37916"}, "knoxville-37917": {"city": "Knoxville", "rent": 1630, "zip": "37917"}, "knoxville-37918": {"city": "Knoxville", "rent": 1440, "zip": "37918"}, "knoxville-37919": {"city": "Knoxville", "rent": 1690, "zip": "37919"}, "knoxville-37920": {"city": "Knoxville", "rent": 1330, "zip": "37920"}, "knoxville-37921": {"city": "Knoxville", "rent": 1530, "zip": "37921"}, "knoxville-37922": {"city": "Knoxville", "rent": 2090, "zip": "37922"}, "knoxville-37923": {"city": "Knoxville", "rent": 1660, "zip": "37923"}, "knoxville-37924": {"city": "Knoxville", "rent": 1310, "zip": "37924"}, "knoxville-37927": {"city": "Knoxville", "rent": 1530, "zip": "37927"}, "knoxville-37928": {"city": "Knoxville", "rent": 1530, "zip": "37928"}, "knoxville-37929": {"city": "Knoxville", "rent": 1530, "zip": "37929"}, "knoxville-37930": {"city": "Knoxville", "rent": 1530, "zip": "37930"}, "knoxville-37931": {"city": "Knoxville", "rent": 1840, "zip": "37931"}, "knoxville-37932": {"city": "Knoxville", "rent": 1910, "zip": "37932"}, "knoxville-37933": {"city": "Knoxville", "rent": 1530, "zip": "37933"}, "knoxville-37934": {"city": "Knoxville", "rent": 2210, "zip": "37934"}, "knoxville-37938": {"city": "Knoxville", "rent": 1460, "zip": "37938"}, "knoxville-37939": {"city": "Knoxville", "rent": 1530, "zip": "37939"}, "knoxville-37940": {"city": "Knoxville", "rent": 1530, "zip": "37940"}, "knoxville-37950": {"city": "Knoxville", "rent": 1530, "zip": "37950"}, "knoxville-37995": {"city": "Knoxville", "rent": 1530, "zip": "37995"}, "knoxville-37996": {"city": "Knoxville", "rent": 1530, "zip": "37996"}, "knoxville-37997": {"city": "Knoxville", "rent": 1530, "zip": "37997"}, "knoxville-37998": {"city": "Knoxville", "rent": 1530, "zip": "37998"}, "grainger-county-37708": {"city": "Grainger County", "rent": 930, "zip": "37708"}, "grainger-county-37709": {"city": "Grainger County", "rent": 1070, "zip": "37709"}, "grainger-county-37779": {"city": "Grainger County", "rent": 1090, "zip": "37779"}, "grainger-county-37806": {"city": "Grainger County", "rent": 1080, "zip": "37806"}, "grainger-county-37811": {"city": "Grainger County", "rent": 940, "zip": "37811"}, "grainger-county-37848": {"city": "Grainger County", "rent": 1070, "zip": "37848"}, "grainger-county-37861": {"city": "Grainger County", "rent": 930, "zip": "37861"}, "grainger-county-37881": {"city": "Grainger County", "rent": 940, "zip": "37881"}, "grainger-county-37888": {"city": "Grainger County", "rent": 1020, "zip": "37888"}, "campbell-county-37714": {"city": "Campbell County", "rent": 1020, "zip": "37714"}, "campbell-county-37715": {"city": "Campbell County", "rent": 930, "zip": "37715"}, "campbell-county-37729": {"city": "Campbell County", "rent": 950, "zip": "37729"}, "campbell-county-37756": {"city": "Campbell County", "rent": 930, "zip": "37756"}, "campbell-county-37757": {"city": "Campbell County", "rent": 930, "zip": "37757"}, "campbell-county-37762": {"city": "Campbell County", "rent": 930, "zip": "37762"}, "campbell-county-37766": {"city": "Campbell County", "rent": 960, "zip": "37766"}, "campbell-county-37769": {"city": "Campbell County", "rent": 990, "zip": "37769"}, "campbell-county-37819": {"city": "Campbell County", "rent": 930, "zip": "37819"}, "campbell-county-37847": {"city": "Campbell County", "rent": 930, "zip": "37847"}, "campbell-county-37870": {"city": "Campbell County", "rent": 990, "zip": "37870"}, "morgan-county-37719": {"city": "Morgan County", "rent": 1080, "zip": "37719"}, "morgan-county-37726": {"city": "Morgan County", "rent": 1030, "zip": "37726"}, "morgan-county-37733": {"city": "Morgan County", "rent": 930, "zip": "37733"}, "morgan-county-37748": {"city": "Morgan County", "rent": 1080, "zip": "37748"}, "morgan-county-37770": {"city": "Morgan County", "rent": 980, "zip": "37770"}, "morgan-county-37829": {"city": "Morgan County", "rent": 1210, "zip": "37829"}, "morgan-county-37840": {"city": "Morgan County", "rent": 1080, "zip": "37840"}, "morgan-county-37845": {"city": "Morgan County", "rent": 1050, "zip": "37845"}, "morgan-county-37852": {"city": "Morgan County", "rent": 930, "zip": "37852"}, "morgan-county-37854": {"city": "Morgan County", "rent": 1040, "zip": "37854"}, "morgan-county-37872": {"city": "Morgan County", "rent": 1110, "zip": "37872"}, "morgan-county-37887": {"city": "Morgan County", "rent": 930, "zip": "37887"}, "roane-county-37748": {"city": "Roane County", "rent": 1080, "zip": "37748"}, "roane-county-37763": {"city": "Roane County", "rent": 1110, "zip": "37763"}, "roane-county-37771": {"city": "Roane County", "rent": 1280, "zip": "37771"}, "roane-county-37774": {"city": "Roane County", "rent": 1310, "zip": "37774"}, "roane-county-37830": {"city": "Roane County", "rent": 1360, "zip": "37830"}, "roane-county-37840": {"city": "Roane County", "rent": 1080, "zip": "37840"}, "roane-county-37846": {"city": "Roane County", "rent": 1040, "zip": "37846"}, "roane-county-37854": {"city": "Roane County", "rent": 1040, "zip": "37854"}, "roane-county-37874": {"city": "Roane County", "rent": 990, "zip": "37874"}, "roane-county-37880": {"city": "Roane County", "rent": 990, "zip": "37880"}, "memphis-38002": {"city": "Memphis", "rent": 1870, "zip": "38002"}, "memphis-38004": {"city": "Memphis", "rent": 1470, "zip": "38004"}, "memphis-38011": {"city": "Memphis", "rent": 1130, "zip": "38011"}, "memphis-38015": {"city": "Memphis", "rent": 1060, "zip": "38015"}, "memphis-38016": {"city": "Memphis", "rent": 1570, "zip": "38016"}, "memphis-38017": {"city": "Memphis", "rent": 1650, "zip": "38017"}, "memphis-38018": {"city": "Memphis", "rent": 1730, "zip": "38018"}, "memphis-38019": {"city": "Memphis", "rent": 1060, "zip": "38019"}, "memphis-38023": {"city": "Memphis", "rent": 1300, "zip": "38023"}, "memphis-38027": {"city": "Memphis", "rent": 1280, "zip": "38027"}, "memphis-38028": {"city": "Memphis", "rent": 1430, "zip": "38028"}, "memphis-38029": {"city": "Memphis", "rent": 1850, "zip": "38029"}, "memphis-38036": {"city": "Memphis", "rent": 1780, "zip": "38036"}, "memphis-38039": {"city": "Memphis", "rent": 1060, "zip": "38039"}, "memphis-38042": {"city": "Memphis", "rent": 1180, "zip": "38042"}, "memphis-38046": {"city": "Memphis", "rent": 1060, "zip": "38046"}, "memphis-38048": {"city": "Memphis", "rent": 1060, "zip": "38048"}, "memphis-38049": {"city": "Memphis", "rent": 1070, "zip": "38049"}, "memphis-38053": {"city": "Memphis", "rent": 1260, "zip": "38053"}, "memphis-38054": {"city": "Memphis", "rent": 1260, "zip": "38054"}, "memphis-38055": {"city": "Memphis", "rent": 1280, "zip": "38055"}, "memphis-38057": {"city": "Memphis", "rent": 1060, "zip": "38057"}, "memphis-38058": {"city": "Memphis", "rent": 1220, "zip": "38058"}, "memphis-38060": {"city": "Memphis", "rent": 1510, "zip": "38060"}, "memphis-38066": {"city": "Memphis", "rent": 1060, "zip": "38066"}, "memphis-38068": {"city": "Memphis", "rent": 1060, "zip": "38068"}, "memphis-38069": {"city": "Memphis", "rent": 1060, "zip": "38069"}, "memphis-38075": {"city": "Memphis", "rent": 1060, "zip": "38075"}, "memphis-38076": {"city": "Memphis", "rent": 1080, "zip": "38076"}, "memphis-38083": {"city": "Memphis", "rent": 1280, "zip": "38083"}, "memphis-38088": {"city": "Memphis", "rent": 1280, "zip": "38088"}, "memphis-38101": {"city": "Memphis", "rent": 1280, "zip": "38101"}, "memphis-38103": {"city": "Memphis", "rent": 1910, "zip": "38103"}, "memphis-38104": {"city": "Memphis", "rent": 1470, "zip": "38104"}, "memphis-38105": {"city": "Memphis", "rent": 1060, "zip": "38105"}, "memphis-38106": {"city": "Memphis", "rent": 1150, "zip": "38106"}, "memphis-38107": {"city": "Memphis", "rent": 1080, "zip": "38107"}, "memphis-38108": {"city": "Memphis", "rent": 1060, "zip": "38108"}, "memphis-38109": {"city": "Memphis", "rent": 1080, "zip": "38109"}, "memphis-38111": {"city": "Memphis", "rent": 1240, "zip": "38111"}, "memphis-38112": {"city": "Memphis", "rent": 1080, "zip": "38112"}, "memphis-38113": {"city": "Memphis", "rent": 1280, "zip": "38113"}, "memphis-38114": {"city": "Memphis", "rent": 1090, "zip": "38114"}, "memphis-38115": {"city": "Memphis", "rent": 1360, "zip": "38115"}, "memphis-38116": {"city": "Memphis", "rent": 1250, "zip": "38116"}, "memphis-38117": {"city": "Memphis", "rent": 1470, "zip": "38117"}, "memphis-38118": {"city": "Memphis", "rent": 1230, "zip": "38118"}, "memphis-38119": {"city": "Memphis", "rent": 1450, "zip": "38119"}, "memphis-38120": {"city": "Memphis", "rent": 1600, "zip": "38120"}, "memphis-38122": {"city": "Memphis", "rent": 1240, "zip": "38122"}, "memphis-38124": {"city": "Memphis", "rent": 1280, "zip": "38124"}, "memphis-38125": {"city": "Memphis", "rent": 1550, "zip": "38125"}, "memphis-38126": {"city": "Memphis", "rent": 1060, "zip": "38126"}, "memphis-38127": {"city": "Memphis", "rent": 1190, "zip": "38127"}, "memphis-38128": {"city": "Memphis", "rent": 1350, "zip": "38128"}, "memphis-38130": {"city": "Memphis", "rent": 1280, "zip": "38130"}, "memphis-38131": {"city": "Memphis", "rent": 1280, "zip": "38131"}, "memphis-38132": {"city": "Memphis", "rent": 1200, "zip": "38132"}, "memphis-38133": {"city": "Memphis", "rent": 1590, "zip": "38133"}, "memphis-38134": {"city": "Memphis", "rent": 1270, "zip": "38134"}, "memphis-38135": {"city": "Memphis", "rent": 1820, "zip": "38135"}, "memphis-38137": {"city": "Memphis", "rent": 1280, "zip": "38137"}, "memphis-38138": {"city": "Memphis", "rent": 1850, "zip": "38138"}, "memphis-38139": {"city": "Memphis", "rent": 1910, "zip": "38139"}, "memphis-38141": {"city": "Memphis", "rent": 1540, "zip": "38141"}, "memphis-38152": {"city": "Memphis", "rent": 1240, "zip": "38152"}, "memphis-38157": {"city": "Memphis", "rent": 1280, "zip": "38157"}, "memphis-38166": {"city": "Memphis", "rent": 1280, "zip": "38166"}, "memphis-38167": {"city": "Memphis", "rent": 1280, "zip": "38167"}, "memphis-38168": {"city": "Memphis", "rent": 1280, "zip": "38168"}, "memphis-38173": {"city": "Memphis", "rent": 1280, "zip": "38173"}, "memphis-38174": {"city": "Memphis", "rent": 1280, "zip": "38174"}, "memphis-38175": {"city": "Memphis", "rent": 1280, "zip": "38175"}, "memphis-38177": {"city": "Memphis", "rent": 1280, "zip": "38177"}, "memphis-38181": {"city": "Memphis", "rent": 1280, "zip": "38181"}, "memphis-38182": {"city": "Memphis", "rent": 1280, "zip": "38182"}, "memphis-38183": {"city": "Memphis", "rent": 1280, "zip": "38183"}, "memphis-38184": {"city": "Memphis", "rent": 1280, "zip": "38184"}, "memphis-38186": {"city": "Memphis", "rent": 1280, "zip": "38186"}, "memphis-38187": {"city": "Memphis", "rent": 1280, "zip": "38187"}, "memphis-38188": {"city": "Memphis", "rent": 1280, "zip": "38188"}, "memphis-38190": {"city": "Memphis", "rent": 1280, "zip": "38190"}, "memphis-38611": {"city": "Memphis", "rent": 1330, "zip": "38611"}, "memphis-38618": {"city": "Memphis", "rent": 1130, "zip": "38618"}, "memphis-38632": {"city": "Memphis", "rent": 1290, "zip": "38632"}, "memphis-38637": {"city": "Memphis", "rent": 1400, "zip": "38637"}, "memphis-38641": {"city": "Memphis", "rent": 1150, "zip": "38641"}, "memphis-38651": {"city": "Memphis", "rent": 1410, "zip": "38651"}, "memphis-38654": {"city": "Memphis", "rent": 1690, "zip": "38654"}, "memphis-38671": {"city": "Memphis", "rent": 1400, "zip": "38671"}, "memphis-38672": {"city": "Memphis", "rent": 1910, "zip": "38672"}, "memphis-38680": {"city": "Memphis", "rent": 1240, "zip": "38680"}, "memphis-72301": {"city": "Memphis", "rent": 1060, "zip": "72301"}, "memphis-72325": {"city": "Memphis", "rent": 1060, "zip": "72325"}, "memphis-72327": {"city": "Memphis", "rent": 1060, "zip": "72327"}, "memphis-72331": {"city": "Memphis", "rent": 1060, "zip": "72331"}, "memphis-72332": {"city": "Memphis", "rent": 1060, "zip": "72332"}, "memphis-72338": {"city": "Memphis", "rent": 1060, "zip": "72338"}, "memphis-72339": {"city": "Memphis", "rent": 1060, "zip": "72339"}, "memphis-72346": {"city": "Memphis", "rent": 1060, "zip": "72346"}, "memphis-72348": {"city": "Memphis", "rent": 1060, "zip": "72348"}, "memphis-72364": {"city": "Memphis", "rent": 1120, "zip": "72364"}, "memphis-72376": {"city": "Memphis", "rent": 1060, "zip": "72376"}, "memphis-72384": {"city": "Memphis", "rent": 1060, "zip": "72384"}, "memphis-72386": {"city": "Memphis", "rent": 1060, "zip": "72386"}, "morristown-37711": {"city": "Morristown", "rent": 970, "zip": "37711"}, "morristown-37725": {"city": "Morristown", "rent": 1170, "zip": "37725"}, "morristown-37760": {"city": "Morristown", "rent": 1120, "zip": "37760"}, "morristown-37764": {"city": "Morristown", "rent": 1260, "zip": "37764"}, "morristown-37813": {"city": "Morristown", "rent": 1110, "zip": "37813"}, "morristown-37814": {"city": "Morristown", "rent": 1150, "zip": "37814"}, "morristown-37815": {"city": "Morristown", "rent": 1130, "zip": "37815"}, "morristown-37816": {"city": "Morristown", "rent": 1130, "zip": "37816"}, "morristown-37820": {"city": "Morristown", "rent": 1040, "zip": "37820"}, "morristown-37821": {"city": "Morristown", "rent": 970, "zip": "37821"}, "morristown-37860": {"city": "Morristown", "rent": 970, "zip": "37860"}, "morristown-37871": {"city": "Morristown", "rent": 1100, "zip": "37871"}, "morristown-37876": {"city": "Morristown", "rent": 1130, "zip": "37876"}, "morristown-37877": {"city": "Morristown", "rent": 1260, "zip": "37877"}, "morristown-37890": {"city": "Morristown", "rent": 1150, "zip": "37890"}, "morristown-37891": {"city": "Morristown", "rent": 1000, "zip": "37891"}, "nashville-davidson--murfreesboro--franklin-37010": {"city": "Nashville-Davidson--Murfreesboro--Franklin", "rent": 1360, "zip": "37010"}, "nashville-davidson--murfreesboro--franklin-37011": {"city": "Nashville-Davidson--Murfreesboro--Franklin", "rent": 1770, "zip": "37011"}, "nashville-davidson--murfreesboro--franklin-37012": {"city": "Nashville-Davidson--Murfreesboro--Franklin", "rent": 1320, "zip": "37012"}, "nashville-davidson--murfreesboro--franklin-37013": {"city": "Nashville-Davidson--Murfreesboro--Franklin", "rent": 1870, "zip": "37013"}, "nashville-davidson--murfreesboro--franklin-37014": {"city": "Nashville-Davidson--Murfreesboro--Franklin", "rent": 2250, "zip": "37014"}, "nashville-davidson--murfreesboro--franklin-37015": {"city": "Nashville-Davidson--Murfreesboro--Franklin", "rent": 1460, "zip": "37015"}, "nashville-davidson--murfreesboro--franklin-37016": {"city": "Nashville-Davidson--Murfreesboro--Franklin", "rent": 1360, "zip": "37016"}, "nashville-davidson--murfreesboro--franklin-37018": {"city": "Nashville-Davidson--Murfreesboro--Franklin", "rent": 1320, "zip": "37018"}, "nashville-davidson--murfreesboro--franklin-37020": {"city": "Nashville-Davidson--Murfreesboro--Franklin", "rent": 1360, "zip": "37020"}, "nashville-davidson--murfreesboro--franklin-37022": {"city": "Nashville-Davidson--Murfreesboro--Franklin", "rent": 1610, "zip": "37022"}, "nashville-davidson--murfreesboro--franklin-37024": {"city": "Nashville-Davidson--Murfreesboro--Franklin", "rent": 1770, "zip": "37024"}, "nashville-davidson--murfreesboro--franklin-37025": {"city": "Nashville-Davidson--Murfreesboro--Franklin", "rent": 1320, "zip": "37025"}, "nashville-davidson--murfreesboro--franklin-37026": {"city": "Nashville-Davidson--Murfreesboro--Franklin", "rent": 1320, "zip": "37026"}, "nashville-davidson--murfreesboro--franklin-37027": {"city": "Nashville-Davidson--Murfreesboro--Franklin", "rent": 2440, "zip": "37027"}, "nashville-davidson--murfreesboro--franklin-37029": {"city": "Nashville-Davidson--Murfreesboro--Franklin", "rent": 1320, "zip": "37029"}, "nashville-davidson--murfreesboro--franklin-37031": {"city": "Nashville-Davidson--Murfreesboro--Franklin", "rent": 1320, "zip": "37031"}, "nashville-davidson--murfreesboro--franklin-37032": {"city": "Nashville-Davidson--Murfreesboro--Franklin", "rent": 1320, "zip": "37032"}, "nashville-davidson--murfreesboro--franklin-37035": {"city": "Nashville-Davidson--Murfreesboro--Franklin", "rent": 1640, "zip": "37035"}, "nashville-davidson--murfreesboro--franklin-37036": {"city": "Nashville-Davidson--Murfreesboro--Franklin", "rent": 1320, "zip": "37036"}, "nashville-davidson--murfreesboro--franklin-37037": {"city": "Nashville-Davidson--Murfreesboro--Franklin", "rent": 2180, "zip": "37037"}, "nashville-davidson--murfreesboro--franklin-37043": {"city": "Nashville-Davidson--Murfreesboro--Franklin", "rent": 1440, "zip": "37043"}, "nashville-davidson--murfreesboro--franklin-37046": {"city": "Nashville-Davidson--Murfreesboro--Franklin", "rent": 1880, "zip": "37046"}, "nashville-davidson--murfreesboro--franklin-37048": {"city": "Nashville-Davidson--Murfreesboro--Franklin", "rent": 1320, "zip": "37048"}, "nashville-davidson--murfreesboro--franklin-37049": {"city": "Nashville-Davidson--Murfreesboro--Franklin", "rent": 1320, "zip": "37049"}, "nashville-davidson--murfreesboro--franklin-37051": {"city": "Nashville-Davidson--Murfreesboro--Franklin", "rent": 1320, "zip": "37051"}, "nashville-davidson--murfreesboro--franklin-37052": {"city": "Nashville-Davidson--Murfreesboro--Franklin", "rent": 1320, "zip": "37052"}, "nashville-davidson--murfreesboro--franklin-37055": {"city": "Nashville-Davidson--Murfreesboro--Franklin", "rent": 1320, "zip": "37055"}, "nashville-davidson--murfreesboro--franklin-37056": {"city": "Nashville-Davidson--Murfreesboro--Franklin", "rent": 1320, "zip": "37056"}, "nashville-davidson--murfreesboro--franklin-37057": {"city": "Nashville-Davidson--Murfreesboro--Franklin", "rent": 1320, "zip": "37057"}, "nashville-davidson--murfreesboro--franklin-37060": {"city": "Nashville-Davidson--Murfreesboro--Franklin", "rent": 1600, "zip": "37060"}, "nashville-davidson--murfreesboro--franklin-37062": {"city": "Nashville-Davidson--Murfreesboro--Franklin", "rent": 1690, "zip": "37062"}, "nashville-davidson--murfreesboro--franklin-37064": {"city": "Nashville-Davidson--Murfreesboro--Franklin", "rent": 2150, "zip": "37064"}, "nashville-davidson--murfreesboro--franklin-37065": {"city": "Nashville-Davidson--Murfreesboro--Franklin", "rent": 2280, "zip": "37065"}, "nashville-davidson--murfreesboro--franklin-37066": {"city": "Nashville-Davidson--Murfreesboro--Franklin", "rent": 1550, "zip": "37066"}, "nashville-davidson--murfreesboro--franklin-37067": {"city": "Nashville-Davidson--Murfreesboro--Franklin", "rent": 2250, "zip": "37067"}, "nashville-davidson--murfreesboro--franklin-37068": {"city": "Nashville-Davidson--Murfreesboro--Franklin", "rent": 2280, "zip": "37068"}, "nashville-davidson--murfreesboro--franklin-37069": {"city": "Nashville-Davidson--Murfreesboro--Franklin", "rent": 2600, "zip": "37069"}, "nashville-davidson--murfreesboro--franklin-37070": {"city": "Nashville-Davidson--Murfreesboro--Franklin", "rent": 1770, "zip": "37070"}, "nashville-davidson--murfreesboro--franklin-37072": {"city": "Nashville-Davidson--Murfreesboro--Franklin", "rent": 1630, "zip": "37072"}, "nashville-davidson--murfreesboro--franklin-37073": {"city": "Nashville-Davidson--Murfreesboro--Franklin", "rent": 1390, "zip": "37073"}, "nashville-davidson--murfreesboro--franklin-37074": {"city": "Nashville-Davidson--Murfreesboro--Franklin", "rent": 1320, "zip": "37074"}, "nashville-davidson--murfreesboro--franklin-37075": {"city": "Nashville-Davidson--Murfreesboro--Franklin", "rent": 1890, "zip": "37075"}, "nashville-davidson--murfreesboro--franklin-37076": {"city": "Nashville-Davidson--Murfreesboro--Franklin", "rent": 1780, "zip": "37076"}, "nashville-davidson--murfreesboro--franklin-37077": {"city": "Nashville-Davidson--Murfreesboro--Franklin", "rent": 1590, "zip": "37077"}, "nashville-davidson--murfreesboro--franklin-37080": {"city": "Nashville-Davidson--Murfreesboro--Franklin", "rent": 1320, "zip": "37080"}, "nashville-davidson--murfreesboro--franklin-37082": {"city": "Nashville-Davidson--Murfreesboro--Franklin", "rent": 1510, "zip": "37082"}, "nashville-davidson--murfreesboro--franklin-37085": {"city": "Nashville-Davidson--Murfreesboro--Franklin", "rent": 1520, "zip": "37085"}, "nashville-davidson--murfreesboro--franklin-37086": {"city": "Nashville-Davidson--Murfreesboro--Franklin", "rent": 1990, "zip": "37086"}, "nashville-davidson--murfreesboro--franklin-37087": {"city": "Nashville-Davidson--Murfreesboro--Franklin", "rent": 1390, "zip": "37087"}, "nashville-davidson--murfreesboro--franklin-37088": {"city": "Nashville-Davidson--Murfreesboro--Franklin", "rent": 1630, "zip": "37088"}, "nashville-davidson--murfreesboro--franklin-37089": {"city": "Nashville-Davidson--Murfreesboro--Franklin", "rent": 1660, "zip": "37089"}, "nashville-davidson--murfreesboro--franklin-37090": {"city": "Nashville-Davidson--Murfreesboro--Franklin", "rent": 1640, "zip": "37090"}, "nashville-davidson--murfreesboro--franklin-37095": {"city": "Nashville-Davidson--Murfreesboro--Franklin", "rent": 1320, "zip": "37095"}, "nashville-davidson--murfreesboro--franklin-37101": {"city": "Nashville-Davidson--Murfreesboro--Franklin", "rent": 1320, "zip": "37101"}, "nashville-davidson--murfreesboro--franklin-37110": {"city": "Nashville-Davidson--Murfreesboro--Franklin", "rent": 970, "zip": "37110"}, "nashville-davidson--murfreesboro--franklin-37115": {"city": "Nashville-Davidson--Murfreesboro--Franklin", "rent": 1620, "zip": "37115"}, "nashville-davidson--murfreesboro--franklin-37116": {"city": "Nashville-Davidson--Murfreesboro--Franklin", "rent": 1770, "zip": "37116"}, "nashville-davidson--murfreesboro--franklin-37118": {"city": "Nashville-Davidson--Murfreesboro--Franklin", "rent": 1320, "zip": "37118"}, "nashville-davidson--murfreesboro--franklin-37121": {"city": "Nashville-Davidson--Murfreesboro--Franklin", "rent": 1630, "zip": "37121"}, "nashville-davidson--murfreesboro--franklin-37122": {"city": "Nashville-Davidson--Murfreesboro--Franklin", "rent": 2200, "zip": "37122"}, "nashville-davidson--murfreesboro--franklin-37127": {"city": "Nashville-Davidson--Murfreesboro--Franklin", "rent": 1560, "zip": "37127"}, "nashville-davidson--murfreesboro--franklin-37128": {"city": "Nashville-Davidson--Murfreesboro--Franklin", "rent": 1800, "zip": "37128"}, "nashville-davidson--murfreesboro--franklin-37129": {"city": "Nashville-Davidson--Murfreesboro--Franklin", "rent": 1800, "zip": "37129"}, "nashville-davidson--murfreesboro--franklin-37130": {"city": "Nashville-Davidson--Murfreesboro--Franklin", "rent": 1470, "zip": "37130"}, "nashville-davidson--murfreesboro--franklin-37131": {"city": "Nashville-Davidson--Murfreesboro--Franklin", "rent": 1660, "zip": "37131"}, "nashville-davidson--murfreesboro--franklin-37132": {"city": "Nashville-Davidson--Murfreesboro--Franklin", "rent": 1470, "zip": "37132"}, "nashville-davidson--murfreesboro--franklin-37133": {"city": "Nashville-Davidson--Murfreesboro--Franklin", "rent": 1660, "zip": "37133"}, "nashville-davidson--murfreesboro--franklin-37135": {"city": "Nashville-Davidson--Murfreesboro--Franklin", "rent": 2600, "zip": "37135"}, "nashville-davidson--murfreesboro--franklin-37138": {"city": "Nashville-Davidson--Murfreesboro--Franklin", "rent": 1730, "zip": "37138"}, "nashville-davidson--murfreesboro--franklin-37141": {"city": "Nashville-Davidson--Murfreesboro--Franklin", "rent": 1470, "zip": "37141"}, "nashville-davidson--murfreesboro--franklin-37143": {"city": "Nashville-Davidson--Murfreesboro--Franklin", "rent": 1490, "zip": "37143"}, "nashville-davidson--murfreesboro--franklin-37146": {"city": "Nashville-Davidson--Murfreesboro--Franklin", "rent": 1640, "zip": "37146"}, "nashville-davidson--murfreesboro--franklin-37148": {"city": "Nashville-Davidson--Murfreesboro--Franklin", "rent": 1320, "zip": "37148"}, "nashville-davidson--murfreesboro--franklin-37149": {"city": "Nashville-Davidson--Murfreesboro--Franklin", "rent": 1320, "zip": "37149"}, "nashville-davidson--murfreesboro--franklin-37152": {"city": "Nashville-Davidson--Murfreesboro--Franklin", "rent": 1410, "zip": "37152"}, "nashville-davidson--murfreesboro--franklin-37153": {"city": "Nashville-Davidson--Murfreesboro--Franklin", "rent": 1920, "zip": "37153"}, "nashville-davidson--murfreesboro--franklin-37160": {"city": "Nashville-Davidson--Murfreesboro--Franklin", "rent": 1320, "zip": "37160"}, "nashville-davidson--murfreesboro--franklin-37165": {"city": "Nashville-Davidson--Murfreesboro--Franklin", "rent": 1320, "zip": "37165"}, "nashville-davidson--murfreesboro--franklin-37166": {"city": "Nashville-Davidson--Murfreesboro--Franklin", "rent": 1320, "zip": "37166"}, "nashville-davidson--murfreesboro--franklin-37167": {"city": "Nashville-Davidson--Murfreesboro--Franklin", "rent": 1640, "zip": "37167"}, "nashville-davidson--murfreesboro--franklin-37171": {"city": "Nashville-Davidson--Murfreesboro--Franklin", "rent": 1320, "zip": "37171"}, "nashville-davidson--murfreesboro--franklin-37172": {"city": "Nashville-Davidson--Murfreesboro--Franklin", "rent": 1410, "zip": "37172"}, "nashville-davidson--murfreesboro--franklin-37174": {"city": "Nashville-Davidson--Murfreesboro--Franklin", "rent": 2050, "zip": "37174"}, "nashville-davidson--murfreesboro--franklin-37179": {"city": "Nashville-Davidson--Murfreesboro--Franklin", "rent": 2440, "zip": "37179"}, "nashville-davidson--murfreesboro--franklin-37180": {"city": "Nashville-Davidson--Murfreesboro--Franklin", "rent": 1320, "zip": "37180"}, "nashville-davidson--murfreesboro--franklin-37181": {"city": "Nashville-Davidson--Murfreesboro--Franklin", "rent": 1320, "zip": "37181"}, "nashville-davidson--murfreesboro--franklin-37184": {"city": "Nashville-Davidson--Murfreesboro--Franklin", "rent": 1320, "zip": "37184"}, "nashville-davidson--murfreesboro--franklin-37186": {"city": "Nashville-Davidson--Murfreesboro--Franklin", "rent": 1320, "zip": "37186"}, "nashville-davidson--murfreesboro--franklin-37187": {"city": "Nashville-Davidson--Murfreesboro--Franklin", "rent": 1320, "zip": "37187"}, "nashville-davidson--murfreesboro--franklin-37188": {"city": "Nashville-Davidson--Murfreesboro--Franklin", "rent": 1680, "zip": "37188"}, "nashville-davidson--murfreesboro--franklin-37189": {"city": "Nashville-Davidson--Murfreesboro--Franklin", "rent": 1480, "zip": "37189"}, "nashville-davidson--murfreesboro--franklin-37190": {"city": "Nashville-Davidson--Murfreesboro--Franklin", "rent": 1320, "zip": "37190"}, "nashville-davidson--murfreesboro--franklin-37201": {"city": "Nashville-Davidson--Murfreesboro--Franklin", "rent": 2360, "zip": "37201"}, "nashville-davidson--murfreesboro--franklin-37202": {"city": "Nashville-Davidson--Murfreesboro--Franklin", "rent": 1770, "zip": "37202"}, "nashville-davidson--murfreesboro--franklin-37203": {"city": "Nashville-Davidson--Murfreesboro--Franklin", "rent": 1990, "zip": "37203"}, "nashville-davidson--murfreesboro--franklin-37204": {"city": "Nashville-Davidson--Murfreesboro--Franklin", "rent": 2280, "zip": "37204"}, "nashville-davidson--murfreesboro--franklin-37205": {"city": "Nashville-Davidson--Murfreesboro--Franklin", "rent": 2230, "zip": "37205"}, "nashville-davidson--murfreesboro--franklin-37206": {"city": "Nashville-Davidson--Murfreesboro--Franklin", "rent": 1840, "zip": "37206"}, "nashville-davidson--murfreesboro--franklin-37207": {"city": "Nashville-Davidson--Murfreesboro--Franklin", "rent": 1450, "zip": "37207"}, "nashville-davidson--murfreesboro--franklin-37208": {"city": "Nashville-Davidson--Murfreesboro--Franklin", "rent": 1880, "zip": "37208"}, "nashville-davidson--murfreesboro--franklin-37209": {"city": "Nashville-Davidson--Murfreesboro--Franklin", "rent": 1950, "zip": "37209"}, "nashville-davidson--murfreesboro--franklin-37210": {"city": "Nashville-Davidson--Murfreesboro--Franklin", "rent": 1580, "zip": "37210"}, "nashville-davidson--murfreesboro--franklin-37211": {"city": "Nashville-Davidson--Murfreesboro--Franklin", "rent": 1780, "zip": "37211"}, "nashville-davidson--murfreesboro--franklin-37212": {"city": "Nashville-Davidson--Murfreesboro--Franklin", "rent": 1820, "zip": "37212"}, "nashville-davidson--murfreesboro--franklin-37213": {"city": "Nashville-Davidson--Murfreesboro--Franklin", "rent": 1830, "zip": "37213"}, "nashville-davidson--murfreesboro--franklin-37214": {"city": "Nashville-Davidson--Murfreesboro--Franklin", "rent": 2000, "zip": "37214"}, "nashville-davidson--murfreesboro--franklin-37215": {"city": "Nashville-Davidson--Murfreesboro--Franklin", "rent": 2200, "zip": "37215"}, "nashville-davidson--murfreesboro--franklin-37216": {"city": "Nashville-Davidson--Murfreesboro--Franklin", "rent": 1810, "zip": "37216"}, "nashville-davidson--murfreesboro--franklin-37217": {"city": "Nashville-Davidson--Murfreesboro--Franklin", "rent": 1780, "zip": "37217"}, "nashville-davidson--murfreesboro--franklin-37218": {"city": "Nashville-Davidson--Murfreesboro--Franklin", "rent": 1580, "zip": "37218"}, "nashville-davidson--murfreesboro--franklin-37219": {"city": "Nashville-Davidson--Murfreesboro--Franklin", "rent": 2440, "zip": "37219"}, "nashville-davidson--murfreesboro--franklin-37220": {"city": "Nashville-Davidson--Murfreesboro--Franklin", "rent": 2470, "zip": "37220"}, "nashville-davidson--murfreesboro--franklin-37221": {"city": "Nashville-Davidson--Murfreesboro--Franklin", "rent": 2200, "zip": "37221"}, "nashville-davidson--murfreesboro--franklin-37222": {"city": "Nashville-Davidson--Murfreesboro--Franklin", "rent": 1770, "zip": "37222"}, "nashville-davidson--murfreesboro--franklin-37224": {"city": "Nashville-Davidson--Murfreesboro--Franklin", "rent": 1770, "zip": "37224"}, "nashville-davidson--murfreesboro--franklin-37228": {"city": "Nashville-Davidson--Murfreesboro--Franklin", "rent": 1730, "zip": "37228"}, "nashville-davidson--murfreesboro--franklin-37229": {"city": "Nashville-Davidson--Murfreesboro--Franklin", "rent": 1770, "zip": "37229"}, "nashville-davidson--murfreesboro--franklin-37232": {"city": "Nashville-Davidson--Murfreesboro--Franklin", "rent": 1770, "zip": "37232"}, "nashville-davidson--murfreesboro--franklin-37236": {"city": "Nashville-Davidson--Murfreesboro--Franklin", "rent": 1770, "zip": "37236"}, "nashville-davidson--murfreesboro--franklin-37238": {"city": "Nashville-Davidson--Murfreesboro--Franklin", "rent": 1770, "zip": "37238"}, "nashville-davidson--murfreesboro--franklin-37243": {"city": "Nashville-Davidson--Murfreesboro--Franklin", "rent": 1770, "zip": "37243"}, "nashville-davidson--murfreesboro--franklin-37246": {"city": "Nashville-Davidson--Murfreesboro--Franklin", "rent": 1770, "zip": "37246"}, "nashville-davidson--murfreesboro--franklin-37357": {"city": "Nashville-Davidson--Murfreesboro--Franklin", "rent": 1320, "zip": "37357"}, "nashville-davidson--murfreesboro--franklin-38401": {"city": "Nashville-Davidson--Murfreesboro--Franklin", "rent": 1320, "zip": "38401"}, "nashville-davidson--murfreesboro--franklin-38476": {"city": "Nashville-Davidson--Murfreesboro--Franklin", "rent": 1390, "zip": "38476"}, "hickman-county-37025": {"city": "Hickman County", "rent": 1320, "zip": "37025"}, "hickman-county-37033": {"city": "Hickman County", "rent": 1070, "zip": "37033"}, "hickman-county-37055": {"city": "Hickman County", "rent": 1320, "zip": "37055"}, "hickman-county-37078": {"city": "Hickman County", "rent": 1440, "zip": "37078"}, "hickman-county-37096": {"city": "Hickman County", "rent": 930, "zip": "37096"}, "hickman-county-37097": {"city": "Hickman County", "rent": 1040, "zip": "37097"}, "hickman-county-37098": {"city": "Hickman County", "rent": 930, "zip": "37098"}, "hickman-county-37101": {"city": "Hickman County", "rent": 1320, "zip": "37101"}, "hickman-county-37137": {"city": "Hickman County", "rent": 1010, "zip": "37137"}, "hickman-county-37140": {"city": "Hickman County", "rent": 1070, "zip": "37140"}, "hickman-county-38454": {"city": "Hickman County", "rent": 1330, "zip": "38454"}, "hickman-county-38461": {"city": "Hickman County", "rent": 1330, "zip": "38461"}, "hickman-county-38462": {"city": "Hickman County", "rent": 970, "zip": "38462"}, "hickman-county-38476": {"city": "Hickman County", "rent": 1390, "zip": "38476"}, "hickman-county-38487": {"city": "Hickman County", "rent": 1330, "zip": "38487"}, "macon-county-37022": {"city": "Macon County", "rent": 1610, "zip": "37022"}, "macon-county-37057": {"city": "Macon County", "rent": 1320, "zip": "37057"}, "macon-county-37074": {"city": "Macon County", "rent": 1320, "zip": "37074"}, "macon-county-37083": {"city": "Macon County", "rent": 1000, "zip": "37083"}, "macon-county-37145": {"city": "Macon County", "rent": 950, "zip": "37145"}, "macon-county-37150": {"city": "Macon County", "rent": 950, "zip": "37150"}, "macon-county-37186": {"city": "Macon County", "rent": 1320, "zip": "37186"}, "macon-county-38588": {"city": "Macon County", "rent": 950, "zip": "38588"}, "maury-county-37091": {"city": "Maury County", "rent": 1330, "zip": "37091"}, "maury-county-37174": {"city": "Maury County", "rent": 2050, "zip": "37174"}, "maury-county-38401": {"city": "Maury County", "rent": 1320, "zip": "38401"}, "maury-county-38402": {"city": "Maury County", "rent": 1350, "zip": "38402"}, "maury-county-38451": {"city": "Maury County", "rent": 1330, "zip": "38451"}, "maury-county-38454": {"city": "Maury County", "rent": 1330, "zip": "38454"}, "maury-county-38461": {"city": "Maury County", "rent": 1330, "zip": "38461"}, "maury-county-38472": {"city": "Maury County", "rent": 1330, "zip": "38472"}, "maury-county-38474": {"city": "Maury County", "rent": 1330, "zip": "38474"}, "maury-county-38476": {"city": "Maury County", "rent": 1390, "zip": "38476"}, "maury-county-38482": {"city": "Maury County", "rent": 1440, "zip": "38482"}, "maury-county-38483": {"city": "Maury County", "rent": 1330, "zip": "38483"}, "maury-county-38487": {"city": "Maury County", "rent": 1330, "zip": "38487"}, "smith-county-37012": {"city": "Smith County", "rent": 1320, "zip": "37012"}, "smith-county-37030": {"city": "Smith County", "rent": 1050, "zip": "37030"}, "smith-county-37057": {"city": "Smith County", "rent": 1320, "zip": "37057"}, "smith-county-37087": {"city": "Smith County", "rent": 1390, "zip": "37087"}, "smith-county-37090": {"city": "Smith County", "rent": 1640, "zip": "37090"}, "smith-county-37145": {"city": "Smith County", "rent": 950, "zip": "37145"}, "smith-county-37151": {"city": "Smith County", "rent": 1140, "zip": "37151"}, "smith-county-37184": {"city": "Smith County", "rent": 1320, "zip": "37184"}, "smith-county-38547": {"city": "Smith County", "rent": 1010, "zip": "38547"}, "smith-county-38548": {"city": "Smith County", "rent": 950, "zip": "38548"}, "smith-county-38552": {"city": "Smith County", "rent": 1050, "zip": "38552"}, "smith-county-38560": {"city": "Smith County", "rent": 990, "zip": "38560"}, "smith-county-38563": {"city": "Smith County", "rent": 990, "zip": "38563"}, "smith-county-38567": {"city": "Smith County", "rent": 990, "zip": "38567"}, "smith-county-38569": {"city": "Smith County", "rent": 1020, "zip": "38569"}, "bedford-county-37018": {"city": "Bedford County", "rent": 1320, "zip": "37018"}, "bedford-county-37020": {"city": "Bedford County", "rent": 1360, "zip": "37020"}, "bedford-county-37034": {"city": "Bedford County", "rent": 1400, "zip": "37034"}, "bedford-county-37060": {"city": "Bedford County", "rent": 1600, "zip": "37060"}, "bedford-county-37091": {"city": "Bedford County", "rent": 1330, "zip": "37091"}, "bedford-county-37144": {"city": "Bedford County", "rent": 940, "zip": "37144"}, "bedford-county-37153": {"city": "Bedford County", "rent": 1920, "zip": "37153"}, "bedford-county-37160": {"city": "Bedford County", "rent": 1320, "zip": "37160"}, "bedford-county-37180": {"city": "Bedford County", "rent": 1320, "zip": "37180"}, "bedford-county-37183": {"city": "Bedford County", "rent": 980, "zip": "37183"}, "bedford-county-37334": {"city": "Bedford County", "rent": 940, "zip": "37334"}, "bedford-county-37360": {"city": "Bedford County", "rent": 930, "zip": "37360"}, "bedford-county-37388": {"city": "Bedford County", "rent": 960, "zip": "37388"}, "benton-county-38221": {"city": "Benton County", "rent": 930, "zip": "38221"}, "benton-county-38317": {"city": "Benton County", "rent": 940, "zip": "38317"}, "benton-county-38318": {"city": "Benton County", "rent": 980, "zip": "38318"}, "benton-county-38320": {"city": "Benton County", "rent": 960, "zip": "38320"}, "benton-county-38333": {"city": "Benton County", "rent": 960, "zip": "38333"}, "benton-county-38341": {"city": "Benton County", "rent": 930, "zip": "38341"}, "benton-county-38380": {"city": "Benton County", "rent": 940, "zip": "38380"}, "benton-county-38387": {"city": "Benton County", "rent": 1020, "zip": "38387"}, "bledsoe-county-37321": {"city": "Bledsoe County", "rent": 930, "zip": "37321"}, "bledsoe-county-37327": {"city": "Bledsoe County", "rent": 1080, "zip": "37327"}, "bledsoe-county-37332": {"city": "Bledsoe County", "rent": 1390, "zip": "37332"}, "bledsoe-county-37337": {"city": "Bledsoe County", "rent": 950, "zip": "37337"}, "bledsoe-county-37338": {"city": "Bledsoe County", "rent": 1010, "zip": "37338"}, "bledsoe-county-37367": {"city": "Bledsoe County", "rent": 980, "zip": "37367"}, "bledsoe-county-37379": {"city": "Bledsoe County", "rent": 1260, "zip": "37379"}, "bledsoe-county-37381": {"city": "Bledsoe County", "rent": 930, "zip": "37381"}, "bledsoe-county-38572": {"city": "Bledsoe County", "rent": 930, "zip": "38572"}, "bledsoe-county-38585": {"city": "Bledsoe County", "rent": 970, "zip": "38585"}, "carroll-county-38201": {"city": "Carroll County", "rent": 930, "zip": "38201"}, "carroll-county-38220": {"city": "Carroll County", "rent": 930, "zip": "38220"}, "carroll-county-38231": {"city": "Carroll County", "rent": 960, "zip": "38231"}, "carroll-county-38235": {"city": "Carroll County", "rent": 990, "zip": "38235"}, "carroll-county-38258": {"city": "Carroll County", "rent": 950, "zip": "38258"}, "carroll-county-38305": {"city": "Carroll County", "rent": 1430, "zip": "38305"}, "carroll-county-38317": {"city": "Carroll County", "rent": 940, "zip": "38317"}, "carroll-county-38318": {"city": "Carroll County", "rent": 980, "zip": "38318"}, "carroll-county-38320": {"city": "Carroll County", "rent": 960, "zip": "38320"}, "carroll-county-38321": {"city": "Carroll County", "rent": 1020, "zip": "38321"}, "carroll-county-38341": {"city": "Carroll County", "rent": 930, "zip": "38341"}, "carroll-county-38342": {"city": "Carroll County", "rent": 930, "zip": "38342"}, "carroll-county-38344": {"city": "Carroll County", "rent": 1090, "zip": "38344"}, "carroll-county-38348": {"city": "Carroll County", "rent": 1120, "zip": "38348"}, "carroll-county-38358": {"city": "Carroll County", "rent": 930, "zip": "38358"}, "carroll-county-38387": {"city": "Carroll County", "rent": 1020, "zip": "38387"}, "carroll-county-38388": {"city": "Carroll County", "rent": 930, "zip": "38388"}, "carroll-county-38390": {"city": "Carroll County", "rent": 1050, "zip": "38390"}, "claiborne-county-37707": {"city": "Claiborne County", "rent": 930, "zip": "37707"}, "claiborne-county-37715": {"city": "Claiborne County", "rent": 930, "zip": "37715"}, "claiborne-county-37724": {"city": "Claiborne County", "rent": 1030, "zip": "37724"}, "claiborne-county-37730": {"city": "Claiborne County", "rent": 930, "zip": "37730"}, "claiborne-county-37752": {"city": "Claiborne County", "rent": 1010, "zip": "37752"}, "claiborne-county-37825": {"city": "Claiborne County", "rent": 990, "zip": "37825"}, "claiborne-county-37851": {"city": "Claiborne County", "rent": 930, "zip": "37851"}, "claiborne-county-37869": {"city": "Claiborne County", "rent": 940, "zip": "37869"}, "claiborne-county-37870": {"city": "Claiborne County", "rent": 990, "zip": "37870"}, "claiborne-county-37879": {"city": "Claiborne County", "rent": 950, "zip": "37879"}, "claiborne-county-37881": {"city": "Claiborne County", "rent": 940, "zip": "37881"}, "claiborne-county-40965": {"city": "Claiborne County", "rent": 930, "zip": "40965"}, "clay-county-37150": {"city": "Clay County", "rent": 950, "zip": "37150"}, "clay-county-38541": {"city": "Clay County", "rent": 1220, "zip": "38541"}, "clay-county-38551": {"city": "Clay County", "rent": 930, "zip": "38551"}, "clay-county-38562": {"city": "Clay County", "rent": 930, "zip": "38562"}, "clay-county-38568": {"city": "Clay County", "rent": 1010, "zip": "38568"}, "clay-county-38573": {"city": "Clay County", "rent": 990, "zip": "38573"}, "clay-county-38575": {"city": "Clay County", "rent": 930, "zip": "38575"}, "clay-county-38588": {"city": "Clay County", "rent": 950, "zip": "38588"}, "cocke-county-37713": {"city": "Cocke County", "rent": 990, "zip": "37713"}, "cocke-county-37722": {"city": "Cocke County", "rent": 1040, "zip": "37722"}, "cocke-county-37727": {"city": "Cocke County", "rent": 930, "zip": "37727"}, "cocke-county-37743": {"city": "Cocke County", "rent": 930, "zip": "37743"}, "cocke-county-37753": {"city": "Cocke County", "rent": 950, "zip": "37753"}, "cocke-county-37821": {"city": "Cocke County", "rent": 970, "zip": "37821"}, "cocke-county-37843": {"city": "Cocke County", "rent": 940, "zip": "37843"}, "coffee-county-37018": {"city": "Coffee County", "rent": 1320, "zip": "37018"}, "coffee-county-37026": {"city": "Coffee County", "rent": 1320, "zip": "37026"}, "coffee-county-37037": {"city": "Coffee County", "rent": 2180, "zip": "37037"}, "coffee-county-37183": {"city": "Coffee County", "rent": 980, "zip": "37183"}, "coffee-county-37330": {"city": "Coffee County", "rent": 1130, "zip": "37330"}, "coffee-county-37342": {"city": "Coffee County", "rent": 930, "zip": "37342"}, "coffee-county-37355": {"city": "Coffee County", "rent": 970, "zip": "37355"}, "coffee-county-37357": {"city": "Coffee County", "rent": 1320, "zip": "37357"}, "coffee-county-37360": {"city": "Coffee County", "rent": 930, "zip": "37360"}, "coffee-county-37366": {"city": "Coffee County", "rent": 1160, "zip": "37366"}, "coffee-county-37388": {"city": "Coffee County", "rent": 960, "zip": "37388"}, "coffee-county-37389": {"city": "Coffee County", "rent": 960, "zip": "37389"}, "cumberland-county-37337": {"city": "Cumberland County", "rent": 950, "zip": "37337"}, "cumberland-county-37367": {"city": "Cumberland County", "rent": 980, "zip": "37367"}, "cumberland-county-37381": {"city": "Cumberland County", "rent": 930, "zip": "37381"}, "cumberland-county-37723": {"city": "Cumberland County", "rent": 1060, "zip": "37723"}, "cumberland-county-37854": {"city": "Cumberland County", "rent": 1040, "zip": "37854"}, "cumberland-county-38555": {"city": "Cumberland County", "rent": 930, "zip": "38555"}, "cumberland-county-38557": {"city": "Cumberland County", "rent": 940, "zip": "38557"}, "cumberland-county-38558": {"city": "Cumberland County", "rent": 1410, "zip": "38558"}, "cumberland-county-38571": {"city": "Cumberland County", "rent": 930, "zip": "38571"}, "cumberland-county-38572": {"city": "Cumberland County", "rent": 930, "zip": "38572"}, "cumberland-county-38574": {"city": "Cumberland County", "rent": 930, "zip": "38574"}, "cumberland-county-38578": {"city": "Cumberland County", "rent": 930, "zip": "38578"}, "cumberland-county-38583": {"city": "Cumberland County", "rent": 1010, "zip": "38583"}, "decatur-county-38311": {"city": "Decatur County", "rent": 940, "zip": "38311"}, "decatur-county-38328": {"city": "Decatur County", "rent": 930, "zip": "38328"}, "decatur-county-38329": {"city": "Decatur County", "rent": 930, "zip": "38329"}, "decatur-county-38341": {"city": "Decatur County", "rent": 930, "zip": "38341"}, "decatur-county-38363": {"city": "Decatur County", "rent": 940, "zip": "38363"}, "decatur-county-38371": {"city": "Decatur County", "rent": 1120, "zip": "38371"}, "decatur-county-38374": {"city": "Decatur County", "rent": 930, "zip": "38374"}, "decatur-county-38380": {"city": "Decatur County", "rent": 940, "zip": "38380"}, "decatur-county-38388": {"city": "Decatur County", "rent": 930, "zip": "38388"}, "dekalb-county-37012": {"city": "DeKalb County", "rent": 1320, "zip": "37012"}, "dekalb-county-37059": {"city": "DeKalb County", "rent": 1160, "zip": "37059"}, "dekalb-county-37095": {"city": "DeKalb County", "rent": 1320, "zip": "37095"}, "dekalb-county-37166": {"city": "DeKalb County", "rent": 1320, "zip": "37166"}, "dekalb-county-37184": {"city": "DeKalb County", "rent": 1320, "zip": "37184"}, "dekalb-county-38544": {"city": "DeKalb County", "rent": 960, "zip": "38544"}, "dekalb-county-38548": {"city": "DeKalb County", "rent": 950, "zip": "38548"}, "dekalb-county-38567": {"city": "DeKalb County", "rent": 990, "zip": "38567"}, "dekalb-county-38569": {"city": "DeKalb County", "rent": 1020, "zip": "38569"}, "dekalb-county-38581": {"city": "DeKalb County", "rent": 1060, "zip": "38581"}, "dekalb-county-38582": {"city": "DeKalb County", "rent": 930, "zip": "38582"}, "dekalb-county-38583": {"city": "DeKalb County", "rent": 1010, "zip": "38583"}, "dyer-county-38007": {"city": "Dyer County", "rent": 930, "zip": "38007"}, "dyer-county-38024": {"city": "Dyer County", "rent": 930, "zip": "38024"}, "dyer-county-38025": {"city": "Dyer County", "rent": 930, "zip": "38025"}, "dyer-county-38030": {"city": "Dyer County", "rent": 930, "zip": "38030"}, "dyer-county-38034": {"city": "Dyer County", "rent": 970, "zip": "38034"}, "dyer-county-38040": {"city": "Dyer County", "rent": 970, "zip": "38040"}, "dyer-county-38047": {"city": "Dyer County", "rent": 930, "zip": "38047"}, "dyer-county-38059": {"city": "Dyer County", "rent": 990, "zip": "38059"}, "dyer-county-38070": {"city": "Dyer County", "rent": 930, "zip": "38070"}, "dyer-county-38080": {"city": "Dyer County", "rent": 940, "zip": "38080"}, "dyer-county-38240": {"city": "Dyer County", "rent": 1120, "zip": "38240"}, "dyer-county-38259": {"city": "Dyer County", "rent": 930, "zip": "38259"}, "fentress-county-37726": {"city": "Fentress County", "rent": 1030, "zip": "37726"}, "fentress-county-38504": {"city": "Fentress County", "rent": 950, "zip": "38504"}, "fentress-county-38549": {"city": "Fentress County", "rent": 960, "zip": "38549"}, "fentress-county-38553": {"city": "Fentress County", "rent": 930, "zip": "38553"}, "fentress-county-38554": {"city": "Fentress County", "rent": 930, "zip": "38554"}, "fentress-county-38556": {"city": "Fentress County", "rent": 930, "zip": "38556"}, "fentress-county-38565": {"city": "Fentress County", "rent": 930, "zip": "38565"}, "fentress-county-38574": {"city": "Fentress County", "rent": 930, "zip": "38574"}, "fentress-county-38577": {"city": "Fentress County", "rent": 1140, "zip": "38577"}, "fentress-county-38589": {"city": "Fentress County", "rent": 930, "zip": "38589"}, "franklin-county-37160": {"city": "Franklin County", "rent": 1320, "zip": "37160"}, "franklin-county-37306": {"city": "Franklin County", "rent": 1040, "zip": "37306"}, "franklin-county-37318": {"city": "Franklin County", "rent": 930, "zip": "37318"}, "franklin-county-37324": {"city": "Franklin County", "rent": 960, "zip": "37324"}, "franklin-county-37328": {"city": "Franklin County", "rent": 950, "zip": "37328"}, "franklin-county-37330": {"city": "Franklin County", "rent": 1130, "zip": "37330"}, "franklin-county-37335": {"city": "Franklin County", "rent": 930, "zip": "37335"}, "franklin-county-37345": {"city": "Franklin County", "rent": 1160, "zip": "37345"}, "franklin-county-37352": {"city": "Franklin County", "rent": 930, "zip": "37352"}, "franklin-county-37356": {"city": "Franklin County", "rent": 970, "zip": "37356"}, "franklin-county-37366": {"city": "Franklin County", "rent": 1160, "zip": "37366"}, "franklin-county-37375": {"city": "Franklin County", "rent": 1460, "zip": "37375"}, "franklin-county-37376": {"city": "Franklin County", "rent": 1100, "zip": "37376"}, "franklin-county-37380": {"city": "Franklin County", "rent": 1210, "zip": "37380"}, "franklin-county-37383": {"city": "Franklin County", "rent": 1460, "zip": "37383"}, "franklin-county-37388": {"city": "Franklin County", "rent": 960, "zip": "37388"}, "franklin-county-37398": {"city": "Franklin County", "rent": 990, "zip": "37398"}, "giles-county-37047": {"city": "Giles County", "rent": 1000, "zip": "37047"}, "giles-county-37144": {"city": "Giles County", "rent": 940, "zip": "37144"}, "giles-county-38449": {"city": "Giles County", "rent": 1230, "zip": "38449"}, "giles-county-38451": {"city": "Giles County", "rent": 1330, "zip": "38451"}, "giles-county-38453": {"city": "Giles County", "rent": 1100, "zip": "38453"}, "giles-county-38455": {"city": "Giles County", "rent": 1230, "zip": "38455"}, "giles-county-38456": {"city": "Giles County", "rent": 950, "zip": "38456"}, "giles-county-38459": {"city": "Giles County", "rent": 950, "zip": "38459"}, "giles-county-38460": {"city": "Giles County", "rent": 930, "zip": "38460"}, "giles-county-38464": {"city": "Giles County", "rent": 950, "zip": "38464"}, "giles-county-38468": {"city": "Giles County", "rent": 1160, "zip": "38468"}, "giles-county-38472": {"city": "Giles County", "rent": 1330, "zip": "38472"}, "giles-county-38473": {"city": "Giles County", "rent": 1230, "zip": "38473"}, "giles-county-38474": {"city": "Giles County", "rent": 1330, "zip": "38474"}, "giles-county-38477": {"city": "Giles County", "rent": 1080, "zip": "38477"}, "giles-county-38478": {"city": "Giles County", "rent": 990, "zip": "38478"}, "giles-county-38483": {"city": "Giles County", "rent": 1330, "zip": "38483"}, "greene-county-37616": {"city": "Greene County", "rent": 960, "zip": "37616"}, "greene-county-37641": {"city": "Greene County", "rent": 1010, "zip": "37641"}, "greene-county-37656": {"city": "Greene County", "rent": 1070, "zip": "37656"}, "greene-county-37681": {"city": "Greene County", "rent": 1010, "zip": "37681"}, "greene-county-37711": {"city": "Greene County", "rent": 970, "zip": "37711"}, "greene-county-37743": {"city": "Greene County", "rent": 930, "zip": "37743"}, "greene-county-37744": {"city": "Greene County", "rent": 930, "zip": "37744"}, "greene-county-37745": {"city": "Greene County", "rent": 970, "zip": "37745"}, "greene-county-37809": {"city": "Greene County", "rent": 980, "zip": "37809"}, "greene-county-37810": {"city": "Greene County", "rent": 970, "zip": "37810"}, "greene-county-37818": {"city": "Greene County", "rent": 960, "zip": "37818"}, "greene-county-37857": {"city": "Greene County", "rent": 940, "zip": "37857"}, "grundy-county-37110": {"city": "Grundy County", "rent": 970, "zip": "37110"}, "grundy-county-37301": {"city": "Grundy County", "rent": 1000, "zip": "37301"}, "grundy-county-37305": {"city": "Grundy County", "rent": 980, "zip": "37305"}, "grundy-county-37313": {"city": "Grundy County", "rent": 930, "zip": "37313"}, "grundy-county-37324": {"city": "Grundy County", "rent": 960, "zip": "37324"}, "grundy-county-37339": {"city": "Grundy County", "rent": 1100, "zip": "37339"}, "grundy-county-37356": {"city": "Grundy County", "rent": 970, "zip": "37356"}, "grundy-county-37357": {"city": "Grundy County", "rent": 1320, "zip": "37357"}, "grundy-county-37365": {"city": "Grundy County", "rent": 970, "zip": "37365"}, "grundy-county-37366": {"city": "Grundy County", "rent": 1160, "zip": "37366"}, "grundy-county-37374": {"city": "Grundy County", "rent": 1150, "zip": "37374"}, "grundy-county-37387": {"city": "Grundy County", "rent": 970, "zip": "37387"}, "grundy-county-37397": {"city": "Grundy County", "rent": 1030, "zip": "37397"}, "hancock-county-37731": {"city": "Hancock County", "rent": 950, "zip": "37731"}, "hancock-county-37752": {"city": "Hancock County", "rent": 1010, "zip": "37752"}, "hancock-county-37765": {"city": "Hancock County", "rent": 940, "zip": "37765"}, "hancock-county-37869": {"city": "Hancock County", "rent": 940, "zip": "37869"}, "hancock-county-37879": {"city": "Hancock County", "rent": 950, "zip": "37879"}, "hancock-county-37881": {"city": "Hancock County", "rent": 940, "zip": "37881"}, "hardeman-county-38008": {"city": "Hardeman County", "rent": 1020, "zip": "38008"}, "hardeman-county-38039": {"city": "Hardeman County", "rent": 1060, "zip": "38039"}, "hardeman-county-38042": {"city": "Hardeman County", "rent": 1180, "zip": "38042"}, "hardeman-county-38044": {"city": "Hardeman County", "rent": 1120, "zip": "38044"}, "hardeman-county-38052": {"city": "Hardeman County", "rent": 930, "zip": "38052"}, "hardeman-county-38061": {"city": "Hardeman County", "rent": 940, "zip": "38061"}, "hardeman-county-38067": {"city": "Hardeman County", "rent": 930, "zip": "38067"}, "hardeman-county-38075": {"city": "Hardeman County", "rent": 1060, "zip": "38075"}, "hardeman-county-38340": {"city": "Hardeman County", "rent": 1120, "zip": "38340"}, "hardeman-county-38356": {"city": "Hardeman County", "rent": 1120, "zip": "38356"}, "hardeman-county-38381": {"city": "Hardeman County", "rent": 930, "zip": "38381"}, "hardeman-county-38392": {"city": "Hardeman County", "rent": 1060, "zip": "38392"}, "hardin-county-38310": {"city": "Hardin County", "rent": 960, "zip": "38310"}, "hardin-county-38326": {"city": "Hardin County", "rent": 1120, "zip": "38326"}, "hardin-county-38327": {"city": "Hardin County", "rent": 960, "zip": "38327"}, "hardin-county-38357": {"city": "Hardin County", "rent": 1010, "zip": "38357"}, "hardin-county-38359": {"city": "Hardin County", "rent": 1120, "zip": "38359"}, "hardin-county-38361": {"city": "Hardin County", "rent": 940, "zip": "38361"}, "hardin-county-38365": {"city": "Hardin County", "rent": 930, "zip": "38365"}, "hardin-county-38370": {"city": "Hardin County", "rent": 930, "zip": "38370"}, "hardin-county-38371": {"city": "Hardin County", "rent": 1120, "zip": "38371"}, "hardin-county-38372": {"city": "Hardin County", "rent": 930, "zip": "38372"}, "hardin-county-38376": {"city": "Hardin County", "rent": 1060, "zip": "38376"}, "hardin-county-38379": {"city": "Hardin County", "rent": 1190, "zip": "38379"}, "hardin-county-38425": {"city": "Hardin County", "rent": 990, "zip": "38425"}, "hardin-county-38475": {"city": "Hardin County", "rent": 950, "zip": "38475"}, "haywood-county-38006": {"city": "Haywood County", "rent": 1150, "zip": "38006"}, "haywood-county-38012": {"city": "Haywood County", "rent": 930, "zip": "38012"}, "haywood-county-38037": {"city": "Haywood County", "rent": 930, "zip": "38037"}, "haywood-county-38049": {"city": "Haywood County", "rent": 1070, "zip": "38049"}, "haywood-county-38063": {"city": "Haywood County", "rent": 930, "zip": "38063"}, "haywood-county-38068": {"city": "Haywood County", "rent": 1060, "zip": "38068"}, "haywood-county-38069": {"city": "Haywood County", "rent": 1060, "zip": "38069"}, "haywood-county-38075": {"city": "Haywood County", "rent": 1060, "zip": "38075"}, "haywood-county-38301": {"city": "Haywood County", "rent": 1230, "zip": "38301"}, "haywood-county-38392": {"city": "Haywood County", "rent": 1060, "zip": "38392"}, "henderson-county-38313": {"city": "Henderson County", "rent": 1130, "zip": "38313"}, "henderson-county-38321": {"city": "Henderson County", "rent": 1020, "zip": "38321"}, "henderson-county-38328": {"city": "Henderson County", "rent": 930, "zip": "38328"}, "henderson-county-38329": {"city": "Henderson County", "rent": 930, "zip": "38329"}, "henderson-county-38341": {"city": "Henderson County", "rent": 930, "zip": "38341"}, "henderson-county-38345": {"city": "Henderson County", "rent": 1120, "zip": "38345"}, "henderson-county-38351": {"city": "Henderson County", "rent": 1120, "zip": "38351"}, "henderson-county-38352": {"city": "Henderson County", "rent": 1120, "zip": "38352"}, "henderson-county-38363": {"city": "Henderson County", "rent": 940, "zip": "38363"}, "henderson-county-38368": {"city": "Henderson County", "rent": 1120, "zip": "38368"}, "henderson-county-38370": {"city": "Henderson County", "rent": 930, "zip": "38370"}, "henderson-county-38371": {"city": "Henderson County", "rent": 1120, "zip": "38371"}, "henderson-county-38374": {"city": "Henderson County", "rent": 930, "zip": "38374"}, "henderson-county-38388": {"city": "Henderson County", "rent": 930, "zip": "38388"}, "henderson-county-38390": {"city": "Henderson County", "rent": 1050, "zip": "38390"}, "henry-county-38201": {"city": "Henry County", "rent": 930, "zip": "38201"}, "henry-county-38222": {"city": "Henry County", "rent": 1060, "zip": "38222"}, "henry-county-38224": {"city": "Henry County", "rent": 930, "zip": "38224"}, "henry-county-38229": {"city": "Henry County", "rent": 930, "zip": "38229"}, "henry-county-38231": {"city": "Henry County", "rent": 960, "zip": "38231"}, "henry-county-38236": {"city": "Henry County", "rent": 990, "zip": "38236"}, "henry-county-38242": {"city": "Henry County", "rent": 960, "zip": "38242"}, "henry-county-38251": {"city": "Henry County", "rent": 930, "zip": "38251"}, "henry-county-38256": {"city": "Henry County", "rent": 1210, "zip": "38256"}, "houston-county-37050": {"city": "Houston County", "rent": 1110, "zip": "37050"}, "houston-county-37051": {"city": "Houston County", "rent": 1320, "zip": "37051"}, "houston-county-37061": {"city": "Houston County", "rent": 1110, "zip": "37061"}, "houston-county-37101": {"city": "Houston County", "rent": 1320, "zip": "37101"}, "houston-county-37175": {"city": "Houston County", "rent": 1010, "zip": "37175"}, "houston-county-37178": {"city": "Houston County", "rent": 980, "zip": "37178"}, "houston-county-37181": {"city": "Houston County", "rent": 1320, "zip": "37181"}, "houston-county-37185": {"city": "Houston County", "rent": 1000, "zip": "37185"}, "humphreys-county-37061": {"city": "Humphreys County", "rent": 1110, "zip": "37061"}, "humphreys-county-37078": {"city": "Humphreys County", "rent": 1440, "zip": "37078"}, "humphreys-county-37097": {"city": "Humphreys County", "rent": 1040, "zip": "37097"}, "humphreys-county-37101": {"city": "Humphreys County", "rent": 1320, "zip": "37101"}, "humphreys-county-37134": {"city": "Humphreys County", "rent": 970, "zip": "37134"}, "humphreys-county-37185": {"city": "Humphreys County", "rent": 1000, "zip": "37185"}, "jackson-county-37030": {"city": "Jackson County", "rent": 1050, "zip": "37030"}, "jackson-county-37145": {"city": "Jackson County", "rent": 950, "zip": "37145"}, "jackson-county-37150": {"city": "Jackson County", "rent": 950, "zip": "37150"}, "jackson-county-38501": {"city": "Jackson County", "rent": 1040, "zip": "38501"}, "jackson-county-38506": {"city": "Jackson County", "rent": 1150, "zip": "38506"}, "jackson-county-38545": {"city": "Jackson County", "rent": 930, "zip": "38545"}, "jackson-county-38551": {"city": "Jackson County", "rent": 930, "zip": "38551"}, "jackson-county-38562": {"city": "Jackson County", "rent": 930, "zip": "38562"}, "jackson-county-38564": {"city": "Jackson County", "rent": 930, "zip": "38564"}, "jackson-county-38568": {"city": "Jackson County", "rent": 1010, "zip": "38568"}, "jackson-county-38588": {"city": "Jackson County", "rent": 950, "zip": "38588"}, "johnson-county-37640": {"city": "Johnson County", "rent": 1010, "zip": "37640"}, "johnson-county-37680": {"city": "Johnson County", "rent": 940, "zip": "37680"}, "johnson-county-37683": {"city": "Johnson County", "rent": 1010, "zip": "37683"}, "johnson-county-37688": {"city": "Johnson County", "rent": 1010, "zip": "37688"}, "johnson-county-37691": {"city": "Johnson County", "rent": 950, "zip": "37691"}, "lake-county-38077": {"city": "Lake County", "rent": 930, "zip": "38077"}, "lake-county-38079": {"city": "Lake County", "rent": 950, "zip": "38079"}, "lake-county-38080": {"city": "Lake County", "rent": 940, "zip": "38080"}, "lauderdale-county-38037": {"city": "Lauderdale County", "rent": 930, "zip": "38037"}, "lauderdale-county-38040": {"city": "Lauderdale County", "rent": 970, "zip": "38040"}, "lauderdale-county-38041": {"city": "Lauderdale County", "rent": 930, "zip": "38041"}, "lauderdale-county-38063": {"city": "Lauderdale County", "rent": 930, "zip": "38063"}, "lawrence-county-38456": {"city": "Lawrence County", "rent": 950, "zip": "38456"}, "lawrence-county-38457": {"city": "Lawrence County", "rent": 1090, "zip": "38457"}, "lawrence-county-38463": {"city": "Lawrence County", "rent": 990, "zip": "38463"}, "lawrence-county-38464": {"city": "Lawrence County", "rent": 950, "zip": "38464"}, "lawrence-county-38468": {"city": "Lawrence County", "rent": 1160, "zip": "38468"}, "lawrence-county-38469": {"city": "Lawrence County", "rent": 930, "zip": "38469"}, "lawrence-county-38473": {"city": "Lawrence County", "rent": 1230, "zip": "38473"}, "lawrence-county-38474": {"city": "Lawrence County", "rent": 1330, "zip": "38474"}, "lawrence-county-38481": {"city": "Lawrence County", "rent": 930, "zip": "38481"}, "lawrence-county-38483": {"city": "Lawrence County", "rent": 1330, "zip": "38483"}, "lawrence-county-38486": {"city": "Lawrence County", "rent": 940, "zip": "38486"}, "lewis-county-37033": {"city": "Lewis County", "rent": 1070, "zip": "37033"}, "lewis-county-37096": {"city": "Lewis County", "rent": 930, "zip": "37096"}, "lewis-county-38461": {"city": "Lewis County", "rent": 1330, "zip": "38461"}, "lewis-county-38462": {"city": "Lewis County", "rent": 970, "zip": "38462"}, "lewis-county-38474": {"city": "Lewis County", "rent": 1330, "zip": "38474"}, "lewis-county-38483": {"city": "Lewis County", "rent": 1330, "zip": "38483"}, "lewis-county-38485": {"city": "Lewis County", "rent": 940, "zip": "38485"}, "lincoln-county-37047": {"city": "Lincoln County", "rent": 1000, "zip": "37047"}, "lincoln-county-37144": {"city": "Lincoln County", "rent": 940, "zip": "37144"}, "lincoln-county-37328": {"city": "Lincoln County", "rent": 950, "zip": "37328"}, "lincoln-county-37334": {"city": "Lincoln County", "rent": 940, "zip": "37334"}, "lincoln-county-37335": {"city": "Lincoln County", "rent": 930, "zip": "37335"}, "lincoln-county-37348": {"city": "Lincoln County", "rent": 940, "zip": "37348"}, "lincoln-county-37359": {"city": "Lincoln County", "rent": 940, "zip": "37359"}, "lincoln-county-38449": {"city": "Lincoln County", "rent": 1230, "zip": "38449"}, "lincoln-county-38453": {"city": "Lincoln County", "rent": 1100, "zip": "38453"}, "lincoln-county-38459": {"city": "Lincoln County", "rent": 950, "zip": "38459"}, "lincoln-county-38478": {"city": "Lincoln County", "rent": 990, "zip": "38478"}, "lincoln-county-38488": {"city": "Lincoln County", "rent": 1010, "zip": "38488"}, "mcminn-county-37303": {"city": "McMinn County", "rent": 940, "zip": "37303"}, "mcminn-county-37309": {"city": "McMinn County", "rent": 1090, "zip": "37309"}, "mcminn-county-37322": {"city": "McMinn County", "rent": 930, "zip": "37322"}, "mcminn-county-37325": {"city": "McMinn County", "rent": 1090, "zip": "37325"}, "mcminn-county-37329": {"city": "McMinn County", "rent": 930, "zip": "37329"}, "mcminn-county-37331": {"city": "McMinn County", "rent": 1090, "zip": "37331"}, "mcminn-county-37354": {"city": "McMinn County", "rent": 960, "zip": "37354"}, "mcminn-county-37370": {"city": "McMinn County", "rent": 930, "zip": "37370"}, "mcminn-county-37371": {"city": "McMinn County", "rent": 930, "zip": "37371"}, "mcminn-county-37826": {"city": "McMinn County", "rent": 970, "zip": "37826"}, "mcminn-county-37846": {"city": "McMinn County", "rent": 1040, "zip": "37846"}, "mcminn-county-37874": {"city": "McMinn County", "rent": 990, "zip": "37874"}, "mcminn-county-37880": {"city": "McMinn County", "rent": 990, "zip": "37880"}, "mcnairy-county-38044": {"city": "McNairy County", "rent": 1120, "zip": "38044"}, "mcnairy-county-38061": {"city": "McNairy County", "rent": 940, "zip": "38061"}, "mcnairy-county-38310": {"city": "McNairy County", "rent": 960, "zip": "38310"}, "mcnairy-county-38315": {"city": "McNairy County", "rent": 1120, "zip": "38315"}, "mcnairy-county-38332": {"city": "McNairy County", "rent": 1120, "zip": "38332"}, "mcnairy-county-38334": {"city": "McNairy County", "rent": 1120, "zip": "38334"}, "mcnairy-county-38339": {"city": "McNairy County", "rent": 930, "zip": "38339"}, "mcnairy-county-38357": {"city": "McNairy County", "rent": 1010, "zip": "38357"}, "mcnairy-county-38359": {"city": "McNairy County", "rent": 1120, "zip": "38359"}, "mcnairy-county-38361": {"city": "McNairy County", "rent": 940, "zip": "38361"}, "mcnairy-county-38367": {"city": "McNairy County", "rent": 1010, "zip": "38367"}, "mcnairy-county-38375": {"city": "McNairy County", "rent": 930, "zip": "38375"}, "mcnairy-county-38376": {"city": "McNairy County", "rent": 1060, "zip": "38376"}, "mcnairy-county-38379": {"city": "McNairy County", "rent": 1190, "zip": "38379"}, "mcnairy-county-38393": {"city": "McNairy County", "rent": 930, "zip": "38393"}, "marshall-county-37019": {"city": "Marshall County", "rent": 980, "zip": "37019"}, "marshall-county-37034": {"city": "Marshall County", "rent": 1400, "zip": "37034"}, "marshall-county-37046": {"city": "Marshall County", "rent": 1880, "zip": "37046"}, "marshall-county-37047": {"city": "Marshall County", "rent": 1000, "zip": "37047"}, "marshall-county-37060": {"city": "Marshall County", "rent": 1600, "zip": "37060"}, "marshall-county-37091": {"city": "Marshall County", "rent": 1330, "zip": "37091"}, "marshall-county-37144": {"city": "Marshall County", "rent": 940, "zip": "37144"}, "marshall-county-37174": {"city": "Marshall County", "rent": 2050, "zip": "37174"}, "marshall-county-37180": {"city": "Marshall County", "rent": 1320, "zip": "37180"}, "marshall-county-38401": {"city": "Marshall County", "rent": 1320, "zip": "38401"}, "marshall-county-38451": {"city": "Marshall County", "rent": 1330, "zip": "38451"}, "marshall-county-38472": {"city": "Marshall County", "rent": 1330, "zip": "38472"}, "meigs-county-37308": {"city": "Meigs County", "rent": 1060, "zip": "37308"}, "meigs-county-37321": {"city": "Meigs County", "rent": 930, "zip": "37321"}, "meigs-county-37322": {"city": "Meigs County", "rent": 930, "zip": "37322"}, "meigs-county-37336": {"city": "Meigs County", "rent": 1250, "zip": "37336"}, "meigs-county-37826": {"city": "Meigs County", "rent": 970, "zip": "37826"}, "meigs-county-37846": {"city": "Meigs County", "rent": 1040, "zip": "37846"}, "meigs-county-37880": {"city": "Meigs County", "rent": 990, "zip": "37880"}, "monroe-county-37329": {"city": "Monroe County", "rent": 930, "zip": "37329"}, "monroe-county-37354": {"city": "Monroe County", "rent": 960, "zip": "37354"}, "monroe-county-37369": {"city": "Monroe County", "rent": 1090, "zip": "37369"}, "monroe-county-37385": {"city": "Monroe County", "rent": 1090, "zip": "37385"}, "monroe-county-37774": {"city": "Monroe County", "rent": 1310, "zip": "37774"}, "monroe-county-37801": {"city": "Monroe County", "rent": 1360, "zip": "37801"}, "monroe-county-37846": {"city": "Monroe County", "rent": 1040, "zip": "37846"}, "monroe-county-37874": {"city": "Monroe County", "rent": 990, "zip": "37874"}, "monroe-county-37885": {"city": "Monroe County", "rent": 1180, "zip": "37885"}, "moore-county-37144": {"city": "Moore County", "rent": 940, "zip": "37144"}, "moore-county-37160": {"city": "Moore County", "rent": 1320, "zip": "37160"}, "moore-county-37183": {"city": "Moore County", "rent": 980, "zip": "37183"}, "moore-county-37306": {"city": "Moore County", "rent": 1040, "zip": "37306"}, "moore-county-37334": {"city": "Moore County", "rent": 940, "zip": "37334"}, "moore-county-37352": {"city": "Moore County", "rent": 930, "zip": "37352"}, "moore-county-37359": {"city": "Moore County", "rent": 940, "zip": "37359"}, "moore-county-37360": {"city": "Moore County", "rent": 930, "zip": "37360"}, "moore-county-37388": {"city": "Moore County", "rent": 960, "zip": "37388"}, "moore-county-37398": {"city": "Moore County", "rent": 990, "zip": "37398"}, "obion-county-38079": {"city": "Obion County", "rent": 950, "zip": "38079"}, "obion-county-38080": {"city": "Obion County", "rent": 940, "zip": "38080"}, "obion-county-38232": {"city": "Obion County", "rent": 930, "zip": "38232"}, "obion-county-38233": {"city": "Obion County", "rent": 930, "zip": "38233"}, "obion-county-38237": {"city": "Obion County", "rent": 980, "zip": "38237"}, "obion-county-38240": {"city": "Obion County", "rent": 1120, "zip": "38240"}, "obion-county-38253": {"city": "Obion County", "rent": 1150, "zip": "38253"}, "obion-county-38254": {"city": "Obion County", "rent": 930, "zip": "38254"}, "obion-county-38255": {"city": "Obion County", "rent": 930, "zip": "38255"}, "obion-county-38257": {"city": "Obion County", "rent": 960, "zip": "38257"}, "obion-county-38259": {"city": "Obion County", "rent": 930, "zip": "38259"}, "obion-county-38260": {"city": "Obion County", "rent": 930, "zip": "38260"}, "obion-county-38261": {"city": "Obion County", "rent": 930, "zip": "38261"}, "obion-county-38281": {"city": "Obion County", "rent": 930, "zip": "38281"}, "overton-county-38501": {"city": "Overton County", "rent": 1040, "zip": "38501"}, "overton-county-38506": {"city": "Overton County", "rent": 1150, "zip": "38506"}, "overton-county-38541": {"city": "Overton County", "rent": 1220, "zip": "38541"}, "overton-county-38542": {"city": "Overton County", "rent": 930, "zip": "38542"}, "overton-county-38543": {"city": "Overton County", "rent": 950, "zip": "38543"}, "overton-county-38551": {"city": "Overton County", "rent": 930, "zip": "38551"}, "overton-county-38553": {"city": "Overton County", "rent": 930, "zip": "38553"}, "overton-county-38554": {"city": "Overton County", "rent": 930, "zip": "38554"}, "overton-county-38568": {"city": "Overton County", "rent": 1010, "zip": "38568"}, "overton-county-38570": {"city": "Overton County", "rent": 930, "zip": "38570"}, "overton-county-38573": {"city": "Overton County", "rent": 990, "zip": "38573"}, "overton-county-38574": {"city": "Overton County", "rent": 930, "zip": "38574"}, "overton-county-38580": {"city": "Overton County", "rent": 930, "zip": "38580"}, "overton-county-38589": {"city": "Overton County", "rent": 930, "zip": "38589"}, "perry-county-37033": {"city": "Perry County", "rent": 1070, "zip": "37033"}, "perry-county-37096": {"city": "Perry County", "rent": 930, "zip": "37096"}, "perry-county-37097": {"city": "Perry County", "rent": 1040, "zip": "37097"}, "perry-county-38425": {"city": "Perry County", "rent": 990, "zip": "38425"}, "pickett-county-38543": {"city": "Pickett County", "rent": 950, "zip": "38543"}, "pickett-county-38549": {"city": "Pickett County", "rent": 960, "zip": "38549"}, "pickett-county-38556": {"city": "Pickett County", "rent": 930, "zip": "38556"}, "pickett-county-38573": {"city": "Pickett County", "rent": 990, "zip": "38573"}, "pickett-county-38577": {"city": "Pickett County", "rent": 1140, "zip": "38577"}, "pickett-county-42602": {"city": "Pickett County", "rent": 930, "zip": "42602"}, "putnam-county-38501": {"city": "Putnam County", "rent": 1040, "zip": "38501"}, "putnam-county-38502": {"city": "Putnam County", "rent": 1010, "zip": "38502"}, "putnam-county-38503": {"city": "Putnam County", "rent": 1010, "zip": "38503"}, "putnam-county-38505": {"city": "Putnam County", "rent": 1040, "zip": "38505"}, "putnam-county-38506": {"city": "Putnam County", "rent": 1150, "zip": "38506"}, "putnam-county-38544": {"city": "Putnam County", "rent": 960, "zip": "38544"}, "putnam-county-38545": {"city": "Putnam County", "rent": 930, "zip": "38545"}, "putnam-county-38548": {"city": "Putnam County", "rent": 950, "zip": "38548"}, "putnam-county-38564": {"city": "Putnam County", "rent": 930, "zip": "38564"}, "putnam-county-38574": {"city": "Putnam County", "rent": 930, "zip": "38574"}, "putnam-county-38582": {"city": "Putnam County", "rent": 930, "zip": "38582"}, "putnam-county-38583": {"city": "Putnam County", "rent": 1010, "zip": "38583"}, "rhea-county-37321": {"city": "Rhea County", "rent": 930, "zip": "37321"}, "rhea-county-37332": {"city": "Rhea County", "rent": 1390, "zip": "37332"}, "rhea-county-37337": {"city": "Rhea County", "rent": 950, "zip": "37337"}, "rhea-county-37338": {"city": "Rhea County", "rent": 1010, "zip": "37338"}, "rhea-county-37367": {"city": "Rhea County", "rent": 980, "zip": "37367"}, "rhea-county-37373": {"city": "Rhea County", "rent": 1450, "zip": "37373"}, "rhea-county-37381": {"city": "Rhea County", "rent": 930, "zip": "37381"}, "scott-county-37732": {"city": "Scott County", "rent": 930, "zip": "37732"}, "scott-county-37755": {"city": "Scott County", "rent": 940, "zip": "37755"}, "scott-county-37756": {"city": "Scott County", "rent": 930, "zip": "37756"}, "scott-county-37841": {"city": "Scott County", "rent": 980, "zip": "37841"}, "scott-county-37847": {"city": "Scott County", "rent": 930, "zip": "37847"}, "scott-county-37852": {"city": "Scott County", "rent": 930, "zip": "37852"}, "scott-county-37872": {"city": "Scott County", "rent": 1110, "zip": "37872"}, "scott-county-37892": {"city": "Scott County", "rent": 930, "zip": "37892"}, "scott-county-38504": {"city": "Scott County", "rent": 950, "zip": "38504"}, "sevier-county-37722": {"city": "Sevier County", "rent": 1040, "zip": "37722"}, "sevier-county-37725": {"city": "Sevier County", "rent": 1170, "zip": "37725"}, "sevier-county-37738": {"city": "Sevier County", "rent": 1220, "zip": "37738"}, "sevier-county-37764": {"city": "Sevier County", "rent": 1260, "zip": "37764"}, "sevier-county-37820": {"city": "Sevier County", "rent": 1040, "zip": "37820"}, "sevier-county-37862": {"city": "Sevier County", "rent": 1120, "zip": "37862"}, "sevier-county-37863": {"city": "Sevier County", "rent": 1050, "zip": "37863"}, "sevier-county-37864": {"city": "Sevier County", "rent": 1160, "zip": "37864"}, "sevier-county-37865": {"city": "Sevier County", "rent": 1440, "zip": "37865"}, "sevier-county-37868": {"city": "Sevier County", "rent": 1160, "zip": "37868"}, "sevier-county-37871": {"city": "Sevier County", "rent": 1100, "zip": "37871"}, "sevier-county-37876": {"city": "Sevier County", "rent": 1130, "zip": "37876"}, "sevier-county-37920": {"city": "Sevier County", "rent": 1330, "zip": "37920"}, "van-buren-county-37110": {"city": "Van Buren County", "rent": 970, "zip": "37110"}, "van-buren-county-37367": {"city": "Van Buren County", "rent": 980, "zip": "37367"}, "van-buren-county-38559": {"city": "Van Buren County", "rent": 1060, "zip": "38559"}, "van-buren-county-38581": {"city": "Van Buren County", "rent": 1060, "zip": "38581"}, "van-buren-county-38583": {"city": "Van Buren County", "rent": 1010, "zip": "38583"}, "van-buren-county-38585": {"city": "Van Buren County", "rent": 970, "zip": "38585"}, "warren-county-37110": {"city": "Warren County", "rent": 970, "zip": "37110"}, "warren-county-37166": {"city": "Warren County", "rent": 1320, "zip": "37166"}, "warren-county-37190": {"city": "Warren County", "rent": 1320, "zip": "37190"}, "warren-county-37357": {"city": "Warren County", "rent": 1320, "zip": "37357"}, "warren-county-37394": {"city": "Warren County", "rent": 970, "zip": "37394"}, "warren-county-38550": {"city": "Warren County", "rent": 960, "zip": "38550"}, "warren-county-38581": {"city": "Warren County", "rent": 1060, "zip": "38581"}, "wayne-county-37096": {"city": "Wayne County", "rent": 930, "zip": "37096"}, "wayne-county-38425": {"city": "Wayne County", "rent": 990, "zip": "38425"}, "wayne-county-38450": {"city": "Wayne County", "rent": 930, "zip": "38450"}, "wayne-county-38452": {"city": "Wayne County", "rent": 950, "zip": "38452"}, "wayne-county-38462": {"city": "Wayne County", "rent": 970, "zip": "38462"}, "wayne-county-38463": {"city": "Wayne County", "rent": 990, "zip": "38463"}, "wayne-county-38464": {"city": "Wayne County", "rent": 950, "zip": "38464"}, "wayne-county-38471": {"city": "Wayne County", "rent": 930, "zip": "38471"}, "wayne-county-38475": {"city": "Wayne County", "rent": 950, "zip": "38475"}, "wayne-county-38485": {"city": "Wayne County", "rent": 940, "zip": "38485"}, "wayne-county-38486": {"city": "Wayne County", "rent": 940, "zip": "38486"}, "weakley-county-38201": {"city": "Weakley County", "rent": 930, "zip": "38201"}, "weakley-county-38224": {"city": "Weakley County", "rent": 930, "zip": "38224"}, "weakley-county-38225": {"city": "Weakley County", "rent": 930, "zip": "38225"}, "weakley-county-38226": {"city": "Weakley County", "rent": 940, "zip": "38226"}, "weakley-county-38229": {"city": "Weakley County", "rent": 930, "zip": "38229"}, "weakley-county-38230": {"city": "Weakley County", "rent": 930, "zip": "38230"}, "weakley-county-38237": {"city": "Weakley County", "rent": 980, "zip": "38237"}, "weakley-county-38238": {"city": "Weakley County", "rent": 930, "zip": "38238"}, "weakley-county-38241": {"city": "Weakley County", "rent": 930, "zip": "38241"}, "weakley-county-38242": {"city": "Weakley County", "rent": 960, "zip": "38242"}, "weakley-county-38253": {"city": "Weakley County", "rent": 1150, "zip": "38253"}, "weakley-county-38255": {"city": "Weakley County", "rent": 930, "zip": "38255"}, "weakley-county-38257": {"city": "Weakley County", "rent": 960, "zip": "38257"}, "weakley-county-38261": {"city": "Weakley County", "rent": 930, "zip": "38261"}, "white-county-38506": {"city": "White County", "rent": 1150, "zip": "38506"}, "white-county-38559": {"city": "White County", "rent": 1060, "zip": "38559"}, "white-county-38579": {"city": "White County", "rent": 1080, "zip": "38579"}, "white-county-38581": {"city": "White County", "rent": 1060, "zip": "38581"}, "white-county-38583": {"city": "White County", "rent": 1010, "zip": "38583"}, "white-county-38587": {"city": "White County", "rent": 930, "zip": "38587"}}