{"burlington-south-burlington-05401": {"city": "Burlington-South Burlington", "rent": 2340, "zip": "05401"}, "burlington-south-burlington-05402": {"city": "Burlington-South Burlington", "rent": 2210, "zip": "05402"}, "burlington-south-burlington-05403": {"city": "Burlington-South Burlington", "rent": 2410, "zip": "05403"}, "burlington-south-burlington-05404": {"city": "Burlington-South Burlington", "rent": 2330, "zip": "05404"}, "burlington-south-burlington-05405": {"city": "Burlington-South Burlington", "rent": 2340, "zip": "05405"}, "burlington-south-burlington-05406": {"city": "Burlington-South Burlington", "rent": 2210, "zip": "05406"}, "burlington-south-burlington-05407": {"city": "Burlington-South Burlington", "rent": 2210, "zip": "05407"}, "burlington-south-burlington-05408": {"city": "Burlington-South Burlington", "rent": 2220, "zip": "05408"}, "burlington-south-burlington-05439": {"city": "Burlington-South Burlington", "rent": 2030, "zip": "05439"}, "burlington-south-burlington-05440": {"city": "Burlington-South Burlington", "rent": 1750, "zip": "05440"}, "burlington-south-burlington-05441": {"city": "Burlington-South Burlington", "rent": 1750, "zip": "05441"}, "burlington-south-burlington-05444": {"city": "Burlington-South Burlington", "rent": 1750, "zip": "05444"}, "burlington-south-burlington-05445": {"city": "Burlington-South Burlington", "rent": 1820, "zip": "05445"}, "burlington-south-burlington-05446": {"city": "Burlington-South Burlington", "rent": 1930, "zip": "05446"}, "burlington-south-burlington-05447": {"city": "Burlington-South Burlington", "rent": 1750, "zip": "05447"}, "burlington-south-burlington-05448": {"city": "Burlington-South Burlington", "rent": 1750, "zip": "05448"}, "burlington-south-burlington-05449": {"city": "Burlington-South Burlington", "rent": 2210, "zip": "05449"}, "burlington-south-burlington-05450": {"city": "Burlington-South Burlington", "rent": 1750, "zip": "05450"}, "burlington-south-burlington-05451": {"city": "Burlington-South Burlington", "rent": 2210, "zip": "05451"}, "burlington-south-burlington-05452": {"city": "Burlington-South Burlington", "rent": 2070, "zip": "05452"}, "burlington-south-burlington-05453": {"city": "Burlington-South Burlington", "rent": 2210, "zip": "05453"}, "burlington-south-burlington-05454": {"city": "Burlington-South Burlington", "rent": 1750, "zip": "05454"}, "burlington-south-burlington-05455": {"city": "Burlington-South Burlington", "rent": 1750, "zip": "05455"}, "burlington-south-burlington-05457": {"city": "Burlington-South Burlington", "rent": 2010, "zip": "05457"}, "burlington-south-burlington-05458": {"city": "Burlington-South Burlington", "rent": 1770, "zip": "05458"}, "burlington-south-burlington-05459": {"city": "Burlington-South Burlington", "rent": 1950, "zip": "05459"}, "burlington-south-burlington-05460": {"city": "Burlington-South Burlington", "rent": 1750, "zip": "05460"}, "burlington-south-burlington-05461": {"city": "Burlington-South Burlington", "rent": 2140, "zip": "05461"}, "burlington-south-burlington-05462": {"city": "Burlington-South Burlington", "rent": 1890, "zip": "05462"}, "burlington-south-burlington-05463": {"city": "Burlington-South Burlington", "rent": 1930, "zip": "05463"}, "burlington-south-burlington-05464": {"city": "Burlington-South Burlington", "rent": 1750, "zip": "05464"}, "burlington-south-burlington-05465": {"city": "Burlington-South Burlington", "rent": 1830, "zip": "05465"}, "burlington-south-burlington-05468": {"city": "Burlington-South Burlington", "rent": 2180, "zip": "05468"}, "burlington-south-burlington-05470": {"city": "Burlington-South Burlington", "rent": 1750, "zip": "05470"}, "burlington-south-burlington-05471": {"city": "Burlington-South Burlington", "rent": 1750, "zip": "05471"}, "burlington-south-burlington-05474": {"city": "Burlington-South Burlington", "rent": 2290, "zip": "05474"}, "burlington-south-burlington-05476": {"city": "Burlington-South Burlington", "rent": 1750, "zip": "05476"}, "burlington-south-burlington-05477": {"city": "Burlington-South Burlington", "rent": 2240, "zip": "05477"}, "burlington-south-burlington-05478": {"city": "Burlington-South Burlington", "rent": 1770, "zip": "05478"}, "burlington-south-burlington-05481": {"city": "Burlington-South Burlington", "rent": 1750, "zip": "05481"}, "burlington-south-burlington-05482": {"city": "Burlington-South Burlington", "rent": 1960, "zip": "05482"}, "burlington-south-burlington-05483": {"city": "Burlington-South Burlington", "rent": 1960, "zip": "05483"}, "burlington-south-burlington-05485": {"city": "Burlington-South Burlington", "rent": 1960, "zip": "05485"}, "burlington-south-burlington-05486": {"city": "Burlington-South Burlington", "rent": 2020, "zip": "05486"}, "burlington-south-burlington-05487": {"city": "Burlington-South Burlington", "rent": 1750, "zip": "05487"}, "burlington-south-burlington-05488": {"city": "Burlington-South Burlington", "rent": 1940, "zip": "05488"}, "burlington-south-burlington-05489": {"city": "Burlington-South Burlington", "rent": 1930, "zip": "05489"}, "burlington-south-burlington-05490": {"city": "Burlington-South Burlington", "rent": 2210, "zip": "05490"}, "burlington-south-burlington-05494": {"city": "Burlington-South Burlington", "rent": 1790, "zip": "05494"}, "burlington-south-burlington-05495": {"city": "Burlington-South Burlington", "rent": 2450, "zip": "05495"}, "burlington-south-burlington-05676": {"city": "Burlington-South Burlington", "rent": 1760, "zip": "05676"}, "addison-county-05443": {"city": "Addison County", "rent": 1460, "zip": "05443"}, "addison-county-05445": {"city": "Addison County", "rent": 1820, "zip": "05445"}, "addison-county-05456": {"city": "Addison County", "rent": 1950, "zip": "05456"}, "addison-county-05461": {"city": "Addison County", "rent": 2140, "zip": "05461"}, "addison-county-05462": {"city": "Addison County", "rent": 1890, "zip": "05462"}, "addison-county-05469": {"city": "Addison County", "rent": 1440, "zip": "05469"}, "addison-county-05472": {"city": "Addison County", "rent": 1480, "zip": "05472"}, "addison-county-05473": {"city": "Addison County", "rent": 1960, "zip": "05473"}, "addison-county-05487": {"city": "Addison County", "rent": 1750, "zip": "05487"}, "addison-county-05491": {"city": "Addison County", "rent": 1480, "zip": "05491"}, "addison-county-05669": {"city": "Addison County", "rent": 1280, "zip": "05669"}, "addison-county-05733": {"city": "Addison County", "rent": 1440, "zip": "05733"}, "addison-county-05734": {"city": "Addison County", "rent": 1370, "zip": "05734"}, "addison-county-05740": {"city": "Addison County", "rent": 1440, "zip": "05740"}, "addison-county-05743": {"city": "Addison County", "rent": 1340, "zip": "05743"}, "addison-county-05747": {"city": "Addison County", "rent": 1270, "zip": "05747"}, "addison-county-05748": {"city": "Addison County", "rent": 1270, "zip": "05748"}, "addison-county-05753": {"city": "Addison County", "rent": 1480, "zip": "05753"}, "addison-county-05760": {"city": "Addison County", "rent": 1290, "zip": "05760"}, "addison-county-05766": {"city": "Addison County", "rent": 1420, "zip": "05766"}, "addison-county-05767": {"city": "Addison County", "rent": 1270, "zip": "05767"}, "addison-county-05769": {"city": "Addison County", "rent": 1880, "zip": "05769"}, "addison-county-05770": {"city": "Addison County", "rent": 1300, "zip": "05770"}, "addison-county-05778": {"city": "Addison County", "rent": 1270, "zip": "05778"}, "bennington-county-05148": {"city": "Bennington County", "rent": 1490, "zip": "05148"}, "bennington-county-05152": {"city": "Bennington County", "rent": 1440, "zip": "05152"}, "bennington-county-05155": {"city": "Bennington County", "rent": 1320, "zip": "05155"}, "bennington-county-05161": {"city": "Bennington County", "rent": 1190, "zip": "05161"}, "bennington-county-05201": {"city": "Bennington County", "rent": 1310, "zip": "05201"}, "bennington-county-05250": {"city": "Bennington County", "rent": 1490, "zip": "05250"}, "bennington-county-05251": {"city": "Bennington County", "rent": 1300, "zip": "05251"}, "bennington-county-05252": {"city": "Bennington County", "rent": 1660, "zip": "05252"}, "bennington-county-05253": {"city": "Bennington County", "rent": 1140, "zip": "05253"}, "bennington-county-05254": {"city": "Bennington County", "rent": 1160, "zip": "05254"}, "bennington-county-05255": {"city": "Bennington County", "rent": 1160, "zip": "05255"}, "bennington-county-05257": {"city": "Bennington County", "rent": 1570, "zip": "05257"}, "bennington-county-05260": {"city": "Bennington County", "rent": 1420, "zip": "05260"}, "bennington-county-05261": {"city": "Bennington County", "rent": 1650, "zip": "05261"}, "bennington-county-05262": {"city": "Bennington County", "rent": 1480, "zip": "05262"}, "bennington-county-05340": {"city": "Bennington County", "rent": 1320, "zip": "05340"}, "bennington-county-05343": {"city": "Bennington County", "rent": 1450, "zip": "05343"}, "bennington-county-05350": {"city": "Bennington County", "rent": 1440, "zip": "05350"}, "bennington-county-05352": {"city": "Bennington County", "rent": 1560, "zip": "05352"}, "bennington-county-05363": {"city": "Bennington County", "rent": 1350, "zip": "05363"}, "bennington-county-05761": {"city": "Bennington County", "rent": 1750, "zip": "05761"}, "bennington-county-05768": {"city": "Bennington County", "rent": 1610, "zip": "05768"}, "bennington-county-05775": {"city": "Bennington County", "rent": 1380, "zip": "05775"}, "bennington-county-05776": {"city": "Bennington County", "rent": 1460, "zip": "05776"}, "caledonia-county-05042": {"city": "Caledonia County", "rent": 1110, "zip": "05042"}, "caledonia-county-05046": {"city": "Caledonia County", "rent": 1230, "zip": "05046"}, "caledonia-county-05050": {"city": "Caledonia County", "rent": 1280, "zip": "05050"}, "caledonia-county-05069": {"city": "Caledonia County", "rent": 1200, "zip": "05069"}, "caledonia-county-05081": {"city": "Caledonia County", "rent": 1150, "zip": "05081"}, "caledonia-county-05647": {"city": "Caledonia County", "rent": 1480, "zip": "05647"}, "caledonia-county-05658": {"city": "Caledonia County", "rent": 1560, "zip": "05658"}, "caledonia-county-05680": {"city": "Caledonia County", "rent": 1280, "zip": "05680"}, "caledonia-county-05819": {"city": "Caledonia County", "rent": 1130, "zip": "05819"}, "caledonia-county-05821": {"city": "Caledonia County", "rent": 1310, "zip": "05821"}, "caledonia-county-05822": {"city": "Caledonia County", "rent": 1190, "zip": "05822"}, "caledonia-county-05824": {"city": "Caledonia County", "rent": 1060, "zip": "05824"}, "caledonia-county-05828": {"city": "Caledonia County", "rent": 1020, "zip": "05828"}, "caledonia-county-05832": {"city": "Caledonia County", "rent": 1400, "zip": "05832"}, "caledonia-county-05836": {"city": "Caledonia County", "rent": 1150, "zip": "05836"}, "caledonia-county-05837": {"city": "Caledonia County", "rent": 1220, "zip": "05837"}, "caledonia-county-05838": {"city": "Caledonia County", "rent": 1160, "zip": "05838"}, "caledonia-county-05839": {"city": "Caledonia County", "rent": 1030, "zip": "05839"}, "caledonia-county-05841": {"city": "Caledonia County", "rent": 1060, "zip": "05841"}, "caledonia-county-05842": {"city": "Caledonia County", "rent": 1310, "zip": "05842"}, "caledonia-county-05843": {"city": "Caledonia County", "rent": 1280, "zip": "05843"}, "caledonia-county-05848": {"city": "Caledonia County", "rent": 1160, "zip": "05848"}, "caledonia-county-05849": {"city": "Caledonia County", "rent": 1160, "zip": "05849"}, "caledonia-county-05850": {"city": "Caledonia County", "rent": 1310, "zip": "05850"}, "caledonia-county-05851": {"city": "Caledonia County", "rent": 1310, "zip": "05851"}, "caledonia-county-05861": {"city": "Caledonia County", "rent": 1160, "zip": "05861"}, "caledonia-county-05862": {"city": "Caledonia County", "rent": 1040, "zip": "05862"}, "caledonia-county-05866": {"city": "Caledonia County", "rent": 1270, "zip": "05866"}, "caledonia-county-05867": {"city": "Caledonia County", "rent": 1300, "zip": "05867"}, "caledonia-county-05871": {"city": "Caledonia County", "rent": 1540, "zip": "05871"}, "caledonia-county-05873": {"city": "Caledonia County", "rent": 1480, "zip": "05873"}, "essex-county-05819": {"city": "Essex County", "rent": 1130, "zip": "05819"}, "essex-county-05824": {"city": "Essex County", "rent": 1060, "zip": "05824"}, "essex-county-05837": {"city": "Essex County", "rent": 1220, "zip": "05837"}, "essex-county-05840": {"city": "Essex County", "rent": 1010, "zip": "05840"}, "essex-county-05846": {"city": "Essex County", "rent": 990, "zip": "05846"}, "essex-county-05858": {"city": "Essex County", "rent": 1010, "zip": "05858"}, "essex-county-05901": {"city": "Essex County", "rent": 1020, "zip": "05901"}, "essex-county-05902": {"city": "Essex County", "rent": 1380, "zip": "05902"}, "essex-county-05903": {"city": "Essex County", "rent": 1040, "zip": "05903"}, "essex-county-05904": {"city": "Essex County", "rent": 1170, "zip": "05904"}, "essex-county-05905": {"city": "Essex County", "rent": 1130, "zip": "05905"}, "essex-county-05906": {"city": "Essex County", "rent": 1010, "zip": "05906"}, "essex-county-05907": {"city": "Essex County", "rent": 1100, "zip": "05907"}, "lamoille-county-05442": {"city": "Lamoille County", "rent": 2020, "zip": "05442"}, "lamoille-county-05444": {"city": "Lamoille County", "rent": 1750, "zip": "05444"}, "lamoille-county-05464": {"city": "Lamoille County", "rent": 1750, "zip": "05464"}, "lamoille-county-05489": {"city": "Lamoille County", "rent": 1930, "zip": "05489"}, "lamoille-county-05492": {"city": "Lamoille County", "rent": 1160, "zip": "05492"}, "lamoille-county-05652": {"city": "Lamoille County", "rent": 1770, "zip": "05652"}, "lamoille-county-05653": {"city": "Lamoille County", "rent": 1160, "zip": "05653"}, "lamoille-county-05655": {"city": "Lamoille County", "rent": 1190, "zip": "05655"}, "lamoille-county-05656": {"city": "Lamoille County", "rent": 1230, "zip": "05656"}, "lamoille-county-05661": {"city": "Lamoille County", "rent": 1330, "zip": "05661"}, "lamoille-county-05662": {"city": "Lamoille County", "rent": 1350, "zip": "05662"}, "lamoille-county-05672": {"city": "Lamoille County", "rent": 1480, "zip": "05672"}, "lamoille-county-05680": {"city": "Lamoille County", "rent": 1280, "zip": "05680"}, "lamoille-county-05826": {"city": "Lamoille County", "rent": 1640, "zip": "05826"}, "lamoille-county-05843": {"city": "Lamoille County", "rent": 1280, "zip": "05843"}, "orange-county-05032": {"city": "Orange County", "rent": 1670, "zip": "05032"}, "orange-county-05033": {"city": "Orange County", "rent": 1330, "zip": "05033"}, "orange-county-05036": {"city": "Orange County", "rent": 1420, "zip": "05036"}, "orange-county-05038": {"city": "Orange County", "rent": 1420, "zip": "05038"}, "orange-county-05039": {"city": "Orange County", "rent": 1520, "zip": "05039"}, "orange-county-05040": {"city": "Orange County", "rent": 1410, "zip": "05040"}, "orange-county-05041": {"city": "Orange County", "rent": 1430, "zip": "05041"}, "orange-county-05043": {"city": "Orange County", "rent": 1410, "zip": "05043"}, "orange-county-05045": {"city": "Orange County", "rent": 1490, "zip": "05045"}, "orange-county-05046": {"city": "Orange County", "rent": 1230, "zip": "05046"}, "orange-county-05051": {"city": "Orange County", "rent": 1360, "zip": "05051"}, "orange-county-05054": {"city": "Orange County", "rent": 1360, "zip": "05054"}, "orange-county-05058": {"city": "Orange County", "rent": 1740, "zip": "05058"}, "orange-county-05060": {"city": "Orange County", "rent": 1280, "zip": "05060"}, "orange-county-05061": {"city": "Orange County", "rent": 1320, "zip": "05061"}, "orange-county-05065": {"city": "Orange County", "rent": 1380, "zip": "05065"}, "orange-county-05068": {"city": "Orange County", "rent": 1540, "zip": "05068"}, "orange-county-05069": {"city": "Orange County", "rent": 1200, "zip": "05069"}, "orange-county-05070": {"city": "Orange County", "rent": 1460, "zip": "05070"}, "orange-county-05072": {"city": "Orange County", "rent": 1440, "zip": "05072"}, "orange-county-05074": {"city": "Orange County", "rent": 1360, "zip": "05074"}, "orange-county-05075": {"city": "Orange County", "rent": 1880, "zip": "05075"}, "orange-county-05076": {"city": "Orange County", "rent": 1360, "zip": "05076"}, "orange-county-05077": {"city": "Orange County", "rent": 1300, "zip": "05077"}, "orange-county-05079": {"city": "Orange County", "rent": 1230, "zip": "05079"}, "orange-county-05081": {"city": "Orange County", "rent": 1150, "zip": "05081"}, "orange-county-05083": {"city": "Orange County", "rent": 1140, "zip": "05083"}, "orange-county-05085": {"city": "Orange County", "rent": 1360, "zip": "05085"}, "orange-county-05086": {"city": "Orange County", "rent": 1360, "zip": "05086"}, "orange-county-05641": {"city": "Orange County", "rent": 1400, "zip": "05641"}, "orange-county-05649": {"city": "Orange County", "rent": 1370, "zip": "05649"}, "orange-county-05654": {"city": "Orange County", "rent": 1380, "zip": "05654"}, "orange-county-05663": {"city": "Orange County", "rent": 1340, "zip": "05663"}, "orange-county-05669": {"city": "Orange County", "rent": 1280, "zip": "05669"}, "orange-county-05675": {"city": "Orange County", "rent": 1540, "zip": "05675"}, "orange-county-05679": {"city": "Orange County", "rent": 1910, "zip": "05679"}, "orleans-county-05471": {"city": "Orleans County", "rent": 1750, "zip": "05471"}, "orleans-county-05476": {"city": "Orleans County", "rent": 1750, "zip": "05476"}, "orleans-county-05680": {"city": "Orleans County", "rent": 1280, "zip": "05680"}, "orleans-county-05820": {"city": "Orleans County", "rent": 1180, "zip": "05820"}, "orleans-county-05822": {"city": "Orleans County", "rent": 1190, "zip": "05822"}, "orleans-county-05823": {"city": "Orleans County", "rent": 1180, "zip": "05823"}, "orleans-county-05825": {"city": "Orleans County", "rent": 1150, "zip": "05825"}, "orleans-county-05826": {"city": "Orleans County", "rent": 1640, "zip": "05826"}, "orleans-county-05827": {"city": "Orleans County", "rent": 1520, "zip": "05827"}, "orleans-county-05829": {"city": "Orleans County", "rent": 1300, "zip": "05829"}, "orleans-county-05830": {"city": "Orleans County", "rent": 1170, "zip": "05830"}, "orleans-county-05833": {"city": "Orleans County", "rent": 990, "zip": "05833"}, "orleans-county-05836": {"city": "Orleans County", "rent": 1150, "zip": "05836"}, "orleans-county-05839": {"city": "Orleans County", "rent": 1030, "zip": "05839"}, "orleans-county-05841": {"city": "Orleans County", "rent": 1060, "zip": "05841"}, "orleans-county-05842": {"city": "Orleans County", "rent": 1310, "zip": "05842"}, "orleans-county-05843": {"city": "Orleans County", "rent": 1280, "zip": "05843"}, "orleans-county-05845": {"city": "Orleans County", "rent": 1160, "zip": "05845"}, "orleans-county-05846": {"city": "Orleans County", "rent": 990, "zip": "05846"}, "orleans-county-05847": {"city": "Orleans County", "rent": 1220, "zip": "05847"}, "orleans-county-05853": {"city": "Orleans County", "rent": 1270, "zip": "05853"}, "orleans-county-05855": {"city": "Orleans County", "rent": 1140, "zip": "05855"}, "orleans-county-05857": {"city": "Orleans County", "rent": 1410, "zip": "05857"}, "orleans-county-05859": {"city": "Orleans County", "rent": 1530, "zip": "05859"}, "orleans-county-05860": {"city": "Orleans County", "rent": 1130, "zip": "05860"}, "orleans-county-05868": {"city": "Orleans County", "rent": 1500, "zip": "05868"}, "orleans-county-05871": {"city": "Orleans County", "rent": 1540, "zip": "05871"}, "orleans-county-05872": {"city": "Orleans County", "rent": 1160, "zip": "05872"}, "orleans-county-05874": {"city": "Orleans County", "rent": 1160, "zip": "05874"}, "orleans-county-05875": {"city": "Orleans County", "rent": 1120, "zip": "05875"}, "orleans-county-05907": {"city": "Orleans County", "rent": 1100, "zip": "05907"}, "rutland-county-05251": {"city": "Rutland County", "rent": 1300, "zip": "05251"}, "rutland-county-05253": {"city": "Rutland County", "rent": 1140, "zip": "05253"}, "rutland-county-05701": {"city": "Rutland County", "rent": 1310, "zip": "05701"}, "rutland-county-05702": {"city": "Rutland County", "rent": 1350, "zip": "05702"}, "rutland-county-05730": {"city": "Rutland County", "rent": 1310, "zip": "05730"}, "rutland-county-05731": {"city": "Rutland County", "rent": 1320, "zip": "05731"}, "rutland-county-05732": {"city": "Rutland County", "rent": 1160, "zip": "05732"}, "rutland-county-05733": {"city": "Rutland County", "rent": 1440, "zip": "05733"}, "rutland-county-05735": {"city": "Rutland County", "rent": 1740, "zip": "05735"}, "rutland-county-05736": {"city": "Rutland County", "rent": 1350, "zip": "05736"}, "rutland-county-05737": {"city": "Rutland County", "rent": 1330, "zip": "05737"}, "rutland-county-05738": {"city": "Rutland County", "rent": 1720, "zip": "05738"}, "rutland-county-05739": {"city": "Rutland County", "rent": 1400, "zip": "05739"}, "rutland-county-05741": {"city": "Rutland County", "rent": 1350, "zip": "05741"}, "rutland-county-05742": {"city": "Rutland County", "rent": 1220, "zip": "05742"}, "rutland-county-05743": {"city": "Rutland County", "rent": 1340, "zip": "05743"}, "rutland-county-05744": {"city": "Rutland County", "rent": 1510, "zip": "05744"}, "rutland-county-05745": {"city": "Rutland County", "rent": 1350, "zip": "05745"}, "rutland-county-05750": {"city": "Rutland County", "rent": 1350, "zip": "05750"}, "rutland-county-05751": {"city": "Rutland County", "rent": 1780, "zip": "05751"}, "rutland-county-05757": {"city": "Rutland County", "rent": 1590, "zip": "05757"}, "rutland-county-05758": {"city": "Rutland County", "rent": 1460, "zip": "05758"}, "rutland-county-05759": {"city": "Rutland County", "rent": 1380, "zip": "05759"}, "rutland-county-05760": {"city": "Rutland County", "rent": 1290, "zip": "05760"}, "rutland-county-05761": {"city": "Rutland County", "rent": 1750, "zip": "05761"}, "rutland-county-05762": {"city": "Rutland County", "rent": 1320, "zip": "05762"}, "rutland-county-05763": {"city": "Rutland County", "rent": 1410, "zip": "05763"}, "rutland-county-05764": {"city": "Rutland County", "rent": 1180, "zip": "05764"}, "rutland-county-05765": {"city": "Rutland County", "rent": 1460, "zip": "05765"}, "rutland-county-05767": {"city": "Rutland County", "rent": 1270, "zip": "05767"}, "rutland-county-05768": {"city": "Rutland County", "rent": 1610, "zip": "05768"}, "rutland-county-05772": {"city": "Rutland County", "rent": 1180, "zip": "05772"}, "rutland-county-05773": {"city": "Rutland County", "rent": 1370, "zip": "05773"}, "rutland-county-05774": {"city": "Rutland County", "rent": 1520, "zip": "05774"}, "rutland-county-05775": {"city": "Rutland County", "rent": 1380, "zip": "05775"}, "rutland-county-05777": {"city": "Rutland County", "rent": 1460, "zip": "05777"}, "rutland-county-05778": {"city": "Rutland County", "rent": 1270, "zip": "05778"}, "washington-county-05060": {"city": "Washington County", "rent": 1280, "zip": "05060"}, "washington-county-05601": {"city": "Washington County", "rent": 1480, "zip": "05601"}, "washington-county-05602": {"city": "Washington County", "rent": 1570, "zip": "05602"}, "washington-county-05609": {"city": "Washington County", "rent": 1480, "zip": "05609"}, "washington-county-05620": {"city": "Washington County", "rent": 1480, "zip": "05620"}, "washington-county-05633": {"city": "Washington County", "rent": 1480, "zip": "05633"}, "washington-county-05640": {"city": "Washington County", "rent": 1610, "zip": "05640"}, "washington-county-05641": {"city": "Washington County", "rent": 1400, "zip": "05641"}, "washington-county-05647": {"city": "Washington County", "rent": 1480, "zip": "05647"}, "washington-county-05648": {"city": "Washington County", "rent": 1510, "zip": "05648"}, "washington-county-05649": {"city": "Washington County", "rent": 1370, "zip": "05649"}, "washington-county-05650": {"city": "Washington County", "rent": 2220, "zip": "05650"}, "washington-county-05651": {"city": "Washington County", "rent": 1340, "zip": "05651"}, "washington-county-05654": {"city": "Washington County", "rent": 1380, "zip": "05654"}, "washington-county-05658": {"city": "Washington County", "rent": 1560, "zip": "05658"}, "washington-county-05660": {"city": "Washington County", "rent": 1720, "zip": "05660"}, "washington-county-05663": {"city": "Washington County", "rent": 1340, "zip": "05663"}, "washington-county-05664": {"city": "Washington County", "rent": 1480, "zip": "05664"}, "washington-county-05666": {"city": "Washington County", "rent": 1800, "zip": "05666"}, "washington-county-05667": {"city": "Washington County", "rent": 1520, "zip": "05667"}, "washington-county-05669": {"city": "Washington County", "rent": 1280, "zip": "05669"}, "washington-county-05670": {"city": "Washington County", "rent": 1400, "zip": "05670"}, "washington-county-05671": {"city": "Washington County", "rent": 1480, "zip": "05671"}, "washington-county-05673": {"city": "Washington County", "rent": 1880, "zip": "05673"}, "washington-county-05674": {"city": "Washington County", "rent": 1840, "zip": "05674"}, "washington-county-05676": {"city": "Washington County", "rent": 1760, "zip": "05676"}, "washington-county-05677": {"city": "Washington County", "rent": 2000, "zip": "05677"}, "washington-county-05678": {"city": "Washington County", "rent": 1390, "zip": "05678"}, "washington-county-05680": {"city": "Washington County", "rent": 1280, "zip": "05680"}, "washington-county-05681": {"city": "Washington County", "rent": 1590, "zip": "05681"}, "washington-county-05682": {"city": "Washington County", "rent": 1420, "zip": "05682"}, "washington-county-05843": {"city": "Washington County", "rent": 1280, "zip": "05843"}, "washington-county-05873": {"city": "Washington County", "rent": 1480, "zip": "05873"}, "windham-county-05101": {"city": "Windham County", "rent": 1410, "zip": "05101"}, "windham-county-05141": {"city": "Windham County", "rent": 1320, "zip": "05141"}, "windham-county-05143": {"city": "Windham County", "rent": 1270, "zip": "05143"}, "windham-county-05146": {"city": "Windham County", "rent": 1380, "zip": "05146"}, "windham-county-05148": {"city": "Windham County", "rent": 1490, "zip": "05148"}, "windham-county-05154": {"city": "Windham County", "rent": 1400, "zip": "05154"}, "windham-county-05155": {"city": "Windham County", "rent": 1320, "zip": "05155"}, "windham-county-05156": {"city": "Windham County", "rent": 1250, "zip": "05156"}, "windham-county-05158": {"city": "Windham County", "rent": 1240, "zip": "05158"}, "windham-county-05301": {"city": "Windham County", "rent": 1440, "zip": "05301"}, "windham-county-05341": {"city": "Windham County", "rent": 1610, "zip": "05341"}, "windham-county-05342": {"city": "Windham County", "rent": 1270, "zip": "05342"}, "windham-county-05343": {"city": "Windham County", "rent": 1450, "zip": "05343"}, "windham-county-05344": {"city": "Windham County", "rent": 1440, "zip": "05344"}, "windham-county-05345": {"city": "Windham County", "rent": 1960, "zip": "05345"}, "windham-county-05346": {"city": "Windham County", "rent": 1400, "zip": "05346"}, "windham-county-05350": {"city": "Windham County", "rent": 1440, "zip": "05350"}, "windham-county-05351": {"city": "Windham County", "rent": 1620, "zip": "05351"}, "windham-county-05353": {"city": "Windham County", "rent": 1630, "zip": "05353"}, "windham-county-05354": {"city": "Windham County", "rent": 1350, "zip": "05354"}, "windham-county-05355": {"city": "Windham County", "rent": 1610, "zip": "05355"}, "windham-county-05356": {"city": "Windham County", "rent": 1630, "zip": "05356"}, "windham-county-05357": {"city": "Windham County", "rent": 1420, "zip": "05357"}, "windham-county-05358": {"city": "Windham County", "rent": 1420, "zip": "05358"}, "windham-county-05359": {"city": "Windham County", "rent": 1490, "zip": "05359"}, "windham-county-05360": {"city": "Windham County", "rent": 1530, "zip": "05360"}, "windham-county-05361": {"city": "Windham County", "rent": 1360, "zip": "05361"}, "windham-county-05362": {"city": "Windham County", "rent": 1810, "zip": "05362"}, "windham-county-05363": {"city": "Windham County", "rent": 1350, "zip": "05363"}, "windsor-county-05001": {"city": "Windsor County", "rent": 1460, "zip": "05001"}, "windsor-county-05030": {"city": "Windsor County", "rent": 1360, "zip": "05030"}, "windsor-county-05031": {"city": "Windsor County", "rent": 1560, "zip": "05031"}, "windsor-county-05032": {"city": "Windsor County", "rent": 1670, "zip": "05032"}, "windsor-county-05034": {"city": "Windsor County", "rent": 1610, "zip": "05034"}, "windsor-county-05035": {"city": "Windsor County", "rent": 1680, "zip": "05035"}, "windsor-county-05037": {"city": "Windsor County", "rent": 1300, "zip": "05037"}, "windsor-county-05047": {"city": "Windsor County", "rent": 1360, "zip": "05047"}, "windsor-county-05048": {"city": "Windsor County", "rent": 1570, "zip": "05048"}, "windsor-county-05049": {"city": "Windsor County", "rent": 1360, "zip": "05049"}, "windsor-county-05052": {"city": "Windsor County", "rent": 1790, "zip": "05052"}, "windsor-county-05053": {"city": "Windsor County", "rent": 1520, "zip": "05053"}, "windsor-county-05055": {"city": "Windsor County", "rent": 1390, "zip": "05055"}, "windsor-county-05056": {"city": "Windsor County", "rent": 1430, "zip": "05056"}, "windsor-county-05059": {"city": "Windsor County", "rent": 1470, "zip": "05059"}, "windsor-county-05060": {"city": "Windsor County", "rent": 1280, "zip": "05060"}, "windsor-county-05061": {"city": "Windsor County", "rent": 1320, "zip": "05061"}, "windsor-county-05062": {"city": "Windsor County", "rent": 1420, "zip": "05062"}, "windsor-county-05065": {"city": "Windsor County", "rent": 1380, "zip": "05065"}, "windsor-county-05067": {"city": "Windsor County", "rent": 1520, "zip": "05067"}, "windsor-county-05068": {"city": "Windsor County", "rent": 1540, "zip": "05068"}, "windsor-county-05070": {"city": "Windsor County", "rent": 1460, "zip": "05070"}, "windsor-county-05071": {"city": "Windsor County", "rent": 1480, "zip": "05071"}, "windsor-county-05072": {"city": "Windsor County", "rent": 1440, "zip": "05072"}, "windsor-county-05073": {"city": "Windsor County", "rent": 1360, "zip": "05073"}, "windsor-county-05077": {"city": "Windsor County", "rent": 1300, "zip": "05077"}, "windsor-county-05084": {"city": "Windsor County", "rent": 1490, "zip": "05084"}, "windsor-county-05088": {"city": "Windsor County", "rent": 1830, "zip": "05088"}, "windsor-county-05089": {"city": "Windsor County", "rent": 1330, "zip": "05089"}, "windsor-county-05091": {"city": "Windsor County", "rent": 1510, "zip": "05091"}, "windsor-county-05142": {"city": "Windsor County", "rent": 1580, "zip": "05142"}, "windsor-county-05143": {"city": "Windsor County", "rent": 1270, "zip": "05143"}, "windsor-county-05148": {"city": "Windsor County", "rent": 1490, "zip": "05148"}, "windsor-county-05149": {"city": "Windsor County", "rent": 1250, "zip": "05149"}, "windsor-county-05150": {"city": "Windsor County", "rent": 1220, "zip": "05150"}, "windsor-county-05151": {"city": "Windsor County", "rent": 1180, "zip": "05151"}, "windsor-county-05153": {"city": "Windsor County", "rent": 1380, "zip": "05153"}, "windsor-county-05156": {"city": "Windsor County", "rent": 1250, "zip": "05156"}, "windsor-county-05161": {"city": "Windsor County", "rent": 1190, "zip": "05161"}, "windsor-county-05746": {"city": "Windsor County", "rent": 1360, "zip": "05746"}, "windsor-county-05758": {"city": "Windsor County", "rent": 1460, "zip": "05758"}, "windsor-county-05762": {"city": "Windsor County", "rent": 1320, "zip": "05762"}, "windsor-county-05767": {"city": "Windsor County", "rent": 1270, "zip": "05767"}, "windsor-county-05772": {"city": "Windsor County", "rent": 1180, "zip": "05772"}}