{"blacksburg-christiansburg-radford-24059": {"city": "Blacksburg-Christiansburg-Radford", "rent": 1210, "zip": "24059"}, "blacksburg-christiansburg-radford-24060": {"city": "Blacksburg-Christiansburg-Radford", "rent": 1390, "zip": "24060"}, "blacksburg-christiansburg-radford-24061": {"city": "Blacksburg-Christiansburg-Radford", "rent": 1390, "zip": "24061"}, "blacksburg-christiansburg-radford-24062": {"city": "Blacksburg-Christiansburg-Radford", "rent": 1290, "zip": "24062"}, "blacksburg-christiansburg-radford-24063": {"city": "Blacksburg-Christiansburg-Radford", "rent": 1290, "zip": "24063"}, "blacksburg-christiansburg-radford-24068": {"city": "Blacksburg-Christiansburg-Radford", "rent": 1290, "zip": "24068"}, "blacksburg-christiansburg-radford-24070": {"city": "Blacksburg-Christiansburg-Radford", "rent": 1110, "zip": "24070"}, "blacksburg-christiansburg-radford-24073": {"city": "Blacksburg-Christiansburg-Radford", "rent": 1230, "zip": "24073"}, "blacksburg-christiansburg-radford-24087": {"city": "Blacksburg-Christiansburg-Radford", "rent": 1120, "zip": "24087"}, "blacksburg-christiansburg-radford-24111": {"city": "Blacksburg-Christiansburg-Radford", "rent": 1290, "zip": "24111"}, "blacksburg-christiansburg-radford-24128": {"city": "Blacksburg-Christiansburg-Radford", "rent": 1110, "zip": "24128"}, "blacksburg-christiansburg-radford-24129": {"city": "Blacksburg-Christiansburg-Radford", "rent": 1110, "zip": "24129"}, "blacksburg-christiansburg-radford-24138": {"city": "Blacksburg-Christiansburg-Radford", "rent": 1110, "zip": "24138"}, "blacksburg-christiansburg-radford-24141": {"city": "Blacksburg-Christiansburg-Radford", "rent": 1110, "zip": "24141"}, "blacksburg-christiansburg-radford-24142": {"city": "Blacksburg-Christiansburg-Radford", "rent": 1110, "zip": "24142"}, "blacksburg-christiansburg-radford-24149": {"city": "Blacksburg-Christiansburg-Radford", "rent": 1540, "zip": "24149"}, "blacksburg-christiansburg-radford-24162": {"city": "Blacksburg-Christiansburg-Radford", "rent": 1110, "zip": "24162"}, "blacksburg-christiansburg-radford-24347": {"city": "Blacksburg-Christiansburg-Radford", "rent": 1110, "zip": "24347"}, "floyd-county-24059": {"city": "Floyd County", "rent": 1210, "zip": "24059"}, "floyd-county-24072": {"city": "Floyd County", "rent": 1080, "zip": "24072"}, "floyd-county-24079": {"city": "Floyd County", "rent": 1130, "zip": "24079"}, "floyd-county-24091": {"city": "Floyd County", "rent": 1100, "zip": "24091"}, "floyd-county-24105": {"city": "Floyd County", "rent": 950, "zip": "24105"}, "floyd-county-24120": {"city": "Floyd County", "rent": 910, "zip": "24120"}, "floyd-county-24138": {"city": "Floyd County", "rent": 1110, "zip": "24138"}, "floyd-county-24141": {"city": "Floyd County", "rent": 1110, "zip": "24141"}, "floyd-county-24149": {"city": "Floyd County", "rent": 1540, "zip": "24149"}, "floyd-county-24162": {"city": "Floyd County", "rent": 1110, "zip": "24162"}, "floyd-county-24352": {"city": "Floyd County", "rent": 910, "zip": "24352"}, "floyd-county-24380": {"city": "Floyd County", "rent": 970, "zip": "24380"}, "giles-county-24086": {"city": "Giles County", "rent": 990, "zip": "24086"}, "giles-county-24093": {"city": "Giles County", "rent": 980, "zip": "24093"}, "giles-county-24124": {"city": "Giles County", "rent": 1000, "zip": "24124"}, "giles-county-24128": {"city": "Giles County", "rent": 1110, "zip": "24128"}, "giles-county-24134": {"city": "Giles County", "rent": 1030, "zip": "24134"}, "giles-county-24136": {"city": "Giles County", "rent": 920, "zip": "24136"}, "giles-county-24147": {"city": "Giles County", "rent": 990, "zip": "24147"}, "giles-county-24150": {"city": "Giles County", "rent": 940, "zip": "24150"}, "giles-county-24167": {"city": "Giles County", "rent": 1030, "zip": "24167"}, "giles-county-24315": {"city": "Giles County", "rent": 910, "zip": "24315"}, "pulaski-county-24058": {"city": "Pulaski County", "rent": 1160, "zip": "24058"}, "pulaski-county-24084": {"city": "Pulaski County", "rent": 910, "zip": "24084"}, "pulaski-county-24126": {"city": "Pulaski County", "rent": 920, "zip": "24126"}, "pulaski-county-24129": {"city": "Pulaski County", "rent": 1110, "zip": "24129"}, "pulaski-county-24132": {"city": "Pulaski County", "rent": 1070, "zip": "24132"}, "pulaski-county-24141": {"city": "Pulaski County", "rent": 1110, "zip": "24141"}, "pulaski-county-24301": {"city": "Pulaski County", "rent": 960, "zip": "24301"}, "pulaski-county-24313": {"city": "Pulaski County", "rent": 910, "zip": "24313"}, "pulaski-county-24324": {"city": "Pulaski County", "rent": 930, "zip": "24324"}, "pulaski-county-24347": {"city": "Pulaski County", "rent": 1110, "zip": "24347"}, "charlottesville-22901": {"city": "Charlottesville", "rent": 1940, "zip": "22901"}, "charlottesville-22902": {"city": "Charlottesville", "rent": 2050, "zip": "22902"}, "charlottesville-22903": {"city": "Charlottesville", "rent": 1890, "zip": "22903"}, "charlottesville-22904": {"city": "Charlottesville", "rent": 1890, "zip": "22904"}, "charlottesville-22905": {"city": "Charlottesville", "rent": 1740, "zip": "22905"}, "charlottesville-22906": {"city": "Charlottesville", "rent": 1740, "zip": "22906"}, "charlottesville-22908": {"city": "Charlottesville", "rent": 1740, "zip": "22908"}, "charlottesville-22911": {"city": "Charlottesville", "rent": 2120, "zip": "22911"}, "charlottesville-22920": {"city": "Charlottesville", "rent": 1560, "zip": "22920"}, "charlottesville-22922": {"city": "Charlottesville", "rent": 1560, "zip": "22922"}, "charlottesville-22923": {"city": "Charlottesville", "rent": 1850, "zip": "22923"}, "charlottesville-22924": {"city": "Charlottesville", "rent": 1930, "zip": "22924"}, "charlottesville-22931": {"city": "Charlottesville", "rent": 1560, "zip": "22931"}, "charlottesville-22932": {"city": "Charlottesville", "rent": 2150, "zip": "22932"}, "charlottesville-22935": {"city": "Charlottesville", "rent": 1680, "zip": "22935"}, "charlottesville-22936": {"city": "Charlottesville", "rent": 1970, "zip": "22936"}, "charlottesville-22937": {"city": "Charlottesville", "rent": 1560, "zip": "22937"}, "charlottesville-22938": {"city": "Charlottesville", "rent": 1560, "zip": "22938"}, "charlottesville-22940": {"city": "Charlottesville", "rent": 1980, "zip": "22940"}, "charlottesville-22942": {"city": "Charlottesville", "rent": 1560, "zip": "22942"}, "charlottesville-22943": {"city": "Charlottesville", "rent": 1750, "zip": "22943"}, "charlottesville-22945": {"city": "Charlottesville", "rent": 1930, "zip": "22945"}, "charlottesville-22946": {"city": "Charlottesville", "rent": 1560, "zip": "22946"}, "charlottesville-22947": {"city": "Charlottesville", "rent": 1990, "zip": "22947"}, "charlottesville-22949": {"city": "Charlottesville", "rent": 1560, "zip": "22949"}, "charlottesville-22952": {"city": "Charlottesville", "rent": 1560, "zip": "22952"}, "charlottesville-22958": {"city": "Charlottesville", "rent": 1560, "zip": "22958"}, "charlottesville-22959": {"city": "Charlottesville", "rent": 1560, "zip": "22959"}, "charlottesville-22963": {"city": "Charlottesville", "rent": 2020, "zip": "22963"}, "charlottesville-22964": {"city": "Charlottesville", "rent": 1560, "zip": "22964"}, "charlottesville-22965": {"city": "Charlottesville", "rent": 1660, "zip": "22965"}, "charlottesville-22967": {"city": "Charlottesville", "rent": 1560, "zip": "22967"}, "charlottesville-22968": {"city": "Charlottesville", "rent": 1560, "zip": "22968"}, "charlottesville-22969": {"city": "Charlottesville", "rent": 1560, "zip": "22969"}, "charlottesville-22971": {"city": "Charlottesville", "rent": 1560, "zip": "22971"}, "charlottesville-22973": {"city": "Charlottesville", "rent": 1560, "zip": "22973"}, "charlottesville-22974": {"city": "Charlottesville", "rent": 1820, "zip": "22974"}, "charlottesville-22976": {"city": "Charlottesville", "rent": 1560, "zip": "22976"}, "charlottesville-23022": {"city": "Charlottesville", "rent": 1620, "zip": "23022"}, "charlottesville-23038": {"city": "Charlottesville", "rent": 1560, "zip": "23038"}, "charlottesville-23055": {"city": "Charlottesville", "rent": 1620, "zip": "23055"}, "charlottesville-23084": {"city": "Charlottesville", "rent": 1560, "zip": "23084"}, "charlottesville-23093": {"city": "Charlottesville", "rent": 1560, "zip": "23093"}, "charlottesville-24464": {"city": "Charlottesville", "rent": 1560, "zip": "24464"}, "charlottesville-24483": {"city": "Charlottesville", "rent": 1560, "zip": "24483"}, "charlottesville-24521": {"city": "Charlottesville", "rent": 1560, "zip": "24521"}, "charlottesville-24553": {"city": "Charlottesville", "rent": 1560, "zip": "24553"}, "charlottesville-24562": {"city": "Charlottesville", "rent": 1560, "zip": "24562"}, "charlottesville-24581": {"city": "Charlottesville", "rent": 1560, "zip": "24581"}, "charlottesville-24590": {"city": "Charlottesville", "rent": 1560, "zip": "24590"}, "charlottesville-24599": {"city": "Charlottesville", "rent": 1560, "zip": "24599"}, "harrisonburg-22801": {"city": "Harrisonburg", "rent": 1580, "zip": "22801"}, "harrisonburg-22802": {"city": "Harrisonburg", "rent": 1270, "zip": "22802"}, "harrisonburg-22803": {"city": "Harrisonburg", "rent": 1340, "zip": "22803"}, "harrisonburg-22807": {"city": "Harrisonburg", "rent": 1580, "zip": "22807"}, "harrisonburg-22811": {"city": "Harrisonburg", "rent": 1300, "zip": "22811"}, "harrisonburg-22812": {"city": "Harrisonburg", "rent": 1320, "zip": "22812"}, "harrisonburg-22815": {"city": "Harrisonburg", "rent": 1260, "zip": "22815"}, "harrisonburg-22820": {"city": "Harrisonburg", "rent": 1300, "zip": "22820"}, "harrisonburg-22821": {"city": "Harrisonburg", "rent": 1260, "zip": "22821"}, "harrisonburg-22827": {"city": "Harrisonburg", "rent": 1260, "zip": "22827"}, "harrisonburg-22830": {"city": "Harrisonburg", "rent": 1260, "zip": "22830"}, "harrisonburg-22831": {"city": "Harrisonburg", "rent": 1260, "zip": "22831"}, "harrisonburg-22832": {"city": "Harrisonburg", "rent": 1470, "zip": "22832"}, "harrisonburg-22833": {"city": "Harrisonburg", "rent": 1300, "zip": "22833"}, "harrisonburg-22834": {"city": "Harrisonburg", "rent": 1360, "zip": "22834"}, "harrisonburg-22840": {"city": "Harrisonburg", "rent": 1900, "zip": "22840"}, "harrisonburg-22841": {"city": "Harrisonburg", "rent": 1290, "zip": "22841"}, "harrisonburg-22844": {"city": "Harrisonburg", "rent": 1260, "zip": "22844"}, "harrisonburg-22846": {"city": "Harrisonburg", "rent": 1560, "zip": "22846"}, "harrisonburg-22848": {"city": "Harrisonburg", "rent": 1300, "zip": "22848"}, "harrisonburg-22849": {"city": "Harrisonburg", "rent": 1260, "zip": "22849"}, "harrisonburg-22850": {"city": "Harrisonburg", "rent": 1540, "zip": "22850"}, "harrisonburg-22853": {"city": "Harrisonburg", "rent": 1260, "zip": "22853"}, "harrisonburg-24441": {"city": "Harrisonburg", "rent": 1270, "zip": "24441"}, "harrisonburg-24471": {"city": "Harrisonburg", "rent": 1340, "zip": "24471"}, "harrisonburg-24486": {"city": "Harrisonburg", "rent": 1310, "zip": "24486"}, "lynchburg-22922": {"city": "Lynchburg", "rent": 1560, "zip": "22922"}, "lynchburg-22967": {"city": "Lynchburg", "rent": 1560, "zip": "22967"}, "lynchburg-23958": {"city": "Lynchburg", "rent": 1280, "zip": "23958"}, "lynchburg-23960": {"city": "Lynchburg", "rent": 1080, "zip": "23960"}, "lynchburg-23963": {"city": "Lynchburg", "rent": 1080, "zip": "23963"}, "lynchburg-24064": {"city": "Lynchburg", "rent": 1400, "zip": "24064"}, "lynchburg-24095": {"city": "Lynchburg", "rent": 1140, "zip": "24095"}, "lynchburg-24101": {"city": "Lynchburg", "rent": 1100, "zip": "24101"}, "lynchburg-24104": {"city": "Lynchburg", "rent": 1080, "zip": "24104"}, "lynchburg-24121": {"city": "Lynchburg", "rent": 1320, "zip": "24121"}, "lynchburg-24122": {"city": "Lynchburg", "rent": 1210, "zip": "24122"}, "lynchburg-24139": {"city": "Lynchburg", "rent": 1080, "zip": "24139"}, "lynchburg-24174": {"city": "Lynchburg", "rent": 1080, "zip": "24174"}, "lynchburg-24179": {"city": "Lynchburg", "rent": 1140, "zip": "24179"}, "lynchburg-24483": {"city": "Lynchburg", "rent": 1560, "zip": "24483"}, "lynchburg-24501": {"city": "Lynchburg", "rent": 1250, "zip": "24501"}, "lynchburg-24502": {"city": "Lynchburg", "rent": 1490, "zip": "24502"}, "lynchburg-24503": {"city": "Lynchburg", "rent": 1130, "zip": "24503"}, "lynchburg-24504": {"city": "Lynchburg", "rent": 1260, "zip": "24504"}, "lynchburg-24505": {"city": "Lynchburg", "rent": 1250, "zip": "24505"}, "lynchburg-24506": {"city": "Lynchburg", "rent": 1250, "zip": "24506"}, "lynchburg-24513": {"city": "Lynchburg", "rent": 1250, "zip": "24513"}, "lynchburg-24515": {"city": "Lynchburg", "rent": 1490, "zip": "24515"}, "lynchburg-24517": {"city": "Lynchburg", "rent": 1080, "zip": "24517"}, "lynchburg-24521": {"city": "Lynchburg", "rent": 1560, "zip": "24521"}, "lynchburg-24522": {"city": "Lynchburg", "rent": 1090, "zip": "24522"}, "lynchburg-24523": {"city": "Lynchburg", "rent": 1150, "zip": "24523"}, "lynchburg-24526": {"city": "Lynchburg", "rent": 1110, "zip": "24526"}, "lynchburg-24528": {"city": "Lynchburg", "rent": 1080, "zip": "24528"}, "lynchburg-24533": {"city": "Lynchburg", "rent": 1080, "zip": "24533"}, "lynchburg-24536": {"city": "Lynchburg", "rent": 1190, "zip": "24536"}, "lynchburg-24538": {"city": "Lynchburg", "rent": 1080, "zip": "24538"}, "lynchburg-24550": {"city": "Lynchburg", "rent": 1080, "zip": "24550"}, "lynchburg-24551": {"city": "Lynchburg", "rent": 1310, "zip": "24551"}, "lynchburg-24553": {"city": "Lynchburg", "rent": 1560, "zip": "24553"}, "lynchburg-24554": {"city": "Lynchburg", "rent": 1100, "zip": "24554"}, "lynchburg-24556": {"city": "Lynchburg", "rent": 1210, "zip": "24556"}, "lynchburg-24569": {"city": "Lynchburg", "rent": 1080, "zip": "24569"}, "lynchburg-24570": {"city": "Lynchburg", "rent": 1230, "zip": "24570"}, "lynchburg-24571": {"city": "Lynchburg", "rent": 1080, "zip": "24571"}, "lynchburg-24572": {"city": "Lynchburg", "rent": 1080, "zip": "24572"}, "lynchburg-24574": {"city": "Lynchburg", "rent": 1140, "zip": "24574"}, "lynchburg-24576": {"city": "Lynchburg", "rent": 1080, "zip": "24576"}, "lynchburg-24588": {"city": "Lynchburg", "rent": 1080, "zip": "24588"}, "lynchburg-24593": {"city": "Lynchburg", "rent": 1150, "zip": "24593"}, "lynchburg-24595": {"city": "Lynchburg", "rent": 1080, "zip": "24595"}, "richmond-22546": {"city": "Richmond", "rent": 1560, "zip": "22546"}, "richmond-23002": {"city": "Richmond", "rent": 1570, "zip": "23002"}, "richmond-23005": {"city": "Richmond", "rent": 1540, "zip": "23005"}, "richmond-23009": {"city": "Richmond", "rent": 1600, "zip": "23009"}, "richmond-23011": {"city": "Richmond", "rent": 1660, "zip": "23011"}, "richmond-23015": {"city": "Richmond", "rent": 1380, "zip": "23015"}, "richmond-23024": {"city": "Richmond", "rent": 1240, "zip": "23024"}, "richmond-23030": {"city": "Richmond", "rent": 1540, "zip": "23030"}, "richmond-23038": {"city": "Richmond", "rent": 1560, "zip": "23038"}, "richmond-23039": {"city": "Richmond", "rent": 1540, "zip": "23039"}, "richmond-23047": {"city": "Richmond", "rent": 1540, "zip": "23047"}, "richmond-23058": {"city": "Richmond", "rent": 1720, "zip": "23058"}, "richmond-23059": {"city": "Richmond", "rent": 2200, "zip": "23059"}, "richmond-23060": {"city": "Richmond", "rent": 1910, "zip": "23060"}, "richmond-23063": {"city": "Richmond", "rent": 1540, "zip": "23063"}, "richmond-23065": {"city": "Richmond", "rent": 1540, "zip": "23065"}, "richmond-23067": {"city": "Richmond", "rent": 1840, "zip": "23067"}, "richmond-23069": {"city": "Richmond", "rent": 1760, "zip": "23069"}, "richmond-23075": {"city": "Richmond", "rent": 1540, "zip": "23075"}, "richmond-23083": {"city": "Richmond", "rent": 1540, "zip": "23083"}, "richmond-23084": {"city": "Richmond", "rent": 1560, "zip": "23084"}, "richmond-23086": {"city": "Richmond", "rent": 1540, "zip": "23086"}, "richmond-23089": {"city": "Richmond", "rent": 1630, "zip": "23089"}, "richmond-23093": {"city": "Richmond", "rent": 1560, "zip": "23093"}, "richmond-23102": {"city": "Richmond", "rent": 1700, "zip": "23102"}, "richmond-23103": {"city": "Richmond", "rent": 1540, "zip": "23103"}, "richmond-23105": {"city": "Richmond", "rent": 1540, "zip": "23105"}, "richmond-23106": {"city": "Richmond", "rent": 1800, "zip": "23106"}, "richmond-23111": {"city": "Richmond", "rent": 1800, "zip": "23111"}, "richmond-23112": {"city": "Richmond", "rent": 1980, "zip": "23112"}, "richmond-23113": {"city": "Richmond", "rent": 2000, "zip": "23113"}, "richmond-23114": {"city": "Richmond", "rent": 1970, "zip": "23114"}, "richmond-23116": {"city": "Richmond", "rent": 2200, "zip": "23116"}, "richmond-23117": {"city": "Richmond", "rent": 1160, "zip": "23117"}, "richmond-23120": {"city": "Richmond", "rent": 2480, "zip": "23120"}, "richmond-23124": {"city": "Richmond", "rent": 1690, "zip": "23124"}, "richmond-23129": {"city": "Richmond", "rent": 1640, "zip": "23129"}, "richmond-23139": {"city": "Richmond", "rent": 1540, "zip": "23139"}, "richmond-23140": {"city": "Richmond", "rent": 1850, "zip": "23140"}, "richmond-23141": {"city": "Richmond", "rent": 1630, "zip": "23141"}, "richmond-23146": {"city": "Richmond", "rent": 2170, "zip": "23146"}, "richmond-23147": {"city": "Richmond", "rent": 1540, "zip": "23147"}, "richmond-23150": {"city": "Richmond", "rent": 1540, "zip": "23150"}, "richmond-23153": {"city": "Richmond", "rent": 1540, "zip": "23153"}, "richmond-23160": {"city": "Richmond", "rent": 1550, "zip": "23160"}, "richmond-23162": {"city": "Richmond", "rent": 1730, "zip": "23162"}, "richmond-23173": {"city": "Richmond", "rent": 1800, "zip": "23173"}, "richmond-23177": {"city": "Richmond", "rent": 1540, "zip": "23177"}, "richmond-23181": {"city": "Richmond", "rent": 1580, "zip": "23181"}, "richmond-23185": {"city": "Richmond", "rent": 1800, "zip": "23185"}, "richmond-23192": {"city": "Richmond", "rent": 1540, "zip": "23192"}, "richmond-23218": {"city": "Richmond", "rent": 1590, "zip": "23218"}, "richmond-23219": {"city": "Richmond", "rent": 1710, "zip": "23219"}, "richmond-23220": {"city": "Richmond", "rent": 2010, "zip": "23220"}, "richmond-23221": {"city": "Richmond", "rent": 1990, "zip": "23221"}, "richmond-23222": {"city": "Richmond", "rent": 1540, "zip": "23222"}, "richmond-23223": {"city": "Richmond", "rent": 1550, "zip": "23223"}, "richmond-23224": {"city": "Richmond", "rent": 1540, "zip": "23224"}, "richmond-23225": {"city": "Richmond", "rent": 1650, "zip": "23225"}, "richmond-23226": {"city": "Richmond", "rent": 2110, "zip": "23226"}, "richmond-23227": {"city": "Richmond", "rent": 1540, "zip": "23227"}, "richmond-23228": {"city": "Richmond", "rent": 1820, "zip": "23228"}, "richmond-23229": {"city": "Richmond", "rent": 1630, "zip": "23229"}, "richmond-23230": {"city": "Richmond", "rent": 1830, "zip": "23230"}, "richmond-23231": {"city": "Richmond", "rent": 1540, "zip": "23231"}, "richmond-23232": {"city": "Richmond", "rent": 1590, "zip": "23232"}, "richmond-23233": {"city": "Richmond", "rent": 2030, "zip": "23233"}, "richmond-23234": {"city": "Richmond", "rent": 1540, "zip": "23234"}, "richmond-23235": {"city": "Richmond", "rent": 1910, "zip": "23235"}, "richmond-23236": {"city": "Richmond", "rent": 1970, "zip": "23236"}, "richmond-23237": {"city": "Richmond", "rent": 1640, "zip": "23237"}, "richmond-23238": {"city": "Richmond", "rent": 1920, "zip": "23238"}, "richmond-23241": {"city": "Richmond", "rent": 1590, "zip": "23241"}, "richmond-23242": {"city": "Richmond", "rent": 1720, "zip": "23242"}, "richmond-23250": {"city": "Richmond", "rent": 1720, "zip": "23250"}, "richmond-23255": {"city": "Richmond", "rent": 1720, "zip": "23255"}, "richmond-23260": {"city": "Richmond", "rent": 1590, "zip": "23260"}, "richmond-23261": {"city": "Richmond", "rent": 1590, "zip": "23261"}, "richmond-23284": {"city": "Richmond", "rent": 2010, "zip": "23284"}, "richmond-23286": {"city": "Richmond", "rent": 1590, "zip": "23286"}, "richmond-23293": {"city": "Richmond", "rent": 1590, "zip": "23293"}, "richmond-23294": {"city": "Richmond", "rent": 1970, "zip": "23294"}, "richmond-23297": {"city": "Richmond", "rent": 1800, "zip": "23297"}, "richmond-23298": {"city": "Richmond", "rent": 1710, "zip": "23298"}, "richmond-23801": {"city": "Richmond", "rent": 2220, "zip": "23801"}, "richmond-23803": {"city": "Richmond", "rent": 1540, "zip": "23803"}, "richmond-23804": {"city": "Richmond", "rent": 1540, "zip": "23804"}, "richmond-23805": {"city": "Richmond", "rent": 1540, "zip": "23805"}, "richmond-23824": {"city": "Richmond", "rent": 1540, "zip": "23824"}, "richmond-23829": {"city": "Richmond", "rent": 970, "zip": "23829"}, "richmond-23830": {"city": "Richmond", "rent": 1540, "zip": "23830"}, "richmond-23831": {"city": "Richmond", "rent": 1840, "zip": "23831"}, "richmond-23832": {"city": "Richmond", "rent": 2170, "zip": "23832"}, "richmond-23833": {"city": "Richmond", "rent": 1540, "zip": "23833"}, "richmond-23834": {"city": "Richmond", "rent": 1540, "zip": "23834"}, "richmond-23836": {"city": "Richmond", "rent": 1930, "zip": "23836"}, "richmond-23837": {"city": "Richmond", "rent": 1120, "zip": "23837"}, "richmond-23838": {"city": "Richmond", "rent": 1740, "zip": "23838"}, "richmond-23840": {"city": "Richmond", "rent": 1610, "zip": "23840"}, "richmond-23841": {"city": "Richmond", "rent": 1560, "zip": "23841"}, "richmond-23842": {"city": "Richmond", "rent": 1540, "zip": "23842"}, "richmond-23847": {"city": "Richmond", "rent": 990, "zip": "23847"}, "richmond-23850": {"city": "Richmond", "rent": 1540, "zip": "23850"}, "richmond-23860": {"city": "Richmond", "rent": 1540, "zip": "23860"}, "richmond-23867": {"city": "Richmond", "rent": 1020, "zip": "23867"}, "richmond-23872": {"city": "Richmond", "rent": 1540, "zip": "23872"}, "richmond-23875": {"city": "Richmond", "rent": 1540, "zip": "23875"}, "richmond-23881": {"city": "Richmond", "rent": 1540, "zip": "23881"}, "richmond-23882": {"city": "Richmond", "rent": 1540, "zip": "23882"}, "richmond-23884": {"city": "Richmond", "rent": 1540, "zip": "23884"}, "richmond-23885": {"city": "Richmond", "rent": 1540, "zip": "23885"}, "richmond-23888": {"city": "Richmond", "rent": 1190, "zip": "23888"}, "richmond-23890": {"city": "Richmond", "rent": 1540, "zip": "23890"}, "richmond-23891": {"city": "Richmond", "rent": 1540, "zip": "23891"}, "richmond-23894": {"city": "Richmond", "rent": 1540, "zip": "23894"}, "richmond-23897": {"city": "Richmond", "rent": 1540, "zip": "23897"}, "richmond-23922": {"city": "Richmond", "rent": 1540, "zip": "23922"}, "richmond-23966": {"city": "Richmond", "rent": 1540, "zip": "23966"}, "king-and-queen-county-22437": {"city": "King and Queen County", "rent": 1200, "zip": "22437"}, "king-and-queen-county-22514": {"city": "King and Queen County", "rent": 1200, "zip": "22514"}, "king-and-queen-county-22560": {"city": "King and Queen County", "rent": 1200, "zip": "22560"}, "king-and-queen-county-23023": {"city": "King and Queen County", "rent": 1200, "zip": "23023"}, "king-and-queen-county-23085": {"city": "King and Queen County", "rent": 1250, "zip": "23085"}, "king-and-queen-county-23091": {"city": "King and Queen County", "rent": 1250, "zip": "23091"}, "king-and-queen-county-23108": {"city": "King and Queen County", "rent": 1250, "zip": "23108"}, "king-and-queen-county-23110": {"city": "King and Queen County", "rent": 1250, "zip": "23110"}, "king-and-queen-county-23126": {"city": "King and Queen County", "rent": 1220, "zip": "23126"}, "king-and-queen-county-23148": {"city": "King and Queen County", "rent": 1320, "zip": "23148"}, "king-and-queen-county-23149": {"city": "King and Queen County", "rent": 1470, "zip": "23149"}, "king-and-queen-county-23156": {"city": "King and Queen County", "rent": 1250, "zip": "23156"}, "king-and-queen-county-23161": {"city": "King and Queen County", "rent": 1250, "zip": "23161"}, "king-and-queen-county-23177": {"city": "King and Queen County", "rent": 1540, "zip": "23177"}, "king-and-queen-county-23181": {"city": "King and Queen County", "rent": 1580, "zip": "23181"}, "roanoke-24001": {"city": "Roanoke", "rent": 1200, "zip": "24001"}, "roanoke-24002": {"city": "Roanoke", "rent": 1200, "zip": "24002"}, "roanoke-24003": {"city": "Roanoke", "rent": 1200, "zip": "24003"}, "roanoke-24004": {"city": "Roanoke", "rent": 1200, "zip": "24004"}, "roanoke-24005": {"city": "Roanoke", "rent": 1200, "zip": "24005"}, "roanoke-24006": {"city": "Roanoke", "rent": 1200, "zip": "24006"}, "roanoke-24007": {"city": "Roanoke", "rent": 1200, "zip": "24007"}, "roanoke-24008": {"city": "Roanoke", "rent": 1200, "zip": "24008"}, "roanoke-24009": {"city": "Roanoke", "rent": 1200, "zip": "24009"}, "roanoke-24010": {"city": "Roanoke", "rent": 1200, "zip": "24010"}, "roanoke-24011": {"city": "Roanoke", "rent": 1300, "zip": "24011"}, "roanoke-24012": {"city": "Roanoke", "rent": 1250, "zip": "24012"}, "roanoke-24013": {"city": "Roanoke", "rent": 1250, "zip": "24013"}, "roanoke-24014": {"city": "Roanoke", "rent": 1140, "zip": "24014"}, "roanoke-24015": {"city": "Roanoke", "rent": 1080, "zip": "24015"}, "roanoke-24016": {"city": "Roanoke", "rent": 1180, "zip": "24016"}, "roanoke-24017": {"city": "Roanoke", "rent": 1230, "zip": "24017"}, "roanoke-24018": {"city": "Roanoke", "rent": 1460, "zip": "24018"}, "roanoke-24019": {"city": "Roanoke", "rent": 1490, "zip": "24019"}, "roanoke-24020": {"city": "Roanoke", "rent": 1490, "zip": "24020"}, "roanoke-24022": {"city": "Roanoke", "rent": 1200, "zip": "24022"}, "roanoke-24023": {"city": "Roanoke", "rent": 1200, "zip": "24023"}, "roanoke-24024": {"city": "Roanoke", "rent": 1200, "zip": "24024"}, "roanoke-24025": {"city": "Roanoke", "rent": 1200, "zip": "24025"}, "roanoke-24026": {"city": "Roanoke", "rent": 1200, "zip": "24026"}, "roanoke-24027": {"city": "Roanoke", "rent": 1200, "zip": "24027"}, "roanoke-24028": {"city": "Roanoke", "rent": 1200, "zip": "24028"}, "roanoke-24029": {"city": "Roanoke", "rent": 1200, "zip": "24029"}, "roanoke-24030": {"city": "Roanoke", "rent": 1200, "zip": "24030"}, "roanoke-24031": {"city": "Roanoke", "rent": 1200, "zip": "24031"}, "roanoke-24032": {"city": "Roanoke", "rent": 1200, "zip": "24032"}, "roanoke-24033": {"city": "Roanoke", "rent": 1200, "zip": "24033"}, "roanoke-24034": {"city": "Roanoke", "rent": 1200, "zip": "24034"}, "roanoke-24035": {"city": "Roanoke", "rent": 1200, "zip": "24035"}, "roanoke-24036": {"city": "Roanoke", "rent": 1200, "zip": "24036"}, "roanoke-24037": {"city": "Roanoke", "rent": 1200, "zip": "24037"}, "roanoke-24038": {"city": "Roanoke", "rent": 1200, "zip": "24038"}, "roanoke-24059": {"city": "Roanoke", "rent": 1210, "zip": "24059"}, "roanoke-24064": {"city": "Roanoke", "rent": 1400, "zip": "24064"}, "roanoke-24065": {"city": "Roanoke", "rent": 1030, "zip": "24065"}, "roanoke-24066": {"city": "Roanoke", "rent": 1310, "zip": "24066"}, "roanoke-24070": {"city": "Roanoke", "rent": 1110, "zip": "24070"}, "roanoke-24077": {"city": "Roanoke", "rent": 1440, "zip": "24077"}, "roanoke-24079": {"city": "Roanoke", "rent": 1130, "zip": "24079"}, "roanoke-24083": {"city": "Roanoke", "rent": 1880, "zip": "24083"}, "roanoke-24085": {"city": "Roanoke", "rent": 1080, "zip": "24085"}, "roanoke-24087": {"city": "Roanoke", "rent": 1120, "zip": "24087"}, "roanoke-24090": {"city": "Roanoke", "rent": 1260, "zip": "24090"}, "roanoke-24101": {"city": "Roanoke", "rent": 1100, "zip": "24101"}, "roanoke-24127": {"city": "Roanoke", "rent": 1030, "zip": "24127"}, "roanoke-24128": {"city": "Roanoke", "rent": 1110, "zip": "24128"}, "roanoke-24130": {"city": "Roanoke", "rent": 1160, "zip": "24130"}, "roanoke-24131": {"city": "Roanoke", "rent": 1030, "zip": "24131"}, "roanoke-24153": {"city": "Roanoke", "rent": 1400, "zip": "24153"}, "roanoke-24175": {"city": "Roanoke", "rent": 1170, "zip": "24175"}, "roanoke-24179": {"city": "Roanoke", "rent": 1140, "zip": "24179"}, "roanoke-24422": {"city": "Roanoke", "rent": 1030, "zip": "24422"}, "roanoke-24426": {"city": "Roanoke", "rent": 1030, "zip": "24426"}, "roanoke-24438": {"city": "Roanoke", "rent": 1160, "zip": "24438"}, "roanoke-24450": {"city": "Roanoke", "rent": 1040, "zip": "24450"}, "roanoke-24579": {"city": "Roanoke", "rent": 1090, "zip": "24579"}, "franklin-county-24014": {"city": "Franklin County", "rent": 1140, "zip": "24014"}, "franklin-county-24055": {"city": "Franklin County", "rent": 910, "zip": "24055"}, "franklin-county-24059": {"city": "Franklin County", "rent": 1210, "zip": "24059"}, "franklin-county-24065": {"city": "Franklin County", "rent": 1030, "zip": "24065"}, "franklin-county-24067": {"city": "Franklin County", "rent": 910, "zip": "24067"}, "franklin-county-24079": {"city": "Franklin County", "rent": 1130, "zip": "24079"}, "franklin-county-24088": {"city": "Franklin County", "rent": 910, "zip": "24088"}, "franklin-county-24091": {"city": "Franklin County", "rent": 1100, "zip": "24091"}, "franklin-county-24092": {"city": "Franklin County", "rent": 1050, "zip": "24092"}, "franklin-county-24101": {"city": "Franklin County", "rent": 1100, "zip": "24101"}, "franklin-county-24102": {"city": "Franklin County", "rent": 910, "zip": "24102"}, "franklin-county-24112": {"city": "Franklin County", "rent": 950, "zip": "24112"}, "franklin-county-24121": {"city": "Franklin County", "rent": 1320, "zip": "24121"}, "franklin-county-24137": {"city": "Franklin County", "rent": 1090, "zip": "24137"}, "franklin-county-24146": {"city": "Franklin County", "rent": 940, "zip": "24146"}, "franklin-county-24151": {"city": "Franklin County", "rent": 950, "zip": "24151"}, "franklin-county-24176": {"city": "Franklin County", "rent": 1420, "zip": "24176"}, "franklin-county-24184": {"city": "Franklin County", "rent": 910, "zip": "24184"}, "staunton-stuarts-draft-22812": {"city": "Staunton-Stuarts Draft", "rent": 1320, "zip": "22812"}, "staunton-stuarts-draft-22841": {"city": "Staunton-Stuarts Draft", "rent": 1290, "zip": "22841"}, "staunton-stuarts-draft-22843": {"city": "Staunton-Stuarts Draft", "rent": 1160, "zip": "22843"}, "staunton-stuarts-draft-22920": {"city": "Staunton-Stuarts Draft", "rent": 1560, "zip": "22920"}, "staunton-stuarts-draft-22939": {"city": "Staunton-Stuarts Draft", "rent": 1890, "zip": "22939"}, "staunton-stuarts-draft-22952": {"city": "Staunton-Stuarts Draft", "rent": 1560, "zip": "22952"}, "staunton-stuarts-draft-22958": {"city": "Staunton-Stuarts Draft", "rent": 1560, "zip": "22958"}, "staunton-stuarts-draft-22967": {"city": "Staunton-Stuarts Draft", "rent": 1560, "zip": "22967"}, "staunton-stuarts-draft-22980": {"city": "Staunton-Stuarts Draft", "rent": 1190, "zip": "22980"}, "staunton-stuarts-draft-24401": {"city": "Staunton-Stuarts Draft", "rent": 1290, "zip": "24401"}, "staunton-stuarts-draft-24402": {"city": "Staunton-Stuarts Draft", "rent": 1220, "zip": "24402"}, "staunton-stuarts-draft-24411": {"city": "Staunton-Stuarts Draft", "rent": 1160, "zip": "24411"}, "staunton-stuarts-draft-24421": {"city": "Staunton-Stuarts Draft", "rent": 1350, "zip": "24421"}, "staunton-stuarts-draft-24430": {"city": "Staunton-Stuarts Draft", "rent": 1160, "zip": "24430"}, "staunton-stuarts-draft-24431": {"city": "Staunton-Stuarts Draft", "rent": 1300, "zip": "24431"}, "staunton-stuarts-draft-24432": {"city": "Staunton-Stuarts Draft", "rent": 1330, "zip": "24432"}, "staunton-stuarts-draft-24437": {"city": "Staunton-Stuarts Draft", "rent": 1160, "zip": "24437"}, "staunton-stuarts-draft-24439": {"city": "Staunton-Stuarts Draft", "rent": 1160, "zip": "24439"}, "staunton-stuarts-draft-24440": {"city": "Staunton-Stuarts Draft", "rent": 1330, "zip": "24440"}, "staunton-stuarts-draft-24441": {"city": "Staunton-Stuarts Draft", "rent": 1270, "zip": "24441"}, "staunton-stuarts-draft-24459": {"city": "Staunton-Stuarts Draft", "rent": 1330, "zip": "24459"}, "staunton-stuarts-draft-24463": {"city": "Staunton-Stuarts Draft", "rent": 1330, "zip": "24463"}, "staunton-stuarts-draft-24467": {"city": "Staunton-Stuarts Draft", "rent": 1170, "zip": "24467"}, "staunton-stuarts-draft-24469": {"city": "Staunton-Stuarts Draft", "rent": 1330, "zip": "24469"}, "staunton-stuarts-draft-24472": {"city": "Staunton-Stuarts Draft", "rent": 1160, "zip": "24472"}, "staunton-stuarts-draft-24476": {"city": "Staunton-Stuarts Draft", "rent": 1330, "zip": "24476"}, "staunton-stuarts-draft-24477": {"city": "Staunton-Stuarts Draft", "rent": 1420, "zip": "24477"}, "staunton-stuarts-draft-24479": {"city": "Staunton-Stuarts Draft", "rent": 1270, "zip": "24479"}, "staunton-stuarts-draft-24482": {"city": "Staunton-Stuarts Draft", "rent": 1280, "zip": "24482"}, "staunton-stuarts-draft-24483": {"city": "Staunton-Stuarts Draft", "rent": 1560, "zip": "24483"}, "staunton-stuarts-draft-24485": {"city": "Staunton-Stuarts Draft", "rent": 1330, "zip": "24485"}, "staunton-stuarts-draft-24486": {"city": "Staunton-Stuarts Draft", "rent": 1310, "zip": "24486"}, "virginia-beach-norfolk-newport-news-23001": {"city": "Virginia Beach-Norfolk-Newport News", "rent": 1400, "zip": "23001"}, "virginia-beach-norfolk-newport-news-23003": {"city": "Virginia Beach-Norfolk-Newport News", "rent": 1400, "zip": "23003"}, "virginia-beach-norfolk-newport-news-23018": {"city": "Virginia Beach-Norfolk-Newport News", "rent": 1400, "zip": "23018"}, "virginia-beach-norfolk-newport-news-23021": {"city": "Virginia Beach-Norfolk-Newport News", "rent": 1410, "zip": "23021"}, "virginia-beach-norfolk-newport-news-23025": {"city": "Virginia Beach-Norfolk-Newport News", "rent": 1410, "zip": "23025"}, "virginia-beach-norfolk-newport-news-23035": {"city": "Virginia Beach-Norfolk-Newport News", "rent": 1410, "zip": "23035"}, "virginia-beach-norfolk-newport-news-23045": {"city": "Virginia Beach-Norfolk-Newport News", "rent": 1410, "zip": "23045"}, "virginia-beach-norfolk-newport-news-23050": {"city": "Virginia Beach-Norfolk-Newport News", "rent": 1410, "zip": "23050"}, "virginia-beach-norfolk-newport-news-23056": {"city": "Virginia Beach-Norfolk-Newport News", "rent": 1410, "zip": "23056"}, "virginia-beach-norfolk-newport-news-23061": {"city": "Virginia Beach-Norfolk-Newport News", "rent": 1540, "zip": "23061"}, "virginia-beach-norfolk-newport-news-23062": {"city": "Virginia Beach-Norfolk-Newport News", "rent": 1260, "zip": "23062"}, "virginia-beach-norfolk-newport-news-23064": {"city": "Virginia Beach-Norfolk-Newport News", "rent": 1410, "zip": "23064"}, "virginia-beach-norfolk-newport-news-23066": {"city": "Virginia Beach-Norfolk-Newport News", "rent": 1410, "zip": "23066"}, "virginia-beach-norfolk-newport-news-23068": {"city": "Virginia Beach-Norfolk-Newport News", "rent": 1410, "zip": "23068"}, "virginia-beach-norfolk-newport-news-23072": {"city": "Virginia Beach-Norfolk-Newport News", "rent": 1340, "zip": "23072"}, "virginia-beach-norfolk-newport-news-23076": {"city": "Virginia Beach-Norfolk-Newport News", "rent": 1410, "zip": "23076"}, "virginia-beach-norfolk-newport-news-23081": {"city": "Virginia Beach-Norfolk-Newport News", "rent": 1750, "zip": "23081"}, "virginia-beach-norfolk-newport-news-23089": {"city": "Virginia Beach-Norfolk-Newport News", "rent": 1630, "zip": "23089"}, "virginia-beach-norfolk-newport-news-23090": {"city": "Virginia Beach-Norfolk-Newport News", "rent": 2150, "zip": "23090"}, "virginia-beach-norfolk-newport-news-23109": {"city": "Virginia Beach-Norfolk-Newport News", "rent": 1270, "zip": "23109"}, "virginia-beach-norfolk-newport-news-23119": {"city": "Virginia Beach-Norfolk-Newport News", "rent": 1410, "zip": "23119"}, "virginia-beach-norfolk-newport-news-23125": {"city": "Virginia Beach-Norfolk-Newport News", "rent": 1410, "zip": "23125"}, "virginia-beach-norfolk-newport-news-23127": {"city": "Virginia Beach-Norfolk-Newport News", "rent": 1750, "zip": "23127"}, "virginia-beach-norfolk-newport-news-23128": {"city": "Virginia Beach-Norfolk-Newport News", "rent": 1410, "zip": "23128"}, "virginia-beach-norfolk-newport-news-23130": {"city": "Virginia Beach-Norfolk-Newport News", "rent": 1440, "zip": "23130"}, "virginia-beach-norfolk-newport-news-23131": {"city": "Virginia Beach-Norfolk-Newport News", "rent": 1400, "zip": "23131"}, "virginia-beach-norfolk-newport-news-23138": {"city": "Virginia Beach-Norfolk-Newport News", "rent": 1670, "zip": "23138"}, "virginia-beach-norfolk-newport-news-23149": {"city": "Virginia Beach-Norfolk-Newport News", "rent": 1470, "zip": "23149"}, "virginia-beach-norfolk-newport-news-23154": {"city": "Virginia Beach-Norfolk-Newport News", "rent": 1400, "zip": "23154"}, "virginia-beach-norfolk-newport-news-23155": {"city": "Virginia Beach-Norfolk-Newport News", "rent": 1400, "zip": "23155"}, "virginia-beach-norfolk-newport-news-23163": {"city": "Virginia Beach-Norfolk-Newport News", "rent": 1670, "zip": "23163"}, "virginia-beach-norfolk-newport-news-23168": {"city": "Virginia Beach-Norfolk-Newport News", "rent": 1630, "zip": "23168"}, "virginia-beach-norfolk-newport-news-23178": {"city": "Virginia Beach-Norfolk-Newport News", "rent": 1400, "zip": "23178"}, "virginia-beach-norfolk-newport-news-23183": {"city": "Virginia Beach-Norfolk-Newport News", "rent": 1400, "zip": "23183"}, "virginia-beach-norfolk-newport-news-23184": {"city": "Virginia Beach-Norfolk-Newport News", "rent": 1400, "zip": "23184"}, "virginia-beach-norfolk-newport-news-23185": {"city": "Virginia Beach-Norfolk-Newport News", "rent": 1800, "zip": "23185"}, "virginia-beach-norfolk-newport-news-23187": {"city": "Virginia Beach-Norfolk-Newport News", "rent": 1660, "zip": "23187"}, "virginia-beach-norfolk-newport-news-23188": {"city": "Virginia Beach-Norfolk-Newport News", "rent": 1810, "zip": "23188"}, "virginia-beach-norfolk-newport-news-23190": {"city": "Virginia Beach-Norfolk-Newport News", "rent": 1400, "zip": "23190"}, "virginia-beach-norfolk-newport-news-23304": {"city": "Virginia Beach-Norfolk-Newport News", "rent": 1700, "zip": "23304"}, "virginia-beach-norfolk-newport-news-23314": {"city": "Virginia Beach-Norfolk-Newport News", "rent": 2120, "zip": "23314"}, "virginia-beach-norfolk-newport-news-23315": {"city": "Virginia Beach-Norfolk-Newport News", "rent": 1370, "zip": "23315"}, "virginia-beach-norfolk-newport-news-23320": {"city": "Virginia Beach-Norfolk-Newport News", "rent": 2150, "zip": "23320"}, "virginia-beach-norfolk-newport-news-23321": {"city": "Virginia Beach-Norfolk-Newport News", "rent": 1730, "zip": "23321"}, "virginia-beach-norfolk-newport-news-23322": {"city": "Virginia Beach-Norfolk-Newport News", "rent": 2290, "zip": "23322"}, "virginia-beach-norfolk-newport-news-23323": {"city": "Virginia Beach-Norfolk-Newport News", "rent": 2000, "zip": "23323"}, "virginia-beach-norfolk-newport-news-23324": {"city": "Virginia Beach-Norfolk-Newport News", "rent": 1460, "zip": "23324"}, "virginia-beach-norfolk-newport-news-23325": {"city": "Virginia Beach-Norfolk-Newport News", "rent": 1750, "zip": "23325"}, "virginia-beach-norfolk-newport-news-23326": {"city": "Virginia Beach-Norfolk-Newport News", "rent": 1840, "zip": "23326"}, "virginia-beach-norfolk-newport-news-23327": {"city": "Virginia Beach-Norfolk-Newport News", "rent": 1840, "zip": "23327"}, "virginia-beach-norfolk-newport-news-23328": {"city": "Virginia Beach-Norfolk-Newport News", "rent": 1840, "zip": "23328"}, "virginia-beach-norfolk-newport-news-23430": {"city": "Virginia Beach-Norfolk-Newport News", "rent": 1490, "zip": "23430"}, "virginia-beach-norfolk-newport-news-23431": {"city": "Virginia Beach-Norfolk-Newport News", "rent": 1650, "zip": "23431"}, "virginia-beach-norfolk-newport-news-23432": {"city": "Virginia Beach-Norfolk-Newport News", "rent": 1750, "zip": "23432"}, "virginia-beach-norfolk-newport-news-23433": {"city": "Virginia Beach-Norfolk-Newport News", "rent": 2090, "zip": "23433"}, "virginia-beach-norfolk-newport-news-23434": {"city": "Virginia Beach-Norfolk-Newport News", "rent": 1610, "zip": "23434"}, "virginia-beach-norfolk-newport-news-23435": {"city": "Virginia Beach-Norfolk-Newport News", "rent": 2170, "zip": "23435"}, "virginia-beach-norfolk-newport-news-23436": {"city": "Virginia Beach-Norfolk-Newport News", "rent": 2140, "zip": "23436"}, "virginia-beach-norfolk-newport-news-23437": {"city": "Virginia Beach-Norfolk-Newport News", "rent": 1240, "zip": "23437"}, "virginia-beach-norfolk-newport-news-23438": {"city": "Virginia Beach-Norfolk-Newport News", "rent": 2000, "zip": "23438"}, "virginia-beach-norfolk-newport-news-23439": {"city": "Virginia Beach-Norfolk-Newport News", "rent": 1770, "zip": "23439"}, "virginia-beach-norfolk-newport-news-23450": {"city": "Virginia Beach-Norfolk-Newport News", "rent": 1960, "zip": "23450"}, "virginia-beach-norfolk-newport-news-23451": {"city": "Virginia Beach-Norfolk-Newport News", "rent": 2070, "zip": "23451"}, "virginia-beach-norfolk-newport-news-23452": {"city": "Virginia Beach-Norfolk-Newport News", "rent": 2020, "zip": "23452"}, "virginia-beach-norfolk-newport-news-23453": {"city": "Virginia Beach-Norfolk-Newport News", "rent": 1990, "zip": "23453"}, "virginia-beach-norfolk-newport-news-23454": {"city": "Virginia Beach-Norfolk-Newport News", "rent": 1970, "zip": "23454"}, "virginia-beach-norfolk-newport-news-23455": {"city": "Virginia Beach-Norfolk-Newport News", "rent": 2040, "zip": "23455"}, "virginia-beach-norfolk-newport-news-23456": {"city": "Virginia Beach-Norfolk-Newport News", "rent": 2400, "zip": "23456"}, "virginia-beach-norfolk-newport-news-23457": {"city": "Virginia Beach-Norfolk-Newport News", "rent": 1900, "zip": "23457"}, "virginia-beach-norfolk-newport-news-23459": {"city": "Virginia Beach-Norfolk-Newport News", "rent": 1910, "zip": "23459"}, "virginia-beach-norfolk-newport-news-23460": {"city": "Virginia Beach-Norfolk-Newport News", "rent": 1970, "zip": "23460"}, "virginia-beach-norfolk-newport-news-23461": {"city": "Virginia Beach-Norfolk-Newport News", "rent": 2090, "zip": "23461"}, "virginia-beach-norfolk-newport-news-23462": {"city": "Virginia Beach-Norfolk-Newport News", "rent": 2050, "zip": "23462"}, "virginia-beach-norfolk-newport-news-23463": {"city": "Virginia Beach-Norfolk-Newport News", "rent": 1960, "zip": "23463"}, "virginia-beach-norfolk-newport-news-23464": {"city": "Virginia Beach-Norfolk-Newport News", "rent": 1990, "zip": "23464"}, "virginia-beach-norfolk-newport-news-23466": {"city": "Virginia Beach-Norfolk-Newport News", "rent": 1960, "zip": "23466"}, "virginia-beach-norfolk-newport-news-23467": {"city": "Virginia Beach-Norfolk-Newport News", "rent": 1960, "zip": "23467"}, "virginia-beach-norfolk-newport-news-23471": {"city": "Virginia Beach-Norfolk-Newport News", "rent": 1960, "zip": "23471"}, "virginia-beach-norfolk-newport-news-23479": {"city": "Virginia Beach-Norfolk-Newport News", "rent": 1960, "zip": "23479"}, "virginia-beach-norfolk-newport-news-23487": {"city": "Virginia Beach-Norfolk-Newport News", "rent": 1400, "zip": "23487"}, "virginia-beach-norfolk-newport-news-23501": {"city": "Virginia Beach-Norfolk-Newport News", "rent": 1550, "zip": "23501"}, "virginia-beach-norfolk-newport-news-23502": {"city": "Virginia Beach-Norfolk-Newport News", "rent": 1580, "zip": "23502"}, "virginia-beach-norfolk-newport-news-23503": {"city": "Virginia Beach-Norfolk-Newport News", "rent": 1600, "zip": "23503"}, "virginia-beach-norfolk-newport-news-23504": {"city": "Virginia Beach-Norfolk-Newport News", "rent": 1450, "zip": "23504"}, "virginia-beach-norfolk-newport-news-23505": {"city": "Virginia Beach-Norfolk-Newport News", "rent": 1650, "zip": "23505"}, "virginia-beach-norfolk-newport-news-23507": {"city": "Virginia Beach-Norfolk-Newport News", "rent": 1730, "zip": "23507"}, "virginia-beach-norfolk-newport-news-23508": {"city": "Virginia Beach-Norfolk-Newport News", "rent": 1680, "zip": "23508"}, "virginia-beach-norfolk-newport-news-23509": {"city": "Virginia Beach-Norfolk-Newport News", "rent": 1610, "zip": "23509"}, "virginia-beach-norfolk-newport-news-23510": {"city": "Virginia Beach-Norfolk-Newport News", "rent": 1990, "zip": "23510"}, "virginia-beach-norfolk-newport-news-23511": {"city": "Virginia Beach-Norfolk-Newport News", "rent": 2440, "zip": "23511"}, "virginia-beach-norfolk-newport-news-23513": {"city": "Virginia Beach-Norfolk-Newport News", "rent": 1590, "zip": "23513"}, "virginia-beach-norfolk-newport-news-23514": {"city": "Virginia Beach-Norfolk-Newport News", "rent": 1550, "zip": "23514"}, "virginia-beach-norfolk-newport-news-23515": {"city": "Virginia Beach-Norfolk-Newport News", "rent": 1550, "zip": "23515"}, "virginia-beach-norfolk-newport-news-23517": {"city": "Virginia Beach-Norfolk-Newport News", "rent": 1660, "zip": "23517"}, "virginia-beach-norfolk-newport-news-23518": {"city": "Virginia Beach-Norfolk-Newport News", "rent": 1660, "zip": "23518"}, "virginia-beach-norfolk-newport-news-23523": {"city": "Virginia Beach-Norfolk-Newport News", "rent": 1410, "zip": "23523"}, "virginia-beach-norfolk-newport-news-23529": {"city": "Virginia Beach-Norfolk-Newport News", "rent": 1550, "zip": "23529"}, "virginia-beach-norfolk-newport-news-23541": {"city": "Virginia Beach-Norfolk-Newport News", "rent": 1550, "zip": "23541"}, "virginia-beach-norfolk-newport-news-23551": {"city": "Virginia Beach-Norfolk-Newport News", "rent": 1890, "zip": "23551"}, "virginia-beach-norfolk-newport-news-23601": {"city": "Virginia Beach-Norfolk-Newport News", "rent": 1450, "zip": "23601"}, "virginia-beach-norfolk-newport-news-23602": {"city": "Virginia Beach-Norfolk-Newport News", "rent": 1810, "zip": "23602"}, "virginia-beach-norfolk-newport-news-23603": {"city": "Virginia Beach-Norfolk-Newport News", "rent": 1700, "zip": "23603"}, "virginia-beach-norfolk-newport-news-23604": {"city": "Virginia Beach-Norfolk-Newport News", "rent": 2200, "zip": "23604"}, "virginia-beach-norfolk-newport-news-23605": {"city": "Virginia Beach-Norfolk-Newport News", "rent": 1450, "zip": "23605"}, "virginia-beach-norfolk-newport-news-23606": {"city": "Virginia Beach-Norfolk-Newport News", "rent": 1730, "zip": "23606"}, "virginia-beach-norfolk-newport-news-23607": {"city": "Virginia Beach-Norfolk-Newport News", "rent": 1400, "zip": "23607"}, "virginia-beach-norfolk-newport-news-23608": {"city": "Virginia Beach-Norfolk-Newport News", "rent": 1620, "zip": "23608"}, "virginia-beach-norfolk-newport-news-23609": {"city": "Virginia Beach-Norfolk-Newport News", "rent": 1550, "zip": "23609"}, "virginia-beach-norfolk-newport-news-23612": {"city": "Virginia Beach-Norfolk-Newport News", "rent": 1550, "zip": "23612"}, "virginia-beach-norfolk-newport-news-23651": {"city": "Virginia Beach-Norfolk-Newport News", "rent": 2190, "zip": "23651"}, "virginia-beach-norfolk-newport-news-23661": {"city": "Virginia Beach-Norfolk-Newport News", "rent": 1480, "zip": "23661"}, "virginia-beach-norfolk-newport-news-23662": {"city": "Virginia Beach-Norfolk-Newport News", "rent": 1990, "zip": "23662"}, "virginia-beach-norfolk-newport-news-23663": {"city": "Virginia Beach-Norfolk-Newport News", "rent": 1540, "zip": "23663"}, "virginia-beach-norfolk-newport-news-23664": {"city": "Virginia Beach-Norfolk-Newport News", "rent": 1580, "zip": "23664"}, "virginia-beach-norfolk-newport-news-23665": {"city": "Virginia Beach-Norfolk-Newport News", "rent": 2300, "zip": "23665"}, "virginia-beach-norfolk-newport-news-23666": {"city": "Virginia Beach-Norfolk-Newport News", "rent": 1870, "zip": "23666"}, "virginia-beach-norfolk-newport-news-23667": {"city": "Virginia Beach-Norfolk-Newport News", "rent": 1570, "zip": "23667"}, "virginia-beach-norfolk-newport-news-23668": {"city": "Virginia Beach-Norfolk-Newport News", "rent": 1580, "zip": "23668"}, "virginia-beach-norfolk-newport-news-23669": {"city": "Virginia Beach-Norfolk-Newport News", "rent": 1580, "zip": "23669"}, "virginia-beach-norfolk-newport-news-23670": {"city": "Virginia Beach-Norfolk-Newport News", "rent": 1600, "zip": "23670"}, "virginia-beach-norfolk-newport-news-23681": {"city": "Virginia Beach-Norfolk-Newport News", "rent": 1600, "zip": "23681"}, "virginia-beach-norfolk-newport-news-23690": {"city": "Virginia Beach-Norfolk-Newport News", "rent": 1260, "zip": "23690"}, "virginia-beach-norfolk-newport-news-23691": {"city": "Virginia Beach-Norfolk-Newport News", "rent": 2290, "zip": "23691"}, "virginia-beach-norfolk-newport-news-23692": {"city": "Virginia Beach-Norfolk-Newport News", "rent": 2200, "zip": "23692"}, "virginia-beach-norfolk-newport-news-23693": {"city": "Virginia Beach-Norfolk-Newport News", "rent": 2050, "zip": "23693"}, "virginia-beach-norfolk-newport-news-23696": {"city": "Virginia Beach-Norfolk-Newport News", "rent": 2310, "zip": "23696"}, "virginia-beach-norfolk-newport-news-23701": {"city": "Virginia Beach-Norfolk-Newport News", "rent": 1580, "zip": "23701"}, "virginia-beach-norfolk-newport-news-23702": {"city": "Virginia Beach-Norfolk-Newport News", "rent": 1480, "zip": "23702"}, "virginia-beach-norfolk-newport-news-23703": {"city": "Virginia Beach-Norfolk-Newport News", "rent": 1650, "zip": "23703"}, "virginia-beach-norfolk-newport-news-23704": {"city": "Virginia Beach-Norfolk-Newport News", "rent": 1640, "zip": "23704"}, "virginia-beach-norfolk-newport-news-23705": {"city": "Virginia Beach-Norfolk-Newport News", "rent": 1560, "zip": "23705"}, "virginia-beach-norfolk-newport-news-23707": {"city": "Virginia Beach-Norfolk-Newport News", "rent": 1400, "zip": "23707"}, "virginia-beach-norfolk-newport-news-23708": {"city": "Virginia Beach-Norfolk-Newport News", "rent": 1680, "zip": "23708"}, "virginia-beach-norfolk-newport-news-23709": {"city": "Virginia Beach-Norfolk-Newport News", "rent": 1590, "zip": "23709"}, "virginia-beach-norfolk-newport-news-23851": {"city": "Virginia Beach-Norfolk-Newport News", "rent": 1100, "zip": "23851"}, "virginia-beach-norfolk-newport-news-23866": {"city": "Virginia Beach-Norfolk-Newport News", "rent": 1270, "zip": "23866"}, "virginia-beach-norfolk-newport-news-23898": {"city": "Virginia Beach-Norfolk-Newport News", "rent": 1170, "zip": "23898"}, "virginia-beach-norfolk-newport-news-27916": {"city": "Virginia Beach-Norfolk-Newport News", "rent": 1510, "zip": "27916"}, "virginia-beach-norfolk-newport-news-27917": {"city": "Virginia Beach-Norfolk-Newport News", "rent": 1510, "zip": "27917"}, "virginia-beach-norfolk-newport-news-27923": {"city": "Virginia Beach-Norfolk-Newport News", "rent": 1510, "zip": "27923"}, "virginia-beach-norfolk-newport-news-27927": {"city": "Virginia Beach-Norfolk-Newport News", "rent": 1780, "zip": "27927"}, "virginia-beach-norfolk-newport-news-27929": {"city": "Virginia Beach-Norfolk-Newport News", "rent": 1590, "zip": "27929"}, "virginia-beach-norfolk-newport-news-27939": {"city": "Virginia Beach-Norfolk-Newport News", "rent": 1460, "zip": "27939"}, "virginia-beach-norfolk-newport-news-27941": {"city": "Virginia Beach-Norfolk-Newport News", "rent": 1770, "zip": "27941"}, "virginia-beach-norfolk-newport-news-27947": {"city": "Virginia Beach-Norfolk-Newport News", "rent": 1580, "zip": "27947"}, "virginia-beach-norfolk-newport-news-27950": {"city": "Virginia Beach-Norfolk-Newport News", "rent": 1640, "zip": "27950"}, "virginia-beach-norfolk-newport-news-27956": {"city": "Virginia Beach-Norfolk-Newport News", "rent": 1510, "zip": "27956"}, "virginia-beach-norfolk-newport-news-27958": {"city": "Virginia Beach-Norfolk-Newport News", "rent": 1650, "zip": "27958"}, "virginia-beach-norfolk-newport-news-27964": {"city": "Virginia Beach-Norfolk-Newport News", "rent": 1700, "zip": "27964"}, "virginia-beach-norfolk-newport-news-27965": {"city": "Virginia Beach-Norfolk-Newport News", "rent": 1510, "zip": "27965"}, "virginia-beach-norfolk-newport-news-27966": {"city": "Virginia Beach-Norfolk-Newport News", "rent": 1800, "zip": "27966"}, "virginia-beach-norfolk-newport-news-27973": {"city": "Virginia Beach-Norfolk-Newport News", "rent": 1460, "zip": "27973"}, "surry-county-23430": {"city": "Surry County", "rent": 1490, "zip": "23430"}, "surry-county-23839": {"city": "Surry County", "rent": 1180, "zip": "23839"}, "surry-county-23842": {"city": "Surry County", "rent": 1540, "zip": "23842"}, "surry-county-23846": {"city": "Surry County", "rent": 1320, "zip": "23846"}, "surry-county-23866": {"city": "Surry County", "rent": 1270, "zip": "23866"}, "surry-county-23881": {"city": "Surry County", "rent": 1540, "zip": "23881"}, "surry-county-23883": {"city": "Surry County", "rent": 1360, "zip": "23883"}, "surry-county-23888": {"city": "Surry County", "rent": 1190, "zip": "23888"}, "surry-county-23890": {"city": "Surry County", "rent": 1540, "zip": "23890"}, "surry-county-23899": {"city": "Surry County", "rent": 1020, "zip": "23899"}, "warren-county-22610": {"city": "Warren County", "rent": 1320, "zip": "22610"}, "warren-county-22630": {"city": "Warren County", "rent": 1300, "zip": "22630"}, "warren-county-22642": {"city": "Warren County", "rent": 1770, "zip": "22642"}, "warren-county-22645": {"city": "Warren County", "rent": 1420, "zip": "22645"}, "warren-county-22649": {"city": "Warren County", "rent": 1320, "zip": "22649"}, "warren-county-22655": {"city": "Warren County", "rent": 1760, "zip": "22655"}, "warren-county-22657": {"city": "Warren County", "rent": 1170, "zip": "22657"}, "warren-county-22663": {"city": "Warren County", "rent": 1510, "zip": "22663"}, "culpeper-county-20106": {"city": "Culpeper County", "rent": 1670, "zip": "20106"}, "culpeper-county-20186": {"city": "Culpeper County", "rent": 1740, "zip": "20186"}, "culpeper-county-22407": {"city": "Culpeper County", "rent": 1970, "zip": "22407"}, "culpeper-county-22701": {"city": "Culpeper County", "rent": 1400, "zip": "22701"}, "culpeper-county-22713": {"city": "Culpeper County", "rent": 1480, "zip": "22713"}, "culpeper-county-22714": {"city": "Culpeper County", "rent": 1420, "zip": "22714"}, "culpeper-county-22716": {"city": "Culpeper County", "rent": 1390, "zip": "22716"}, "culpeper-county-22718": {"city": "Culpeper County", "rent": 1420, "zip": "22718"}, "culpeper-county-22724": {"city": "Culpeper County", "rent": 1700, "zip": "22724"}, "culpeper-county-22726": {"city": "Culpeper County", "rent": 1420, "zip": "22726"}, "culpeper-county-22729": {"city": "Culpeper County", "rent": 1400, "zip": "22729"}, "culpeper-county-22733": {"city": "Culpeper County", "rent": 1310, "zip": "22733"}, "culpeper-county-22734": {"city": "Culpeper County", "rent": 1600, "zip": "22734"}, "culpeper-county-22735": {"city": "Culpeper County", "rent": 1280, "zip": "22735"}, "culpeper-county-22736": {"city": "Culpeper County", "rent": 1950, "zip": "22736"}, "culpeper-county-22737": {"city": "Culpeper County", "rent": 1420, "zip": "22737"}, "culpeper-county-22740": {"city": "Culpeper County", "rent": 1380, "zip": "22740"}, "culpeper-county-22741": {"city": "Culpeper County", "rent": 1420, "zip": "22741"}, "culpeper-county-22746": {"city": "Culpeper County", "rent": 1420, "zip": "22746"}, "rappahannock-county-20106": {"city": "Rappahannock County", "rent": 1670, "zip": "20106"}, "rappahannock-county-22623": {"city": "Rappahannock County", "rent": 1320, "zip": "22623"}, "rappahannock-county-22627": {"city": "Rappahannock County", "rent": 1730, "zip": "22627"}, "rappahannock-county-22630": {"city": "Rappahannock County", "rent": 1300, "zip": "22630"}, "rappahannock-county-22640": {"city": "Rappahannock County", "rent": 1330, "zip": "22640"}, "rappahannock-county-22713": {"city": "Rappahannock County", "rent": 1480, "zip": "22713"}, "rappahannock-county-22716": {"city": "Rappahannock County", "rent": 1390, "zip": "22716"}, "rappahannock-county-22740": {"city": "Rappahannock County", "rent": 1380, "zip": "22740"}, "rappahannock-county-22747": {"city": "Rappahannock County", "rent": 1380, "zip": "22747"}, "rappahannock-county-22749": {"city": "Rappahannock County", "rent": 1380, "zip": "22749"}, "winchester-22601": {"city": "Winchester", "rent": 1730, "zip": "22601"}, "winchester-22602": {"city": "Winchester", "rent": 1670, "zip": "22602"}, "winchester-22603": {"city": "Winchester", "rent": 1580, "zip": "22603"}, "winchester-22604": {"city": "Winchester", "rent": 1590, "zip": "22604"}, "winchester-22624": {"city": "Winchester", "rent": 1440, "zip": "22624"}, "winchester-22625": {"city": "Winchester", "rent": 1630, "zip": "22625"}, "winchester-22630": {"city": "Winchester", "rent": 1300, "zip": "22630"}, "winchester-22637": {"city": "Winchester", "rent": 1630, "zip": "22637"}, "winchester-22645": {"city": "Winchester", "rent": 1420, "zip": "22645"}, "winchester-22654": {"city": "Winchester", "rent": 1420, "zip": "22654"}, "winchester-22655": {"city": "Winchester", "rent": 1760, "zip": "22655"}, "winchester-22656": {"city": "Winchester", "rent": 2360, "zip": "22656"}, "winchester-22663": {"city": "Winchester", "rent": 1510, "zip": "22663"}, "winchester-25422": {"city": "Winchester", "rent": 1420, "zip": "25422"}, "winchester-25431": {"city": "Winchester", "rent": 1420, "zip": "25431"}, "winchester-25434": {"city": "Winchester", "rent": 1420, "zip": "25434"}, "winchester-25437": {"city": "Winchester", "rent": 1420, "zip": "25437"}, "winchester-25444": {"city": "Winchester", "rent": 1420, "zip": "25444"}, "winchester-26704": {"city": "Winchester", "rent": 1420, "zip": "26704"}, "winchester-26710": {"city": "Winchester", "rent": 1420, "zip": "26710"}, "winchester-26711": {"city": "Winchester", "rent": 1420, "zip": "26711"}, "winchester-26714": {"city": "Winchester", "rent": 1420, "zip": "26714"}, "winchester-26722": {"city": "Winchester", "rent": 1420, "zip": "26722"}, "winchester-26755": {"city": "Winchester", "rent": 1420, "zip": "26755"}, "winchester-26757": {"city": "Winchester", "rent": 1420, "zip": "26757"}, "winchester-26761": {"city": "Winchester", "rent": 1420, "zip": "26761"}, "winchester-26763": {"city": "Winchester", "rent": 1420, "zip": "26763"}, "winchester-26808": {"city": "Winchester", "rent": 1420, "zip": "26808"}, "winchester-26817": {"city": "Winchester", "rent": 1420, "zip": "26817"}, "winchester-26823": {"city": "Winchester", "rent": 1420, "zip": "26823"}, "winchester-26845": {"city": "Winchester", "rent": 1420, "zip": "26845"}, "winchester-26851": {"city": "Winchester", "rent": 1420, "zip": "26851"}, "winchester-26852": {"city": "Winchester", "rent": 1420, "zip": "26852"}, "winchester-26865": {"city": "Winchester", "rent": 1420, "zip": "26865"}, "accomack-county-23301": {"city": "Accomack County", "rent": 970, "zip": "23301"}, "accomack-county-23302": {"city": "Accomack County", "rent": 1050, "zip": "23302"}, "accomack-county-23303": {"city": "Accomack County", "rent": 1050, "zip": "23303"}, "accomack-county-23306": {"city": "Accomack County", "rent": 1260, "zip": "23306"}, "accomack-county-23308": {"city": "Accomack County", "rent": 1070, "zip": "23308"}, "accomack-county-23336": {"city": "Accomack County", "rent": 1230, "zip": "23336"}, "accomack-county-23337": {"city": "Accomack County", "rent": 1050, "zip": "23337"}, "accomack-county-23341": {"city": "Accomack County", "rent": 1050, "zip": "23341"}, "accomack-county-23350": {"city": "Accomack County", "rent": 910, "zip": "23350"}, "accomack-county-23356": {"city": "Accomack County", "rent": 1220, "zip": "23356"}, "accomack-county-23357": {"city": "Accomack County", "rent": 1020, "zip": "23357"}, "accomack-county-23358": {"city": "Accomack County", "rent": 960, "zip": "23358"}, "accomack-county-23359": {"city": "Accomack County", "rent": 960, "zip": "23359"}, "accomack-county-23389": {"city": "Accomack County", "rent": 1050, "zip": "23389"}, "accomack-county-23395": {"city": "Accomack County", "rent": 1050, "zip": "23395"}, "accomack-county-23401": {"city": "Accomack County", "rent": 1580, "zip": "23401"}, "accomack-county-23404": {"city": "Accomack County", "rent": 1050, "zip": "23404"}, "accomack-county-23407": {"city": "Accomack County", "rent": 1030, "zip": "23407"}, "accomack-county-23409": {"city": "Accomack County", "rent": 1020, "zip": "23409"}, "accomack-county-23410": {"city": "Accomack County", "rent": 1110, "zip": "23410"}, "accomack-county-23412": {"city": "Accomack County", "rent": 1050, "zip": "23412"}, "accomack-county-23414": {"city": "Accomack County", "rent": 1050, "zip": "23414"}, "accomack-county-23415": {"city": "Accomack County", "rent": 1110, "zip": "23415"}, "accomack-county-23416": {"city": "Accomack County", "rent": 1080, "zip": "23416"}, "accomack-county-23417": {"city": "Accomack County", "rent": 1110, "zip": "23417"}, "accomack-county-23418": {"city": "Accomack County", "rent": 1010, "zip": "23418"}, "accomack-county-23420": {"city": "Accomack County", "rent": 920, "zip": "23420"}, "accomack-county-23421": {"city": "Accomack County", "rent": 970, "zip": "23421"}, "accomack-county-23422": {"city": "Accomack County", "rent": 1120, "zip": "23422"}, "accomack-county-23423": {"city": "Accomack County", "rent": 1020, "zip": "23423"}, "accomack-county-23426": {"city": "Accomack County", "rent": 1110, "zip": "23426"}, "accomack-county-23427": {"city": "Accomack County", "rent": 1050, "zip": "23427"}, "accomack-county-23440": {"city": "Accomack County", "rent": 1050, "zip": "23440"}, "accomack-county-23441": {"city": "Accomack County", "rent": 1050, "zip": "23441"}, "accomack-county-23442": {"city": "Accomack County", "rent": 1040, "zip": "23442"}, "accomack-county-23480": {"city": "Accomack County", "rent": 1050, "zip": "23480"}, "accomack-county-23488": {"city": "Accomack County", "rent": 1150, "zip": "23488"}, "alleghany-county-clifton-forge-city-covington-city-24085": {"city": "Alleghany County-Clifton Forge city-Covington city", "rent": 1080, "zip": "24085"}, "alleghany-county-clifton-forge-city-covington-city-24422": {"city": "Alleghany County-Clifton Forge city-Covington city", "rent": 1030, "zip": "24422"}, "alleghany-county-clifton-forge-city-covington-city-24426": {"city": "Alleghany County-Clifton Forge city-Covington city", "rent": 1030, "zip": "24426"}, "alleghany-county-clifton-forge-city-covington-city-24445": {"city": "Alleghany County-Clifton Forge city-Covington city", "rent": 980, "zip": "24445"}, "alleghany-county-clifton-forge-city-covington-city-24448": {"city": "Alleghany County-Clifton Forge city-Covington city", "rent": 1000, "zip": "24448"}, "alleghany-county-clifton-forge-city-covington-city-24457": {"city": "Alleghany County-Clifton Forge city-Covington city", "rent": 910, "zip": "24457"}, "alleghany-county-clifton-forge-city-covington-city-24474": {"city": "Alleghany County-Clifton Forge city-Covington city", "rent": 920, "zip": "24474"}, "bath-county-24412": {"city": "Bath County", "rent": 980, "zip": "24412"}, "bath-county-24422": {"city": "Bath County", "rent": 1030, "zip": "24422"}, "bath-county-24432": {"city": "Bath County", "rent": 1330, "zip": "24432"}, "bath-county-24445": {"city": "Bath County", "rent": 980, "zip": "24445"}, "bath-county-24460": {"city": "Bath County", "rent": 930, "zip": "24460"}, "bath-county-24484": {"city": "Bath County", "rent": 910, "zip": "24484"}, "bath-county-24487": {"city": "Bath County", "rent": 960, "zip": "24487"}, "bland-county-24084": {"city": "Bland County", "rent": 910, "zip": "24084"}, "bland-county-24124": {"city": "Bland County", "rent": 1000, "zip": "24124"}, "bland-county-24134": {"city": "Bland County", "rent": 1030, "zip": "24134"}, "bland-county-24314": {"city": "Bland County", "rent": 930, "zip": "24314"}, "bland-county-24315": {"city": "Bland County", "rent": 910, "zip": "24315"}, "bland-county-24318": {"city": "Bland County", "rent": 920, "zip": "24318"}, "bland-county-24366": {"city": "Bland County", "rent": 950, "zip": "24366"}, "brunswick-county-23821": {"city": "Brunswick County", "rent": 990, "zip": "23821"}, "brunswick-county-23824": {"city": "Brunswick County", "rent": 1540, "zip": "23824"}, "brunswick-county-23843": {"city": "Brunswick County", "rent": 930, "zip": "23843"}, "brunswick-county-23845": {"city": "Brunswick County", "rent": 930, "zip": "23845"}, "brunswick-county-23847": {"city": "Brunswick County", "rent": 990, "zip": "23847"}, "brunswick-county-23856": {"city": "Brunswick County", "rent": 910, "zip": "23856"}, "brunswick-county-23857": {"city": "Brunswick County", "rent": 1100, "zip": "23857"}, "brunswick-county-23868": {"city": "Brunswick County", "rent": 910, "zip": "23868"}, "brunswick-county-23873": {"city": "Brunswick County", "rent": 910, "zip": "23873"}, "brunswick-county-23876": {"city": "Brunswick County", "rent": 1090, "zip": "23876"}, "brunswick-county-23887": {"city": "Brunswick County", "rent": 1050, "zip": "23887"}, "brunswick-county-23889": {"city": "Brunswick County", "rent": 960, "zip": "23889"}, "brunswick-county-23893": {"city": "Brunswick County", "rent": 1090, "zip": "23893"}, "brunswick-county-23919": {"city": "Brunswick County", "rent": 910, "zip": "23919"}, "brunswick-county-23920": {"city": "Brunswick County", "rent": 1110, "zip": "23920"}, "brunswick-county-23938": {"city": "Brunswick County", "rent": 960, "zip": "23938"}, "brunswick-county-23950": {"city": "Brunswick County", "rent": 910, "zip": "23950"}, "buchanan-county-24217": {"city": "Buchanan County", "rent": 950, "zip": "24217"}, "buchanan-county-24225": {"city": "Buchanan County", "rent": 910, "zip": "24225"}, "buchanan-county-24239": {"city": "Buchanan County", "rent": 990, "zip": "24239"}, "buchanan-county-24256": {"city": "Buchanan County", "rent": 1020, "zip": "24256"}, "buchanan-county-24260": {"city": "Buchanan County", "rent": 910, "zip": "24260"}, "buchanan-county-24603": {"city": "Buchanan County", "rent": 910, "zip": "24603"}, "buchanan-county-24607": {"city": "Buchanan County", "rent": 970, "zip": "24607"}, "buchanan-county-24614": {"city": "Buchanan County", "rent": 960, "zip": "24614"}, "buchanan-county-24620": {"city": "Buchanan County", "rent": 910, "zip": "24620"}, "buchanan-county-24622": {"city": "Buchanan County", "rent": 1030, "zip": "24622"}, "buchanan-county-24627": {"city": "Buchanan County", "rent": 910, "zip": "24627"}, "buchanan-county-24631": {"city": "Buchanan County", "rent": 910, "zip": "24631"}, "buchanan-county-24634": {"city": "Buchanan County", "rent": 1040, "zip": "24634"}, "buchanan-county-24639": {"city": "Buchanan County", "rent": 910, "zip": "24639"}, "buchanan-county-24646": {"city": "Buchanan County", "rent": 930, "zip": "24646"}, "buchanan-county-24649": {"city": "Buchanan County", "rent": 910, "zip": "24649"}, "buchanan-county-24656": {"city": "Buchanan County", "rent": 990, "zip": "24656"}, "buchanan-county-24657": {"city": "Buchanan County", "rent": 1300, "zip": "24657"}, "buchanan-county-24658": {"city": "Buchanan County", "rent": 910, "zip": "24658"}, "buckingham-county-23004": {"city": "Buckingham County", "rent": 910, "zip": "23004"}, "buckingham-county-23040": {"city": "Buckingham County", "rent": 1000, "zip": "23040"}, "buckingham-county-23123": {"city": "Buckingham County", "rent": 990, "zip": "23123"}, "buckingham-county-23901": {"city": "Buckingham County", "rent": 1130, "zip": "23901"}, "buckingham-county-23921": {"city": "Buckingham County", "rent": 1080, "zip": "23921"}, "buckingham-county-23936": {"city": "Buckingham County", "rent": 910, "zip": "23936"}, "buckingham-county-24522": {"city": "Buckingham County", "rent": 1090, "zip": "24522"}, "buckingham-county-24553": {"city": "Buckingham County", "rent": 1560, "zip": "24553"}, "buckingham-county-24562": {"city": "Buckingham County", "rent": 1560, "zip": "24562"}, "buckingham-county-24590": {"city": "Buckingham County", "rent": 1560, "zip": "24590"}, "buckingham-county-24599": {"city": "Buckingham County", "rent": 1560, "zip": "24599"}, "caroline-county-22408": {"city": "Caroline County", "rent": 2040, "zip": "22408"}, "caroline-county-22427": {"city": "Caroline County", "rent": 1010, "zip": "22427"}, "caroline-county-22436": {"city": "Caroline County", "rent": 1200, "zip": "22436"}, "caroline-county-22438": {"city": "Caroline County", "rent": 1260, "zip": "22438"}, "caroline-county-22446": {"city": "Caroline County", "rent": 1250, "zip": "22446"}, "caroline-county-22501": {"city": "Caroline County", "rent": 1250, "zip": "22501"}, "caroline-county-22514": {"city": "Caroline County", "rent": 1200, "zip": "22514"}, "caroline-county-22535": {"city": "Caroline County", "rent": 1450, "zip": "22535"}, "caroline-county-22538": {"city": "Caroline County", "rent": 1410, "zip": "22538"}, "caroline-county-22546": {"city": "Caroline County", "rent": 1560, "zip": "22546"}, "caroline-county-22560": {"city": "Caroline County", "rent": 1200, "zip": "22560"}, "caroline-county-22580": {"city": "Caroline County", "rent": 1270, "zip": "22580"}, "caroline-county-23015": {"city": "Caroline County", "rent": 1380, "zip": "23015"}, "caroline-county-23047": {"city": "Caroline County", "rent": 1540, "zip": "23047"}, "caroline-county-23069": {"city": "Caroline County", "rent": 1760, "zip": "23069"}, "carroll-county-galax-city-24053": {"city": "Carroll County-Galax city", "rent": 1070, "zip": "24053"}, "carroll-county-galax-city-24105": {"city": "Carroll County-Galax city", "rent": 950, "zip": "24105"}, "carroll-county-galax-city-24120": {"city": "Carroll County-Galax city", "rent": 910, "zip": "24120"}, "carroll-county-galax-city-24312": {"city": "Carroll County-Galax city", "rent": 1000, "zip": "24312"}, "carroll-county-galax-city-24317": {"city": "Carroll County-Galax city", "rent": 1100, "zip": "24317"}, "carroll-county-galax-city-24325": {"city": "Carroll County-Galax city", "rent": 930, "zip": "24325"}, "carroll-county-galax-city-24328": {"city": "Carroll County-Galax city", "rent": 990, "zip": "24328"}, "carroll-county-galax-city-24330": {"city": "Carroll County-Galax city", "rent": 910, "zip": "24330"}, "carroll-county-galax-city-24333": {"city": "Carroll County-Galax city", "rent": 930, "zip": "24333"}, "carroll-county-galax-city-24343": {"city": "Carroll County-Galax city", "rent": 910, "zip": "24343"}, "carroll-county-galax-city-24347": {"city": "Carroll County-Galax city", "rent": 1110, "zip": "24347"}, "carroll-county-galax-city-24350": {"city": "Carroll County-Galax city", "rent": 920, "zip": "24350"}, "carroll-county-galax-city-24351": {"city": "Carroll County-Galax city", "rent": 990, "zip": "24351"}, "carroll-county-galax-city-24352": {"city": "Carroll County-Galax city", "rent": 910, "zip": "24352"}, "carroll-county-galax-city-24360": {"city": "Carroll County-Galax city", "rent": 910, "zip": "24360"}, "carroll-county-galax-city-24380": {"city": "Carroll County-Galax city", "rent": 970, "zip": "24380"}, "carroll-county-galax-city-24381": {"city": "Carroll County-Galax city", "rent": 910, "zip": "24381"}, "charlotte-county-23923": {"city": "Charlotte County", "rent": 910, "zip": "23923"}, "charlotte-county-23924": {"city": "Charlotte County", "rent": 910, "zip": "23924"}, "charlotte-county-23927": {"city": "Charlotte County", "rent": 910, "zip": "23927"}, "charlotte-county-23934": {"city": "Charlotte County", "rent": 1110, "zip": "23934"}, "charlotte-county-23937": {"city": "Charlotte County", "rent": 1180, "zip": "23937"}, "charlotte-county-23947": {"city": "Charlotte County", "rent": 910, "zip": "23947"}, "charlotte-county-23958": {"city": "Charlotte County", "rent": 1280, "zip": "23958"}, "charlotte-county-23959": {"city": "Charlotte County", "rent": 1030, "zip": "23959"}, "charlotte-county-23962": {"city": "Charlotte County", "rent": 1110, "zip": "23962"}, "charlotte-county-23963": {"city": "Charlotte County", "rent": 1080, "zip": "23963"}, "charlotte-county-23964": {"city": "Charlotte County", "rent": 910, "zip": "23964"}, "charlotte-county-23967": {"city": "Charlotte County", "rent": 1120, "zip": "23967"}, "charlotte-county-23976": {"city": "Charlotte County", "rent": 960, "zip": "23976"}, "charlotte-county-24522": {"city": "Charlotte County", "rent": 1090, "zip": "24522"}, "charlotte-county-24528": {"city": "Charlotte County", "rent": 1080, "zip": "24528"}, "cumberland-county-23027": {"city": "Cumberland County", "rent": 1500, "zip": "23027"}, "cumberland-county-23038": {"city": "Cumberland County", "rent": 1560, "zip": "23038"}, "cumberland-county-23040": {"city": "Cumberland County", "rent": 1000, "zip": "23040"}, "cumberland-county-23123": {"city": "Cumberland County", "rent": 990, "zip": "23123"}, "cumberland-county-23139": {"city": "Cumberland County", "rent": 1540, "zip": "23139"}, "cumberland-county-23901": {"city": "Cumberland County", "rent": 1130, "zip": "23901"}, "cumberland-county-23936": {"city": "Cumberland County", "rent": 910, "zip": "23936"}, "dickenson-county-24217": {"city": "Dickenson County", "rent": 950, "zip": "24217"}, "dickenson-county-24220": {"city": "Dickenson County", "rent": 1090, "zip": "24220"}, "dickenson-county-24225": {"city": "Dickenson County", "rent": 910, "zip": "24225"}, "dickenson-county-24226": {"city": "Dickenson County", "rent": 910, "zip": "24226"}, "dickenson-county-24228": {"city": "Dickenson County", "rent": 910, "zip": "24228"}, "dickenson-county-24230": {"city": "Dickenson County", "rent": 1010, "zip": "24230"}, "dickenson-county-24237": {"city": "Dickenson County", "rent": 1370, "zip": "24237"}, "dickenson-county-24256": {"city": "Dickenson County", "rent": 1020, "zip": "24256"}, "dickenson-county-24269": {"city": "Dickenson County", "rent": 950, "zip": "24269"}, "dickenson-county-24272": {"city": "Dickenson County", "rent": 1110, "zip": "24272"}, "dickenson-county-24283": {"city": "Dickenson County", "rent": 910, "zip": "24283"}, "dickenson-county-24607": {"city": "Dickenson County", "rent": 970, "zip": "24607"}, "dickenson-county-24656": {"city": "Dickenson County", "rent": 990, "zip": "24656"}, "essex-county-22436": {"city": "Essex County", "rent": 1200, "zip": "22436"}, "essex-county-22437": {"city": "Essex County", "rent": 1200, "zip": "22437"}, "essex-county-22438": {"city": "Essex County", "rent": 1260, "zip": "22438"}, "essex-county-22454": {"city": "Essex County", "rent": 1090, "zip": "22454"}, "essex-county-22476": {"city": "Essex County", "rent": 1110, "zip": "22476"}, "essex-county-22504": {"city": "Essex County", "rent": 1180, "zip": "22504"}, "essex-county-22509": {"city": "Essex County", "rent": 1110, "zip": "22509"}, "essex-county-22560": {"city": "Essex County", "rent": 1200, "zip": "22560"}, "essex-county-23023": {"city": "Essex County", "rent": 1200, "zip": "23023"}, "essex-county-23115": {"city": "Essex County", "rent": 1110, "zip": "23115"}, "essex-county-23148": {"city": "Essex County", "rent": 1320, "zip": "23148"}, "grayson-county-24292": {"city": "Grayson County", "rent": 1170, "zip": "24292"}, "grayson-county-24326": {"city": "Grayson County", "rent": 920, "zip": "24326"}, "grayson-county-24330": {"city": "Grayson County", "rent": 910, "zip": "24330"}, "grayson-county-24333": {"city": "Grayson County", "rent": 930, "zip": "24333"}, "grayson-county-24348": {"city": "Grayson County", "rent": 910, "zip": "24348"}, "grayson-county-24350": {"city": "Grayson County", "rent": 920, "zip": "24350"}, "grayson-county-24363": {"city": "Grayson County", "rent": 910, "zip": "24363"}, "grayson-county-24378": {"city": "Grayson County", "rent": 990, "zip": "24378"}, "grayson-county-24430": {"city": "Grayson County", "rent": 1160, "zip": "24430"}, "grayson-county-28675": {"city": "Grayson County", "rent": 1010, "zip": "28675"}, "greensville-county-emporia-city-23847": {"city": "Greensville County-Emporia city", "rent": 990, "zip": "23847"}, "greensville-county-emporia-city-23856": {"city": "Greensville County-Emporia city", "rent": 910, "zip": "23856"}, "greensville-county-emporia-city-23867": {"city": "Greensville County-Emporia city", "rent": 1020, "zip": "23867"}, "greensville-county-emporia-city-23870": {"city": "Greensville County-Emporia city", "rent": 980, "zip": "23870"}, "greensville-county-emporia-city-23879": {"city": "Greensville County-Emporia city", "rent": 1040, "zip": "23879"}, "greensville-county-emporia-city-23887": {"city": "Greensville County-Emporia city", "rent": 1050, "zip": "23887"}, "halifax-county-23962": {"city": "Halifax County", "rent": 1110, "zip": "23962"}, "halifax-county-24520": {"city": "Halifax County", "rent": 910, "zip": "24520"}, "halifax-county-24529": {"city": "Halifax County", "rent": 960, "zip": "24529"}, "halifax-county-24534": {"city": "Halifax County", "rent": 1030, "zip": "24534"}, "halifax-county-24535": {"city": "Halifax County", "rent": 910, "zip": "24535"}, "halifax-county-24539": {"city": "Halifax County", "rent": 950, "zip": "24539"}, "halifax-county-24557": {"city": "Halifax County", "rent": 910, "zip": "24557"}, "halifax-county-24558": {"city": "Halifax County", "rent": 950, "zip": "24558"}, "halifax-county-24565": {"city": "Halifax County", "rent": 920, "zip": "24565"}, "halifax-county-24569": {"city": "Halifax County", "rent": 1080, "zip": "24569"}, "halifax-county-24577": {"city": "Halifax County", "rent": 940, "zip": "24577"}, "halifax-county-24589": {"city": "Halifax County", "rent": 1030, "zip": "24589"}, "halifax-county-24592": {"city": "Halifax County", "rent": 910, "zip": "24592"}, "halifax-county-24594": {"city": "Halifax County", "rent": 990, "zip": "24594"}, "halifax-county-24597": {"city": "Halifax County", "rent": 1000, "zip": "24597"}, "halifax-county-24598": {"city": "Halifax County", "rent": 1060, "zip": "24598"}, "henry-county-martinsville-city-24054": {"city": "Henry County-Martinsville city", "rent": 1000, "zip": "24054"}, "henry-county-martinsville-city-24055": {"city": "Henry County-Martinsville city", "rent": 910, "zip": "24055"}, "henry-county-martinsville-city-24078": {"city": "Henry County-Martinsville city", "rent": 910, "zip": "24078"}, "henry-county-martinsville-city-24089": {"city": "Henry County-Martinsville city", "rent": 910, "zip": "24089"}, "henry-county-martinsville-city-24102": {"city": "Henry County-Martinsville city", "rent": 910, "zip": "24102"}, "henry-county-martinsville-city-24112": {"city": "Henry County-Martinsville city", "rent": 950, "zip": "24112"}, "henry-county-martinsville-city-24133": {"city": "Henry County-Martinsville city", "rent": 910, "zip": "24133"}, "henry-county-martinsville-city-24148": {"city": "Henry County-Martinsville city", "rent": 910, "zip": "24148"}, "henry-county-martinsville-city-24165": {"city": "Henry County-Martinsville city", "rent": 1260, "zip": "24165"}, "henry-county-martinsville-city-24168": {"city": "Henry County-Martinsville city", "rent": 910, "zip": "24168"}, "henry-county-martinsville-city-24530": {"city": "Henry County-Martinsville city", "rent": 950, "zip": "24530"}, "henry-county-martinsville-city-27048": {"city": "Henry County-Martinsville city", "rent": 1060, "zip": "27048"}, "highland-county-24413": {"city": "Highland County", "rent": 910, "zip": "24413"}, "highland-county-24433": {"city": "Highland County", "rent": 910, "zip": "24433"}, "highland-county-24442": {"city": "Highland County", "rent": 910, "zip": "24442"}, "highland-county-24458": {"city": "Highland County", "rent": 910, "zip": "24458"}, "highland-county-24465": {"city": "Highland County", "rent": 910, "zip": "24465"}, "highland-county-24484": {"city": "Highland County", "rent": 910, "zip": "24484"}, "highland-county-24487": {"city": "Highland County", "rent": 960, "zip": "24487"}, "king-george-county-22443": {"city": "King George County", "rent": 1390, "zip": "22443"}, "king-george-county-22448": {"city": "King George County", "rent": 1920, "zip": "22448"}, "king-george-county-22451": {"city": "King George County", "rent": 1470, "zip": "22451"}, "king-george-county-22481": {"city": "King George County", "rent": 1470, "zip": "22481"}, "king-george-county-22485": {"city": "King George County", "rent": 1400, "zip": "22485"}, "king-george-county-22526": {"city": "King George County", "rent": 1470, "zip": "22526"}, "king-george-county-22544": {"city": "King George County", "rent": 1470, "zip": "22544"}, "king-george-county-22547": {"city": "King George County", "rent": 1470, "zip": "22547"}, "lancaster-county-22473": {"city": "Lancaster County", "rent": 1060, "zip": "22473"}, "lancaster-county-22480": {"city": "Lancaster County", "rent": 1010, "zip": "22480"}, "lancaster-county-22482": {"city": "Lancaster County", "rent": 1130, "zip": "22482"}, "lancaster-county-22503": {"city": "Lancaster County", "rent": 1110, "zip": "22503"}, "lancaster-county-22507": {"city": "Lancaster County", "rent": 1050, "zip": "22507"}, "lancaster-county-22513": {"city": "Lancaster County", "rent": 1050, "zip": "22513"}, "lancaster-county-22517": {"city": "Lancaster County", "rent": 1050, "zip": "22517"}, "lancaster-county-22523": {"city": "Lancaster County", "rent": 1050, "zip": "22523"}, "lancaster-county-22528": {"city": "Lancaster County", "rent": 1050, "zip": "22528"}, "lancaster-county-22576": {"city": "Lancaster County", "rent": 1140, "zip": "22576"}, "lancaster-county-22578": {"city": "Lancaster County", "rent": 1160, "zip": "22578"}, "lee-county-24218": {"city": "Lee County", "rent": 910, "zip": "24218"}, "lee-county-24219": {"city": "Lee County", "rent": 940, "zip": "24219"}, "lee-county-24221": {"city": "Lee County", "rent": 940, "zip": "24221"}, "lee-county-24243": {"city": "Lee County", "rent": 1050, "zip": "24243"}, "lee-county-24244": {"city": "Lee County", "rent": 970, "zip": "24244"}, "lee-county-24248": {"city": "Lee County", "rent": 910, "zip": "24248"}, "lee-county-24263": {"city": "Lee County", "rent": 910, "zip": "24263"}, "lee-county-24265": {"city": "Lee County", "rent": 970, "zip": "24265"}, "lee-county-24277": {"city": "Lee County", "rent": 910, "zip": "24277"}, "lee-county-24281": {"city": "Lee County", "rent": 910, "zip": "24281"}, "lee-county-24282": {"city": "Lee County", "rent": 930, "zip": "24282"}, "louisa-county-22942": {"city": "Louisa County", "rent": 1560, "zip": "22942"}, "louisa-county-22947": {"city": "Louisa County", "rent": 1990, "zip": "22947"}, "louisa-county-22974": {"city": "Louisa County", "rent": 1820, "zip": "22974"}, "louisa-county-23015": {"city": "Louisa County", "rent": 1380, "zip": "23015"}, "louisa-county-23024": {"city": "Louisa County", "rent": 1240, "zip": "23024"}, "louisa-county-23065": {"city": "Louisa County", "rent": 1540, "zip": "23065"}, "louisa-county-23084": {"city": "Louisa County", "rent": 1560, "zip": "23084"}, "louisa-county-23093": {"city": "Louisa County", "rent": 1560, "zip": "23093"}, "louisa-county-23102": {"city": "Louisa County", "rent": 1700, "zip": "23102"}, "louisa-county-23117": {"city": "Louisa County", "rent": 1160, "zip": "23117"}, "louisa-county-23153": {"city": "Louisa County", "rent": 1540, "zip": "23153"}, "louisa-county-23170": {"city": "Louisa County", "rent": 1250, "zip": "23170"}, "louisa-county-23192": {"city": "Louisa County", "rent": 1540, "zip": "23192"}, "lunenburg-county-23824": {"city": "Lunenburg County", "rent": 1540, "zip": "23824"}, "lunenburg-county-23920": {"city": "Lunenburg County", "rent": 1110, "zip": "23920"}, "lunenburg-county-23923": {"city": "Lunenburg County", "rent": 910, "zip": "23923"}, "lunenburg-county-23924": {"city": "Lunenburg County", "rent": 910, "zip": "23924"}, "lunenburg-county-23937": {"city": "Lunenburg County", "rent": 1180, "zip": "23937"}, "lunenburg-county-23938": {"city": "Lunenburg County", "rent": 960, "zip": "23938"}, "lunenburg-county-23942": {"city": "Lunenburg County", "rent": 910, "zip": "23942"}, "lunenburg-county-23944": {"city": "Lunenburg County", "rent": 980, "zip": "23944"}, "lunenburg-county-23947": {"city": "Lunenburg County", "rent": 910, "zip": "23947"}, "lunenburg-county-23952": {"city": "Lunenburg County", "rent": 930, "zip": "23952"}, "lunenburg-county-23954": {"city": "Lunenburg County", "rent": 920, "zip": "23954"}, "lunenburg-county-23970": {"city": "Lunenburg County", "rent": 1090, "zip": "23970"}, "lunenburg-county-23974": {"city": "Lunenburg County", "rent": 910, "zip": "23974"}, "madison-county-22701": {"city": "Madison County", "rent": 1400, "zip": "22701"}, "madison-county-22709": {"city": "Madison County", "rent": 1070, "zip": "22709"}, "madison-county-22711": {"city": "Madison County", "rent": 990, "zip": "22711"}, "madison-county-22715": {"city": "Madison County", "rent": 1070, "zip": "22715"}, "madison-county-22719": {"city": "Madison County", "rent": 1070, "zip": "22719"}, "madison-county-22722": {"city": "Madison County", "rent": 990, "zip": "22722"}, "madison-county-22723": {"city": "Madison County", "rent": 1040, "zip": "22723"}, "madison-county-22725": {"city": "Madison County", "rent": 1070, "zip": "22725"}, "madison-county-22727": {"city": "Madison County", "rent": 990, "zip": "22727"}, "madison-county-22730": {"city": "Madison County", "rent": 1070, "zip": "22730"}, "madison-county-22731": {"city": "Madison County", "rent": 1070, "zip": "22731"}, "madison-county-22732": {"city": "Madison County", "rent": 1130, "zip": "22732"}, "madison-county-22733": {"city": "Madison County", "rent": 1310, "zip": "22733"}, "madison-county-22735": {"city": "Madison County", "rent": 1280, "zip": "22735"}, "madison-county-22738": {"city": "Madison County", "rent": 1360, "zip": "22738"}, "madison-county-22740": {"city": "Madison County", "rent": 1380, "zip": "22740"}, "madison-county-22743": {"city": "Madison County", "rent": 990, "zip": "22743"}, "madison-county-22948": {"city": "Madison County", "rent": 1270, "zip": "22948"}, "madison-county-22960": {"city": "Madison County", "rent": 1170, "zip": "22960"}, "madison-county-22972": {"city": "Madison County", "rent": 1430, "zip": "22972"}, "madison-county-22973": {"city": "Madison County", "rent": 1560, "zip": "22973"}, "madison-county-22989": {"city": "Madison County", "rent": 1170, "zip": "22989"}, "mecklenburg-county-23915": {"city": "Mecklenburg County", "rent": 1040, "zip": "23915"}, "mecklenburg-county-23917": {"city": "Mecklenburg County", "rent": 1050, "zip": "23917"}, "mecklenburg-county-23919": {"city": "Mecklenburg County", "rent": 910, "zip": "23919"}, "mecklenburg-county-23920": {"city": "Mecklenburg County", "rent": 1110, "zip": "23920"}, "mecklenburg-county-23924": {"city": "Mecklenburg County", "rent": 910, "zip": "23924"}, "mecklenburg-county-23927": {"city": "Mecklenburg County", "rent": 910, "zip": "23927"}, "mecklenburg-county-23941": {"city": "Mecklenburg County", "rent": 950, "zip": "23941"}, "mecklenburg-county-23950": {"city": "Mecklenburg County", "rent": 910, "zip": "23950"}, "mecklenburg-county-23964": {"city": "Mecklenburg County", "rent": 910, "zip": "23964"}, "mecklenburg-county-23968": {"city": "Mecklenburg County", "rent": 940, "zip": "23968"}, "mecklenburg-county-23970": {"city": "Mecklenburg County", "rent": 1090, "zip": "23970"}, "mecklenburg-county-24529": {"city": "Mecklenburg County", "rent": 960, "zip": "24529"}, "mecklenburg-county-24580": {"city": "Mecklenburg County", "rent": 910, "zip": "24580"}, "mecklenburg-county-24598": {"city": "Mecklenburg County", "rent": 1060, "zip": "24598"}, "middlesex-county-22504": {"city": "Middlesex County", "rent": 1180, "zip": "22504"}, "middlesex-county-23032": {"city": "Middlesex County", "rent": 1290, "zip": "23032"}, "middlesex-county-23043": {"city": "Middlesex County", "rent": 1320, "zip": "23043"}, "middlesex-county-23070": {"city": "Middlesex County", "rent": 1330, "zip": "23070"}, "middlesex-county-23071": {"city": "Middlesex County", "rent": 1360, "zip": "23071"}, "middlesex-county-23079": {"city": "Middlesex County", "rent": 1290, "zip": "23079"}, "middlesex-county-23092": {"city": "Middlesex County", "rent": 1430, "zip": "23092"}, "middlesex-county-23149": {"city": "Middlesex County", "rent": 1470, "zip": "23149"}, "middlesex-county-23169": {"city": "Middlesex County", "rent": 1480, "zip": "23169"}, "middlesex-county-23175": {"city": "Middlesex County", "rent": 1440, "zip": "23175"}, "middlesex-county-23176": {"city": "Middlesex County", "rent": 1370, "zip": "23176"}, "middlesex-county-23180": {"city": "Middlesex County", "rent": 1290, "zip": "23180"}, "northampton-county-23307": {"city": "Northampton County", "rent": 970, "zip": "23307"}, "northampton-county-23310": {"city": "Northampton County", "rent": 960, "zip": "23310"}, "northampton-county-23316": {"city": "Northampton County", "rent": 960, "zip": "23316"}, "northampton-county-23347": {"city": "Northampton County", "rent": 960, "zip": "23347"}, "northampton-county-23350": {"city": "Northampton County", "rent": 910, "zip": "23350"}, "northampton-county-23354": {"city": "Northampton County", "rent": 950, "zip": "23354"}, "northampton-county-23398": {"city": "Northampton County", "rent": 910, "zip": "23398"}, "northampton-county-23405": {"city": "Northampton County", "rent": 960, "zip": "23405"}, "northampton-county-23408": {"city": "Northampton County", "rent": 950, "zip": "23408"}, "northampton-county-23413": {"city": "Northampton County", "rent": 950, "zip": "23413"}, "northampton-county-23486": {"city": "Northampton County", "rent": 910, "zip": "23486"}, "northumberland-county-22432": {"city": "Northumberland County", "rent": 1060, "zip": "22432"}, "northumberland-county-22435": {"city": "Northumberland County", "rent": 1250, "zip": "22435"}, "northumberland-county-22460": {"city": "Northumberland County", "rent": 1240, "zip": "22460"}, "northumberland-county-22473": {"city": "Northumberland County", "rent": 1060, "zip": "22473"}, "northumberland-county-22482": {"city": "Northumberland County", "rent": 1130, "zip": "22482"}, "northumberland-county-22503": {"city": "Northumberland County", "rent": 1110, "zip": "22503"}, "northumberland-county-22511": {"city": "Northumberland County", "rent": 1060, "zip": "22511"}, "northumberland-county-22530": {"city": "Northumberland County", "rent": 1310, "zip": "22530"}, "northumberland-county-22539": {"city": "Northumberland County", "rent": 1060, "zip": "22539"}, "northumberland-county-22579": {"city": "Northumberland County", "rent": 1310, "zip": "22579"}, "nottoway-county-23002": {"city": "Nottoway County", "rent": 1570, "zip": "23002"}, "nottoway-county-23083": {"city": "Nottoway County", "rent": 1540, "zip": "23083"}, "nottoway-county-23824": {"city": "Nottoway County", "rent": 1540, "zip": "23824"}, "nottoway-county-23894": {"city": "Nottoway County", "rent": 1540, "zip": "23894"}, "nottoway-county-23922": {"city": "Nottoway County", "rent": 1540, "zip": "23922"}, "nottoway-county-23930": {"city": "Nottoway County", "rent": 1020, "zip": "23930"}, "nottoway-county-23955": {"city": "Nottoway County", "rent": 1010, "zip": "23955"}, "nottoway-county-23966": {"city": "Nottoway County", "rent": 1540, "zip": "23966"}, "orange-county-22433": {"city": "Orange County", "rent": 1510, "zip": "22433"}, "orange-county-22508": {"city": "Orange County", "rent": 1690, "zip": "22508"}, "orange-county-22542": {"city": "Orange County", "rent": 1550, "zip": "22542"}, "orange-county-22551": {"city": "Orange County", "rent": 1510, "zip": "22551"}, "orange-county-22567": {"city": "Orange County", "rent": 1370, "zip": "22567"}, "orange-county-22701": {"city": "Orange County", "rent": 1400, "zip": "22701"}, "orange-county-22733": {"city": "Orange County", "rent": 1310, "zip": "22733"}, "orange-county-22923": {"city": "Orange County", "rent": 1850, "zip": "22923"}, "orange-county-22942": {"city": "Orange County", "rent": 1560, "zip": "22942"}, "orange-county-22957": {"city": "Orange County", "rent": 1230, "zip": "22957"}, "orange-county-22960": {"city": "Orange County", "rent": 1170, "zip": "22960"}, "orange-county-22968": {"city": "Orange County", "rent": 1560, "zip": "22968"}, "orange-county-22972": {"city": "Orange County", "rent": 1430, "zip": "22972"}, "page-county-22610": {"city": "Page County", "rent": 1320, "zip": "22610"}, "page-county-22650": {"city": "Page County", "rent": 920, "zip": "22650"}, "page-county-22743": {"city": "Page County", "rent": 990, "zip": "22743"}, "page-county-22827": {"city": "Page County", "rent": 1260, "zip": "22827"}, "page-county-22835": {"city": "Page County", "rent": 910, "zip": "22835"}, "page-county-22849": {"city": "Page County", "rent": 1260, "zip": "22849"}, "page-county-22851": {"city": "Page County", "rent": 910, "zip": "22851"}, "patrick-county-24053": {"city": "Patrick County", "rent": 1070, "zip": "24053"}, "patrick-county-24055": {"city": "Patrick County", "rent": 910, "zip": "24055"}, "patrick-county-24076": {"city": "Patrick County", "rent": 980, "zip": "24076"}, "patrick-county-24082": {"city": "Patrick County", "rent": 960, "zip": "24082"}, "patrick-county-24088": {"city": "Patrick County", "rent": 910, "zip": "24088"}, "patrick-county-24091": {"city": "Patrick County", "rent": 1100, "zip": "24091"}, "patrick-county-24120": {"city": "Patrick County", "rent": 910, "zip": "24120"}, "patrick-county-24133": {"city": "Patrick County", "rent": 910, "zip": "24133"}, "patrick-county-24165": {"city": "Patrick County", "rent": 1260, "zip": "24165"}, "patrick-county-24171": {"city": "Patrick County", "rent": 910, "zip": "24171"}, "patrick-county-24177": {"city": "Patrick County", "rent": 910, "zip": "24177"}, "patrick-county-24185": {"city": "Patrick County", "rent": 960, "zip": "24185"}, "patrick-county-24317": {"city": "Patrick County", "rent": 1100, "zip": "24317"}, "patrick-county-24328": {"city": "Patrick County", "rent": 990, "zip": "24328"}, "patrick-county-24343": {"city": "Patrick County", "rent": 910, "zip": "24343"}, "patrick-county-24380": {"city": "Patrick County", "rent": 970, "zip": "24380"}, "pittsylvania-county-danville-city-24054": {"city": "Pittsylvania County-Danville city", "rent": 1000, "zip": "24054"}, "pittsylvania-county-danville-city-24069": {"city": "Pittsylvania County-Danville city", "rent": 1090, "zip": "24069"}, "pittsylvania-county-danville-city-24137": {"city": "Pittsylvania County-Danville city", "rent": 1090, "zip": "24137"}, "pittsylvania-county-danville-city-24139": {"city": "Pittsylvania County-Danville city", "rent": 1080, "zip": "24139"}, "pittsylvania-county-danville-city-24161": {"city": "Pittsylvania County-Danville city", "rent": 1010, "zip": "24161"}, "pittsylvania-county-danville-city-24527": {"city": "Pittsylvania County-Danville city", "rent": 1050, "zip": "24527"}, "pittsylvania-county-danville-city-24530": {"city": "Pittsylvania County-Danville city", "rent": 950, "zip": "24530"}, "pittsylvania-county-danville-city-24531": {"city": "Pittsylvania County-Danville city", "rent": 910, "zip": "24531"}, "pittsylvania-county-danville-city-24540": {"city": "Pittsylvania County-Danville city", "rent": 910, "zip": "24540"}, "pittsylvania-county-danville-city-24541": {"city": "Pittsylvania County-Danville city", "rent": 980, "zip": "24541"}, "pittsylvania-county-danville-city-24549": {"city": "Pittsylvania County-Danville city", "rent": 990, "zip": "24549"}, "pittsylvania-county-danville-city-24557": {"city": "Pittsylvania County-Danville city", "rent": 910, "zip": "24557"}, "pittsylvania-county-danville-city-24563": {"city": "Pittsylvania County-Danville city", "rent": 910, "zip": "24563"}, "pittsylvania-county-danville-city-24565": {"city": "Pittsylvania County-Danville city", "rent": 920, "zip": "24565"}, "pittsylvania-county-danville-city-24566": {"city": "Pittsylvania County-Danville city", "rent": 1370, "zip": "24566"}, "pittsylvania-county-danville-city-24569": {"city": "Pittsylvania County-Danville city", "rent": 1080, "zip": "24569"}, "pittsylvania-county-danville-city-24577": {"city": "Pittsylvania County-Danville city", "rent": 940, "zip": "24577"}, "pittsylvania-county-danville-city-24586": {"city": "Pittsylvania County-Danville city", "rent": 1080, "zip": "24586"}, "pittsylvania-county-danville-city-24592": {"city": "Pittsylvania County-Danville city", "rent": 910, "zip": "24592"}, "pittsylvania-county-danville-city-24594": {"city": "Pittsylvania County-Danville city", "rent": 990, "zip": "24594"}, "pittsylvania-county-danville-city-24597": {"city": "Pittsylvania County-Danville city", "rent": 1000, "zip": "24597"}, "prince-edward-county-23901": {"city": "Prince Edward County", "rent": 1130, "zip": "23901"}, "prince-edward-county-23909": {"city": "Prince Edward County", "rent": 1130, "zip": "23909"}, "prince-edward-county-23922": {"city": "Prince Edward County", "rent": 1540, "zip": "23922"}, "prince-edward-county-23923": {"city": "Prince Edward County", "rent": 910, "zip": "23923"}, "prince-edward-county-23934": {"city": "Prince Edward County", "rent": 1110, "zip": "23934"}, "prince-edward-county-23942": {"city": "Prince Edward County", "rent": 910, "zip": "23942"}, "prince-edward-county-23943": {"city": "Prince Edward County", "rent": 1130, "zip": "23943"}, "prince-edward-county-23947": {"city": "Prince Edward County", "rent": 910, "zip": "23947"}, "prince-edward-county-23954": {"city": "Prince Edward County", "rent": 920, "zip": "23954"}, "prince-edward-county-23958": {"city": "Prince Edward County", "rent": 1280, "zip": "23958"}, "prince-edward-county-23960": {"city": "Prince Edward County", "rent": 1080, "zip": "23960"}, "prince-edward-county-23966": {"city": "Prince Edward County", "rent": 1540, "zip": "23966"}, "richmond-county-22435": {"city": "Richmond County", "rent": 1250, "zip": "22435"}, "richmond-county-22460": {"city": "Richmond County", "rent": 1240, "zip": "22460"}, "richmond-county-22472": {"city": "Richmond County", "rent": 1130, "zip": "22472"}, "richmond-county-22473": {"city": "Richmond County", "rent": 1060, "zip": "22473"}, "richmond-county-22503": {"city": "Richmond County", "rent": 1110, "zip": "22503"}, "richmond-county-22520": {"city": "Richmond County", "rent": 1090, "zip": "22520"}, "richmond-county-22548": {"city": "Richmond County", "rent": 1160, "zip": "22548"}, "richmond-county-22572": {"city": "Richmond County", "rent": 1130, "zip": "22572"}, "rockbridge-county-buena-vista-city-lexington-city-24066": {"city": "Rockbridge County-Buena Vista city-Lexington city", "rent": 1310, "zip": "24066"}, "rockbridge-county-buena-vista-city-lexington-city-24415": {"city": "Rockbridge County-Buena Vista city-Lexington city", "rent": 950, "zip": "24415"}, "rockbridge-county-buena-vista-city-lexington-city-24416": {"city": "Rockbridge County-Buena Vista city-Lexington city", "rent": 1040, "zip": "24416"}, "rockbridge-county-buena-vista-city-lexington-city-24435": {"city": "Rockbridge County-Buena Vista city-Lexington city", "rent": 950, "zip": "24435"}, "rockbridge-county-buena-vista-city-lexington-city-24439": {"city": "Rockbridge County-Buena Vista city-Lexington city", "rent": 1160, "zip": "24439"}, "rockbridge-county-buena-vista-city-lexington-city-24450": {"city": "Rockbridge County-Buena Vista city-Lexington city", "rent": 1040, "zip": "24450"}, "rockbridge-county-buena-vista-city-lexington-city-24459": {"city": "Rockbridge County-Buena Vista city-Lexington city", "rent": 1330, "zip": "24459"}, "rockbridge-county-buena-vista-city-lexington-city-24472": {"city": "Rockbridge County-Buena Vista city-Lexington city", "rent": 1160, "zip": "24472"}, "rockbridge-county-buena-vista-city-lexington-city-24473": {"city": "Rockbridge County-Buena Vista city-Lexington city", "rent": 950, "zip": "24473"}, "rockbridge-county-buena-vista-city-lexington-city-24476": {"city": "Rockbridge County-Buena Vista city-Lexington city", "rent": 1330, "zip": "24476"}, "rockbridge-county-buena-vista-city-lexington-city-24483": {"city": "Rockbridge County-Buena Vista city-Lexington city", "rent": 1560, "zip": "24483"}, "rockbridge-county-buena-vista-city-lexington-city-24555": {"city": "Rockbridge County-Buena Vista city-Lexington city", "rent": 910, "zip": "24555"}, "rockbridge-county-buena-vista-city-lexington-city-24578": {"city": "Rockbridge County-Buena Vista city-Lexington city", "rent": 1060, "zip": "24578"}, "rockbridge-county-buena-vista-city-lexington-city-24579": {"city": "Rockbridge County-Buena Vista city-Lexington city", "rent": 1090, "zip": "24579"}, "russell-county-24224": {"city": "Russell County", "rent": 1040, "zip": "24224"}, "russell-county-24225": {"city": "Russell County", "rent": 910, "zip": "24225"}, "russell-county-24237": {"city": "Russell County", "rent": 1370, "zip": "24237"}, "russell-county-24260": {"city": "Russell County", "rent": 910, "zip": "24260"}, "russell-county-24266": {"city": "Russell County", "rent": 910, "zip": "24266"}, "russell-county-24271": {"city": "Russell County", "rent": 990, "zip": "24271"}, "russell-county-24280": {"city": "Russell County", "rent": 910, "zip": "24280"}, "russell-county-24283": {"city": "Russell County", "rent": 910, "zip": "24283"}, "russell-county-24609": {"city": "Russell County", "rent": 930, "zip": "24609"}, "russell-county-24639": {"city": "Russell County", "rent": 910, "zip": "24639"}, "russell-county-24646": {"city": "Russell County", "rent": 930, "zip": "24646"}, "russell-county-24649": {"city": "Russell County", "rent": 910, "zip": "24649"}, "shenandoah-county-22641": {"city": "Shenandoah County", "rent": 1180, "zip": "22641"}, "shenandoah-county-22644": {"city": "Shenandoah County", "rent": 1550, "zip": "22644"}, "shenandoah-county-22645": {"city": "Shenandoah County", "rent": 1420, "zip": "22645"}, "shenandoah-county-22652": {"city": "Shenandoah County", "rent": 1120, "zip": "22652"}, "shenandoah-county-22654": {"city": "Shenandoah County", "rent": 1420, "zip": "22654"}, "shenandoah-county-22657": {"city": "Shenandoah County", "rent": 1170, "zip": "22657"}, "shenandoah-county-22660": {"city": "Shenandoah County", "rent": 980, "zip": "22660"}, "shenandoah-county-22664": {"city": "Shenandoah County", "rent": 1160, "zip": "22664"}, "shenandoah-county-22810": {"city": "Shenandoah County", "rent": 1090, "zip": "22810"}, "shenandoah-county-22815": {"city": "Shenandoah County", "rent": 1260, "zip": "22815"}, "shenandoah-county-22824": {"city": "Shenandoah County", "rent": 1070, "zip": "22824"}, "shenandoah-county-22842": {"city": "Shenandoah County", "rent": 1120, "zip": "22842"}, "shenandoah-county-22844": {"city": "Shenandoah County", "rent": 1260, "zip": "22844"}, "shenandoah-county-22845": {"city": "Shenandoah County", "rent": 1090, "zip": "22845"}, "shenandoah-county-22847": {"city": "Shenandoah County", "rent": 1050, "zip": "22847"}, "shenandoah-county-22853": {"city": "Shenandoah County", "rent": 1260, "zip": "22853"}, "smyth-county-24236": {"city": "Smyth County", "rent": 970, "zip": "24236"}, "smyth-county-24311": {"city": "Smyth County", "rent": 910, "zip": "24311"}, "smyth-county-24316": {"city": "Smyth County", "rent": 930, "zip": "24316"}, "smyth-county-24318": {"city": "Smyth County", "rent": 920, "zip": "24318"}, "smyth-county-24319": {"city": "Smyth County", "rent": 970, "zip": "24319"}, "smyth-county-24340": {"city": "Smyth County", "rent": 1000, "zip": "24340"}, "smyth-county-24354": {"city": "Smyth County", "rent": 910, "zip": "24354"}, "smyth-county-24368": {"city": "Smyth County", "rent": 910, "zip": "24368"}, "smyth-county-24370": {"city": "Smyth County", "rent": 940, "zip": "24370"}, "smyth-county-24374": {"city": "Smyth County", "rent": 910, "zip": "24374"}, "smyth-county-24375": {"city": "Smyth County", "rent": 1070, "zip": "24375"}, "smyth-county-24378": {"city": "Smyth County", "rent": 990, "zip": "24378"}, "southampton-county-franklin-city-23827": {"city": "Southampton County-Franklin city", "rent": 1020, "zip": "23827"}, "southampton-county-franklin-city-23828": {"city": "Southampton County-Franklin city", "rent": 1010, "zip": "23828"}, "southampton-county-franklin-city-23829": {"city": "Southampton County-Franklin city", "rent": 970, "zip": "23829"}, "southampton-county-franklin-city-23837": {"city": "Southampton County-Franklin city", "rent": 1120, "zip": "23837"}, "southampton-county-franklin-city-23844": {"city": "Southampton County-Franklin city", "rent": 980, "zip": "23844"}, "southampton-county-franklin-city-23847": {"city": "Southampton County-Franklin city", "rent": 990, "zip": "23847"}, "southampton-county-franklin-city-23851": {"city": "Southampton County-Franklin city", "rent": 1100, "zip": "23851"}, "southampton-county-franklin-city-23866": {"city": "Southampton County-Franklin city", "rent": 1270, "zip": "23866"}, "southampton-county-franklin-city-23867": {"city": "Southampton County-Franklin city", "rent": 1020, "zip": "23867"}, "southampton-county-franklin-city-23874": {"city": "Southampton County-Franklin city", "rent": 1140, "zip": "23874"}, "southampton-county-franklin-city-23878": {"city": "Southampton County-Franklin city", "rent": 1170, "zip": "23878"}, "southampton-county-franklin-city-23888": {"city": "Southampton County-Franklin city", "rent": 1190, "zip": "23888"}, "southampton-county-franklin-city-23898": {"city": "Southampton County-Franklin city", "rent": 1170, "zip": "23898"}, "tazewell-county-24314": {"city": "Tazewell County", "rent": 930, "zip": "24314"}, "tazewell-county-24316": {"city": "Tazewell County", "rent": 930, "zip": "24316"}, "tazewell-county-24377": {"city": "Tazewell County", "rent": 920, "zip": "24377"}, "tazewell-county-24601": {"city": "Tazewell County", "rent": 910, "zip": "24601"}, "tazewell-county-24602": {"city": "Tazewell County", "rent": 910, "zip": "24602"}, "tazewell-county-24604": {"city": "Tazewell County", "rent": 910, "zip": "24604"}, "tazewell-county-24605": {"city": "Tazewell County", "rent": 1020, "zip": "24605"}, "tazewell-county-24606": {"city": "Tazewell County", "rent": 1020, "zip": "24606"}, "tazewell-county-24609": {"city": "Tazewell County", "rent": 930, "zip": "24609"}, "tazewell-county-24612": {"city": "Tazewell County", "rent": 920, "zip": "24612"}, "tazewell-county-24613": {"city": "Tazewell County", "rent": 1000, "zip": "24613"}, "tazewell-county-24622": {"city": "Tazewell County", "rent": 1030, "zip": "24622"}, "tazewell-county-24630": {"city": "Tazewell County", "rent": 910, "zip": "24630"}, "tazewell-county-24635": {"city": "Tazewell County", "rent": 910, "zip": "24635"}, "tazewell-county-24637": {"city": "Tazewell County", "rent": 920, "zip": "24637"}, "tazewell-county-24639": {"city": "Tazewell County", "rent": 910, "zip": "24639"}, "tazewell-county-24640": {"city": "Tazewell County", "rent": 910, "zip": "24640"}, "tazewell-county-24641": {"city": "Tazewell County", "rent": 960, "zip": "24641"}, "tazewell-county-24651": {"city": "Tazewell County", "rent": 910, "zip": "24651"}, "westmoreland-county-22435": {"city": "Westmoreland County", "rent": 1250, "zip": "22435"}, "westmoreland-county-22442": {"city": "Westmoreland County", "rent": 1190, "zip": "22442"}, "westmoreland-county-22443": {"city": "Westmoreland County", "rent": 1390, "zip": "22443"}, "westmoreland-county-22469": {"city": "Westmoreland County", "rent": 1160, "zip": "22469"}, "westmoreland-county-22485": {"city": "Westmoreland County", "rent": 1400, "zip": "22485"}, "westmoreland-county-22488": {"city": "Westmoreland County", "rent": 1010, "zip": "22488"}, "westmoreland-county-22520": {"city": "Westmoreland County", "rent": 1090, "zip": "22520"}, "westmoreland-county-22524": {"city": "Westmoreland County", "rent": 1190, "zip": "22524"}, "westmoreland-county-22529": {"city": "Westmoreland County", "rent": 1150, "zip": "22529"}, "westmoreland-county-22558": {"city": "Westmoreland County", "rent": 1190, "zip": "22558"}, "westmoreland-county-22572": {"city": "Westmoreland County", "rent": 1130, "zip": "22572"}, "westmoreland-county-22577": {"city": "Westmoreland County", "rent": 1190, "zip": "22577"}, "westmoreland-county-22581": {"city": "Westmoreland County", "rent": 1190, "zip": "22581"}, "wise-county-norton-city-24216": {"city": "Wise County-Norton city", "rent": 960, "zip": "24216"}, "wise-county-norton-city-24219": {"city": "Wise County-Norton city", "rent": 940, "zip": "24219"}, "wise-county-norton-city-24230": {"city": "Wise County-Norton city", "rent": 1010, "zip": "24230"}, "wise-county-norton-city-24246": {"city": "Wise County-Norton city", "rent": 930, "zip": "24246"}, "wise-county-norton-city-24273": {"city": "Wise County-Norton city", "rent": 960, "zip": "24273"}, "wise-county-norton-city-24279": {"city": "Wise County-Norton city", "rent": 910, "zip": "24279"}, "wise-county-norton-city-24283": {"city": "Wise County-Norton city", "rent": 910, "zip": "24283"}, "wise-county-norton-city-24293": {"city": "Wise County-Norton city", "rent": 920, "zip": "24293"}, "wythe-county-24312": {"city": "Wythe County", "rent": 1000, "zip": "24312"}, "wythe-county-24313": {"city": "Wythe County", "rent": 910, "zip": "24313"}, "wythe-county-24322": {"city": "Wythe County", "rent": 910, "zip": "24322"}, "wythe-county-24323": {"city": "Wythe County", "rent": 910, "zip": "24323"}, "wythe-county-24324": {"city": "Wythe County", "rent": 930, "zip": "24324"}, "wythe-county-24343": {"city": "Wythe County", "rent": 910, "zip": "24343"}, "wythe-county-24350": {"city": "Wythe County", "rent": 920, "zip": "24350"}, "wythe-county-24360": {"city": "Wythe County", "rent": 910, "zip": "24360"}, "wythe-county-24368": {"city": "Wythe County", "rent": 910, "zip": "24368"}, "wythe-county-24374": {"city": "Wythe County", "rent": 910, "zip": "24374"}, "wythe-county-24382": {"city": "Wythe County", "rent": 910, "zip": "24382"}}